<?xml version="1.0" encoding="UTF-8"?>
<gpx xmlns="http://www.topografix.com/GPX/1/1" xmlns:gpxtpx="http://www.garmin.com/xmlschemas/TrackPointExtension/v1" xmlns:xsi="http://www.w3.org/2001/XMLSchema-instance" xsi:schemaLocation="http://www.topografix.com/GPX/1/1 http://www.topografix.com/GPX/1/1/gpx.xsd" version="1.1" creator="gpx.py -- https://github.com/tkrajina/gpxpy">
  <trk>
    <name>gpx from keep</name>
    <type>Run</type>
    <trkseg>
      <trkpt lat="31.22574824931846" lon="121.39899811481654">
        <ele>15.058553958311677</ele>
        <time>2026-05-21T09:21:44Z</time>
      </trkpt>
      <trkpt lat="31.225696275116796" lon="121.39902412153326">
        <ele>14.942293429747224</ele>
        <time>2026-05-21T09:21:47Z</time>
      </trkpt>
      <trkpt lat="31.22563230455709" lon="121.39901512635232">
        <ele>12.249819064512849</ele>
        <time>2026-05-21T09:21:50Z</time>
      </trkpt>
      <trkpt lat="31.2255804958505" lon="121.39892415205908">
        <ele>15.653066897764802</ele>
        <time>2026-05-21T09:21:53Z</time>
      </trkpt>
      <trkpt lat="31.22544103888425" lon="121.39895978102605">
        <ele>15.94635989703238</ele>
        <time>2026-05-21T09:21:56Z</time>
      </trkpt>
      <trkpt lat="31.225380590131063" lon="121.3990281214783">
        <ele>17.135381961241364</ele>
        <time>2026-05-21T09:21:59Z</time>
      </trkpt>
      <trkpt lat="31.22515963973081" lon="121.39897240040152">
        <ele>15.705911898985505</ele>
        <time>2026-05-21T09:22:05Z</time>
      </trkpt>
      <trkpt lat="31.22492463451289" lon="121.39898618564933">
        <ele>17.386400485411286</ele>
        <time>2026-05-21T09:22:14Z</time>
      </trkpt>
      <trkpt lat="31.22484767222269" lon="121.39901519478119">
        <ele>16.834162021055818</ele>
        <time>2026-05-21T09:22:17Z</time>
      </trkpt>
      <trkpt lat="31.224755720254425" lon="121.39909921005831">
        <ele>12.009371066465974</ele>
        <time>2026-05-21T09:22:20Z</time>
      </trkpt>
      <trkpt lat="31.224683764352385" lon="121.39926123137471">
        <ele>13.46262195147574</ele>
        <time>2026-05-21T09:22:26Z</time>
      </trkpt>
      <trkpt lat="31.224652786933145" lon="121.3993762455881">
        <ele>16.17623736895621</ele>
        <time>2026-05-21T09:22:29Z</time>
      </trkpt>
      <trkpt lat="31.22466278727684" lon="121.39944425184915">
        <ele>16.46688678301871</ele>
        <time>2026-05-21T09:22:32Z</time>
      </trkpt>
      <trkpt lat="31.224757760505657" lon="121.39966526842413">
        <ele>16.498594546690583</ele>
        <time>2026-05-21T09:22:38Z</time>
      </trkpt>
      <trkpt lat="31.224844726866433" lon="121.39974727071477">
        <ele>18.0971701387316</ele>
        <time>2026-05-21T09:22:41Z</time>
      </trkpt>
      <trkpt lat="31.224903702262512" lon="121.39978126976953">
        <ele>14.004287982359529</ele>
        <time>2026-05-21T09:22:44Z</time>
      </trkpt>
      <trkpt lat="31.225038635153645" lon="121.39973825270287">
        <ele>17.09574725665152</ele>
        <time>2026-05-21T09:22:47Z</time>
      </trkpt>
      <trkpt lat="31.225353490281982" lon="121.3997682289308">
        <ele>16.635992312803864</ele>
        <time>2026-05-21T09:22:56Z</time>
      </trkpt>
      <trkpt lat="31.225490428671364" lon="121.39979622047179">
        <ele>16.38497760333121</ele>
        <time>2026-05-21T09:23:02Z</time>
      </trkpt>
      <trkpt lat="31.22576429745237" lon="121.39976319248558">
        <ele>14.96607425250113</ele>
        <time>2026-05-21T09:23:11Z</time>
      </trkpt>
      <trkpt lat="31.2259212237349" lon="121.3997601784295">
        <ele>16.09168460406363</ele>
        <time>2026-05-21T09:23:17Z</time>
      </trkpt>
      <trkpt lat="31.22597219801088" lon="121.39973917140696">
        <ele>15.67420413531363</ele>
        <time>2026-05-21T09:23:20Z</time>
      </trkpt>
      <trkpt lat="31.226037159397784" lon="121.39964415437318">
        <ele>17.053472781553864</ele>
        <time>2026-05-21T09:23:23Z</time>
      </trkpt>
      <trkpt lat="31.226097110248595" lon="121.39937511952296">
        <ele>16.86323001421988</ele>
        <time>2026-05-21T09:23:32Z</time>
      </trkpt>
      <trkpt lat="31.22606711351127" lon="121.39921910669874">
        <ele>17.43924548663199</ele>
        <time>2026-05-21T09:23:38Z</time>
      </trkpt>
      <trkpt lat="31.22594416199368" lon="121.39907410421353">
        <ele>17.053472781553864</ele>
        <time>2026-05-21T09:23:44Z</time>
      </trkpt>
      <trkpt lat="31.225870194449918" lon="121.39903710747043">
        <ele>13.880100512877107</ele>
        <time>2026-05-21T09:23:47Z</time>
      </trkpt>
      <trkpt lat="31.225710268167916" lon="121.39901711972142">
        <ele>16.760179782286286</ele>
        <time>2026-05-21T09:23:53Z</time>
      </trkpt>
      <trkpt lat="31.225652296222105" lon="121.39903312613298">
        <ele>14.96607425250113</ele>
        <time>2026-05-21T09:23:56Z</time>
      </trkpt>
      <trkpt lat="31.225340440916643" lon="121.3990091513021">
        <ele>16.64656283892691</ele>
        <time>2026-05-21T09:24:05Z</time>
      </trkpt>
      <trkpt lat="31.225121542096666" lon="121.39898416831161">
        <ele>16.625425601378083</ele>
        <time>2026-05-21T09:24:14Z</time>
      </trkpt>
      <trkpt lat="31.2248186900021" lon="121.39908720350725">
        <ele>16.95834949053824</ele>
        <time>2026-05-21T09:24:26Z</time>
      </trkpt>
      <trkpt lat="31.22469076013083" lon="121.39924722941048">
        <ele>17.365259433165193</ele>
        <time>2026-05-21T09:24:32Z</time>
      </trkpt>
      <trkpt lat="31.22464778755022" lon="121.3993522435644">
        <ele>17.35469272173941</ele>
        <time>2026-05-21T09:24:35Z</time>
      </trkpt>
      <trkpt lat="31.224661788883367" lon="121.39945925354235">
        <ele>16.86323001421988</ele>
        <time>2026-05-21T09:24:38Z</time>
      </trkpt>
      <trkpt lat="31.22474476685612" lon="121.39966826991237">
        <ele>16.770750308409333</ele>
        <time>2026-05-21T09:24:44Z</time>
      </trkpt>
      <trkpt lat="31.22479974751555" lon="121.39974227402519">
        <ele>16.477457309141755</ele>
        <time>2026-05-21T09:24:47Z</time>
      </trkpt>
      <trkpt lat="31.224876713385964" lon="121.39976427001665">
        <ele>16.94778277911246</ele>
        <time>2026-05-21T09:24:50Z</time>
      </trkpt>
      <trkpt lat="31.225050630418597" lon="121.39974825288044">
        <ele>16.86323001421988</ele>
        <time>2026-05-21T09:24:56Z</time>
      </trkpt>
      <trkpt lat="31.225348491727043" lon="121.39975822813254">
        <ele>17.114244723692536</ele>
        <time>2026-05-21T09:25:05Z</time>
      </trkpt>
      <trkpt lat="31.22565135349444" lon="121.39979820668755">
        <ele>16.488024020567536</ele>
        <time>2026-05-21T09:25:17Z</time>
      </trkpt>
      <trkpt lat="31.22580728223801" lon="121.3998171954779">
        <ele>18.24249484576285</ele>
        <time>2026-05-21T09:25:23Z</time>
      </trkpt>
      <trkpt lat="31.225923225322557" lon="121.39978818172683">
        <ele>18.995542788878083</ele>
        <time>2026-05-21T09:25:26Z</time>
      </trkpt>
      <trkpt lat="31.22603416283809" lon="121.39966815746179">
        <ele>17.772169375792146</ele>
        <time>2026-05-21T09:25:29Z</time>
      </trkpt>
      <trkpt lat="31.226089125355735" lon="121.39952513626892">
        <ele>15.423189425840974</ele>
        <time>2026-05-21T09:25:32Z</time>
      </trkpt>
      <trkpt lat="31.226099109894484" lon="121.39938312017475">
        <ele>17.50001742877066</ele>
        <time>2026-05-21T09:25:35Z</time>
      </trkpt>
      <trkpt lat="31.22607311356562" lon="121.39926211030414">
        <ele>16.696764254942536</ele>
        <time>2026-05-21T09:25:38Z</time>
      </trkpt>
      <trkpt lat="31.226012135314857" lon="121.39915810580283">
        <ele>14.014856601133943</ele>
        <time>2026-05-21T09:25:41Z</time>
      </trkpt>
      <trkpt lat="31.22593516709568" lon="121.39908910631331">
        <ele>17.262213015928864</ele>
        <time>2026-05-21T09:25:44Z</time>
      </trkpt>
      <trkpt lat="31.225845206838706" lon="121.39904911067775">
        <ele>17.16708972491324</ele>
        <time>2026-05-21T09:25:47Z</time>
      </trkpt>
      <trkpt lat="31.22551735998539" lon="121.3990431387552">
        <ele>16.686197543516755</ele>
        <time>2026-05-21T09:25:59Z</time>
      </trkpt>
      <trkpt lat="31.225230492375946" lon="121.39900816080701">
        <ele>7.79494502581656</ele>
        <time>2026-05-21T09:26:11Z</time>
      </trkpt>
      <trkpt lat="31.225171518950784" lon="121.39898916436664">
        <ele>15.256727481260896</ele>
        <time>2026-05-21T09:26:14Z</time>
      </trkpt>
      <trkpt lat="31.224955620540268" lon="121.39899618377652">
        <ele>16.72847201861441</ele>
        <time>2026-05-21T09:26:23Z</time>
      </trkpt>
      <trkpt lat="31.224892651074953" lon="121.3990141907744">
        <ele>14.514246249571443</ele>
        <time>2026-05-21T09:26:26Z</time>
      </trkpt>
      <trkpt lat="31.22469875079845" lon="121.39916122062071">
        <ele>17.23050525225699</ele>
        <time>2026-05-21T09:26:35Z</time>
      </trkpt>
      <trkpt lat="31.224617797341576" lon="121.39929124006393">
        <ele>15.935789370909333</ele>
        <time>2026-05-21T09:26:41Z</time>
      </trkpt>
      <trkpt lat="31.224605808609866" lon="121.39937124917013">
        <ele>16.79188754595816</ele>
        <time>2026-05-21T09:26:44Z</time>
      </trkpt>
      <trkpt lat="31.22461681082444" lon="121.3994702586502">
        <ele>16.81302478350699</ele>
        <time>2026-05-21T09:26:47Z</time>
      </trkpt>
      <trkpt lat="31.224672792940936" lon="121.39957626551549">
        <ele>16.71790530718863</ele>
        <time>2026-05-21T09:26:50Z</time>
      </trkpt>
      <trkpt lat="31.224771757041708" lon="121.39970127149539">
        <ele>18.13944842852652</ele>
        <time>2026-05-21T09:26:53Z</time>
      </trkpt>
      <trkpt lat="31.22489870388387" lon="121.39977326921222">
        <ele>17.552862429991364</ele>
        <time>2026-05-21T09:26:56Z</time>
      </trkpt>
      <trkpt lat="31.225019650636085" lon="121.39981126341213">
        <ele>16.64656283892691</ele>
        <time>2026-05-21T09:26:59Z</time>
      </trkpt>
      <trkpt lat="31.225184572603034" lon="121.39980324802333">
        <ele>16.916075015440583</ele>
        <time>2026-05-21T09:27:05Z</time>
      </trkpt>
      <trkpt lat="31.225268530537388" lon="121.39977323695932">
        <ele>16.551439547911286</ele>
        <time>2026-05-21T09:27:08Z</time>
      </trkpt>
      <trkpt lat="31.225587381633453" lon="121.39977820977207">
        <ele>15.069124484434724</ele>
        <time>2026-05-21T09:27:20Z</time>
      </trkpt>
      <trkpt lat="31.225735312823133" lon="121.39978319749228">
        <ele>17.909567141905427</ele>
        <time>2026-05-21T09:27:26Z</time>
      </trkpt>
      <trkpt lat="31.22581827580772" lon="121.3998031927567">
        <ele>15.402052188292146</ele>
        <time>2026-05-21T09:27:29Z</time>
      </trkpt>
      <trkpt lat="31.225969201015335" lon="121.3997571738757">
        <ele>17.272779727354646</ele>
        <time>2026-05-21T09:27:35Z</time>
      </trkpt>
      <trkpt lat="31.226055148469346" lon="121.3996141493127">
        <ele>16.781317019835114</ele>
        <time>2026-05-21T09:27:41Z</time>
      </trkpt>
      <trkpt lat="31.226101114696945" lon="121.39946012812361">
        <ele>16.844732547178864</ele>
        <time>2026-05-21T09:27:47Z</time>
      </trkpt>
      <trkpt lat="31.226101102104458" lon="121.39928611020964">
        <ele>16.435179019346833</ele>
        <time>2026-05-21T09:27:53Z</time>
      </trkpt>
      <trkpt lat="31.226013133474762" lon="121.39913610371119">
        <ele>14.014856601133943</ele>
        <time>2026-05-21T09:27:59Z</time>
      </trkpt>
      <trkpt lat="31.225957156090875" lon="121.39907710334239">
        <ele>15.88294436968863</ele>
        <time>2026-05-21T09:28:02Z</time>
      </trkpt>
      <trkpt lat="31.225885187663447" lon="121.39904110650468">
        <ele>16.926641726866364</ele>
        <time>2026-05-21T09:28:05Z</time>
      </trkpt>
      <trkpt lat="31.22580022639719" lon="121.3990231123827">
        <ele>16.50916507281363</ele>
        <time>2026-05-21T09:28:08Z</time>
      </trkpt>
      <trkpt lat="31.225505364969834" lon="121.3990321388621">
        <ele>17.531725192442536</ele>
        <time>2026-05-21T09:28:20Z</time>
      </trkpt>
      <trkpt lat="31.22522349565457" lon="121.3990081614172">
        <ele>16.81302478350699</ele>
        <time>2026-05-21T09:28:32Z</time>
      </trkpt>
      <trkpt lat="31.224954621232104" lon="121.39900018419692">
        <ele>16.16566684283316</ele>
        <time>2026-05-21T09:28:45Z</time>
      </trkpt>
      <trkpt lat="31.224824684893658" lon="121.39904819959321">
        <ele>16.36384036578238</ele>
        <time>2026-05-21T09:28:51Z</time>
      </trkpt>
      <trkpt lat="31.224705747579574" lon="121.3991622201024">
        <ele>16.070547366514802</ele>
        <time>2026-05-21T09:28:57Z</time>
      </trkpt>
      <trkpt lat="31.224640787454135" lon="121.39930423934601">
        <ele>16.11282184161246</ele>
        <time>2026-05-21T09:29:03Z</time>
      </trkpt>
      <trkpt lat="31.22463380163202" lon="121.39945425544641">
        <ele>16.50916507281363</ele>
        <time>2026-05-21T09:29:09Z</time>
      </trkpt>
      <trkpt lat="31.224697782937586" lon="121.39959726573338">
        <ele>16.657129550352693</ele>
        <time>2026-05-21T09:29:15Z</time>
      </trkpt>
      <trkpt lat="31.224802744519902" lon="121.39972427157063">
        <ele>17.02176501788199</ele>
        <time>2026-05-21T09:29:21Z</time>
      </trkpt>
      <trkpt lat="31.224911699056566" lon="121.39978726981924">
        <ele>16.353269839659333</ele>
        <time>2026-05-21T09:29:24Z</time>
      </trkpt>
      <trkpt lat="31.225037642661448" lon="121.3998162624734">
        <ele>17.156519198790193</ele>
        <time>2026-05-21T09:29:27Z</time>
      </trkpt>
      <trkpt lat="31.22517457801982" lon="121.3998112499008">
        <ele>16.979486728087068</ele>
        <time>2026-05-21T09:29:30Z</time>
      </trkpt>
      <trkpt lat="31.225272528934447" lon="121.39977623698267">
        <ele>16.39554431475699</ele>
        <time>2026-05-21T09:29:33Z</time>
      </trkpt>
      <trkpt lat="31.225470437035078" lon="121.3997852208418">
        <ele>13.869531894102693</ele>
        <time>2026-05-21T09:29:39Z</time>
      </trkpt>
      <trkpt lat="31.22555339991035" lon="121.3998042159828">
        <ele>16.72847201861441</ele>
        <time>2026-05-21T09:29:42Z</time>
      </trkpt>
      <trkpt lat="31.225825273632758" lon="121.39981519365641">
        <ele>12.104492450132966</ele>
        <time>2026-05-21T09:29:54Z</time>
      </trkpt>
      <trkpt lat="31.225954208031137" lon="121.3997571751833">
        <ele>17.65855243243277</ele>
        <time>2026-05-21T09:30:00Z</time>
      </trkpt>
      <trkpt lat="31.226008177579974" lon="121.39969816330465">
        <ele>20.049810672178864</ele>
        <time>2026-05-21T09:30:03Z</time>
      </trkpt>
      <trkpt lat="31.226081129889756" lon="121.39953513807814">
        <ele>19.79879596270621</ele>
        <time>2026-05-21T09:30:09Z</time>
      </trkpt>
      <trkpt lat="31.22609811383311" lon="121.39943012518329">
        <ele>3.059990191832185</ele>
        <time>2026-05-21T09:30:12Z</time>
      </trkpt>
      <trkpt lat="31.226072114506568" lon="121.39926911107254">
        <ele>18.231928134337068</ele>
        <time>2026-05-21T09:30:18Z</time>
      </trkpt>
      <trkpt lat="31.22599014281956" lon="121.39911310364768">
        <ele>20.16342761553824</ele>
        <time>2026-05-21T09:30:24Z</time>
      </trkpt>
      <trkpt lat="31.225937164268544" lon="121.39905710334737">
        <ele>20.80021503008902</ele>
        <time>2026-05-21T09:30:27Z</time>
      </trkpt>
      <trkpt lat="31.225800227140706" lon="121.39903611348718">
        <ele>5.926857257261872</ele>
        <time>2026-05-21T09:30:33Z</time>
      </trkpt>
      <trkpt lat="31.225725263042065" lon="121.39905012122442">
        <ele>9.882341647520661</ele>
        <time>2026-05-21T09:30:36Z</time>
      </trkpt>
      <trkpt lat="31.22543839536857" lon="121.3990151432636">
        <ele>8.587625766173005</ele>
        <time>2026-05-21T09:30:48Z</time>
      </trkpt>
      <trkpt lat="31.225306455389905" lon="121.39898315210253">
        <ele>17.251642489805818</ele>
        <time>2026-05-21T09:30:54Z</time>
      </trkpt>
      <trkpt lat="31.225105551211225" lon="121.39901317212312">
        <ele>18.75509479083121</ele>
        <time>2026-05-21T09:31:03Z</time>
      </trkpt>
      <trkpt lat="31.225045580804878" lon="121.3990391795575">
        <ele>18.504080081358552</ele>
        <time>2026-05-21T09:31:06Z</time>
      </trkpt>
      <trkpt lat="31.224972615125786" lon="121.39904118609192">
        <ele>17.52115466631949</ele>
        <time>2026-05-21T09:31:09Z</time>
      </trkpt>
      <trkpt lat="31.224808696562498" lon="121.39911820713118">
        <ele>3.987427020445466</ele>
        <time>2026-05-21T09:31:15Z</time>
      </trkpt>
      <trkpt lat="31.224729737533526" lon="121.39918121976585">
        <ele>19.78822543658316</ele>
        <time>2026-05-21T09:31:18Z</time>
      </trkpt>
      <trkpt lat="31.224698757454522" lon="121.39926323026144">
        <ele>17.761602664366364</ele>
        <time>2026-05-21T09:31:21Z</time>
      </trkpt>
      <trkpt lat="31.22468177867071" lon="121.39944825062007">
        <ele>14.974001193419099</ele>
        <time>2026-05-21T09:31:27Z</time>
      </trkpt>
      <trkpt lat="31.224729772019746" lon="121.39964626862725">
        <ele>18.5146506074816</ele>
        <time>2026-05-21T09:31:33Z</time>
      </trkpt>
      <trkpt lat="31.224761762513303" lon="121.39971027345061">
        <ele>16.79188754595816</ele>
        <time>2026-05-21T09:31:36Z</time>
      </trkpt>
      <trkpt lat="31.224827737071546" lon="121.39977227527731">
        <ele>19.246561313048005</ele>
        <time>2026-05-21T09:31:39Z</time>
      </trkpt>
      <trkpt lat="31.2249356896317" lon="121.3998072702311">
        <ele>11.071363711729646</ele>
        <time>2026-05-21T09:31:42Z</time>
      </trkpt>
      <trkpt lat="31.225277527497013" lon="121.39978623779038">
        <ele>19.819933200255036</ele>
        <time>2026-05-21T09:31:51Z</time>
      </trkpt>
      <trkpt lat="31.22556539347221" lon="121.3997952138088">
        <ele>21.13578631915152</ele>
        <time>2026-05-21T09:32:03Z</time>
      </trkpt>
      <trkpt lat="31.225820275054904" lon="121.39980519283348">
        <ele>12.688434863463044</ele>
        <time>2026-05-21T09:32:15Z</time>
      </trkpt>
      <trkpt lat="31.22600618202068" lon="121.39973816832094">
        <ele>11.718721652403474</ele>
        <time>2026-05-21T09:32:24Z</time>
      </trkpt>
      <trkpt lat="31.226091132133984" lon="121.39962014686895">
        <ele>20.686598086729646</ele>
        <time>2026-05-21T09:32:30Z</time>
      </trkpt>
      <trkpt lat="31.226117114977832" lon="121.39955913762977">
        <ele>11.029087329283357</ele>
        <time>2026-05-21T09:32:33Z</time>
      </trkpt>
      <trkpt lat="31.22612309903702" lon="121.39938811860064">
        <ele>10.487421298399568</ele>
        <time>2026-05-21T09:32:39Z</time>
      </trkpt>
      <trkpt lat="31.226109099881963" lon="121.3993081116896">
        <ele>20.53070285357535</ele>
        <time>2026-05-21T09:32:42Z</time>
      </trkpt>
      <trkpt lat="31.226030126834008" lon="121.39915710414205">
        <ele>15.330709720030427</ele>
        <time>2026-05-21T09:32:48Z</time>
      </trkpt>
      <trkpt lat="31.225944160238807" lon="121.3990441016184">
        <ele>12.815264010801911</ele>
        <time>2026-05-21T09:32:54Z</time>
      </trkpt>
      <trkpt lat="31.225814218550017" lon="121.39900010922989">
        <ele>11.99880244769156</ele>
        <time>2026-05-21T09:33:00Z</time>
      </trkpt>
      <trkpt lat="31.225509362754305" lon="121.3990261380038">
        <ele>19.52664020098746</ele>
        <time>2026-05-21T09:33:12Z</time>
      </trkpt>
      <trkpt lat="31.225200507276153" lon="121.39902316468552">
        <ele>14.004287982359529</ele>
        <time>2026-05-21T09:33:21Z</time>
      </trkpt>
      <trkpt lat="31.225035584517244" lon="121.399022178984">
        <ele>11.155916476622224</ele>
        <time>2026-05-21T09:33:27Z</time>
      </trkpt>
      <trkpt lat="31.224916642531774" lon="121.39906119269513">
        <ele>20.697168612852693</ele>
        <time>2026-05-21T09:33:33Z</time>
      </trkpt>
      <trkpt lat="31.22476372007367" lon="121.39915721458776">
        <ele>14.02542712725699</ele>
        <time>2026-05-21T09:33:39Z</time>
      </trkpt>
      <trkpt lat="31.2246887650174" lon="121.39930523526127">
        <ele>14.181320453062654</ele>
        <time>2026-05-21T09:33:45Z</time>
      </trkpt>
      <trkpt lat="31.224664781815175" lon="121.39938324526514">
        <ele>17.219934726133943</ele>
        <time>2026-05-21T09:33:48Z</time>
      </trkpt>
      <trkpt lat="31.22467878556264" lon="121.39951925860258">
        <ele>12.918314242735505</ele>
        <time>2026-05-21T09:33:54Z</time>
      </trkpt>
      <trkpt lat="31.224742767708335" lon="121.3996672699683">
        <ele>19.611192965880036</ele>
        <time>2026-05-21T09:34:00Z</time>
      </trkpt>
      <trkpt lat="31.22478375325068" lon="121.39972227298422">
        <ele>16.72847201861441</ele>
        <time>2026-05-21T09:34:03Z</time>
      </trkpt>
      <trkpt lat="31.22497467301111" lon="121.39982526910295">
        <ele>14.160181308165193</ele>
        <time>2026-05-21T09:34:12Z</time>
      </trkpt>
      <trkpt lat="31.22504763797604" lon="121.3998162616017">
        <ele>13.858963275328279</ele>
        <time>2026-05-21T09:34:15Z</time>
      </trkpt>
      <trkpt lat="31.22511860188231" lon="121.39978525152588">
        <ele>16.53030231036246</ele>
        <time>2026-05-21T09:34:18Z</time>
      </trkpt>
      <trkpt lat="31.225318511957415" lon="121.39982623924311">
        <ele>5.583360934630036</ele>
        <time>2026-05-21T09:34:27Z</time>
      </trkpt>
      <trkpt lat="31.225398472748775" lon="121.39980722987127">
        <ele>15.904081607237458</ele>
        <time>2026-05-21T09:34:30Z</time>
      </trkpt>
      <trkpt lat="31.225677342607614" lon="121.3998122061797">
        <ele>10.830917621031404</ele>
        <time>2026-05-21T09:34:42Z</time>
      </trkpt>
      <trkpt lat="31.22589824244704" lon="121.3998471913562">
        <ele>20.750013614073396</ele>
        <time>2026-05-21T09:34:51Z</time>
      </trkpt>
      <trkpt lat="31.2259662073085" lon="121.39981118086092">
        <ele>11.425428653135896</ele>
        <time>2026-05-21T09:34:54Z</time>
      </trkpt>
      <trkpt lat="31.226084139541875" lon="121.39966915322158">
        <ele>18.546358371153474</ele>
        <time>2026-05-21T09:35:00Z</time>
      </trkpt>
      <trkpt lat="31.226132109178145" lon="121.39957413801865">
        <ele>20.86363055743277</ele>
        <time>2026-05-21T09:35:06Z</time>
      </trkpt>
      <trkpt lat="31.226134099572004" lon="121.39946412567737">
        <ele>19.193712497130036</ele>
        <time>2026-05-21T09:35:09Z</time>
      </trkpt>
      <trkpt lat="31.226081106376316" lon="121.39921010462649">
        <ele>19.78822543658316</ele>
        <time>2026-05-21T09:35:15Z</time>
      </trkpt>
      <trkpt lat="31.22598014351667" lon="121.39904609865171">
        <ele>18.837007785215974</ele>
        <time>2026-05-21T09:35:21Z</time>
      </trkpt>
      <trkpt lat="31.22583720629671" lon="121.39897310499177">
        <ele>10.25754382647574</ele>
        <time>2026-05-21T09:35:24Z</time>
      </trkpt>
      <trkpt lat="31.22582820798514" lon="121.39892610198002">
        <ele>16.59371783770621</ele>
        <time>2026-05-21T09:35:30Z</time>
      </trkpt>
    </trkseg>
  </trk>
</gpx>