<?xml version="1.0" encoding="UTF-8"?>
<gpx xmlns="http://www.topografix.com/GPX/1/1" xmlns:gpxtpx="http://www.garmin.com/xmlschemas/TrackPointExtension/v1" xmlns:xsi="http://www.w3.org/2001/XMLSchema-instance" xsi:schemaLocation="http://www.topografix.com/GPX/1/1 http://www.topografix.com/GPX/1/1/gpx.xsd" version="1.1" creator="gpx.py -- https://github.com/tkrajina/gpxpy">
  <trk>
    <name>gpx from keep</name>
    <type>Run</type>
    <trkseg>
      <trkpt lat="31.229649489035918" lon="121.39980185847568">
        <ele>14.957954385317862</ele>
        <time>2026-10-09T09:17:28Z</time>
      </trkpt>
      <trkpt lat="31.22970149355487" lon="121.40009489295596">
        <ele>12.82299802545458</ele>
        <time>2026-10-09T09:17:40Z</time>
      </trkpt>
      <trkpt lat="31.229785474386794" lon="121.40027791228813">
        <ele>15.269744851626456</ele>
        <time>2026-10-09T09:17:46Z</time>
      </trkpt>
      <trkpt lat="31.229848452772085" lon="121.40034491699504">
        <ele>13.91161344293505</ele>
        <time>2026-10-09T09:17:49Z</time>
      </trkpt>
      <trkpt lat="31.229939415887262" lon="121.40039091620055">
        <ele>14.20226285699755</ele>
        <time>2026-10-09T09:17:52Z</time>
      </trkpt>
      <trkpt lat="31.23014732278948" lon="121.40041990262405">
        <ele>10.127876260317862</ele>
        <time>2026-10-09T09:17:58Z</time>
      </trkpt>
      <trkpt lat="31.230337231463896" lon="121.4003928818134">
        <ele>13.663238503970206</ele>
        <time>2026-10-09T09:18:04Z</time>
      </trkpt>
      <trkpt lat="31.23053113327246" lon="121.40032185391878">
        <ele>12.997386910952628</ele>
        <time>2026-10-09T09:18:10Z</time>
      </trkpt>
      <trkpt lat="31.23059609837417" lon="121.40027984188102">
        <ele>15.46527097467333</ele>
        <time>2026-10-09T09:18:13Z</time>
      </trkpt>
      <trkpt lat="31.230900946109685" lon="121.40018080063925">
        <ele>14.075435617007315</ele>
        <time>2026-10-09T09:18:22Z</time>
      </trkpt>
      <trkpt lat="31.230963914663942" lon="121.40015979210514">
        <ele>14.450637795962393</ele>
        <time>2026-10-09T09:18:25Z</time>
      </trkpt>
      <trkpt lat="31.231016885861678" lon="121.4001197817555">
        <ele>14.429500558413565</ele>
        <time>2026-10-09T09:18:31Z</time>
      </trkpt>
      <trkpt lat="31.23115280383989" lon="121.39993174409948">
        <ele>14.603889443911612</ele>
        <time>2026-10-09T09:18:37Z</time>
      </trkpt>
      <trkpt lat="31.231177783145935" lon="121.39983572946225">
        <ele>14.926246621645987</ele>
        <time>2026-10-09T09:18:40Z</time>
      </trkpt>
      <trkpt lat="31.231185757121963" lon="121.39957969791014">
        <ele>15.312019326724112</ele>
        <time>2026-10-09T09:18:49Z</time>
      </trkpt>
      <trkpt lat="31.231157763084184" lon="121.39949169053939">
        <ele>14.905109384097159</ele>
        <time>2026-10-09T09:18:52Z</time>
      </trkpt>
      <trkpt lat="31.23109078686146" lon="121.3993956861402">
        <ele>14.5563277984038</ele>
        <time>2026-10-09T09:18:55Z</time>
      </trkpt>
      <trkpt lat="31.230951844469523" lon="121.3993006886009">
        <ele>15.164051034487784</ele>
        <time>2026-10-09T09:19:01Z</time>
      </trkpt>
      <trkpt lat="31.230753933272386" lon="121.399257701648">
        <ele>12.40023420099169</ele>
        <time>2026-10-09T09:19:10Z</time>
      </trkpt>
      <trkpt lat="31.230462075360297" lon="121.39935473675531">
        <ele>14.947383859194815</ele>
        <time>2026-10-09T09:19:19Z</time>
      </trkpt>
      <trkpt lat="31.230316147662716" lon="121.39941775601534">
        <ele>13.673809030093253</ele>
        <time>2026-10-09T09:19:25Z</time>
      </trkpt>
      <trkpt lat="31.230096252578935" lon="121.39945577923615">
        <ele>7.818531014956534</ele>
        <time>2026-10-09T09:19:34Z</time>
      </trkpt>
      <trkpt lat="31.22982539150522" lon="121.3996208212828">
        <ele>10.608772256411612</ele>
        <time>2026-10-09T09:19:46Z</time>
      </trkpt>
      <trkpt lat="31.229718448341373" lon="121.39970484053735">
        <ele>14.440067269839346</ele>
        <time>2026-10-09T09:19:49Z</time>
      </trkpt>
      <trkpt lat="31.22964349841982" lon="121.39987286803873">
        <ele>14.027873971499503</ele>
        <time>2026-10-09T09:19:55Z</time>
      </trkpt>
      <trkpt lat="31.229628514168496" lon="121.39996388132">
        <ele>14.429500558413565</ele>
        <time>2026-10-09T09:19:58Z</time>
      </trkpt>
      <trkpt lat="31.22963851816134" lon="121.40004989216357">
        <ele>14.482345559634268</ele>
        <time>2026-10-09T09:20:01Z</time>
      </trkpt>
      <trkpt lat="31.229713498528653" lon="121.40019390611144">
        <ele>13.932750680483878</ele>
        <time>2026-10-09T09:20:07Z</time>
      </trkpt>
      <trkpt lat="31.22983545639313" lon="121.40032391490615">
        <ele>15.121776559390128</ele>
        <time>2026-10-09T09:20:13Z</time>
      </trkpt>
      <trkpt lat="31.229897432459566" lon="121.40036591596844">
        <ele>11.364463784731925</ele>
        <time>2026-10-09T09:20:16Z</time>
      </trkpt>
      <trkpt lat="31.23002437456448" lon="121.40037490629389">
        <ele>13.943321206606925</ele>
        <time>2026-10-09T09:20:22Z</time>
      </trkpt>
      <trkpt lat="31.230125333353204" lon="121.40042290501619">
        <ele>14.989662148989737</ele>
        <time>2026-10-09T09:20:25Z</time>
      </trkpt>
      <trkpt lat="31.230194300035922" lon="121.40041189726445">
        <ele>14.033157327212393</ele>
        <time>2026-10-09T09:20:28Z</time>
      </trkpt>
      <trkpt lat="31.23051213957522" lon="121.40029985222681">
        <ele>13.3937301421538</ele>
        <time>2026-10-09T09:20:40Z</time>
      </trkpt>
      <trkpt lat="31.230651069635393" lon="121.40025083274111">
        <ele>12.458362557925284</ele>
        <time>2026-10-09T09:20:46Z</time>
      </trkpt>
      <trkpt lat="31.230780008740986" lon="121.40024082000595">
        <ele>14.894538857974112</ele>
        <time>2026-10-09T09:20:52Z</time>
      </trkpt>
      <trkpt lat="31.230888953078654" lon="121.40019380357977">
        <ele>15.496978738345206</ele>
        <time>2026-10-09T09:20:58Z</time>
      </trkpt>
      <trkpt lat="31.23108384858484" lon="121.40005976747857">
        <ele>14.720149972476065</ele>
        <time>2026-10-09T09:21:04Z</time>
      </trkpt>
      <trkpt lat="31.231164795869585" lon="121.39990673976244">
        <ele>-4.277797720395029</ele>
        <time>2026-10-09T09:21:10Z</time>
      </trkpt>
      <trkpt lat="31.23121475774834" lon="121.39974471487434">
        <ele>10.059177377261221</ele>
        <time>2026-10-09T09:21:13Z</time>
      </trkpt>
      <trkpt lat="31.23121274584866" lon="121.39959469726905">
        <ele>11.797794320620596</ele>
        <time>2026-10-09T09:21:16Z</time>
      </trkpt>
      <trkpt lat="31.23116775760258" lon="121.39948068846954">
        <ele>15.074214913882315</ele>
        <time>2026-10-09T09:21:19Z</time>
      </trkpt>
      <trkpt lat="31.2310947846427" lon="121.3993906852713">
        <ele>14.440067269839346</ele>
        <time>2026-10-09T09:21:22Z</time>
      </trkpt>
      <trkpt lat="31.23093685107268" lon="121.39929568941349">
        <ele>14.62502668146044</ele>
        <time>2026-10-09T09:21:28Z</time>
      </trkpt>
      <trkpt lat="31.230801912044097" lon="121.39927269892274">
        <ele>15.11120603326708</ele>
        <time>2026-10-09T09:21:34Z</time>
      </trkpt>
      <trkpt lat="31.230641987699396" lon="121.39929471503525">
        <ele>13.457141854800284</ele>
        <time>2026-10-09T09:21:40Z</time>
      </trkpt>
      <trkpt lat="31.23048106849922" lon="121.39938173787213">
        <ele>14.852264382876456</ele>
        <time>2026-10-09T09:21:46Z</time>
      </trkpt>
      <trkpt lat="31.23013723347956" lon="121.39945477555422">
        <ele>9.329910256899893</ele>
        <time>2026-10-09T09:21:58Z</time>
      </trkpt>
      <trkpt lat="31.229980310344768" lon="121.3995067948905">
        <ele>13.837631204165518</ele>
        <time>2026-10-09T09:22:04Z</time>
      </trkpt>
      <trkpt lat="31.229763425542284" lon="121.39968283397863">
        <ele>12.812427499331534</ele>
        <time>2026-10-09T09:22:13Z</time>
      </trkpt>
      <trkpt lat="31.22968247693533" lon="121.39983686002181">
        <ele>13.774215676821768</ele>
        <time>2026-10-09T09:22:19Z</time>
      </trkpt>
      <trkpt lat="31.22966049385936" lon="121.39990787111032">
        <ele>13.943321206606925</ele>
        <time>2026-10-09T09:22:22Z</time>
      </trkpt>
      <trkpt lat="31.22965750238185" lon="121.39998088107667">
        <ele>14.852264382876456</ele>
        <time>2026-10-09T09:22:25Z</time>
      </trkpt>
      <trkpt lat="31.229750480371646" lon="121.40018490157325">
        <ele>9.002269723452628</ele>
        <time>2026-10-09T09:22:34Z</time>
      </trkpt>
      <trkpt lat="31.229853446666322" lon="121.40031191150594">
        <ele>14.540473916567862</ele>
        <time>2026-10-09T09:22:40Z</time>
      </trkpt>
      <trkpt lat="31.230001384305734" lon="121.40036690705627">
        <ele>16.918521859683096</ele>
        <time>2026-10-09T09:22:46Z</time>
      </trkpt>
      <trkpt lat="31.230335224043063" lon="121.40032087085471">
        <ele>14.033157327212393</ele>
        <time>2026-10-09T09:22:58Z</time>
      </trkpt>
      <trkpt lat="31.23043817490871" lon="121.40030886004546">
        <ele>14.2656783843413</ele>
        <time>2026-10-09T09:23:01Z</time>
      </trkpt>
      <trkpt lat="31.230683052367098" lon="121.40022882668468">
        <ele>10.666900613345206</ele>
        <time>2026-10-09T09:23:10Z</time>
      </trkpt>
      <trkpt lat="31.2307630147414" lon="121.40022381897082">
        <ele>10.439666726626456</ele>
        <time>2026-10-09T09:23:13Z</time>
      </trkpt>
      <trkpt lat="31.23099589558844" lon="121.40011978358648">
        <ele>13.964458444155753</ele>
        <time>2026-10-09T09:23:22Z</time>
      </trkpt>
      <trkpt lat="31.23111682601757" lon="121.39998775472871">
        <ele>13.536411263979971</ele>
        <time>2026-10-09T09:23:28Z</time>
      </trkpt>
      <trkpt lat="31.231167793236242" lon="121.39989373780267">
        <ele>12.75958249811083</ele>
        <time>2026-10-09T09:23:31Z</time>
      </trkpt>
      <trkpt lat="31.231196770124228" lon="121.39978972200794">
        <ele>14.33437726739794</ele>
        <time>2026-10-09T09:23:34Z</time>
      </trkpt>
      <trkpt lat="31.23119075439984" lon="121.3995746969058">
        <ele>12.53234861139208</ele>
        <time>2026-10-09T09:23:40Z</time>
      </trkpt>
      <trkpt lat="31.23111077789349" lon="121.39939968481345">
        <ele>13.8481979155913</ele>
        <time>2026-10-09T09:23:47Z</time>
      </trkpt>
      <trkpt lat="31.231028810828555" lon="121.39932968478558">
        <ele>13.737224557437003</ele>
        <time>2026-10-09T09:23:50Z</time>
      </trkpt>
      <trkpt lat="31.230937850059156" lon="121.39928768853663">
        <ele>13.922183969058096</ele>
        <time>2026-10-09T09:23:53Z</time>
      </trkpt>
      <trkpt lat="31.23076992653302" lon="121.39926770122487">
        <ele>11.993324258364737</ele>
        <time>2026-10-09T09:23:59Z</time>
      </trkpt>
      <trkpt lat="31.230463076554443" lon="121.39937773902822">
        <ele>11.34332273248583</ele>
        <time>2026-10-09T09:24:11Z</time>
      </trkpt>
      <trkpt lat="31.230157223745266" lon="121.39944877316792">
        <ele>12.638038613833487</ele>
        <time>2026-10-09T09:24:23Z</time>
      </trkpt>
      <trkpt lat="31.229870368463175" lon="121.39959481436223">
        <ele>13.446575143374503</ele>
        <time>2026-10-09T09:24:35Z</time>
      </trkpt>
      <trkpt lat="31.229750433308784" lon="121.3997028375068">
        <ele>12.738445260562003</ele>
        <time>2026-10-09T09:24:41Z</time>
      </trkpt>
      <trkpt lat="31.22967448374018" lon="121.39986986494868">
        <ele>12.10958478692919</ele>
        <time>2026-10-09T09:24:47Z</time>
      </trkpt>
      <trkpt lat="31.229670493582294" lon="121.39995287618778">
        <ele>12.606330850161612</ele>
        <time>2026-10-09T09:24:50Z</time>
      </trkpt>
      <trkpt lat="31.229710494434627" lon="121.40014289899263">
        <ele>14.138851144351065</ele>
        <time>2026-10-09T09:24:56Z</time>
      </trkpt>
      <trkpt lat="31.229752483591245" lon="121.4002229069689">
        <ele>14.582752206362784</ele>
        <time>2026-10-09T09:24:59Z</time>
      </trkpt>
      <trkpt lat="31.229881438146368" lon="121.40035091504284">
        <ele>13.351451852358878</ele>
        <time>2026-10-09T09:25:05Z</time>
      </trkpt>
      <trkpt lat="31.230027373172277" lon="121.40037490603234">
        <ele>13.8481979155913</ele>
        <time>2026-10-09T09:25:11Z</time>
      </trkpt>
      <trkpt lat="31.23020628953574" lon="121.40036988964881">
        <ele>11.517715432681143</ele>
        <time>2026-10-09T09:25:17Z</time>
      </trkpt>
      <trkpt lat="31.23042817852311" lon="121.40029985955054">
        <ele>13.774215676821768</ele>
        <time>2026-10-09T09:25:26Z</time>
      </trkpt>
      <trkpt lat="31.2305970967875" lon="121.4002698402907">
        <ele>11.11608884576708</ele>
        <time>2026-10-09T09:25:32Z</time>
      </trkpt>
      <trkpt lat="31.230896946345638" lon="121.40016579881335">
        <ele>13.124217965640128</ele>
        <time>2026-10-09T09:25:41Z</time>
      </trkpt>
      <trkpt lat="31.230992897294524" lon="121.40012278427479">
        <ele>14.138851144351065</ele>
        <time>2026-10-09T09:25:44Z</time>
      </trkpt>
      <trkpt lat="31.23107884956802" lon="121.4000467661118">
        <ele>13.901046731509268</ele>
        <time>2026-10-09T09:25:47Z</time>
      </trkpt>
      <trkpt lat="31.231199773331408" lon="121.39983972805346">
        <ele>14.873401620425284</ele>
        <time>2026-10-09T09:25:53Z</time>
      </trkpt>
      <trkpt lat="31.231214757393396" lon="121.39974071438489">
        <ele>13.673809030093253</ele>
        <time>2026-10-09T09:25:56Z</time>
      </trkpt>
      <trkpt lat="31.23117675726838" lon="121.39952969306998">
        <ele>13.705516793765128</ele>
        <time>2026-10-09T09:26:02Z</time>
      </trkpt>
      <trkpt lat="31.23113676898212" lon="121.39944168697627">
        <ele>14.33437726739794</ele>
        <time>2026-10-09T09:26:05Z</time>
      </trkpt>
      <trkpt lat="31.23107879103246" lon="121.3993766852169">
        <ele>14.783565499819815</ele>
        <time>2026-10-09T09:26:08Z</time>
      </trkpt>
      <trkpt lat="31.230894868277936" lon="121.39926268983967">
        <ele>12.220558145083487</ele>
        <time>2026-10-09T09:26:14Z</time>
      </trkpt>
      <trkpt lat="31.2307229471016" lon="121.39924970357711">
        <ele>13.298606851138175</ele>
        <time>2026-10-09T09:26:20Z</time>
      </trkpt>
      <trkpt lat="31.230414099493363" lon="121.3993807436103">
        <ele>13.457141854800284</ele>
        <time>2026-10-09T09:26:32Z</time>
      </trkpt>
      <trkpt lat="31.230137234854595" lon="121.39947277749326">
        <ele>12.04616925958544</ele>
        <time>2026-10-09T09:26:41Z</time>
      </trkpt>
      <trkpt lat="31.229997305862558" lon="121.39954979818594">
        <ele>13.663238503970206</ele>
        <time>2026-10-09T09:26:47Z</time>
      </trkpt>
      <trkpt lat="31.229911347471706" lon="121.39957080805245">
        <ele>11.422592141665518</ele>
        <time>2026-10-09T09:26:50Z</time>
      </trkpt>
      <trkpt lat="31.22984638059383" lon="121.3996068178336">
        <ele>13.869338967837393</ele>
        <time>2026-10-09T09:26:53Z</time>
      </trkpt>
      <trkpt lat="31.22971545802197" lon="121.39979785222006">
        <ele>12.939258554019034</ele>
        <time>2026-10-09T09:27:02Z</time>
      </trkpt>
      <trkpt lat="31.229673492483446" lon="121.39995587632663">
        <ele>11.20592496637255</ele>
        <time>2026-10-09T09:27:08Z</time>
      </trkpt>
      <trkpt lat="31.229679500455113" lon="121.40006289039374">
        <ele>13.663238503970206</ele>
        <time>2026-10-09T09:27:11Z</time>
      </trkpt>
      <trkpt lat="31.229724492986335" lon="121.40018990456862">
        <ele>14.524620034731925</ele>
        <time>2026-10-09T09:27:17Z</time>
      </trkpt>
      <trkpt lat="31.229798469026644" lon="121.4002839120585">
        <ele>14.212833383120596</ele>
        <time>2026-10-09T09:27:20Z</time>
      </trkpt>
      <trkpt lat="31.229924419926938" lon="121.40036591361444">
        <ele>13.964458444155753</ele>
        <time>2026-10-09T09:27:26Z</time>
      </trkpt>
      <trkpt lat="31.230053362276575" lon="121.40038490532385">
        <ele>14.096572854556143</ele>
        <time>2026-10-09T09:27:32Z</time>
      </trkpt>
      <trkpt lat="31.230292247321653" lon="121.4003498790551">
        <ele>10.296981790103018</ele>
        <time>2026-10-09T09:27:41Z</time>
      </trkpt>
      <trkpt lat="31.230502148783874" lon="121.40033985920587">
        <ele>14.064865090884268</ele>
        <time>2026-10-09T09:27:50Z</time>
      </trkpt>
      <trkpt lat="31.23069205096654" lon="121.40025382961377">
        <ele>13.964458444155753</ele>
        <time>2026-10-09T09:27:56Z</time>
      </trkpt>
      <trkpt lat="31.230775010725708" lon="121.40023781999655">
        <ele>14.20226285699755</ele>
        <time>2026-10-09T09:27:59Z</time>
      </trkpt>
      <trkpt lat="31.23102088485393" lon="121.40012778254575">
        <ele>14.10714338067919</ele>
        <time>2026-10-09T09:28:11Z</time>
      </trkpt>
      <trkpt lat="31.231094843799234" lon="121.40006276693674">
        <ele>13.414867379702628</ele>
        <time>2026-10-09T09:28:14Z</time>
      </trkpt>
      <trkpt lat="31.23120976611391" lon="121.39981172363343">
        <ele>13.6843795562163</ele>
        <time>2026-10-09T09:28:26Z</time>
      </trkpt>
      <trkpt lat="31.231196755325097" lon="121.39961970154538">
        <ele>13.472995736636221</ele>
        <time>2026-10-09T09:28:32Z</time>
      </trkpt>
      <trkpt lat="31.231132774195526" lon="121.39948569206493">
        <ele>10.899421670474112</ele>
        <time>2026-10-09T09:28:38Z</time>
      </trkpt>
      <trkpt lat="31.231034811265307" lon="121.39937468884702">
        <ele>14.292102792300284</ele>
        <time>2026-10-09T09:28:44Z</time>
      </trkpt>
      <trkpt lat="31.23086288357695" lon="121.39926969331133">
        <ele>12.088443734683096</ele>
        <time>2026-10-09T09:28:50Z</time>
      </trkpt>
      <trkpt lat="31.230721946831487" lon="121.39923870260589">
        <ele>14.33437726739794</ele>
        <time>2026-10-09T09:28:56Z</time>
      </trkpt>
      <trkpt lat="31.230482066301956" lon="121.39935773531784">
        <ele>13.663238503970206</ele>
        <time>2026-10-09T09:29:08Z</time>
      </trkpt>
      <trkpt lat="31.230405103521484" lon="121.39937874418835">
        <ele>13.33031461481005</ele>
        <time>2026-10-09T09:29:11Z</time>
      </trkpt>
      <trkpt lat="31.230258177118536" lon="121.39945176468312">
        <ele>14.04372785333544</ele>
        <time>2026-10-09T09:29:20Z</time>
      </trkpt>
      <trkpt lat="31.2299743162165" lon="121.3995457997427">
        <ele>12.315681436099112</ele>
        <time>2026-10-09T09:29:32Z</time>
      </trkpt>
      <trkpt lat="31.22975342179856" lon="121.39958282319155">
        <ele>13.515274026431143</ele>
        <time>2026-10-09T09:29:41Z</time>
      </trkpt>
      <trkpt lat="31.22975342179856" lon="121.39958282319155">
        <ele>8.213488472237406</ele>
        <time>2026-10-09T09:29:44Z</time>
      </trkpt>
    </trkseg>
  </trk>
</gpx>