<?xml version="1.0" encoding="UTF-8"?>
<gpx xmlns="http://www.topografix.com/GPX/1/1" xmlns:gpxtpx="http://www.garmin.com/xmlschemas/TrackPointExtension/v1" xmlns:xsi="http://www.w3.org/2001/XMLSchema-instance" xsi:schemaLocation="http://www.topografix.com/GPX/1/1 http://www.topografix.com/GPX/1/1/gpx.xsd" version="1.1" creator="gpx.py -- https://github.com/tkrajina/gpxpy">
  <trk>
    <name>gpx from keep</name>
    <type>Run</type>
    <trkseg>
      <trkpt lat="31.229987398223958" lon="121.40042991815581">
        <ele>15.776768178679049</ele>
        <time>2026-07-18T10:55:44Z</time>
      </trkpt>
      <trkpt lat="31.23010334261132" lon="121.40041490567118">
        <ele>16.112331838347018</ele>
        <time>2026-07-18T10:55:44Z</time>
      </trkpt>
      <trkpt lat="31.230233275383625" lon="121.40035588512559">
        <ele>17.037128896452487</ele>
        <time>2026-07-18T10:55:44Z</time>
      </trkpt>
      <trkpt lat="31.230373206534164" lon="121.40032186769437">
        <ele>16.84952971432358</ele>
        <time>2026-07-18T10:55:44Z</time>
      </trkpt>
      <trkpt lat="31.230675051157583" lon="121.40018382078017">
        <ele>16.870670766569674</ele>
        <time>2026-07-18T10:55:44Z</time>
      </trkpt>
      <trkpt lat="31.230918928634555" lon="121.40009478676235">
        <ele>14.682865590788424</ele>
        <time>2026-07-18T10:55:44Z</time>
      </trkpt>
      <trkpt lat="31.231036871278764" lon="121.40006877282968">
        <ele>16.64871642086655</ele>
        <time>2026-07-18T10:55:44Z</time>
      </trkpt>
      <trkpt lat="31.231174793944607" lon="121.3999347425784">
        <ele>16.239162893034518</ele>
        <time>2026-07-18T10:55:44Z</time>
      </trkpt>
      <trkpt lat="31.23122876018398" lon="121.39984272590758">
        <ele>16.270870656706393</ele>
        <time>2026-07-18T10:55:44Z</time>
      </trkpt>
      <trkpt lat="31.23125074099249" lon="121.39974371161306">
        <ele>15.59708830807358</ele>
        <time>2026-07-18T10:55:44Z</time>
      </trkpt>
      <trkpt lat="31.23124173557727" lon="121.39963269913306">
        <ele>14.146481008268893</ele>
        <time>2026-07-18T10:55:44Z</time>
      </trkpt>
      <trkpt lat="31.23121573929046" lon="121.39953068978079">
        <ele>15.586521596647799</ele>
        <time>2026-07-18T10:55:44Z</time>
      </trkpt>
      <trkpt lat="31.231115772886643" lon="121.39936268055173">
        <ele>15.441196889616549</ele>
        <time>2026-07-18T10:55:44Z</time>
      </trkpt>
      <trkpt lat="31.23097283425874" lon="121.39929368607694">
        <ele>15.219242543913424</ele>
        <time>2026-07-18T10:55:44Z</time>
      </trkpt>
      <trkpt lat="31.230800911695294" lon="121.39926069784116">
        <ele>15.113552541472018</ele>
        <time>2026-07-18T10:55:44Z</time>
      </trkpt>
      <trkpt lat="31.230483065480335" lon="121.39935273472047">
        <ele>15.261524648405612</ele>
        <time>2026-07-18T10:55:44Z</time>
      </trkpt>
      <trkpt lat="31.230147229908184" lon="121.39946877618904">
        <ele>15.472904653288424</ele>
        <time>2026-07-18T10:55:44Z</time>
      </trkpt>
      <trkpt lat="31.230087259987563" lon="121.3994977845739">
        <ele>15.441196889616549</ele>
        <time>2026-07-18T10:55:44Z</time>
      </trkpt>
      <trkpt lat="31.22997531250882" lon="121.39950479510658">
        <ele>11.760509938932955</ele>
        <time>2026-07-18T10:55:44Z</time>
      </trkpt>
      <trkpt lat="31.229889355669386" lon="121.3995458071535">
        <ele>15.282658071257174</ele>
        <time>2026-07-18T10:55:44Z</time>
      </trkpt>
      <trkpt lat="31.22977242581128" lon="121.39973383934208">
        <ele>14.503193349577487</ele>
        <time>2026-07-18T10:55:44Z</time>
      </trkpt>
      <trkpt lat="31.22974844526918" lon="121.3998258528705">
        <ele>15.250950307585299</ele>
        <time>2026-07-18T10:55:44Z</time>
      </trkpt>
      <trkpt lat="31.22974346848327" lon="121.40004088176491">
        <ele>15.797901601530612</ele>
        <time>2026-07-18T10:55:44Z</time>
      </trkpt>
      <trkpt lat="31.22976746733006" lon="121.40013689316379">
        <ele>15.59708830807358</ele>
        <time>2026-07-18T10:55:44Z</time>
      </trkpt>
      <trkpt lat="31.22986143977924" lon="121.40028390656583">
        <ele>15.59708830807358</ele>
        <time>2026-07-18T10:55:44Z</time>
      </trkpt>
      <trkpt lat="31.229920417509014" lon="121.4003289082605">
        <ele>14.72514006588608</ele>
        <time>2026-07-18T10:55:44Z</time>
      </trkpt>
      <trkpt lat="31.23005436087641" lon="121.40037690398957">
        <ele>16.101765126921237</ele>
        <time>2026-07-18T10:55:44Z</time>
      </trkpt>
      <trkpt lat="31.230113333733286" lon="121.40037889915705">
        <ele>15.85075041744858</ele>
        <time>2026-07-18T10:55:44Z</time>
      </trkpt>
      <trkpt lat="31.230385198349794" lon="121.400298863148">
        <ele>15.988148183561862</ele>
        <time>2026-07-18T10:55:44Z</time>
      </trkpt>
      <trkpt lat="31.230552114416213" lon="121.4002408398848">
        <ele>15.314365834929049</ele>
        <time>2026-07-18T10:55:44Z</time>
      </trkpt>
      <trkpt lat="31.23069504647488" lon="121.40022582519498">
        <ele>15.462337941862643</ele>
        <time>2026-07-18T10:55:44Z</time>
      </trkpt>
      <trkpt lat="31.230966905774007" lon="121.40008878173312">
        <ele>15.512539357878268</ele>
        <time>2026-07-18T10:55:44Z</time>
      </trkpt>
      <trkpt lat="31.231164800136415" lon="121.39995074557612">
        <ele>15.776768178679049</ele>
        <time>2026-07-18T10:55:44Z</time>
      </trkpt>
      <trkpt lat="31.231206771678334" lon="121.39985672961747">
        <ele>15.388355703093112</ele>
        <time>2026-07-18T10:55:44Z</time>
      </trkpt>
      <trkpt lat="31.231221748569734" lon="121.39967670605759">
        <ele>15.113552541472018</ele>
        <time>2026-07-18T10:55:44Z</time>
      </trkpt>
      <trkpt lat="31.231186753274073" lon="121.39953769308926">
        <ele>15.145260305143893</ele>
        <time>2026-07-18T10:55:44Z</time>
      </trkpt>
      <trkpt lat="31.231129771546605" lon="121.39943268662958">
        <ele>13.969448537565768</ele>
        <time>2026-07-18T10:55:44Z</time>
      </trkpt>
      <trkpt lat="31.23105180088302" lon="121.39933968378986">
        <ele>15.071278066374362</ele>
        <time>2026-07-18T10:55:44Z</time>
      </trkpt>
      <trkpt lat="31.230861883972473" lon="121.39926869330098">
        <ele>14.820263356901705</ele>
        <time>2026-07-18T10:55:44Z</time>
      </trkpt>
      <trkpt lat="31.23056502512902" lon="121.39931972423673">
        <ele>14.421276540495455</ele>
        <time>2026-07-18T10:55:44Z</time>
      </trkpt>
      <trkpt lat="31.230420094264158" lon="121.39934673960279">
        <ele>14.379002065397799</ele>
        <time>2026-07-18T10:55:44Z</time>
      </trkpt>
      <trkpt lat="31.230120241671436" lon="121.39945877746582">
        <ele>20.667614431120455</ele>
        <time>2026-07-18T10:55:44Z</time>
      </trkpt>
      <trkpt lat="31.230027286975687" lon="121.39948678860365">
        <ele>12.12778899166733</ele>
        <time>2026-07-18T10:55:44Z</time>
      </trkpt>
      <trkpt lat="31.22975319786497" lon="121.39967355234118">
        <ele>13.705219716764987</ele>
        <time>2026-07-18T10:55:44Z</time>
      </trkpt>
      <trkpt lat="31.229702461343315" lon="121.39976784961962">
        <ele>11.139576406218112</ele>
        <time>2026-07-18T10:55:44Z</time>
      </trkpt>
      <trkpt lat="31.229739476850604" lon="121.4001038909127">
        <ele>14.873112172819674</ele>
        <time>2026-07-18T10:55:44Z</time>
      </trkpt>
      <trkpt lat="31.229763474227315" lon="121.4001839002943">
        <ele>12.72758147213608</ele>
        <time>2026-07-18T10:55:44Z</time>
      </trkpt>
      <trkpt lat="31.229851447025553" lon="121.40030691091967">
        <ele>9.974331350065768</ele>
        <time>2026-07-18T10:55:44Z</time>
      </trkpt>
      <trkpt lat="31.22992441876566" lon="121.40035591206606">
        <ele>14.315586538054049</ele>
        <time>2026-07-18T10:55:44Z</time>
      </trkpt>
      <trkpt lat="31.23002237666233" lon="121.40038490802661">
        <ele>14.072498769499362</ele>
        <time>2026-07-18T10:55:44Z</time>
      </trkpt>
      <trkpt lat="31.23014731714081" lon="121.40037189510353">
        <ele>14.767414540983737</ele>
        <time>2026-07-18T10:55:44Z</time>
      </trkpt>
      <trkpt lat="31.23044316662007" lon="121.40025585162202">
        <ele>14.704006643034518</ele>
        <time>2026-07-18T10:55:44Z</time>
      </trkpt>
      <trkpt lat="31.23071003613007" lon="121.40019481933258">
        <ele>15.12412688229233</ele>
        <time>2026-07-18T10:55:44Z</time>
      </trkpt>
      <trkpt lat="31.230847967333403" lon="121.40014980077902">
        <ele>13.958881826139987</ele>
        <time>2026-07-18T10:55:44Z</time>
      </trkpt>
      <trkpt lat="31.230998895679356" lon="121.40013378532036">
        <ele>13.895466298796237</ele>
        <time>2026-07-18T10:55:44Z</time>
      </trkpt>
      <trkpt lat="31.2311648053899" lon="121.40000375271399">
        <ele>11.612545461393893</ele>
        <time>2026-07-18T10:55:44Z</time>
      </trkpt>
      <trkpt lat="31.231215757196548" lon="121.39974371466471">
        <ele>13.411930532194674</ele>
        <time>2026-07-18T10:55:44Z</time>
      </trkpt>
      <trkpt lat="31.23120975098077" lon="121.39963970274054">
        <ele>10.257053823210299</ele>
        <time>2026-07-18T10:55:44Z</time>
      </trkpt>
      <trkpt lat="31.231164758914563" lon="121.39947968862252">
        <ele>13.232258290983737</ele>
        <time>2026-07-18T10:55:44Z</time>
      </trkpt>
      <trkpt lat="31.231117776504735" lon="121.39942468682874">
        <ele>10.888561696745455</ele>
        <time>2026-07-18T10:55:44Z</time>
      </trkpt>
      <trkpt lat="31.231070796270537" lon="121.3993976880924">
        <ele>13.369656057097018</ele>
        <time>2026-07-18T10:55:44Z</time>
      </trkpt>
      <trkpt lat="31.230698962458867" lon="121.39931171175381">
        <ele>11.372097463347018</ele>
        <time>2026-07-18T10:55:44Z</time>
      </trkpt>
      <trkpt lat="31.2305450351737" lon="121.3993307270856">
        <ele>12.550549001432955</ele>
        <time>2026-07-18T10:55:44Z</time>
      </trkpt>
      <trkpt lat="31.23028516204107" lon="121.39941775871814">
        <ele>8.629414052702487</ele>
        <time>2026-07-18T10:55:44Z</time>
      </trkpt>
      <trkpt lat="31.229963321081943" lon="121.39954280036592">
        <ele>13.263966054655612</ele>
        <time>2026-07-18T10:55:44Z</time>
      </trkpt>
      <trkpt lat="31.2298583756863" lon="121.39961481771087">
        <ele>12.611324758268893</ele>
        <time>2026-07-18T10:55:44Z</time>
      </trkpt>
      <trkpt lat="31.229790413523684" lon="121.39968883234086">
        <ele>11.675953359343112</ele>
        <time>2026-07-18T10:55:44Z</time>
      </trkpt>
      <trkpt lat="31.229750439685105" lon="121.39977484630174">
        <ele>12.66416594479233</ele>
        <time>2026-07-18T10:55:44Z</time>
      </trkpt>
      <trkpt lat="31.229731465452453" lon="121.39995487113639">
        <ele>12.244045705534518</ele>
        <time>2026-07-18T10:55:44Z</time>
      </trkpt>
      <trkpt lat="31.229757470279694" lon="121.40012089175346">
        <ele>11.078800649382174</ele>
        <time>2026-07-18T10:55:44Z</time>
      </trkpt>
      <trkpt lat="31.229838447095048" lon="121.40025390407118">
        <ele>11.044453115202487</ele>
        <time>2026-07-18T10:55:44Z</time>
      </trkpt>
      <trkpt lat="31.229958402753045" lon="121.40035390879272">
        <ele>12.864979238249362</ele>
        <time>2026-07-18T10:55:44Z</time>
      </trkpt>
      <trkpt lat="31.230118334114398" lon="121.40040190231804">
        <ele>11.739368886686862</ele>
        <time>2026-07-18T10:55:44Z</time>
      </trkpt>
      <trkpt lat="31.230398193798866" lon="121.40031186398947">
        <ele>6.560512990690768</ele>
        <time>2026-07-18T10:55:44Z</time>
      </trkpt>
      <trkpt lat="31.230555112361422" lon="121.40023483873304">
        <ele>12.138355703093112</ele>
        <time>2026-07-18T10:55:44Z</time>
      </trkpt>
      <trkpt lat="31.230671056499048" lon="121.40021582581275">
        <ele>11.435512990690768</ele>
        <time>2026-07-18T10:55:44Z</time>
      </trkpt>
      <trkpt lat="31.23076100957494" lon="121.40016781096027">
        <ele>12.138355703093112</ele>
        <time>2026-07-18T10:55:44Z</time>
      </trkpt>
      <trkpt lat="31.231007887408136" lon="121.40009477900253">
        <ele>11.52006194088608</ele>
        <time>2026-07-18T10:55:44Z</time>
      </trkpt>
      <trkpt lat="31.231145813686805" lon="121.3999987536909">
        <ele>9.596485585905612</ele>
        <time>2026-07-18T10:55:44Z</time>
      </trkpt>
      <trkpt lat="31.23121276918192" lon="121.3998597294796">
        <ele>10.846279592253268</ele>
        <time>2026-07-18T10:55:44Z</time>
      </trkpt>
      <trkpt lat="31.23122474838652" lon="121.39969070746574">
        <ele>10.383884877897799</ele>
        <time>2026-07-18T10:55:44Z</time>
      </trkpt>
      <trkpt lat="31.231166758065612" lon="121.39948068855674">
        <ele>10.175144643522799</ele>
        <time>2026-07-18T10:55:44Z</time>
      </trkpt>
      <trkpt lat="31.231072793811155" lon="121.39937668574004">
        <ele>10.175144643522799</ele>
        <time>2026-07-18T10:55:44Z</time>
      </trkpt>
      <trkpt lat="31.23098783166583" lon="121.39935569099626">
        <ele>10.804005117155612</ele>
        <time>2026-07-18T10:55:44Z</time>
      </trkpt>
      <trkpt lat="31.23083189773671" lon="121.39926669572175">
        <ele>10.373318166472018</ele>
        <time>2026-07-18T10:55:44Z</time>
      </trkpt>
      <trkpt lat="31.230516049538743" lon="121.39934373092824">
        <ele>10.383884877897799</ele>
        <time>2026-07-18T10:55:44Z</time>
      </trkpt>
      <trkpt lat="31.230227189765436" lon="121.39942876493657">
        <ele>9.607059926725924</ele>
        <time>2026-07-18T10:55:44Z</time>
      </trkpt>
      <trkpt lat="31.229953325244704" lon="121.39953680056752">
        <ele>10.016605825163424</ele>
        <time>2026-07-18T10:55:44Z</time>
      </trkpt>
      <trkpt lat="31.22983038951769" lon="121.39962482131112">
        <ele>9.39567229244858</ele>
        <time>2026-07-18T10:55:44Z</time>
      </trkpt>
      <trkpt lat="31.229779418199637" lon="121.3996838327029">
        <ele>10.225346059538424</ele>
        <time>2026-07-18T10:55:44Z</time>
      </trkpt>
      <trkpt lat="31.229729454924886" lon="121.39983485566964">
        <ele>10.111729116179049</ele>
        <time>2026-07-18T10:55:44Z</time>
      </trkpt>
      <trkpt lat="31.229707479659925" lon="121.39998587739237">
        <ele>9.773518056608737</ele>
        <time>2026-07-18T10:55:44Z</time>
      </trkpt>
      <trkpt lat="31.229745480965775" lon="121.40016889968662">
        <ele>10.426159352995455</ele>
        <time>2026-07-18T10:55:44Z</time>
      </trkpt>
      <trkpt lat="31.229843450625673" lon="121.40030591146518">
        <ele>11.403805227018893</ele>
        <time>2026-07-18T10:55:44Z</time>
      </trkpt>
      <trkpt lat="31.229955408108868" lon="121.40038791433659">
        <ele>11.446079702116549</ele>
        <time>2026-07-18T10:55:44Z</time>
      </trkpt>
      <trkpt lat="31.23025126749791" lon="121.40035988417496">
        <ele>9.575352163054049</ele>
        <time>2026-07-18T10:55:44Z</time>
      </trkpt>
      <trkpt lat="31.230568108220403" lon="121.40025184012676">
        <ele>10.426159352995455</ele>
        <time>2026-07-18T10:55:44Z</time>
      </trkpt>
      <trkpt lat="31.230906938190273" lon="121.40013279319888">
        <ele>9.879208059050143</ele>
        <time>2026-07-18T10:55:44Z</time>
      </trkpt>
      <trkpt lat="31.230995889959406" lon="121.40006577598623">
        <ele>10.132870168425143</ele>
        <time>2026-07-18T10:55:44Z</time>
      </trkpt>
      <trkpt lat="31.23110383454121" lon="121.40001275925928">
        <ele>3.1361279198899865</ele>
        <time>2026-07-18T10:55:44Z</time>
      </trkpt>
      <trkpt lat="31.231193779487267" lon="121.39987573319901">
        <ele>10.090595693327487</ele>
        <time>2026-07-18T10:55:44Z</time>
      </trkpt>
      <trkpt lat="31.23121575385487" lon="121.39970571005085">
        <ele>9.85807463619858</ele>
        <time>2026-07-18T10:55:44Z</time>
      </trkpt>
      <trkpt lat="31.231174756774028" lon="121.3995116912515">
        <ele>8.555431813932955</ele>
        <time>2026-07-18T10:55:44Z</time>
      </trkpt>
      <trkpt lat="31.231116777491554" lon="121.39943168765697">
        <ele>10.154003591276705</ele>
        <time>2026-07-18T10:55:44Z</time>
      </trkpt>
      <trkpt lat="31.23090486644998" lon="121.39930369299657">
        <ele>9.659901113249362</ele>
        <time>2026-07-18T10:55:44Z</time>
      </trkpt>
      <trkpt lat="31.230851893245326" lon="121.3993357008232">
        <ele>9.469654531218112</ele>
        <time>2026-07-18T10:55:44Z</time>
      </trkpt>
      <trkpt lat="31.230577018729047" lon="121.39930772199214">
        <ele>8.756245107389987</ele>
        <time>2026-07-18T10:55:44Z</time>
      </trkpt>
      <trkpt lat="31.23044808156586" lon="121.39935073756833">
        <ele>10.154003591276705</ele>
        <time>2026-07-18T10:55:44Z</time>
      </trkpt>
      <trkpt lat="31.23034813245022" lon="121.39941275269945">
        <ele>9.659901113249362</ele>
        <time>2026-07-18T10:55:44Z</time>
      </trkpt>
      <trkpt lat="31.2300292875263" lon="121.39950579050843">
        <ele>11.541202993132174</ele>
        <time>2026-07-18T10:55:44Z</time>
      </trkpt>
      <trkpt lat="31.229948327964028" lon="121.39954180156187">
        <ele>9.33225676510483</ele>
        <time>2026-07-18T10:55:44Z</time>
      </trkpt>
      <trkpt lat="31.22979441158025" lon="121.3996878318726">
        <ele>10.299335927702487</ele>
        <time>2026-07-18T10:55:44Z</time>
      </trkpt>
      <trkpt lat="31.229756438711167" lon="121.39979484826995">
        <ele>10.73002287838608</ele>
        <time>2026-07-18T10:55:44Z</time>
      </trkpt>
      <trkpt lat="31.22974645210769" lon="121.3998888611324">
        <ele>10.18571135494858</ele>
        <time>2026-07-18T10:55:44Z</time>
      </trkpt>
      <trkpt lat="31.229795456676964" lon="121.40015889388259">
        <ele>9.92149016354233</ele>
        <time>2026-07-18T10:55:44Z</time>
      </trkpt>
      <trkpt lat="31.22988143230417" lon="121.40029990724143">
        <ele>9.060108632780612</ele>
        <time>2026-07-18T10:55:44Z</time>
      </trkpt>
      <trkpt lat="31.2299903926872" lon="121.40039491238016">
        <ele>10.645473928190768</ele>
        <time>2026-07-18T10:55:44Z</time>
      </trkpt>
      <trkpt lat="31.230066359187777" lon="121.40040990810934">
        <ele>10.175144643522799</ele>
        <time>2026-07-18T10:55:44Z</time>
      </trkpt>
      <trkpt lat="31.230173307067094" lon="121.40038889548633">
        <ele>10.352177114225924</ele>
        <time>2026-07-18T10:55:44Z</time>
      </trkpt>
      <trkpt lat="31.23045616429482" lon="121.40028885544457">
        <ele>3.397709340788424</ele>
        <time>2026-07-18T10:55:44Z</time>
      </trkpt>
      <trkpt lat="31.230646066119085" lon="121.40019782535117">
        <ele>9.85807463619858</ele>
        <time>2026-07-18T10:55:44Z</time>
      </trkpt>
      <trkpt lat="31.230886950012962" lon="121.40015679838613">
        <ele>9.963764638639987</ele>
        <time>2026-07-18T10:55:44Z</time>
      </trkpt>
      <trkpt lat="31.23096990763165" lon="121.40011978585339">
        <ele>9.815792531706393</ele>
        <time>2026-07-18T10:55:44Z</time>
      </trkpt>
      <trkpt lat="31.231101833761972" lon="121.39999575712005">
        <ele>9.007259816862643</ele>
        <time>2026-07-18T10:55:44Z</time>
      </trkpt>
      <trkpt lat="31.231199773890392" lon="121.39984572881916">
        <ele>9.260921926237643</ele>
        <time>2026-07-18T10:55:44Z</time>
      </trkpt>
      <trkpt lat="31.231217757160586" lon="121.3997537157171">
        <ele>8.230434865690768</ele>
        <time>2026-07-18T10:55:44Z</time>
      </trkpt>
      <trkpt lat="31.23121275179534" lon="121.3996657055376">
        <ele>7.37962004635483</ele>
        <time>2026-07-18T10:55:44Z</time>
      </trkpt>
      <trkpt lat="31.231145767250602" lon="121.39947368962868">
        <ele>8.230434865690768</ele>
        <time>2026-07-18T10:55:44Z</time>
      </trkpt>
      <trkpt lat="31.231061799633146" lon="121.39938668773337">
        <ele>9.543644399382174</ele>
        <time>2026-07-18T10:55:44Z</time>
      </trkpt>
      <trkpt lat="31.230974835699573" lon="121.39932768929252">
        <ele>9.984898061491549</ele>
        <time>2026-07-18T10:55:44Z</time>
      </trkpt>
      <trkpt lat="31.230824901522947" lon="121.39927469711293">
        <ele>10.66660735104233</ele>
        <time>2026-07-18T10:55:44Z</time>
      </trkpt>
      <trkpt lat="31.230747936592525" lon="121.39926570294823">
        <ele>10.973110646940768</ele>
        <time>2026-07-18T10:55:44Z</time>
      </trkpt>
      <trkpt lat="31.23069796153777" lon="121.39929170985634">
        <ele>12.738148183561862</ele>
        <time>2026-07-18T10:55:44Z</time>
      </trkpt>
      <trkpt lat="31.230507794983453" lon="121.39945104546496">
        <ele>10.656040639616549</ele>
        <time>2026-07-18T10:55:44Z</time>
      </trkpt>
      <trkpt lat="31.23040122356551" lon="121.39947016059538">
        <ele>8.428600759245455</ele>
        <time>2026-07-18T10:55:44Z</time>
      </trkpt>
      <trkpt lat="31.230398108818594" lon="121.39940674771073">
        <ele>10.825146169401705</ele>
        <time>2026-07-18T10:55:44Z</time>
      </trkpt>
      <trkpt lat="31.230304156085893" lon="121.39945576110131">
        <ele>11.39323088619858</ele>
        <time>2026-07-18T10:55:44Z</time>
      </trkpt>
      <trkpt lat="31.229993305806993" lon="121.39952579585616">
        <ele>10.708881826139987</ele>
        <time>2026-07-18T10:55:44Z</time>
      </trkpt>
      <trkpt lat="31.229861371331758" lon="121.39957881332009">
        <ele>10.909695119597018</ele>
        <time>2026-07-18T10:55:44Z</time>
      </trkpt>
      <trkpt lat="31.229803402722123" lon="121.39963282459617">
        <ele>11.068233937956393</ele>
        <time>2026-07-18T10:55:44Z</time>
      </trkpt>
      <trkpt lat="31.229741446222956" lon="121.39980085032924">
        <ele>10.531849355436862</ele>
        <time>2026-07-18T10:55:44Z</time>
      </trkpt>
      <trkpt lat="31.229724477611576" lon="121.4000438838357">
        <ele>6.38084074947983</ele>
        <time>2026-07-18T10:55:44Z</time>
      </trkpt>
      <trkpt lat="31.22974547627377" lon="121.40012489336897">
        <ele>10.595264882780612</ele>
        <time>2026-07-18T10:55:44Z</time>
      </trkpt>
      <trkpt lat="31.22993341516835" lon="121.40036091205492">
        <ele>11.255833120085299</ele>
        <time>2026-07-18T10:55:44Z</time>
      </trkpt>
      <trkpt lat="31.22998639430842" lon="121.40039291241577">
        <ele>11.771076650358737</ele>
        <time>2026-07-18T10:55:44Z</time>
      </trkpt>
      <trkpt lat="31.23010134094253" lon="121.4003929023894">
        <ele>11.591404409147799</ele>
        <time>2026-07-18T10:55:44Z</time>
      </trkpt>
      <trkpt lat="31.230298239039126" lon="121.40030187118822">
        <ele>11.612545461393893</ele>
        <time>2026-07-18T10:55:44Z</time>
      </trkpt>
      <trkpt lat="31.230603088347294" lon="121.4002188321834">
        <ele>12.067013234831393</ele>
        <time>2026-07-18T10:55:44Z</time>
      </trkpt>
      <trkpt lat="31.230848970525834" lon="121.40018380560942">
        <ele>9.702175588347018</ele>
        <time>2026-07-18T10:55:44Z</time>
      </trkpt>
      <trkpt lat="31.231071855792344" lon="121.40007577075573">
        <ele>12.444858998991549</ele>
        <time>2026-07-18T10:55:44Z</time>
      </trkpt>
      <trkpt lat="31.231212769652057" lon="121.39986473012279">
        <ele>22.012531728483737</ele>
        <time>2026-07-18T10:55:44Z</time>
      </trkpt>
      <trkpt lat="31.231224743112698" lon="121.39962870014935">
        <ele>11.718235463835299</ele>
        <time>2026-07-18T10:55:44Z</time>
      </trkpt>
      <trkpt lat="31.231171757458284" lon="121.39950269052304">
        <ele>12.096081227995455</ele>
        <time>2026-07-18T10:55:44Z</time>
      </trkpt>
      <trkpt lat="31.23101881723562" lon="121.39935468819135">
        <ele>11.781650991179049</ele>
        <time>2026-07-18T10:55:44Z</time>
      </trkpt>
      <trkpt lat="31.230898868126225" lon="121.399287691937">
        <ele>12.212337941862643</ele>
        <time>2026-07-18T10:55:44Z</time>
      </trkpt>
      <trkpt lat="31.230809909773818" lon="121.39929370028875">
        <ele>12.611324758268893</ele>
        <time>2026-07-18T10:55:44Z</time>
      </trkpt>
      <trkpt lat="31.23066698104453" lon="121.39936471990453">
        <ele>12.621891469694674</ele>
        <time>2026-07-18T10:55:44Z</time>
      </trkpt>
      <trkpt lat="31.230538043462882" lon="121.39940073487698">
        <ele>13.768635244108737</ele>
        <time>2026-07-18T10:55:44Z</time>
      </trkpt>
      <trkpt lat="31.23026217579522" lon="121.39945876508533">
        <ele>12.643032521940768</ele>
        <time>2026-07-18T10:55:44Z</time>
      </trkpt>
      <trkpt lat="31.230210199384686" lon="121.39945176886809">
        <ele>12.98124358151108</ele>
        <time>2026-07-18T10:55:44Z</time>
      </trkpt>
      <trkpt lat="31.230110250175063" lon="121.39950878377637">
        <ele>12.886120290495455</ele>
        <time>2026-07-18T10:55:44Z</time>
      </trkpt>
      <trkpt lat="31.23003028597109" lon="121.3994917888874">
        <ele>12.434292287565768</ele>
        <time>2026-07-18T10:55:44Z</time>
      </trkpt>
      <trkpt lat="31.229961319790736" lon="121.39951479742855">
        <ele>12.886120290495455</ele>
        <time>2026-07-18T10:55:44Z</time>
      </trkpt>
      <trkpt lat="31.229846380015896" lon="121.39959981702832">
        <ele>12.508274526335299</ele>
        <time>2026-07-18T10:55:44Z</time>
      </trkpt>
      <trkpt lat="31.229762429573114" lon="121.39972383899766">
        <ele>11.897907705046237</ele>
        <time>2026-07-18T10:55:44Z</time>
      </trkpt>
      <trkpt lat="31.229716463859734" lon="121.39986586077121">
        <ele>12.180630178190768</ele>
        <time>2026-07-18T10:55:44Z</time>
      </trkpt>
      <trkpt lat="31.229707482967562" lon="121.40001888188002">
        <ele>13.475346059538424</ele>
        <time>2026-07-18T10:55:44Z</time>
      </trkpt>
      <trkpt lat="31.22973648374949" lon="121.40015589859412">
        <ele>12.286320180632174</ele>
        <time>2026-07-18T10:55:44Z</time>
      </trkpt>
      <trkpt lat="31.229822458109865" lon="121.40028591026774">
        <ele>13.475346059538424</ele>
        <time>2026-07-18T10:55:44Z</time>
      </trkpt>
      <trkpt lat="31.22993441563464" lon="121.4003689132081">
        <ele>13.528187246061862</ele>
        <time>2026-07-18T10:55:44Z</time>
      </trkpt>
      <trkpt lat="31.23006835566781" lon="121.4003879044846">
        <ele>11.181850881315768</ele>
        <time>2026-07-18T10:55:44Z</time>
      </trkpt>
      <trkpt lat="31.230142317252916" lon="121.40035289259608">
        <ele>11.876766652800143</ele>
        <time>2026-07-18T10:55:44Z</time>
      </trkpt>
      <trkpt lat="31.23024426923965" lon="121.40034688277753">
        <ele>12.275753469206393</ele>
        <time>2026-07-18T10:55:44Z</time>
      </trkpt>
      <trkpt lat="31.23037720058961" lon="121.40028586187945">
        <ele>13.747501821257174</ele>
        <time>2026-07-18T10:55:44Z</time>
      </trkpt>
      <trkpt lat="31.230540120867225" lon="121.40024884212093">
        <ele>14.305019826628268</ele>
        <time>2026-07-18T10:55:44Z</time>
      </trkpt>
      <trkpt lat="31.23065206861621" lon="121.40024583190932">
        <ele>12.117214650847018</ele>
        <time>2026-07-18T10:55:44Z</time>
      </trkpt>
      <trkpt lat="31.230911938324" lon="121.40015579606234">
        <ele>12.056446523405612</ele>
        <time>2026-07-18T10:55:44Z</time>
      </trkpt>
      <trkpt lat="31.231024880684558" lon="121.40010577907285">
        <ele>13.736927480436862</ele>
        <time>2026-07-18T10:55:44Z</time>
      </trkpt>
      <trkpt lat="31.2311777953941" lon="121.3999637461798">
        <ele>13.528187246061862</ele>
        <time>2026-07-18T10:55:44Z</time>
      </trkpt>
      <trkpt lat="31.231209773598916" lon="121.39989173388022">
        <ele>13.948315114714205</ele>
        <time>2026-07-18T10:55:44Z</time>
      </trkpt>
      <trkpt lat="31.23120975498595" lon="121.39968670829548">
        <ele>12.067013234831393</ele>
        <time>2026-07-18T10:55:44Z</time>
      </trkpt>
      <trkpt lat="31.231155765650218" lon="121.39951269301838">
        <ele>10.278194875456393</ele>
        <time>2026-07-18T10:55:44Z</time>
      </trkpt>
      <trkpt lat="31.231060800096277" lon="121.39938668782057">
        <ele>14.630016774870455</ele>
        <time>2026-07-18T10:55:44Z</time>
      </trkpt>
      <trkpt lat="31.230856887584615" lon="121.39928769559894">
        <ele>14.651157827116549</ele>
        <time>2026-07-18T10:55:44Z</time>
      </trkpt>
      <trkpt lat="31.230649987066542" lon="121.39933871873855">
        <ele>14.714573354460299</ele>
        <time>2026-07-18T10:55:44Z</time>
      </trkpt>
      <trkpt lat="31.230575021760863" lon="121.39933772517651">
        <ele>14.368435353972018</ele>
        <time>2026-07-18T10:55:44Z</time>
      </trkpt>
      <trkpt lat="31.230291160153556" lon="121.39942975946254">
        <ele>13.779209584929049</ele>
        <time>2026-07-18T10:55:44Z</time>
      </trkpt>
      <trkpt lat="31.23010225388702" lon="121.39950878447385">
        <ele>14.608883352018893</ele>
        <time>2026-07-18T10:55:44Z</time>
      </trkpt>
      <trkpt lat="31.229970317593644" lon="121.39953979942024">
        <ele>14.767414540983737</ele>
        <time>2026-07-18T10:55:44Z</time>
      </trkpt>
      <trkpt lat="31.229851380522195" lon="121.39963382052788">
        <ele>12.759289235807955</ele>
        <time>2026-07-18T10:55:44Z</time>
      </trkpt>
      <trkpt lat="31.229759438505493" lon="121.39980784963903">
        <ele>15.208675832487643</ele>
        <time>2026-07-18T10:55:44Z</time>
      </trkpt>
      <trkpt lat="31.22972247956318" lon="121.4000538853944">
        <ele>14.830830068327487</ele>
        <time>2026-07-18T10:55:44Z</time>
      </trkpt>
      <trkpt lat="31.229776467542568" lon="121.40017789828867">
        <ele>15.007862539030612</ele>
        <time>2026-07-18T10:55:44Z</time>
      </trkpt>
      <trkpt lat="31.229916420630143" lon="121.40033991029712">
        <ele>15.229816884733737</ele>
        <time>2026-07-18T10:55:44Z</time>
      </trkpt>
      <trkpt lat="31.22997439800264" lon="121.40037691096443">
        <ele>14.97880217526108</ele>
        <time>2026-07-18T10:55:44Z</time>
      </trkpt>
      <trkpt lat="31.23029024871222" lon="121.40035387984693">
        <ele>10.951977224089205</ele>
        <time>2026-07-18T10:55:44Z</time>
      </trkpt>
      <trkpt lat="31.230596096244035" lon="121.40026083902956">
        <ele>15.618229360319674</ele>
        <time>2026-07-18T10:55:44Z</time>
      </trkpt>
      <trkpt lat="31.23088695205546" lon="121.40017580113368">
        <ele>15.155834645964205</ele>
        <time>2026-07-18T10:55:44Z</time>
      </trkpt>
      <trkpt lat="31.23105986197157" lon="121.40008177264207">
        <ele>15.102985830046237</ele>
        <time>2026-07-18T10:55:44Z</time>
      </trkpt>
      <trkpt lat="31.231119829053085" lon="121.40003176046804">
        <ele>14.72514006588608</ele>
        <time>2026-07-18T10:55:44Z</time>
      </trkpt>
      <trkpt lat="31.23122475161487" lon="121.3997277119281">
        <ele>15.219242543913424</ele>
        <time>2026-07-18T10:55:44Z</time>
      </trkpt>
      <trkpt lat="31.231215742014047" lon="121.39956469359322">
        <ele>14.537540883757174</ele>
        <time>2026-07-18T10:55:44Z</time>
      </trkpt>
      <trkpt lat="31.231134769381413" lon="121.39943468640594">
        <ele>15.409489125944674</ele>
        <time>2026-07-18T10:55:44Z</time>
      </trkpt>
      <trkpt lat="31.231005817945206" lon="121.39927868172342">
        <ele>14.566601247526705</ele>
        <time>2026-07-18T10:55:44Z</time>
      </trkpt>
      <trkpt lat="31.23084988932914" lon="121.39926569405499">
        <ele>15.398922414518893</ele>
        <time>2026-07-18T10:55:44Z</time>
      </trkpt>
      <trkpt lat="31.230534042121512" lon="121.39935673068194">
        <ele>13.610104055143893</ele>
        <time>2026-07-18T10:55:44Z</time>
      </trkpt>
      <trkpt lat="31.23040610592403" lon="121.39941774816849">
        <ele>14.011730642057955</ele>
        <time>2026-07-18T10:55:44Z</time>
      </trkpt>
      <trkpt lat="31.23028216440294" lon="121.39943076035318">
        <ele>14.862537831999362</ele>
        <time>2026-07-18T10:55:44Z</time>
      </trkpt>
      <trkpt lat="31.230072268435812" lon="121.39951678797179">
        <ele>12.759289235807955</ele>
        <time>2026-07-18T10:55:44Z</time>
      </trkpt>
      <trkpt lat="31.229845383980273" lon="121.3996418219858">
        <ele>14.883678884245455</ele>
        <time>2026-07-18T10:55:44Z</time>
      </trkpt>
      <trkpt lat="31.229795412502476" lon="121.39970383370374">
        <ele>14.305019826628268</ele>
        <time>2026-07-18T10:55:44Z</time>
      </trkpt>
      <trkpt lat="31.22977642734294" lon="121.39977184366303">
        <ele>14.294453115202487</ele>
        <time>2026-07-18T10:55:44Z</time>
      </trkpt>
      <trkpt lat="31.229706468409084" lon="121.39986486151427">
        <ele>14.704006643034518</ele>
        <time>2026-07-18T10:55:44Z</time>
      </trkpt>
      <trkpt lat="31.229702480988923" lon="121.3999758764797">
        <ele>13.810917348600924</ele>
        <time>2026-07-18T10:55:44Z</time>
      </trkpt>
      <trkpt lat="31.229828454760927" lon="121.40028090899082">
        <ele>14.178188771940768</ele>
        <time>2026-07-18T10:55:44Z</time>
      </trkpt>
      <trkpt lat="31.229871441288243" lon="121.4003379139131">
        <ele>13.475346059538424</ele>
        <time>2026-07-18T10:55:44Z</time>
      </trkpt>
      <trkpt lat="31.22992642016434" lon="121.40037591499369">
        <ele>13.863758535124362</ele>
        <time>2026-07-18T10:55:44Z</time>
      </trkpt>
      <trkpt lat="31.230160314156443" lon="121.40039789802867">
        <ele>14.59830901119858</ele>
        <time>2026-07-18T10:55:44Z</time>
      </trkpt>
      <trkpt lat="31.23049214884795" lon="121.40029985397055">
        <ele>14.146481008268893</ele>
        <time>2026-07-18T10:55:44Z</time>
      </trkpt>
      <trkpt lat="31.23056911213094" lon="121.4002908458946">
        <ele>14.146481008268893</ele>
        <time>2026-07-18T10:55:44Z</time>
      </trkpt>
      <trkpt lat="31.230877957523337" lon="121.40018780366347">
        <ele>13.306240529753268</ele>
        <time>2026-07-18T10:55:44Z</time>
      </trkpt>
      <trkpt lat="31.23106985973837" lon="121.40010477500793">
        <ele>14.18876311276108</ele>
        <time>2026-07-18T10:55:44Z</time>
      </trkpt>
      <trkpt lat="31.23117179846803" lon="121.39996674710507">
        <ele>11.181850881315768</ele>
        <time>2026-07-18T10:55:44Z</time>
      </trkpt>
      <trkpt lat="31.231219762958336" lon="121.399827724784">
        <ele>13.485912770964205</ele>
        <time>2026-07-18T10:55:44Z</time>
      </trkpt>
      <trkpt lat="31.231238737722762" lon="121.39964170044605">
        <ele>14.054005117155612</ele>
        <time>2026-07-18T10:55:44Z</time>
      </trkpt>
      <trkpt lat="31.231173767564997" lon="121.39963870576246">
        <ele>12.717014760710299</ele>
        <time>2026-07-18T10:55:44Z</time>
      </trkpt>
      <trkpt lat="31.231123781097935" lon="121.39952069669249">
        <ele>14.503193349577487</ele>
        <time>2026-07-18T10:55:44Z</time>
      </trkpt>
      <trkpt lat="31.23096883996649" lon="121.3993486919397">
        <ele>12.896687001921237</ele>
        <time>2026-07-18T10:55:44Z</time>
      </trkpt>
      <trkpt lat="31.23090286807189" lon="121.39931369416693">
        <ele>14.484692067839205</ele>
        <time>2026-07-18T10:55:44Z</time>
      </trkpt>
      <trkpt lat="31.230833899136723" lon="121.3993006988892">
        <ele>13.684086293913424</ele>
        <time>2026-07-18T10:55:44Z</time>
      </trkpt>
      <trkpt lat="31.230519047368627" lon="121.39933272955408">
        <ele>13.987949819304049</ele>
        <time>2026-07-18T10:55:44Z</time>
      </trkpt>
      <trkpt lat="31.230205200195844" lon="121.39943176717259">
        <ele>12.938961477018893</ele>
        <time>2026-07-18T10:55:44Z</time>
      </trkpt>
      <trkpt lat="31.22991434518951" lon="121.39955980654736">
        <ele>11.234699697233737</ele>
        <time>2026-07-18T10:55:44Z</time>
      </trkpt>
      <trkpt lat="31.22981939529395" lon="121.3996328232012">
        <ele>13.72636076901108</ele>
        <time>2026-07-18T10:55:44Z</time>
      </trkpt>
      <trkpt lat="31.22975943105395" lon="121.3997248393806">
        <ele>13.958881826139987</ele>
        <time>2026-07-18T10:55:44Z</time>
      </trkpt>
      <trkpt lat="31.229729463167065" lon="121.39992186693405">
        <ele>14.18876311276108</ele>
        <time>2026-07-18T10:55:44Z</time>
      </trkpt>
      <trkpt lat="31.229730470878504" lon="121.40000487796394">
        <ele>13.147701711393893</ele>
        <time>2026-07-18T10:55:44Z</time>
      </trkpt>
      <trkpt lat="31.229760471644333" lon="121.4001468952073">
        <ele>13.652378530241549</ele>
        <time>2026-07-18T10:55:44Z</time>
      </trkpt>
      <trkpt lat="31.22982845262993" lon="121.40026190613837">
        <ele>12.653599233366549</ele>
        <time>2026-07-18T10:55:44Z</time>
      </trkpt>
      <trkpt lat="31.229940411107503" lon="121.40035391036206">
        <ele>13.306240529753268</ele>
        <time>2026-07-18T10:55:44Z</time>
      </trkpt>
      <trkpt lat="31.2300283742297" lon="121.40038790797203">
        <ele>11.929615468718112</ele>
        <time>2026-07-18T10:55:44Z</time>
      </trkpt>
      <trkpt lat="31.230229278400426" lon="121.4003658870227">
        <ele>13.610104055143893</ele>
        <time>2026-07-18T10:55:44Z</time>
      </trkpt>
      <trkpt lat="31.230541118962307" lon="121.4002358401019">
        <ele>13.263966054655612</ele>
        <time>2026-07-18T10:55:44Z</time>
      </trkpt>
      <trkpt lat="31.23081998570065" lon="121.40019981047305">
        <ele>12.833271474577487</ele>
        <time>2026-07-18T10:55:44Z</time>
      </trkpt>
      <trkpt lat="31.231020882432418" lon="121.4001047792802">
        <ele>13.316807241179049</ele>
        <time>2026-07-18T10:55:44Z</time>
      </trkpt>
      <trkpt lat="31.231205775355587" lon="121.39989073409883">
        <ele>11.802784414030612</ele>
        <time>2026-07-18T10:55:44Z</time>
      </trkpt>
      <trkpt lat="31.231241752126465" lon="121.39982072197934">
        <ele>13.578396291472018</ele>
        <time>2026-07-18T10:55:44Z</time>
      </trkpt>
      <trkpt lat="31.231231743425855" lon="121.39967070447324">
        <ele>1.9920239159837365</ele>
        <time>2026-07-18T10:55:44Z</time>
      </trkpt>
      <trkpt lat="31.23115176378261" lon="121.39946468813343">
        <ele>9.437954396940768</ele>
        <time>2026-07-18T10:55:44Z</time>
      </trkpt>
      <trkpt lat="31.231063797761824" lon="121.3993736862155">
        <ele>13.810917348600924</ele>
        <time>2026-07-18T10:55:44Z</time>
      </trkpt>
      <trkpt lat="31.230850888258885" lon="121.3992566930938">
        <ele>13.295673818327487</ele>
        <time>2026-07-18T10:55:44Z</time>
      </trkpt>
      <trkpt lat="31.23061700307343" lon="121.3993487226301">
        <ele>12.759289235807955</ele>
        <time>2026-07-18T10:55:44Z</time>
      </trkpt>
      <trkpt lat="31.230310152167444" lon="121.39944075897452">
        <ele>13.810917348600924</ele>
        <time>2026-07-18T10:55:44Z</time>
      </trkpt>
      <trkpt lat="31.23001429614033" lon="121.39952679413626">
        <ele>13.359089345671237</ele>
        <time>2026-07-18T10:55:44Z</time>
      </trkpt>
      <trkpt lat="31.22990835033163" lon="121.39958881036254">
        <ele>12.91782805416733</ele>
        <time>2026-07-18T10:55:44Z</time>
      </trkpt>
      <trkpt lat="31.22981940049224" lon="121.39969383041077">
        <ele>13.094860524870455</ele>
        <time>2026-07-18T10:55:44Z</time>
      </trkpt>
      <trkpt lat="31.229740456614447" lon="121.3999068640045">
        <ele>12.611324758268893</ele>
        <time>2026-07-18T10:55:44Z</time>
      </trkpt>
      <trkpt lat="31.229724472463612" lon="121.39999287685738">
        <ele>13.493839711882174</ele>
        <time>2026-07-18T10:55:44Z</time>
      </trkpt>
      <trkpt lat="31.229732477289353" lon="121.40007688772644">
        <ele>13.51762053463608</ele>
        <time>2026-07-18T10:55:44Z</time>
      </trkpt>
      <trkpt lat="31.22975847342746" lon="121.400154896532">
        <ele>9.596485585905612</ele>
        <time>2026-07-18T10:55:44Z</time>
      </trkpt>
      <trkpt lat="31.229901424840815" lon="121.40031590793049">
        <ele>12.780430288054049</ele>
        <time>2026-07-18T10:55:44Z</time>
      </trkpt>
      <trkpt lat="31.230082346019874" lon="121.40036089906424">
        <ele>13.422497243620455</ele>
        <time>2026-07-18T10:55:44Z</time>
      </trkpt>
      <trkpt lat="31.23025626564329" lon="121.40036388435858">
        <ele>14.460911245085299</ele>
        <time>2026-07-18T10:55:44Z</time>
      </trkpt>
      <trkpt lat="31.230366206029508" lon="121.40028886329142">
        <ele>14.862537831999362</ele>
        <time>2026-07-18T10:55:44Z</time>
      </trkpt>
      <trkpt lat="31.230615085655344" lon="121.4002448349865">
        <ele>15.134693593718112</ele>
        <time>2026-07-18T10:55:44Z</time>
      </trkpt>
      <trkpt lat="31.23067005608639" lon="121.40020782472394">
        <ele>14.936520070768893</ele>
        <time>2026-07-18T10:55:44Z</time>
      </trkpt>
      <trkpt lat="31.230965910858956" lon="121.40013278805473">
        <ele>12.938961477018893</ele>
        <time>2026-07-18T10:55:44Z</time>
      </trkpt>
      <trkpt lat="31.2310918426296" lon="121.40003776373553">
        <ele>7.4853100487962365</ele>
        <time>2026-07-18T10:55:44Z</time>
      </trkpt>
      <trkpt lat="31.231164797411235" lon="121.39992274186474">
        <ele>14.431850881315768</ele>
        <time>2026-07-18T10:55:44Z</time>
      </trkpt>
      <trkpt lat="31.231231745578402" lon="121.39969570745423">
        <ele>12.717014760710299</ele>
        <time>2026-07-18T10:55:44Z</time>
      </trkpt>
      <trkpt lat="31.231230739250602" lon="121.39961569811771">
        <ele>13.842625112272799</ele>
        <time>2026-07-18T10:55:44Z</time>
      </trkpt>
      <trkpt lat="31.231158759172654" lon="121.39944668559161">
        <ele>14.936520070768893</ele>
        <time>2026-07-18T10:55:44Z</time>
      </trkpt>
      <trkpt lat="31.230995826749243" lon="121.39933868857125">
        <ele>14.460911245085299</ele>
        <time>2026-07-18T10:55:44Z</time>
      </trkpt>
      <trkpt lat="31.230857888086152" lon="121.39930169689588">
        <ele>14.18876311276108</ele>
        <time>2026-07-18T10:55:44Z</time>
      </trkpt>
      <trkpt lat="31.23060700994049" lon="121.39937972667973">
        <ele>13.652378530241549</ele>
        <time>2026-07-18T10:55:44Z</time>
      </trkpt>
      <trkpt lat="31.230516051401878" lon="121.39936973358324">
        <ele>13.821484060026705</ele>
        <time>2026-07-18T10:55:44Z</time>
      </trkpt>
      <trkpt lat="31.230246182760762" lon="121.39945276583649">
        <ele>13.884899587370455</ele>
        <time>2026-07-18T10:55:44Z</time>
      </trkpt>
      <trkpt lat="31.229927340288672" lon="121.39957380699771">
        <ele>14.315586538054049</ele>
        <time>2026-07-18T10:55:44Z</time>
      </trkpt>
      <trkpt lat="31.22980540458533" lon="121.39966582829781">
        <ele>14.347294301725924</ele>
        <time>2026-07-18T10:55:44Z</time>
      </trkpt>
      <trkpt lat="31.229744440676797" lon="121.3997548443545">
        <ele>14.608883352018893</ele>
        <time>2026-07-18T10:55:44Z</time>
      </trkpt>
      <trkpt lat="31.229749472207388" lon="121.40010389004085">
        <ele>12.53733489010483</ele>
        <time>2026-07-18T10:55:44Z</time>
      </trkpt>
      <trkpt lat="31.22978346429254" lon="121.40017789767838">
        <ele>15.18754240963608</ele>
        <time>2026-07-18T10:55:44Z</time>
      </trkpt>
      <trkpt lat="31.229860438445744" lon="121.40026790424717">
        <ele>14.947094411589205</ele>
        <time>2026-07-18T10:55:44Z</time>
      </trkpt>
      <trkpt lat="31.23003936620576" lon="121.40036290312301">
        <ele>10.740589589811862</ele>
        <time>2026-07-18T10:55:44Z</time>
      </trkpt>
      <trkpt lat="31.23032123271689" lon="121.40033987498673">
        <ele>9.112949819304049</ele>
        <time>2026-07-18T10:55:44Z</time>
      </trkpt>
      <trkpt lat="31.230496141155452" lon="121.40024784580827">
        <ele>15.303799123503268</ele>
        <time>2026-07-18T10:55:44Z</time>
      </trkpt>
      <trkpt lat="31.230705044051952" lon="121.40024582728834">
        <ele>14.513760061003268</ele>
        <time>2026-07-18T10:55:44Z</time>
      </trkpt>
      <trkpt lat="31.23094192346495" lon="121.40014679215228">
        <ele>15.071278066374362</ele>
        <time>2026-07-18T10:55:44Z</time>
      </trkpt>
      <trkpt lat="31.231104835694918" lon="121.40002876136349">
        <ele>15.18754240963608</ele>
        <time>2026-07-18T10:55:44Z</time>
      </trkpt>
      <trkpt lat="31.2312287552177" lon="121.39978871909305">
        <ele>15.586521596647799</ele>
        <time>2026-07-18T10:55:44Z</time>
      </trkpt>
      <trkpt lat="31.23123374648197" lon="121.39971670980923">
        <ele>15.155834645964205</ele>
        <time>2026-07-18T10:55:44Z</time>
      </trkpt>
      <trkpt lat="31.2311717616605" lon="121.3995556964145">
        <ele>15.324940175749362</ele>
        <time>2026-07-18T10:55:44Z</time>
      </trkpt>
      <trkpt lat="31.23105180404572" lon="121.39938368829444">
        <ele>14.083065480925143</ele>
        <time>2026-07-18T10:55:44Z</time>
      </trkpt>
      <trkpt lat="31.230987831023093" lon="121.39934669007982">
        <ele>14.66172453854233</ele>
        <time>2026-07-18T10:55:44Z</time>
      </trkpt>
      <trkpt lat="31.230746940562867" lon="121.3993167080682">
        <ele>14.682865590788424</ele>
        <time>2026-07-18T10:55:44Z</time>
      </trkpt>
      <trkpt lat="31.230480068962873" lon="121.39938173795932">
        <ele>14.85197112057358</ele>
        <time>2026-07-18T10:55:44Z</time>
      </trkpt>
      <trkpt lat="31.230190208890644" lon="121.39945477093333">
        <ele>13.578396291472018</ele>
        <time>2026-07-18T10:55:44Z</time>
      </trkpt>
      <trkpt lat="31.230006298356585" lon="121.39950779273367">
        <ele>14.85197112057358</ele>
        <time>2026-07-18T10:55:44Z</time>
      </trkpt>
      <trkpt lat="31.22983838572028" lon="121.3996238204975">
        <ele>14.460911245085299</ele>
        <time>2026-07-18T10:55:44Z</time>
      </trkpt>
      <trkpt lat="31.229770426739876" lon="121.39973383951644">
        <ele>14.283878774382174</ele>
        <time>2026-07-18T10:55:44Z</time>
      </trkpt>
      <trkpt lat="31.22972346098642" lon="121.39986986067662">
        <ele>14.72514006588608</ele>
        <time>2026-07-18T10:55:44Z</time>
      </trkpt>
      <trkpt lat="31.229741459537262" lon="121.39994186853355">
        <ele>14.799122304655612</ele>
        <time>2026-07-18T10:55:44Z</time>
      </trkpt>
      <trkpt lat="31.229739471259805" lon="121.4000498833579">
        <ele>14.357868642546237</ele>
        <time>2026-07-18T10:55:44Z</time>
      </trkpt>
      <trkpt lat="31.229802456445153" lon="121.4001868973309">
        <ele>15.575954885222018</ele>
        <time>2026-07-18T10:55:44Z</time>
      </trkpt>
      <trkpt lat="31.229922416925014" lon="121.40033190854584">
        <ele>13.705219716764987</ele>
        <time>2026-07-18T10:55:44Z</time>
      </trkpt>
      <trkpt lat="31.229991390112833" lon="121.40037690948226">
        <ele>15.388355703093112</ele>
        <time>2026-07-18T10:55:44Z</time>
      </trkpt>
      <trkpt lat="31.23018830116631" lon="121.40039789558746">
        <ele>16.617008657194674</ele>
        <time>2026-07-18T10:55:44Z</time>
      </trkpt>
      <trkpt lat="31.230448168004273" lon="121.40028885614207">
        <ele>12.685306997038424</ele>
        <time>2026-07-18T10:55:44Z</time>
      </trkpt>
      <trkpt lat="31.230774009094358" lon="121.40021881727424">
        <ele>15.462337941862643</ele>
        <time>2026-07-18T10:55:44Z</time>
      </trkpt>
      <trkpt lat="31.230824981105" lon="121.40017880697495">
        <ele>14.471485585905612</ele>
        <time>2026-07-18T10:55:44Z</time>
      </trkpt>
      <trkpt lat="31.230938924109303" lon="121.40013979141006">
        <ele>14.968227834440768</ele>
        <time>2026-07-18T10:56:05Z</time>
      </trkpt>
      <trkpt lat="31.231080848335388" lon="121.40004376552268">
        <ele>15.240383596159518</ele>
        <time>2026-07-18T10:56:05Z</time>
      </trkpt>
      <trkpt lat="31.231164798574916" lon="121.39993474345029">
        <ele>15.176968068815768</ele>
        <time>2026-07-18T10:56:05Z</time>
      </trkpt>
      <trkpt lat="31.23123074388883" lon="121.39967070456042">
        <ele>14.072498769499362</ele>
        <time>2026-07-18T10:56:05Z</time>
      </trkpt>
      <trkpt lat="31.23115876169279" lon="121.39947968914566">
        <ele>14.682865590788424</ele>
        <time>2026-07-18T10:56:06Z</time>
      </trkpt>
      <trkpt lat="31.23106879486834" lon="121.39936568495716">
        <ele>14.862537831999362</ele>
        <time>2026-07-18T10:56:06Z</time>
      </trkpt>
      <trkpt lat="31.230894870944187" lon="121.39930169366988">
        <ele>13.78977629635483</ele>
        <time>2026-07-18T10:56:06Z</time>
      </trkpt>
      <trkpt lat="31.2307419452104" lon="121.39934971183328">
        <ele>14.714573354460299</ele>
        <time>2026-07-18T10:56:06Z</time>
      </trkpt>
      <trkpt lat="31.230674975976413" lon="121.39934571726833">
        <ele>13.66294524166733</ele>
        <time>2026-07-18T10:56:06Z</time>
      </trkpt>
      <trkpt lat="31.230393111211143" lon="121.39940774825142">
        <ele>14.72514006588608</ele>
        <time>2026-07-18T10:56:06Z</time>
      </trkpt>
      <trkpt lat="31.230241189321735" lon="121.39950777224486">
        <ele>13.094860524870455</ele>
        <time>2026-07-18T10:56:06Z</time>
      </trkpt>
      <trkpt lat="31.23014623386446" lon="121.39951378118873">
        <ele>17.216808767057955</ele>
        <time>2026-07-18T10:56:06Z</time>
      </trkpt>
      <trkpt lat="31.229900746994492" lon="121.39956882948204">
        <ele>13.570469350554049</ele>
        <time>2026-07-18T10:56:06Z</time>
      </trkpt>
      <trkpt lat="31.229885799942522" lon="121.39961615360376">
        <ele>14.777988881804049</ele>
        <time>2026-07-18T10:56:06Z</time>
      </trkpt>
      <trkpt lat="31.22990921236262" lon="121.39956219796683">
        <ele>14.862537831999362</ele>
        <time>2026-07-18T10:56:06Z</time>
      </trkpt>
      <trkpt lat="31.229768428110717" lon="121.39973884030093">
        <ele>14.925953359343112</ele>
        <time>2026-07-18T10:56:06Z</time>
      </trkpt>
      <trkpt lat="31.229736459820103" lon="121.39992086619202">
        <ele>15.480831594206393</ele>
        <time>2026-07-18T10:56:06Z</time>
      </trkpt>
      <trkpt lat="31.229740469468847" lon="121.40003688147483">
        <ele>14.756847829557955</ele>
        <time>2026-07-18T10:56:06Z</time>
      </trkpt>
      <trkpt lat="31.229762468169213" lon="121.40012289160208">
        <ele>15.72391936276108</ele>
        <time>2026-07-18T10:56:06Z</time>
      </trkpt>
      <trkpt lat="31.22989342844017" lon="121.40031490847554">
        <ele>14.241604299284518</ele>
        <time>2026-07-18T10:56:07Z</time>
      </trkpt>
      <trkpt lat="31.230011380480725" lon="121.40037390727176">
        <ele>9.889782399870455</ele>
        <time>2026-07-18T10:56:07Z</time>
      </trkpt>
      <trkpt lat="31.230078349973436" lon="121.40037890220856">
        <ele>14.862537831999362</ele>
        <time>2026-07-18T10:56:07Z</time>
      </trkpt>
      <trkpt lat="31.23013532061647" lon="121.40035389336082">
        <ele>15.166401357389987</ele>
        <time>2026-07-18T10:56:07Z</time>
      </trkpt>
      <trkpt lat="31.230251264954816" lon="121.40033788078244">
        <ele>14.537540883757174</ele>
        <time>2026-07-18T10:56:07Z</time>
      </trkpt>
      <trkpt lat="31.230354212499574" lon="121.40029686554774">
        <ele>13.673519582487643</ele>
        <time>2026-07-18T10:56:07Z</time>
      </trkpt>
      <trkpt lat="31.23066106289473" lon="121.40023182904673">
        <ele>11.498920888639987</ele>
        <time>2026-07-18T10:56:07Z</time>
      </trkpt>
      <trkpt lat="31.230951917980953" lon="121.40013879013341">
        <ele>13.673519582487643</ele>
        <time>2026-07-18T10:56:07Z</time>
      </trkpt>
      <trkpt lat="31.23100588667089" lon="121.40007877693003">
        <ele>14.809696645475924</ele>
        <time>2026-07-18T10:56:07Z</time>
      </trkpt>
      <trkpt lat="31.231107833293827" lon="121.40001875973073">
        <ele>12.717014760710299</ele>
        <time>2026-07-18T10:56:07Z</time>
      </trkpt>
      <trkpt lat="31.23119678057348" lon="121.39990173631818">
        <ele>14.809696645475924</ele>
        <time>2026-07-18T10:56:07Z</time>
      </trkpt>
      <trkpt lat="31.231227750578572" lon="121.39973171215323">
        <ele>14.704006643034518</ele>
        <time>2026-07-18T10:56:07Z</time>
      </trkpt>
      <trkpt lat="31.231190748270883" lon="121.39949768831823">
        <ele>14.442417592741549</ele>
        <time>2026-07-18T10:56:07Z</time>
      </trkpt>
      <trkpt lat="31.231026812461735" lon="121.3993396859696">
        <ele>14.537540883757174</ele>
        <time>2026-07-18T10:56:07Z</time>
      </trkpt>
      <trkpt lat="31.230768929048047" lon="121.39929770425915">
        <ele>14.209896535612643</ele>
        <time>2026-07-18T10:56:08Z</time>
      </trkpt>
      <trkpt lat="31.23043608921915" lon="121.39937974158883">
        <ele>13.620670766569674</ele>
        <time>2026-07-18T11:36:00Z</time>
      </trkpt>
      <trkpt lat="31.230180215058567" lon="121.39947477396075">
        <ele>13.401363820768893</ele>
        <time>2026-07-18T11:36:12Z</time>
      </trkpt>
      <trkpt lat="31.22995732354751" lon="121.39953880044197">
        <ele>13.673519582487643</ele>
        <time>2026-07-18T11:36:24Z</time>
      </trkpt>
      <trkpt lat="31.229821397584384" lon="121.3996708274951">
        <ele>13.884899587370455</ele>
        <time>2026-07-18T11:36:33Z</time>
      </trkpt>
      <trkpt lat="31.229760433069327" lon="121.39975284271367">
        <ele>13.684086293913424</ele>
        <time>2026-07-18T11:36:36Z</time>
      </trkpt>
      <trkpt lat="31.22971746710225" lon="121.39990486574793">
        <ele>13.002377004362643</ele>
        <time>2026-07-18T11:36:42Z</time>
      </trkpt>
      <trkpt lat="31.229722478948894" lon="121.40004788456316">
        <ele>13.51762053463608</ele>
        <time>2026-07-18T11:36:48Z</time>
      </trkpt>
      <trkpt lat="31.229904417909093" lon="121.40026690026109">
        <ele>11.623112172819674</ele>
        <time>2026-07-18T11:37:00Z</time>
      </trkpt>
      <trkpt lat="31.22999738349677" lon="121.40034390385043">
        <ele>13.242825002409518</ele>
        <time>2026-07-18T11:37:07Z</time>
      </trkpt>
      <trkpt lat="31.23006335611644" lon="121.40037190242715">
        <ele>14.336727590300143</ele>
        <time>2026-07-18T11:37:10Z</time>
      </trkpt>
      <trkpt lat="31.230224283759938" lon="121.400391891509">
        <ele>12.423717946745455</ele>
        <time>2026-07-18T11:37:16Z</time>
      </trkpt>
      <trkpt lat="31.23028325451775" lon="121.40037588386826">
        <ele>13.652378530241549</ele>
        <time>2026-07-18T11:37:19Z</time>
      </trkpt>
      <trkpt lat="31.230380201918344" lon="121.40030986525443">
        <ele>15.797901601530612</ele>
        <time>2026-07-18T11:37:22Z</time>
      </trkpt>
      <trkpt lat="31.23053512586583" lon="121.4002728461467">
        <ele>12.960102529264987</ele>
        <time>2026-07-18T11:37:25Z</time>
      </trkpt>
      <trkpt lat="31.230811984655023" lon="121.40015580478119">
        <ele>13.85319182369858</ele>
        <time>2026-07-18T11:37:31Z</time>
      </trkpt>
      <trkpt lat="31.23103787122868" lon="121.40007277330086">
        <ele>13.832050771452487</ele>
        <time>2026-07-18T11:37:40Z</time>
      </trkpt>
      <trkpt lat="31.231145813087153" lon="121.39999275287701">
        <ele>13.620670766569674</ele>
        <time>2026-07-18T11:37:46Z</time>
      </trkpt>
      <trkpt lat="31.231190786536306" lon="121.39993474118336">
        <ele>13.179409475065768</ele>
        <time>2026-07-18T11:37:49Z</time>
      </trkpt>
      <trkpt lat="31.231203751005026" lon="121.39960669943268">
        <ele>13.010303945280612</ele>
        <time>2026-07-18T11:38:01Z</time>
      </trkpt>
      <trkpt lat="31.231173754516192" lon="121.39947668751235">
        <ele>12.653599233366549</ele>
        <time>2026-07-18T11:38:07Z</time>
      </trkpt>
      <trkpt lat="31.231092783753674" lon="121.39936568286461">
        <ele>12.360302419401705</ele>
        <time>2026-07-18T11:38:13Z</time>
      </trkpt>
      <trkpt lat="31.23098282969559" lon="121.39929468530391">
        <ele>11.845058889128268</ele>
        <time>2026-07-18T11:38:19Z</time>
      </trkpt>
      <trkpt lat="31.23083389513184" lon="121.39924169312879">
        <ele>11.834492177702487</ele>
        <time>2026-07-18T11:38:25Z</time>
      </trkpt>
      <trkpt lat="31.23060101077562" lon="121.3993527244323">
        <ele>13.316807241179049</ele>
        <time>2026-07-18T11:38:37Z</time>
      </trkpt>
      <trkpt lat="31.23029615708777" lon="121.39941975796981">
        <ele>10.278194875456393</ele>
        <time>2026-07-18T11:38:49Z</time>
      </trkpt>
      <trkpt lat="31.23001929358262" lon="121.39952379336748">
        <ele>28.78996703121811</ele>
        <time>2026-07-18T11:39:01Z</time>
      </trkpt>
      <trkpt lat="31.229883361200738" lon="121.39957981151578">
        <ele>15.523106069304049</ele>
        <time>2026-07-18T11:39:11Z</time>
      </trkpt>
      <trkpt lat="31.229724450948034" lon="121.39976584745429">
        <ele>12.695873708464205</ele>
        <time>2026-07-18T11:39:20Z</time>
      </trkpt>
      <trkpt lat="31.229709473908898" lon="121.39993687066007">
        <ele>12.801563710905612</ele>
        <time>2026-07-18T11:39:29Z</time>
      </trkpt>
      <trkpt lat="31.2297474722996" lon="121.40009588908633">
        <ele>13.221683950163424</ele>
        <time>2026-07-18T11:39:35Z</time>
      </trkpt>
      <trkpt lat="31.229804457803006" lon="121.40020790022751">
        <ele>12.85441252682358</ele>
        <time>2026-07-18T11:39:38Z</time>
      </trkpt>
      <trkpt lat="31.229904424019487" lon="121.40032090843195">
        <ele>12.653599233366549</ele>
        <time>2026-07-18T11:39:44Z</time>
      </trkpt>
      <trkpt lat="31.229964400547935" lon="121.40035890904261">
        <ele>12.66416594479233</ele>
        <time>2026-07-18T11:39:47Z</time>
      </trkpt>
      <trkpt lat="31.230085345209023" lon="121.40036589957752">
        <ele>12.526768178679049</ele>
        <time>2026-07-18T11:39:53Z</time>
      </trkpt>
      <trkpt lat="31.2303082374819" lon="121.40032887443229">
        <ele>13.044651479460299</ele>
        <time>2026-07-18T11:40:02Z</time>
      </trkpt>
      <trkpt lat="31.230548124021652" lon="121.40030985060697">
        <ele>11.319248647429049</ele>
        <time>2026-07-18T11:40:11Z</time>
      </trkpt>
      <trkpt lat="31.23074202746051" lon="121.40025082480699">
        <ele>12.466000051237643</ele>
        <time>2026-07-18T11:40:20Z</time>
      </trkpt>
      <trkpt lat="31.23105686733561" lon="121.40011977826794">
        <ele>12.497707814909518</ele>
        <time>2026-07-18T11:40:35Z</time>
      </trkpt>
      <trkpt lat="31.231135821542466" lon="121.40003075893547">
        <ele>1.812351674772799</ele>
        <time>2026-07-18T11:40:41Z</time>
      </trkpt>
      <trkpt lat="31.231164801906658" lon="121.39996874798375">
        <ele>12.275753469206393</ele>
        <time>2026-07-18T11:40:44Z</time>
      </trkpt>
      <trkpt lat="31.231081820403087" lon="121.39975672794397">
        <ele>10.299335927702487</ele>
        <time>2026-07-18T11:40:53Z</time>
      </trkpt>
      <trkpt lat="31.231156606938963" lon="121.39952952309339">
        <ele>12.035305471159518</ele>
        <time>2026-07-18T11:40:59Z</time>
      </trkpt>
      <trkpt lat="31.231173748573976" lon="121.39939767911187">
        <ele>10.267628164030612</ele>
        <time>2026-07-18T11:41:05Z</time>
      </trkpt>
      <trkpt lat="31.23104380151103" lon="121.39929568008425">
        <ele>12.487133474089205</ele>
        <time>2026-07-18T11:41:14Z</time>
      </trkpt>
      <trkpt lat="31.230927852317382" lon="121.39925268599318">
        <ele>12.096081227995455</ele>
        <time>2026-07-18T11:41:20Z</time>
      </trkpt>
      <trkpt lat="31.23088087409111" lon="121.39925269009105">
        <ele>12.39201018307358</ele>
        <time>2026-07-18T11:41:23Z</time>
      </trkpt>
      <trkpt lat="31.230818904643744" lon="121.39927969812581">
        <ele>10.225346059538424</ele>
        <time>2026-07-18T11:41:26Z</time>
      </trkpt>
      <trkpt lat="31.23067597207855" lon="121.39929671226868">
        <ele>11.078800649382174</ele>
        <time>2026-07-18T11:41:32Z</time>
      </trkpt>
      <trkpt lat="31.230533041728393" lon="121.39934472954752">
        <ele>12.035305471159518</ele>
        <time>2026-07-18T11:41:39Z</time>
      </trkpt>
      <trkpt lat="31.230413101199712" lon="121.39939774546241">
        <ele>12.466000051237643</ele>
        <time>2026-07-18T11:41:45Z</time>
      </trkpt>
      <trkpt lat="31.23035412848709" lon="121.39939675050222">
        <ele>11.644253225065768</ele>
        <time>2026-07-18T11:41:48Z</time>
      </trkpt>
      <trkpt lat="31.230082262853976" lon="121.39950478577767">
        <ele>12.138355703093112</ele>
        <time>2026-07-18T11:42:00Z</time>
      </trkpt>
      <trkpt lat="31.229983311639977" lon="121.39954079839856">
        <ele>12.148922414518893</ele>
        <time>2026-07-18T11:42:06Z</time>
      </trkpt>
      <trkpt lat="31.22979641047918" lon="121.3996858314594">
        <ele>12.949535817839205</ele>
        <time>2026-07-18T11:42:15Z</time>
      </trkpt>
      <trkpt lat="31.22972145550962" lon="121.39980085207294">
        <ele>5.162754506804049</ele>
        <time>2026-07-18T11:42:18Z</time>
      </trkpt>
      <trkpt lat="31.229691484222844" lon="121.39995687489086">
        <ele>10.877987355925143</ele>
        <time>2026-07-18T11:42:24Z</time>
      </trkpt>
      <trkpt lat="31.22977647211814" lon="121.40021990443397">
        <ele>12.381443471647799</ele>
        <time>2026-07-18T11:42:36Z</time>
      </trkpt>
      <trkpt lat="31.22981446092292" lon="121.40027790975977">
        <ele>12.413151235319674</ele>
        <time>2026-07-18T11:42:40Z</time>
      </trkpt>
      <trkpt lat="31.229921419463505" lon="121.40034991140114">
        <ele>12.569042653776705</ele>
        <time>2026-07-18T11:42:46Z</time>
      </trkpt>
      <trkpt lat="31.230053364157335" lon="121.40040090782816">
        <ele>13.094860524870455</ele>
        <time>2026-07-18T11:42:52Z</time>
      </trkpt>
      <trkpt lat="31.230224285527477" lon="121.40040689386191">
        <ele>10.447300405241549</ele>
        <time>2026-07-18T11:42:58Z</time>
      </trkpt>
      <trkpt lat="31.230388197412434" lon="121.40030286349315">
        <ele>12.159496755339205</ele>
        <time>2026-07-18T11:43:04Z</time>
      </trkpt>
      <trkpt lat="31.230681051864263" lon="121.40021582494087">
        <ele>10.941402883268893</ele>
        <time>2026-07-18T11:43:13Z</time>
      </trkpt>
      <trkpt lat="31.230738023153883" lon="121.40019481689131">
        <ele>12.833271474577487</ele>
        <time>2026-07-18T11:43:16Z</time>
      </trkpt>
      <trkpt lat="31.230873957970378" lon="121.40017480212207">
        <ele>12.444858998991549</ele>
        <time>2026-07-18T11:43:22Z</time>
      </trkpt>
      <trkpt lat="31.231080850591642" lon="121.40006576857515">
        <ele>11.192417592741549</ele>
        <time>2026-07-18T11:43:34Z</time>
      </trkpt>
      <trkpt lat="31.23117479501692" lon="121.39994574403846">
        <ele>11.739368886686862</ele>
        <time>2026-07-18T11:43:43Z</time>
      </trkpt>
      <trkpt lat="31.231256740268414" lon="121.39976671391935">
        <ele>12.339168996550143</ele>
        <time>2026-07-18T11:43:49Z</time>
      </trkpt>
      <trkpt lat="31.231257732763268" lon="121.39968670411035">
        <ele>11.58347746822983</ele>
        <time>2026-07-18T11:43:52Z</time>
      </trkpt>
      <trkpt lat="31.231183751356287" lon="121.39949568870964">
        <ele>11.446079702116549</ele>
        <time>2026-07-18T11:44:01Z</time>
      </trkpt>
      <trkpt lat="31.23102481310478" lon="121.39933568573949">
        <ele>11.570263356901705</ele>
        <time>2026-07-18T11:44:11Z</time>
      </trkpt>
      <trkpt lat="31.230926854812367" lon="121.39928268900388">
        <ele>11.340389699675143</ele>
        <time>2026-07-18T11:44:17Z</time>
      </trkpt>
      <trkpt lat="31.23085688615358" lon="121.39926669354203">
        <ele>11.078800649382174</ele>
        <time>2026-07-18T11:44:20Z</time>
      </trkpt>
      <trkpt lat="31.230537040730695" lon="121.39935673042038">
        <ele>11.298115224577487</ele>
        <time>2026-07-18T11:44:38Z</time>
      </trkpt>
      <trkpt lat="31.230425093234686" lon="121.39936474100398">
        <ele>11.498920888639987</ele>
        <time>2026-07-18T11:44:44Z</time>
      </trkpt>
      <trkpt lat="31.230182214284557" lon="121.39947677400308">
        <ele>11.570263356901705</ele>
        <time>2026-07-18T11:44:56Z</time>
      </trkpt>
      <trkpt lat="31.230036283497604" lon="121.39949578880147">
        <ele>11.961323232389987</ele>
        <time>2026-07-18T11:45:02Z</time>
      </trkpt>
      <trkpt lat="31.229884359276305" lon="121.39956180938854">
        <ele>11.707661123014987</ele>
        <time>2026-07-18T11:45:08Z</time>
      </trkpt>
      <trkpt lat="31.229801403986485" lon="121.39963682523731">
        <ele>10.825146169401705</ele>
        <time>2026-07-18T11:45:14Z</time>
      </trkpt>
      <trkpt lat="31.229717464434096" lon="121.39987686210422">
        <ele>11.044453115202487</ele>
        <time>2026-07-18T11:45:24Z</time>
      </trkpt>
      <trkpt lat="31.229736470513494" lon="121.40002888072284">
        <ele>11.834492177702487</ele>
        <time>2026-07-18T11:45:30Z</time>
      </trkpt>
      <trkpt lat="31.229820454118077" lon="121.4002419038538">
        <ele>12.98124358151108</ele>
        <time>2026-07-18T11:45:39Z</time>
      </trkpt>
      <trkpt lat="31.229912425148065" lon="121.40036291419558">
        <ele>10.941402883268893</ele>
        <time>2026-07-18T11:45:45Z</time>
      </trkpt>
      <trkpt lat="31.22996540358495" lon="121.40038891362101">
        <ele>11.929615468718112</ele>
        <time>2026-07-18T11:45:48Z</time>
      </trkpt>
      <trkpt lat="31.23009034545939" lon="121.40038790256651">
        <ele>12.328602285124362</ele>
        <time>2026-07-18T11:45:54Z</time>
      </trkpt>
      <trkpt lat="31.23015131365671" lon="121.40035789258414">
        <ele>12.085506887175143</ele>
        <time>2026-07-18T11:45:57Z</time>
      </trkpt>
      <trkpt lat="31.230193287745315" lon="121.40030188034281">
        <ele>12.561115712858737</ele>
        <time>2026-07-18T11:46:00Z</time>
      </trkpt>
      <trkpt lat="31.230251257791107" lon="121.40027487120837">
        <ele>11.781650991179049</ele>
        <time>2026-07-18T11:46:03Z</time>
      </trkpt>
      <trkpt lat="31.23053212457607" lon="121.40024884281843">
        <ele>12.096081227995455</ele>
        <time>2026-07-18T11:46:15Z</time>
      </trkpt>
      <trkpt lat="31.230736021590886" lon="121.40017181371914">
        <ele>11.60197112057358</ele>
        <time>2026-07-18T11:46:24Z</time>
      </trkpt>
      <trkpt lat="31.230853968209235" lon="121.40018380517347">
        <ele>10.563557119108737</ele>
        <time>2026-07-18T11:46:30Z</time>
      </trkpt>
      <trkpt lat="31.230954913737854" lon="121.4001117860256">
        <ele>11.98246428463608</ele>
        <time>2026-07-18T11:46:36Z</time>
      </trkpt>
      <trkpt lat="31.231100837547288" lon="121.40002876171225">
        <ele>10.373318166472018</ele>
        <time>2026-07-18T11:46:42Z</time>
      </trkpt>
      <trkpt lat="31.2312057778481" lon="121.39991673750004">
        <ele>10.18571135494858</ele>
        <time>2026-07-18T11:46:48Z</time>
      </trkpt>
      <trkpt lat="31.231247745786973" lon="121.39978171656429">
        <ele>12.508274526335299</ele>
        <time>2026-07-18T11:46:54Z</time>
      </trkpt>
      <trkpt lat="31.231237742281436" lon="121.39968970621267">
        <ele>12.035305471159518</ele>
        <time>2026-07-18T11:46:57Z</time>
      </trkpt>
      <trkpt lat="31.231157763395053" lon="121.39949569097658">
        <ele>7.5989269921556115</ele>
        <time>2026-07-18T11:47:06Z</time>
      </trkpt>
      <trkpt lat="31.231034810111694" lon="121.39935868720478">
        <ele>11.739368886686862</ele>
        <time>2026-07-18T11:47:15Z</time>
      </trkpt>
      <trkpt lat="31.2309758344649" lon="121.39931668810196">
        <ele>11.435512990690768</ele>
        <time>2026-07-18T11:47:21Z</time>
      </trkpt>
      <trkpt lat="31.23088987409451" lon="121.39931369530039">
        <ele>10.352177114225924</ele>
        <time>2026-07-18T11:47:24Z</time>
      </trkpt>
      <trkpt lat="31.230746943250622" lon="121.39935471190674">
        <ele>12.035305471159518</ele>
        <time>2026-07-18T11:47:27Z</time>
      </trkpt>
      <trkpt lat="31.23067897362538" lon="121.39933871621008">
        <ele>11.760509938932955</ele>
        <time>2026-07-18T11:47:30Z</time>
      </trkpt>
      <trkpt lat="31.23044808372757" lon="121.39938074064592">
        <ele>11.686527700163424</ele>
        <time>2026-07-18T11:47:43Z</time>
      </trkpt>
      <trkpt lat="31.230398108818594" lon="121.39940674771073">
        <ele>10.951977224089205</ele>
        <time>2026-07-18T11:47:46Z</time>
      </trkpt>
      <trkpt lat="31.230281163970783" lon="121.39941875917222">
        <ele>7.672909230925143</ele>
        <time>2026-07-18T11:47:52Z</time>
      </trkpt>
      <trkpt lat="31.22999830660637" lon="121.3995647997882">
        <ele>13.684086293913424</ele>
        <time>2026-07-18T11:48:04Z</time>
      </trkpt>
      <trkpt lat="31.229857377736863" lon="121.39963382000477">
        <ele>11.562336415983737</ele>
        <time>2026-07-18T11:48:13Z</time>
      </trkpt>
      <trkpt lat="31.229776426893388" lon="121.39976684304428">
        <ele>12.60075041744858</ele>
        <time>2026-07-18T11:48:19Z</time>
      </trkpt>
      <trkpt lat="31.229737458680514" lon="121.39991386518417">
        <ele>11.60197112057358</ele>
        <time>2026-07-18T11:48:25Z</time>
      </trkpt>
      <trkpt lat="31.229742475143638" lon="121.40010089022742">
        <ele>11.541202993132174</ele>
        <time>2026-07-18T11:48:31Z</time>
      </trkpt>
      <trkpt lat="31.229799465758433" lon="121.4002589082181">
        <ele>11.908474416472018</ele>
        <time>2026-07-18T11:48:37Z</time>
      </trkpt>
      <trkpt lat="31.229841453607705" lon="121.40032391438305">
        <ele>11.675953359343112</ele>
        <time>2026-07-18T11:48:40Z</time>
      </trkpt>
      <trkpt lat="31.2298494649116" lon="121.40045193368638">
        <ele>10.60319182369858</ele>
        <time>2026-07-18T11:48:49Z</time>
      </trkpt>
      <trkpt lat="31.229914431272594" lon="121.40042292341238">
        <ele>10.52128264401108</ele>
        <time>2026-07-18T11:49:22Z</time>
      </trkpt>
      <trkpt lat="31.230091349962205" lon="121.40042990908849">
        <ele>9.910915822722018</ele>
        <time>2026-07-18T11:49:31Z</time>
      </trkpt>
      <trkpt lat="31.230374205727422" lon="121.40031886714907">
        <ele>11.245266408659518</ele>
        <time>2026-07-18T11:49:43Z</time>
      </trkpt>
      <trkpt lat="31.230574108910318" lon="121.40028284425111">
        <ele>11.845058889128268</ele>
        <time>2026-07-18T11:49:53Z</time>
      </trkpt>
      <trkpt lat="31.23069504713651" lon="121.40023182608235">
        <ele>9.437954396940768</ele>
        <time>2026-07-18T11:49:59Z</time>
      </trkpt>
      <trkpt lat="31.230896949046443" lon="121.40019080244434">
        <ele>11.139576406218112</ele>
        <time>2026-07-18T11:50:08Z</time>
      </trkpt>
      <trkpt lat="31.231078854212004" lon="121.40009177238977">
        <ele>10.98368498776108</ele>
        <time>2026-07-18T11:50:17Z</time>
      </trkpt>
      <trkpt lat="31.231218772989692" lon="121.39992873794833">
        <ele>11.086727590300143</ele>
        <time>2026-07-18T11:50:26Z</time>
      </trkpt>
      <trkpt lat="31.231244753991334" lon="121.39985572617593">
        <ele>11.12900969479233</ele>
        <time>2026-07-18T11:50:29Z</time>
      </trkpt>
      <trkpt lat="31.231237741419754" lon="121.39967970501948">
        <ele>11.107868642546237</ele>
        <time>2026-07-18T11:50:35Z</time>
      </trkpt>
      <trkpt lat="31.23117475428426" lon="121.39947968775063">
        <ele>10.825146169401705</ele>
        <time>2026-07-18T11:50:41Z</time>
      </trkpt>
      <trkpt lat="31.231123770993946" lon="121.39938768243132">
        <ele>11.612545461393893</ele>
        <time>2026-07-18T11:50:44Z</time>
      </trkpt>
      <trkpt lat="31.23103080773907" lon="121.3992986815147">
        <ele>7.25278899166733</ele>
        <time>2026-07-18T11:50:50Z</time>
      </trkpt>
      <trkpt lat="31.23097383195205" lon="121.39926668334091">
        <ele>10.867420644499362</ele>
        <time>2026-07-18T11:50:53Z</time>
      </trkpt>
      <trkpt lat="31.230842891295293" lon="121.39924669282519">
        <ele>10.782871694304049</ele>
        <time>2026-07-18T11:50:59Z</time>
      </trkpt>
      <trkpt lat="31.23071895111971" lon="121.39928170704091">
        <ele>14.693432302214205</ele>
        <time>2026-07-18T11:51:05Z</time>
      </trkpt>
      <trkpt lat="31.23060200910327" lon="121.39933572262031">
        <ele>9.995472402311862</ele>
        <time>2026-07-18T11:51:11Z</time>
      </trkpt>
      <trkpt lat="31.230380783746465" lon="121.39936159465367">
        <ele>11.025959462858737</ele>
        <time>2026-07-18T11:51:23Z</time>
      </trkpt>
      <trkpt lat="31.230329141707717" lon="121.39941875498724">
        <ele>10.468441457487643</ele>
        <time>2026-07-18T11:51:26Z</time>
      </trkpt>
      <trkpt lat="31.23019720617627" lon="121.39946177107508">
        <ele>10.772297353483737</ele>
        <time>2026-07-18T11:51:29Z</time>
      </trkpt>
      <trkpt lat="31.230145228482378" lon="121.39943777304102">
        <ele>10.33103606197983</ele>
        <time>2026-07-18T11:51:32Z</time>
      </trkpt>
      <trkpt lat="31.22981339866765" lon="121.39963982454172">
        <ele>10.930836171843112</ele>
        <time>2026-07-18T11:51:53Z</time>
      </trkpt>
      <trkpt lat="31.229757428931773" lon="121.39968983533753">
        <ele>9.963764638639987</ele>
        <time>2026-07-18T11:51:57Z</time>
      </trkpt>
      <trkpt lat="31.229695471829714" lon="121.399846860164">
        <ele>9.92149016354233</ele>
        <time>2026-07-18T11:52:03Z</time>
      </trkpt>
      <trkpt lat="31.229697486001427" lon="121.40000288056889">
        <ele>8.912136525847018</ele>
        <time>2026-07-18T11:52:09Z</time>
      </trkpt>
      <trkpt lat="31.229737482003927" lon="121.40014389678203">
        <ele>10.257053823210299</ele>
        <time>2026-07-18T11:52:15Z</time>
      </trkpt>
      <trkpt lat="31.229823455846482" lon="121.40026990777302">
        <ele>9.720676870085299</ele>
        <time>2026-07-18T11:52:21Z</time>
      </trkpt>
      <trkpt lat="31.229891432234588" lon="121.40033991247675">
        <ele>11.382664174772799</ele>
        <time>2026-07-18T11:52:24Z</time>
      </trkpt>
      <trkpt lat="31.230040370543875" lon="121.40040390943264">
        <ele>10.846279592253268</ele>
        <time>2026-07-18T11:52:30Z</time>
      </trkpt>
      <trkpt lat="31.230157317793914" lon="121.40041690127859">
        <ele>11.308681936003268</ele>
        <time>2026-07-18T11:52:36Z</time>
      </trkpt>
      <trkpt lat="31.23048315506956" lon="121.40031785749306">
        <ele>9.659901113249362</ele>
        <time>2026-07-18T11:52:51Z</time>
      </trkpt>
      <trkpt lat="31.230808991889607" lon="121.40020981289845">
        <ele>11.541202993132174</ele>
        <time>2026-07-18T11:53:06Z</time>
      </trkpt>
      <trkpt lat="31.230944926051098" lon="121.4001837972393">
        <ele>10.772297353483737</ele>
        <time>2026-07-18T11:53:12Z</time>
      </trkpt>
      <trkpt lat="31.231093849884182" lon="121.40011677461568">
        <ele>11.52006194088608</ele>
        <time>2026-07-18T11:53:18Z</time>
      </trkpt>
      <trkpt lat="31.231138813452713" lon="121.3999637495802">
        <ele>10.782871694304049</ele>
        <time>2026-07-18T11:53:24Z</time>
      </trkpt>
      <trkpt lat="31.231234756198745" lon="121.39982972372991">
        <ele>10.362743825651705</ele>
        <time>2026-07-18T11:53:31Z</time>
      </trkpt>
      <trkpt lat="31.231202751716374" lon="121.39960969986579">
        <ele>6.779819936491549</ele>
        <time>2026-07-18T11:53:37Z</time>
      </trkpt>
      <trkpt lat="31.231075795284596" lon="121.3994156895417">
        <ele>8.114170522429049</ele>
        <time>2026-07-18T11:53:46Z</time>
      </trkpt>
      <trkpt lat="31.230971835829582" lon="121.39930968775185">
        <ele>11.372097463347018</ele>
        <time>2026-07-18T11:53:52Z</time>
      </trkpt>
      <trkpt lat="31.230675975940766" lon="121.39935171779132">
        <ele>8.827587575651705</ele>
        <time>2026-07-18T11:54:04Z</time>
      </trkpt>
      <trkpt lat="31.230408104996584" lon="121.39941774799412">
        <ele>10.877987355925143</ele>
        <time>2026-07-18T11:54:16Z</time>
      </trkpt>
      <trkpt lat="31.230144234635258" lon="121.39951178114251">
        <ele>7.9662060448899865</ele>
        <time>2026-07-18T11:54:28Z</time>
      </trkpt>
      <trkpt lat="31.22985437820917" lon="121.39962281898644">
        <ele>8.798519582487643</ele>
        <time>2026-07-18T11:54:40Z</time>
      </trkpt>
      <trkpt lat="31.229790412319172" lon="121.3996748306726">
        <ele>12.138355703093112</ele>
        <time>2026-07-18T11:54:43Z</time>
      </trkpt>
      <trkpt lat="31.229715459302724" lon="121.3998118539787">
        <ele>10.58469817135483</ele>
        <time>2026-07-18T11:54:49Z</time>
      </trkpt>
      <trkpt lat="31.229713501260523" lon="121.40021890977923">
        <ele>10.761730642057955</ele>
        <time>2026-07-18T11:55:01Z</time>
      </trkpt>
      <trkpt lat="31.229713501260523" lon="121.40021890977923">
        <ele>13.49839422851801</ele>
        <time>2026-07-18T11:55:04Z</time>
      </trkpt>
    </trkseg>
  </trk>
</gpx>