<?xml version="1.0" encoding="UTF-8"?>
<gpx xmlns="http://www.topografix.com/GPX/1/1" xmlns:gpxtpx="http://www.garmin.com/xmlschemas/TrackPointExtension/v1" xmlns:xsi="http://www.w3.org/2001/XMLSchema-instance" xsi:schemaLocation="http://www.topografix.com/GPX/1/1 http://www.topografix.com/GPX/1/1/gpx.xsd" version="1.1" creator="gpx.py -- https://github.com/tkrajina/gpxpy">
  <trk>
    <name>gpx from keep</name>
    <type>Run</type>
    <trkseg>
      <trkpt lat="31.225668287879028" lon="121.39901812346697">
        <ele>12.380855317227542</ele>
        <time>2026-09-17T09:36:13Z</time>
      </trkpt>
      <trkpt lat="31.225345438519017" lon="121.39900815078238">
        <ele>14.33613848220557</ele>
        <time>2026-09-17T09:36:25Z</time>
      </trkpt>
      <trkpt lat="31.22509255685128" lon="121.39900517258523">
        <ele>14.351992364041507</ele>
        <time>2026-09-17T09:36:34Z</time>
      </trkpt>
      <trkpt lat="31.224923635036834" lon="121.39898718581921">
        <ele>13.93979715835303</ele>
        <time>2026-09-17T09:36:40Z</time>
      </trkpt>
      <trkpt lat="31.224841674921965" lon="121.39901319513591">
        <ele>13.99264311324805</ele>
        <time>2026-09-17T09:36:43Z</time>
      </trkpt>
      <trkpt lat="31.22476771343251" lon="121.39907920725078">
        <ele>12.793050522916019</ele>
        <time>2026-09-17T09:36:46Z</time>
      </trkpt>
      <trkpt lat="31.224684762943966" lon="121.3992472299335">
        <ele>13.670285935513675</ele>
        <time>2026-09-17T09:36:52Z</time>
      </trkpt>
      <trkpt lat="31.224645794870902" lon="121.39943925279829">
        <ele>10.029231782071292</ele>
        <time>2026-09-17T09:36:58Z</time>
      </trkpt>
      <trkpt lat="31.224656796430754" lon="121.39952626129585">
        <ele>10.541833634488285</ele>
        <time>2026-09-17T09:37:01Z</time>
      </trkpt>
      <trkpt lat="31.22476475911119" lon="121.39968727042852">
        <ele>13.078416581265628</ele>
        <time>2026-09-17T09:37:07Z</time>
      </trkpt>
      <trkpt lat="31.224850726380996" lon="121.39977327339635">
        <ele>13.876382584683597</ele>
        <time>2026-09-17T09:37:10Z</time>
      </trkpt>
      <trkpt lat="31.22493569156455" lon="121.39982827288279">
        <ele>13.543456788174808</ele>
        <time>2026-09-17T09:37:13Z</time>
      </trkpt>
      <trkpt lat="31.22511561011346" lon="121.39985926114898">
        <ele>14.167032952420413</ele>
        <time>2026-09-17T09:37:19Z</time>
      </trkpt>
      <trkpt lat="31.225348498835356" lon="121.39983623789779">
        <ele>14.542236085049808</ele>
        <time>2026-09-17T09:37:28Z</time>
      </trkpt>
      <trkpt lat="31.225621373931354" lon="121.3998672180698">
        <ele>12.856465096585453</ele>
        <time>2026-09-17T09:37:37Z</time>
      </trkpt>
      <trkpt lat="31.22584226845736" lon="121.39984519598232">
        <ele>12.317441697232425</ele>
        <time>2026-09-17T09:37:43Z</time>
      </trkpt>
      <trkpt lat="31.225966206028318" lon="121.39979717910305">
        <ele>12.909311051480472</ele>
        <time>2026-09-17T09:37:46Z</time>
      </trkpt>
      <trkpt lat="31.226036165791523" lon="121.3997131626697">
        <ele>15.62028383743018</ele>
        <time>2026-09-17T09:37:49Z</time>
      </trkpt>
      <trkpt lat="31.22608913290269" lon="121.39961814681159">
        <ele>14.616219277493656</ele>
        <time>2026-09-17T09:37:52Z</time>
      </trkpt>
      <trkpt lat="31.226122109530305" lon="121.39952013283823">
        <ele>12.845895524136722</ele>
        <time>2026-09-17T09:37:55Z</time>
      </trkpt>
      <trkpt lat="31.22611710010242" lon="121.39936411664902">
        <ele>11.97394537460059</ele>
        <time>2026-09-17T09:38:01Z</time>
      </trkpt>
      <trkpt lat="31.226044119536162" lon="121.39914510182577">
        <ele>16.027193780057132</ele>
        <time>2026-09-17T09:38:07Z</time>
      </trkpt>
      <trkpt lat="31.225983143693544" lon="121.39907310072653">
        <ele>13.480041260831058</ele>
        <time>2026-09-17T09:38:10Z</time>
      </trkpt>
      <trkpt lat="31.225838206543695" lon="121.39898610597507">
        <ele>13.844675774686038</ele>
        <time>2026-09-17T09:38:16Z</time>
      </trkpt>
      <trkpt lat="31.22552135384843" lon="121.39896713204703">
        <ele>6.6576898051425815</ele>
        <time>2026-09-17T09:38:28Z</time>
      </trkpt>
      <trkpt lat="31.22523648707942" lon="121.39896315656443">
        <ele>13.32678961288184</ele>
        <time>2026-09-17T09:38:40Z</time>
      </trkpt>
      <trkpt lat="31.224961616022632" lon="121.39896518069925">
        <ele>12.444270844571292</ele>
        <time>2026-09-17T09:38:53Z</time>
      </trkpt>
      <trkpt lat="31.224913638789317" lon="121.39897018529197">
        <ele>13.10483908187598</ele>
        <time>2026-09-17T09:38:56Z</time>
      </trkpt>
      <trkpt lat="31.2248196861431" lon="121.39902919840586">
        <ele>13.263375039212406</ele>
        <time>2026-09-17T09:38:59Z</time>
      </trkpt>
      <trkpt lat="31.224701751044908" lon="121.39918722276488">
        <ele>13.70727705489844</ele>
        <time>2026-09-17T09:39:05Z</time>
      </trkpt>
      <trkpt lat="31.22466577449134" lon="121.39928623538721">
        <ele>-3.0711615132167935</ele>
        <time>2026-09-17T09:39:08Z</time>
      </trkpt>
      <trkpt lat="31.22465078991838" lon="121.3994042486701">
        <ele>14.272723908536136</ele>
        <time>2026-09-17T09:39:11Z</time>
      </trkpt>
      <trkpt lat="31.224659790815135" lon="121.39947225511813">
        <ele>13.98207354079932</ele>
        <time>2026-09-17T09:39:14Z</time>
      </trkpt>
      <trkpt lat="31.22476175948559" lon="121.39967526926074">
        <ele>12.391424889676273</ele>
        <time>2026-09-17T09:39:20Z</time>
      </trkpt>
      <trkpt lat="31.22484172765124" lon="121.39974027011958">
        <ele>12.111344094388187</ele>
        <time>2026-09-17T09:39:23Z</time>
      </trkpt>
      <trkpt lat="31.22502964476148" lon="121.39979826090779">
        <ele>13.865813965909183</ele>
        <time>2026-09-17T09:39:29Z</time>
      </trkpt>
      <trkpt lat="31.225305516847648" lon="121.39981323873343">
        <ele>14.373130555264652</ele>
        <time>2026-09-17T09:39:41Z</time>
      </trkpt>
      <trkpt lat="31.225575390713185" lon="121.39981621557557">
        <ele>13.221098656766117</ele>
        <time>2026-09-17T09:39:53Z</time>
      </trkpt>
      <trkpt lat="31.225753310190797" lon="121.3998462038684">
        <ele>12.9304482890293</ele>
        <time>2026-09-17T09:40:02Z</time>
      </trkpt>
      <trkpt lat="31.22591822994351" lon="121.39981318529719">
        <ele>13.929228539578617</ele>
        <time>2026-09-17T09:40:08Z</time>
      </trkpt>
      <trkpt lat="31.226040164709417" lon="121.39972216341022">
        <ele>15.319064850918949</ele>
        <time>2026-09-17T09:40:14Z</time>
      </trkpt>
      <trkpt lat="31.226110120606837" lon="121.39958814153051">
        <ele>10.124353165738285</ele>
        <time>2026-09-17T09:40:20Z</time>
      </trkpt>
      <trkpt lat="31.226130104611624" lon="121.39950513048683">
        <ele>13.046708817593753</ele>
        <time>2026-09-17T09:40:23Z</time>
      </trkpt>
      <trkpt lat="31.226127099303294" lon="121.39941712128244">
        <ele>14.76947187911719</ele>
        <time>2026-09-17T09:40:26Z</time>
      </trkpt>
      <trkpt lat="31.226080109754005" lon="121.3992541089185">
        <ele>14.156463379971683</ele>
        <time>2026-09-17T09:40:32Z</time>
      </trkpt>
      <trkpt lat="31.22599414040265" lon="121.39910410249713">
        <ele>11.847116227261722</ele>
        <time>2026-09-17T09:40:38Z</time>
      </trkpt>
      <trkpt lat="31.225871191549384" lon="121.3989941037615">
        <ele>12.98329424392432</ele>
        <time>2026-09-17T09:40:44Z</time>
      </trkpt>
      <trkpt lat="31.225565332980704" lon="121.39896212780371">
        <ele>14.626788849942386</ele>
        <time>2026-09-17T09:40:56Z</time>
      </trkpt>
      <trkpt lat="31.225271470254473" lon="121.3989551528633">
        <ele>13.564594025723636</ele>
        <time>2026-09-17T09:41:08Z</time>
      </trkpt>
      <trkpt lat="31.225000598457676" lon="121.39897817836464">
        <ele>13.358497376553714</ele>
        <time>2026-09-17T09:41:20Z</time>
      </trkpt>
      <trkpt lat="31.22484767256281" lon="121.39902119528733">
        <ele>15.79995798598975</ele>
        <time>2026-09-17T09:41:26Z</time>
      </trkpt>
      <trkpt lat="31.224771710789167" lon="121.39906620576836">
        <ele>12.46540808212012</ele>
        <time>2026-09-17T09:41:29Z</time>
      </trkpt>
      <trkpt lat="31.22471274298348" lon="121.3991412175739">
        <ele>12.734920258633792</ele>
        <time>2026-09-17T09:41:32Z</time>
      </trkpt>
      <trkpt lat="31.22461180565183" lon="121.39936924844153">
        <ele>13.067847008816898</ele>
        <time>2026-09-17T09:41:41Z</time>
      </trkpt>
      <trkpt lat="31.224543078686597" lon="121.39951754641375">
        <ele>13.29508280288428</ele>
        <time>2026-09-17T09:41:44Z</time>
      </trkpt>
      <trkpt lat="31.22455614824039" lon="121.39962364689714">
        <ele>12.058498139493167</ele>
        <time>2026-09-17T09:41:47Z</time>
      </trkpt>
      <trkpt lat="31.224652828898986" lon="121.39962523659847">
        <ele>13.189391846768558</ele>
        <time>2026-09-17T09:41:50Z</time>
      </trkpt>
      <trkpt lat="31.224795745270704" lon="121.39969526868335">
        <ele>13.088985200040042</ele>
        <time>2026-09-17T09:41:56Z</time>
      </trkpt>
      <trkpt lat="31.224951681859118" lon="121.39980426845945">
        <ele>4.607286210171878</ele>
        <time>2026-09-17T09:42:02Z</time>
      </trkpt>
      <trkpt lat="31.225194571052064" lon="121.39983725144933">
        <ele>13.210530037991703</ele>
        <time>2026-09-17T09:42:11Z</time>
      </trkpt>
      <trkpt lat="31.22547244086987" lon="121.39983722721585">
        <ele>13.617439980618656</ele>
        <time>2026-09-17T09:42:23Z</time>
      </trkpt>
      <trkpt lat="31.225546404840095" lon="121.39982221886164">
        <ele>13.004432435147464</ele>
        <time>2026-09-17T09:42:26Z</time>
      </trkpt>
      <trkpt lat="31.22576930448513" lon="121.39986520491071">
        <ele>10.906467194668949</ele>
        <time>2026-09-17T09:42:35Z</time>
      </trkpt>
      <trkpt lat="31.22584027098479" lon="121.39986219833541">
        <ele>7.270698304288089</ele>
        <time>2026-09-17T09:42:38Z</time>
      </trkpt>
      <trkpt lat="31.225969205081384" lon="121.39980217946817">
        <ele>13.4483344508335</ele>
        <time>2026-09-17T09:42:44Z</time>
      </trkpt>
      <trkpt lat="31.226111118267717" lon="121.39956513882998">
        <ele>12.523538346402347</ele>
        <time>2026-09-17T09:42:53Z</time>
      </trkpt>
      <trkpt lat="31.226127096583873" lon="121.3993801174237">
        <ele>13.28451323043555</ele>
        <time>2026-09-17T09:42:59Z</time>
      </trkpt>
      <trkpt lat="31.226064112199452" lon="121.39917710302136">
        <ele>13.231668229214847</ele>
        <time>2026-09-17T09:43:08Z</time>
      </trkpt>
      <trkpt lat="31.22601812905745" lon="121.39910210022735">
        <ele>12.32801031600684</ele>
        <time>2026-09-17T09:43:11Z</time>
      </trkpt>
      <trkpt lat="31.22595015743241" lon="121.39904410109537">
        <ele>13.199960465542972</ele>
        <time>2026-09-17T09:43:14Z</time>
      </trkpt>
      <trkpt lat="31.22577723469716" lon="121.39897911071509">
        <ele>14.262155289761722</ele>
        <time>2026-09-17T09:43:20Z</time>
      </trkpt>
      <trkpt lat="31.225536348479725" lon="121.39899713321367">
        <ele>13.701992745511234</ele>
        <time>2026-09-17T09:43:29Z</time>
      </trkpt>
      <trkpt lat="31.22525447913907" lon="121.39897215573079">
        <ele>13.28451323043555</ele>
        <time>2026-09-17T09:43:41Z</time>
      </trkpt>
      <trkpt lat="31.224956619021036" lon="121.39897718211787">
        <ele>13.617439980618656</ele>
        <time>2026-09-17T09:43:53Z</time>
      </trkpt>
      <trkpt lat="31.22481568761894" lon="121.39902219816129">
        <ele>10.29345869552344</ele>
        <time>2026-09-17T09:43:59Z</time>
      </trkpt>
      <trkpt lat="31.224717738613457" lon="121.39910821417023">
        <ele>13.596301789395511</ele>
        <time>2026-09-17T09:44:05Z</time>
      </trkpt>
      <trkpt lat="31.22464678149874" lon="121.39925823430892">
        <ele>13.575163598172367</ele>
        <time>2026-09-17T09:44:11Z</time>
      </trkpt>
      <trkpt lat="31.22461780672673" lon="121.39942225343756">
        <ele>11.32923101913184</ele>
        <time>2026-09-17T09:44:17Z</time>
      </trkpt>
      <trkpt lat="31.224726777098386" lon="121.3996892739799">
        <ele>13.125977273099124</ele>
        <time>2026-09-17T09:44:29Z</time>
      </trkpt>
      <trkpt lat="31.224911702719584" lon="121.39982727484806">
        <ele>13.358497376553714</ele>
        <time>2026-09-17T09:44:38Z</time>
      </trkpt>
      <trkpt lat="31.225180573837996" lon="121.39979624749472">
        <ele>13.358497376553714</ele>
        <time>2026-09-17T09:44:50Z</time>
      </trkpt>
      <trkpt lat="31.225450450335206" lon="121.39982822799008">
        <ele>13.728415246121585</ele>
        <time>2026-09-17T09:45:02Z</time>
      </trkpt>
      <trkpt lat="31.225737317584134" lon="121.3998452051354">
        <ele>13.125977273099124</ele>
        <time>2026-09-17T09:45:14Z</time>
      </trkpt>
      <trkpt lat="31.22583027314099" lon="121.39983519575387">
        <ele>14.351992364041507</ele>
        <time>2026-09-17T09:45:17Z</time>
      </trkpt>
      <trkpt lat="31.225970200637004" lon="121.39975817391165">
        <ele>12.401994462125003</ele>
        <time>2026-09-17T09:45:23Z</time>
      </trkpt>
      <trkpt lat="31.22601217727791" lon="121.39971616512443">
        <ele>11.445490594021976</ele>
        <time>2026-09-17T09:45:26Z</time>
      </trkpt>
      <trkpt lat="31.226106112511502" lon="121.39946212790286">
        <ele>12.62922930251807</ele>
        <time>2026-09-17T09:45:35Z</time>
      </trkpt>
      <trkpt lat="31.22611110348512" lon="121.39937211799358">
        <ele>12.6397988749668</ele>
        <time>2026-09-17T09:45:38Z</time>
      </trkpt>
      <trkpt lat="31.226056118132114" lon="121.39921110690027">
        <ele>11.434921975247562</ele>
        <time>2026-09-17T09:45:44Z</time>
      </trkpt>
      <trkpt lat="31.225986143541583" lon="121.39909410230852">
        <ele>13.088985200040042</ele>
        <time>2026-09-17T09:45:50Z</time>
      </trkpt>
      <trkpt lat="31.22591717166322" lon="121.3990231021835">
        <ele>12.4495551539585</ele>
        <time>2026-09-17T09:45:53Z</time>
      </trkpt>
      <trkpt lat="31.225767239541135" lon="121.39898211183399">
        <ele>12.68207525741309</ele>
        <time>2026-09-17T09:45:59Z</time>
      </trkpt>
      <trkpt lat="31.225424400412425" lon="121.39898814222964">
        <ele>14.74833273421973</ele>
        <time>2026-09-17T09:46:14Z</time>
      </trkpt>
      <trkpt lat="31.22534543874435" lon="121.39901215111813">
        <ele>12.111344094388187</ele>
        <time>2026-09-17T09:46:17Z</time>
      </trkpt>
      <trkpt lat="31.225144531046734" lon="121.39897916589447">
        <ele>9.918256516568363</ele>
        <time>2026-09-17T09:46:23Z</time>
      </trkpt>
      <trkpt lat="31.22490464377551" lon="121.39898418722746">
        <ele>13.564594025723636</ele>
        <time>2026-09-17T09:46:32Z</time>
      </trkpt>
      <trkpt lat="31.224831678878875" lon="121.39900019491876">
        <ele>12.745489831082523</ele>
        <time>2026-09-17T09:46:35Z</time>
      </trkpt>
      <trkpt lat="31.224771709912044" lon="121.39905120447119">
        <ele>13.09426950942725</ele>
        <time>2026-09-17T09:46:38Z</time>
      </trkpt>
      <trkpt lat="31.224656778711257" lon="121.39928623617173">
        <ele>12.99386381637305</ele>
        <time>2026-09-17T09:46:47Z</time>
      </trkpt>
      <trkpt lat="31.22463879212805" lon="121.39935724485883">
        <ele>10.747930283658206</ele>
        <time>2026-09-17T09:46:50Z</time>
      </trkpt>
      <trkpt lat="31.22465179433616" lon="121.39946925549128">
        <ele>8.86663221847266</ele>
        <time>2026-09-17T09:46:56Z</time>
      </trkpt>
      <trkpt lat="31.224701779832987" lon="121.39958226367013">
        <ele>11.757279152981937</ele>
        <time>2026-09-17T09:47:00Z</time>
      </trkpt>
      <trkpt lat="31.22477475520151" lon="121.39969627063375">
        <ele>10.050370926968753</ele>
        <time>2026-09-17T09:47:03Z</time>
      </trkpt>
      <trkpt lat="31.224884713350228" lon="121.39980527442539">
        <ele>12.4495551539585</ele>
        <time>2026-09-17T09:47:06Z</time>
      </trkpt>
      <trkpt lat="31.224962680118015" lon="121.39984127218236">
        <ele>11.03858160506934</ele>
        <time>2026-09-17T09:47:09Z</time>
      </trkpt>
      <trkpt lat="31.22515459081361" lon="121.39984825633957">
        <ele>10.436141724698246</ele>
        <time>2026-09-17T09:47:18Z</time>
      </trkpt>
      <trkpt lat="31.225471440874063" lon="121.3998322266672">
        <ele>11.715002770535648</ele>
        <time>2026-09-17T09:47:33Z</time>
      </trkpt>
      <trkpt lat="31.22573931460735" lon="121.39982320216401">
        <ele>13.088985200040042</ele>
        <time>2026-09-17T09:47:45Z</time>
      </trkpt>
      <trkpt lat="31.22587525283312" lon="121.3998431928503">
        <ele>12.962156052701175</ele>
        <time>2026-09-17T09:47:51Z</time>
      </trkpt>
      <trkpt lat="31.226031170063585" lon="121.39973516577557">
        <ele>10.499557252041996</ele>
        <time>2026-09-17T09:48:00Z</time>
      </trkpt>
      <trkpt lat="31.226147096428647" lon="121.39950212867548">
        <ele>12.534107918851078</ele>
        <time>2026-09-17T09:48:09Z</time>
      </trkpt>
      <trkpt lat="31.226136095095182" lon="121.39941712049787">
        <ele>12.608091111294925</ele>
        <time>2026-09-17T09:48:12Z</time>
      </trkpt>
      <trkpt lat="31.22601813288683" lon="121.39916410583086">
        <ele>19.097515816800296</ele>
        <time>2026-09-17T09:48:24Z</time>
      </trkpt>
      <trkpt lat="31.22596915131265" lon="121.39909110352569">
        <ele>11.693864579312503</ele>
        <time>2026-09-17T09:48:27Z</time>
      </trkpt>
    </trkseg>
  </trk>
</gpx>