<?xml version="1.0" encoding="UTF-8"?>
<gpx xmlns="http://www.topografix.com/GPX/1/1" xmlns:gpxtpx="http://www.garmin.com/xmlschemas/TrackPointExtension/v1" xmlns:xsi="http://www.w3.org/2001/XMLSchema-instance" xsi:schemaLocation="http://www.topografix.com/GPX/1/1 http://www.topografix.com/GPX/1/1/gpx.xsd" version="1.1" creator="gpx.py -- https://github.com/tkrajina/gpxpy">
  <trk>
    <name>gpx from keep</name>
    <type>Run</type>
    <trkseg>
      <trkpt lat="31.23055211731211" lon="121.40026684376423">
        <ele>16.03795652091503</ele>
        <time>2026-07-15T10:05:01Z</time>
      </trkpt>
      <trkpt lat="31.23076100957494" lon="121.40016781096027">
        <ele>19.610313698649406</ele>
        <time>2026-07-15T10:05:01Z</time>
      </trkpt>
      <trkpt lat="31.230904938270115" lon="121.40012479223215">
        <ele>17.110718056559563</ele>
        <time>2026-07-15T10:05:01Z</time>
      </trkpt>
      <trkpt lat="31.231107834204273" lon="121.40002776096456">
        <ele>8.195686623454094</ele>
        <time>2026-07-15T10:05:01Z</time>
      </trkpt>
      <trkpt lat="31.231171797091175" lon="121.39995274523247">
        <ele>16.341820046305656</ele>
        <time>2026-07-15T10:05:01Z</time>
      </trkpt>
      <trkpt lat="31.231206773657565" lon="121.39987773232434">
        <ele>20.389778420329094</ele>
        <time>2026-07-15T10:05:01Z</time>
      </trkpt>
      <trkpt lat="31.231234742036936" lon="121.39967070421167">
        <ele>20.315796181559563</ele>
        <time>2026-07-15T10:05:01Z</time>
      </trkpt>
      <trkpt lat="31.23118574781044" lon="121.39946168484587">
        <ele>0.5674441307783127</ele>
        <time>2026-07-15T10:05:01Z</time>
      </trkpt>
      <trkpt lat="31.23102081292485" lon="121.39930668318087">
        <ele>11.879020974040031</ele>
        <time>2026-07-15T10:05:01Z</time>
      </trkpt>
      <trkpt lat="31.230905861441762" lon="121.3992366863714">
        <ele>18.56132535636425</ele>
        <time>2026-07-15T10:05:01Z</time>
      </trkpt>
      <trkpt lat="31.23073594087643" lon="121.39924670215436">
        <ele>15.271698281168938</ele>
        <time>2026-07-15T10:05:01Z</time>
      </trkpt>
      <trkpt lat="31.230533040455242" lon="121.39932672772925">
        <ele>16.418442055583</ele>
        <time>2026-07-15T10:05:01Z</time>
      </trkpt>
      <trkpt lat="31.23026417037695" lon="121.39939875855758">
        <ele>17.404014870524406</ele>
        <time>2026-07-15T10:05:01Z</time>
      </trkpt>
      <trkpt lat="31.229961321531672" lon="121.39953679987002">
        <ele>20.1678317040205</ele>
        <time>2026-07-15T10:05:01Z</time>
      </trkpt>
      <trkpt lat="31.229817397316484" lon="121.39964582489567">
        <ele>18.69608335196972</ele>
        <time>2026-07-15T10:05:01Z</time>
      </trkpt>
      <trkpt lat="31.229764428205577" lon="121.39971883821711">
        <ele>19.264175698161125</ele>
        <time>2026-07-15T10:05:01Z</time>
      </trkpt>
      <trkpt lat="31.229703473891114" lon="121.39990786736136">
        <ele>12.930641457438469</ele>
        <time>2026-07-15T10:05:01Z</time>
      </trkpt>
      <trkpt lat="31.229699483972592" lon="121.39999187890153">
        <ele>20.76762418448925</ele>
        <time>2026-07-15T10:05:01Z</time>
      </trkpt>
      <trkpt lat="31.229757473677875" lon="121.40015289633129">
        <ele>19.811126992106438</ele>
        <time>2026-07-15T10:05:01Z</time>
      </trkpt>
      <trkpt lat="31.229798462123753" lon="121.40022190281083">
        <ele>18.159698769450188</ele>
        <time>2026-07-15T10:05:01Z</time>
      </trkpt>
      <trkpt lat="31.22993441009458" lon="121.40032090581639">
        <ele>-13.7616116553545</ele>
        <time>2026-07-15T10:05:01Z</time>
      </trkpt>
      <trkpt lat="31.230092341960948" lon="121.40036589896722">
        <ele>0.4089053124189377</ele>
        <time>2026-07-15T10:05:01Z</time>
      </trkpt>
      <trkpt lat="31.230258264948183" lon="121.40036588449429">
        <ele>18.88632993400097</ele>
        <time>2026-07-15T10:05:01Z</time>
      </trkpt>
      <trkpt lat="31.230430179644475" lon="121.40031786211398">
        <ele>-16.033965781331062</ele>
        <time>2026-07-15T10:05:01Z</time>
      </trkpt>
      <trkpt lat="31.23062307984646" lon="121.40022583147251">
        <ele>12.983490273356438</ele>
        <time>2026-07-15T10:05:01Z</time>
      </trkpt>
      <trkpt lat="31.230804993087272" lon="121.40020381236678">
        <ele>6.945892617106438</ele>
        <time>2026-07-15T10:05:01Z</time>
      </trkpt>
      <trkpt lat="31.231052864902445" lon="121.40007877283213">
        <ele>19.464988991618156</ele>
        <time>2026-07-15T10:05:01Z</time>
      </trkpt>
      <trkpt lat="31.231192785027645" lon="121.39992874021526">
        <ele>13.823730751872063</ele>
        <time>2026-07-15T10:05:01Z</time>
      </trkpt>
      <trkpt lat="31.23121876388437" lon="121.39983272550597">
        <ele>21.745270058512688</ele>
        <time>2026-07-15T10:05:01Z</time>
      </trkpt>
      <trkpt lat="31.23122574792354" lon="121.39969070737855">
        <ele>20.482261940836906</ele>
        <time>2026-07-15T10:05:01Z</time>
      </trkpt>
      <trkpt lat="31.23115576277388" lon="121.3994756889734">
        <ele>19.264175698161125</ele>
        <time>2026-07-15T10:05:01Z</time>
      </trkpt>
      <trkpt lat="31.231100782083814" lon="121.39939368506008">
        <ele>8.362152382731438</ele>
        <time>2026-07-15T10:05:01Z</time>
      </trkpt>
      <trkpt lat="31.23100482145244" lon="121.39932268617453">
        <ele>19.09507016837597</ele>
        <time>2026-07-15T10:05:01Z</time>
      </trkpt>
      <trkpt lat="31.23081690381075" lon="121.39925369576783">
        <ele>20.041000649333</ele>
        <time>2026-07-15T10:05:01Z</time>
      </trkpt>
      <trkpt lat="31.230512052392754" lon="121.39935773270221">
        <ele>6.903618142008781</ele>
        <time>2026-07-15T10:05:01Z</time>
      </trkpt>
      <trkpt lat="31.23040110669092" lon="121.39939674640442">
        <ele>20.725349709391594</ele>
        <time>2026-07-15T10:05:01Z</time>
      </trkpt>
      <trkpt lat="31.230256174825158" lon="121.39940876030086">
        <ele>20.05156736075878</ele>
        <time>2026-07-15T10:05:01Z</time>
      </trkpt>
      <trkpt lat="31.22995732149004" lon="121.3995127975566">
        <ele>21.650146767497063</ele>
        <time>2026-07-15T10:05:01Z</time>
      </trkpt>
      <trkpt lat="31.22981539664856" lon="121.39962682285136">
        <ele>8.666015908122063</ele>
        <time>2026-07-15T10:05:01Z</time>
      </trkpt>
      <trkpt lat="31.229769422842576" lon="121.39968383357476">
        <ele>20.672508522868156</ele>
        <time>2026-07-15T10:05:01Z</time>
      </trkpt>
      <trkpt lat="31.229729448985726" lon="121.39976984751307">
        <ele>18.265396401286125</ele>
        <time>2026-07-15T10:05:01Z</time>
      </trkpt>
      <trkpt lat="31.2296864928202" lon="121.40001988384778">
        <ele>-5.147796347737312</ele>
        <time>2026-07-15T10:05:01Z</time>
      </trkpt>
      <trkpt lat="31.22969449576432" lon="121.40008489216038">
        <ele>18.717224404215813</ele>
        <time>2026-07-15T10:05:01Z</time>
      </trkpt>
      <trkpt lat="31.229796470180702" lon="121.40028591253456">
        <ele>23.750755593180656</ele>
        <time>2026-07-15T10:05:01Z</time>
      </trkpt>
      <trkpt lat="31.22997339788312" lon="121.40037191027388">
        <ele>14.579422280192375</ele>
        <time>2026-07-15T10:05:01Z</time>
      </trkpt>
      <trkpt lat="31.23010033871467" lon="121.40036989889056">
        <ele>14.967834755778313</ele>
        <time>2026-07-15T10:05:01Z</time>
      </trkpt>
      <trkpt lat="31.23021428280983" lon="121.40034388493105">
        <ele>14.830436989665031</ele>
        <time>2026-07-15T10:05:01Z</time>
      </trkpt>
      <trkpt lat="31.230284251032295" lon="121.4003498797526">
        <ele>16.016815468668938</ele>
        <time>2026-07-15T10:05:01Z</time>
      </trkpt>
      <trkpt lat="31.23031422946942" lon="121.40028286691978">
        <ele>19.51519040763378</ele>
        <time>2026-07-15T10:05:01Z</time>
      </trkpt>
      <trkpt lat="31.23058109516213" lon="121.40018782955836">
        <ele>18.9603121727705</ele>
        <time>2026-07-15T10:05:01Z</time>
      </trkpt>
      <trkpt lat="31.230830979407713" lon="121.4001888079071">
        <ele>15.073524758219719</ele>
        <time>2026-07-15T10:05:01Z</time>
      </trkpt>
      <trkpt lat="31.230899945924904" lon="121.40017479985515">
        <ele>20.43998746573925</ele>
        <time>2026-07-15T10:05:01Z</time>
      </trkpt>
      <trkpt lat="31.231081848792698" lon="121.40005276668114">
        <ele>20.672508522868156</ele>
        <time>2026-07-15T10:05:01Z</time>
      </trkpt>
      <trkpt lat="31.231103830351085" lon="121.39997075357088">
        <ele>18.43450193107128</ele>
        <time>2026-07-15T10:05:01Z</time>
      </trkpt>
      <trkpt lat="31.231206765948848" lon="121.39979472176084">
        <ele>2.012764260172844</ele>
        <time>2026-07-15T10:05:01Z</time>
      </trkpt>
      <trkpt lat="31.231212744457906" lon="121.3995776953285">
        <ele>18.159698769450188</ele>
        <time>2026-07-15T10:05:01Z</time>
      </trkpt>
      <trkpt lat="31.231158756849126" lon="121.39941568230496">
        <ele>18.582466408610344</ele>
        <time>2026-07-15T10:05:01Z</time>
      </trkpt>
      <trkpt lat="31.231038805564626" lon="121.39932068300952">
        <ele>16.983887001872063</ele>
        <time>2026-07-15T10:05:01Z</time>
      </trkpt>
      <trkpt lat="31.230830898335498" lon="121.39926869600383">
        <ele>14.653404518961906</ele>
        <time>2026-07-15T10:05:01Z</time>
      </trkpt>
      <trkpt lat="31.230718951256485" lon="121.3992837072374">
        <ele>17.56254605948925</ele>
        <time>2026-07-15T10:05:01Z</time>
      </trkpt>
      <trkpt lat="31.23056402771319" lon="121.39934972735277">
        <ele>13.255638405680656</ele>
        <time>2026-07-15T10:05:01Z</time>
      </trkpt>
      <trkpt lat="31.230247180263603" lon="121.39942576287541">
        <ele>19.9141695946455</ele>
        <time>2026-07-15T10:05:01Z</time>
      </trkpt>
      <trkpt lat="31.229973315089094" lon="121.39952579759988">
        <ele>10.240806862711906</ele>
        <time>2026-07-15T10:05:01Z</time>
      </trkpt>
      <trkpt lat="31.229800409573123" lon="121.3996968324269">
        <ele>19.190185829997063</ele>
        <time>2026-07-15T10:05:01Z</time>
      </trkpt>
      <trkpt lat="31.229688485125433" lon="121.39995187448508">
        <ele>16.175354287028313</ele>
        <time>2026-07-15T10:05:01Z</time>
      </trkpt>
      <trkpt lat="31.2297214937289" lon="121.40018390395606">
        <ele>18.918037697672844</ele>
        <time>2026-07-15T10:05:01Z</time>
      </trkpt>
      <trkpt lat="31.229828458956707" lon="121.40031791460007">
        <ele>-4.896781638264656</ele>
        <time>2026-07-15T10:05:01Z</time>
      </trkpt>
      <trkpt lat="31.22991242596267" lon="121.40036991528147">
        <ele>21.05034665763378</ele>
        <time>2026-07-15T10:05:01Z</time>
      </trkpt>
      <trkpt lat="31.230022376779544" lon="121.40038590818273">
        <ele>19.17961911857128</ele>
        <time>2026-07-15T10:05:01Z</time>
      </trkpt>
      <trkpt lat="31.230133324570648" lon="121.40037989756912">
        <ele>9.601379677653313</ele>
        <time>2026-07-15T10:05:01Z</time>
      </trkpt>
      <trkpt lat="31.23042817693956" lon="121.40028585743292">
        <ele>0.9954913109540939</ele>
        <time>2026-07-15T10:05:01Z</time>
      </trkpt>
      <trkpt lat="31.23075501408211" lon="121.40018381380513">
        <ele>18.540191933512688</ele>
        <time>2026-07-15T10:05:01Z</time>
      </trkpt>
      <trkpt lat="31.230976901767082" lon="121.40009478170539">
        <ele>18.067222878336906</ele>
        <time>2026-07-15T10:05:01Z</time>
      </trkpt>
      <trkpt lat="31.231145808152085" lon="121.39994274616814">
        <ele>-19.458350852131844</ele>
        <time>2026-07-15T10:05:01Z</time>
      </trkpt>
      <trkpt lat="31.231183783833725" lon="121.39987273368311">
        <ele>20.019859597086906</ele>
        <time>2026-07-15T10:05:01Z</time>
      </trkpt>
      <trkpt lat="31.231215752553382" lon="121.39969070825045">
        <ele>19.76884488761425</ele>
        <time>2026-07-15T10:05:01Z</time>
      </trkpt>
      <trkpt lat="31.23117075807763" lon="121.39950469082986">
        <ele>16.76458005607128</ele>
        <time>2026-07-15T10:05:01Z</time>
      </trkpt>
      <trkpt lat="31.23106379625096" lon="121.39935268406391">
        <ele>16.22820310294628</ele>
        <time>2026-07-15T10:05:01Z</time>
      </trkpt>
      <trkpt lat="31.231008818067004" lon="121.39930068363113">
        <ele>16.532058998942375</ele>
        <time>2026-07-15T10:05:01Z</time>
      </trkpt>
      <trkpt lat="31.230944845520913" lon="121.3992686860643">
        <ele>17.446289345622063</ele>
        <time>2026-07-15T10:05:01Z</time>
      </trkpt>
      <trkpt lat="31.230879875633047" lon="121.39926869173158">
        <ele>18.812347695231438</ele>
        <time>2026-07-15T10:05:01Z</time>
      </trkpt>
      <trkpt lat="31.230778336096385" lon="121.39922921841443">
        <ele>18.56925229728222</ele>
        <time>2026-07-15T10:05:01Z</time>
      </trkpt>
      <trkpt lat="31.23066797599362" lon="121.39929971326333">
        <ele>19.684295937418938</ele>
        <time>2026-07-15T10:05:01Z</time>
      </trkpt>
      <trkpt lat="31.23039411096935" lon="121.39941074847883">
        <ele>18.7066500633955</ele>
        <time>2026-07-15T10:05:01Z</time>
      </trkpt>
      <trkpt lat="31.23031514672173" lon="121.39939875411103">
        <ele>19.7054293602705</ele>
        <time>2026-07-15T10:05:01Z</time>
      </trkpt>
      <trkpt lat="31.23004127978398" lon="121.39947778640479">
        <ele>9.202392861247063</ele>
        <time>2026-07-15T10:05:01Z</time>
      </trkpt>
      <trkpt lat="31.22980639817429" lon="121.39959481994211">
        <ele>17.647102639079094</ele>
        <time>2026-07-15T10:05:01Z</time>
      </trkpt>
      <trkpt lat="31.229721457621352" lon="121.39982385497117">
        <ele>20.429413124918938</ele>
        <time>2026-07-15T10:05:01Z</time>
      </trkpt>
      <trkpt lat="31.229708472725058" lon="121.39991986850153">
        <ele>17.876976296305656</ele>
        <time>2026-07-15T10:05:01Z</time>
      </trkpt>
      <trkpt lat="31.229717475514477" lon="121.39999087719679">
        <ele>19.221893593668938</ele>
        <time>2026-07-15T10:05:01Z</time>
      </trkpt>
      <trkpt lat="31.229756464186504" lon="121.40005788298531">
        <ele>-11.740272238850594</ele>
        <time>2026-07-15T10:05:01Z</time>
      </trkpt>
      <trkpt lat="31.229808455945946" lon="121.40020789987878">
        <ele>24.29770688712597</ele>
        <time>2026-07-15T10:05:01Z</time>
      </trkpt>
      <trkpt lat="31.22992741483399" lon="121.40033390841663">
        <ele>24.046692177653313</ele>
        <time>2026-07-15T10:05:01Z</time>
      </trkpt>
      <trkpt lat="31.230057360069033" lon="121.40038190450706">
        <ele>20.24181394279003</ele>
        <time>2026-07-15T10:05:01Z</time>
      </trkpt>
      <trkpt lat="31.230183300205777" lon="121.40036989165411">
        <ele>21.724129006266594</ele>
        <time>2026-07-15T10:05:01Z</time>
      </trkpt>
      <trkpt lat="31.230305237043694" lon="121.40031287225015">
        <ele>19.89567594230175</ele>
        <time>2026-07-15T10:05:01Z</time>
      </trkpt>
      <trkpt lat="31.23060808856736" lon="121.40024183515084">
        <ele>18.476776406168938</ele>
        <time>2026-07-15T10:05:01Z</time>
      </trkpt>
      <trkpt lat="31.230893944849736" lon="121.40013879519036">
        <ele>18.402794167399406</ele>
        <time>2026-07-15T10:05:01Z</time>
      </trkpt>
      <trkpt lat="31.231010887378645" lon="121.40010778057645">
        <ele>11.458893105387688</ele>
        <time>2026-07-15T10:05:01Z</time>
      </trkpt>
      <trkpt lat="31.231125822348385" lon="121.3999927546208">
        <ele>19.338157936930656</ele>
        <time>2026-07-15T10:05:01Z</time>
      </trkpt>
      <trkpt lat="31.231193769525998" lon="121.39976771953597">
        <ele>19.11620359122753</ele>
        <time>2026-07-15T10:05:01Z</time>
      </trkpt>
      <trkpt lat="31.23120275599922" lon="121.39966070581855">
        <ele>20.408279702067375</ele>
        <time>2026-07-15T10:05:01Z</time>
      </trkpt>
      <trkpt lat="31.23112877313993" lon="121.39944768831415">
        <ele>14.516006752848625</ele>
        <time>2026-07-15T10:05:01Z</time>
      </trkpt>
      <trkpt lat="31.23108678871388" lon="121.39939568648896">
        <ele>19.30645017325878</ele>
        <time>2026-07-15T10:05:01Z</time>
      </trkpt>
      <trkpt lat="31.230810908077892" lon="121.39927569843141">
        <ele>20.64080075919628</ele>
        <time>2026-07-15T10:05:01Z</time>
      </trkpt>
      <trkpt lat="31.23069596164245" lon="121.39927970884999">
        <ele>-23.633144095540047</ele>
        <time>2026-07-15T10:05:01Z</time>
      </trkpt>
      <trkpt lat="31.2304530814819" lon="121.39938174031339">
        <ele>14.138160988688469</ele>
        <time>2026-07-15T10:05:01Z</time>
      </trkpt>
      <trkpt lat="31.23031414711204" lon="121.39939775409394">
        <ele>13.004623696208</ele>
        <time>2026-07-15T10:05:01Z</time>
      </trkpt>
      <trkpt lat="31.230257177810174" lon="121.39945476509182">
        <ele>19.11620359122753</ele>
        <time>2026-07-15T10:05:01Z</time>
      </trkpt>
      <trkpt lat="31.230220189471137" lon="121.3993807605246">
        <ele>17.287750527262688</ele>
        <time>2026-07-15T10:05:01Z</time>
      </trkpt>
      <trkpt lat="31.229893352062938" lon="121.3995238043529">
        <ele>11.995277687907219</ele>
        <time>2026-07-15T10:05:01Z</time>
      </trkpt>
      <trkpt lat="31.22984937415772" lon="121.39954481052892">
        <ele>20.860107704997063</ele>
        <time>2026-07-15T10:05:01Z</time>
      </trkpt>
      <trkpt lat="31.229755428912775" lon="121.39967883419968">
        <ele>2.234718605875969</ele>
        <time>2026-07-15T10:05:01Z</time>
      </trkpt>
      <trkpt lat="31.22971046272917" lon="121.39982385593022">
        <ele>19.956451699137688</ele>
        <time>2026-07-15T10:05:01Z</time>
      </trkpt>
      <trkpt lat="31.229693484871223" lon="121.39997287686082">
        <ele>19.525757119059563</ele>
        <time>2026-07-15T10:05:01Z</time>
      </trkpt>
      <trkpt lat="31.22971848660165" lon="121.40010389274359">
        <ele>17.604828163981438</ele>
        <time>2026-07-15T10:05:01Z</time>
      </trkpt>
      <trkpt lat="31.22984744956565" lon="121.40031291218135">
        <ele>18.02494840323925</ele>
        <time>2026-07-15T10:05:01Z</time>
      </trkpt>
      <trkpt lat="31.22998539383356" lon="121.40038491125247">
        <ele>19.05278806388378</ele>
        <time>2026-07-15T10:05:01Z</time>
      </trkpt>
      <trkpt lat="31.230161313104205" lon="121.40039289715823">
        <ele>14.420883461833</ele>
        <time>2026-07-15T10:05:01Z</time>
      </trkpt>
      <trkpt lat="31.230426180814767" lon="121.40031186154823">
        <ele>17.97209958732128</ele>
        <time>2026-07-15T10:05:01Z</time>
      </trkpt>
      <trkpt lat="31.23057410322199" lon="121.40023183663207">
        <ele>9.371498391032219</ele>
        <time>2026-07-15T10:05:01Z</time>
      </trkpt>
      <trkpt lat="31.230700043717384" lon="121.40022182416851">
        <ele>18.130638405680656</ele>
        <time>2026-07-15T10:05:01Z</time>
      </trkpt>
      <trkpt lat="31.230828979900753" lon="121.40018480749873">
        <ele>16.48978452384472</ele>
        <time>2026-07-15T10:05:01Z</time>
      </trkpt>
      <trkpt lat="31.23105985572506" lon="121.40002076418963">
        <ele>9.915809914469719</ele>
        <time>2026-07-15T10:05:01Z</time>
      </trkpt>
      <trkpt lat="31.231196783175612" lon="121.3999287398665">
        <ele>19.073929116129875</ele>
        <time>2026-07-15T10:05:01Z</time>
      </trkpt>
      <trkpt lat="31.231202751550764" lon="121.39960769963513">
        <ele>13.527794167399406</ele>
        <time>2026-07-15T10:05:01Z</time>
      </trkpt>
      <trkpt lat="31.231126774749" lon="121.39945668945262">
        <ele>15.472511574625969</ele>
        <time>2026-07-15T10:05:01Z</time>
      </trkpt>
      <trkpt lat="31.23098682756748" lon="121.3992906845601">
        <ele>14.579422280192375</ele>
        <time>2026-07-15T10:05:01Z</time>
      </trkpt>
      <trkpt lat="31.230913859340873" lon="121.39926068798881">
        <ele>13.926780983805656</ele>
        <time>2026-07-15T10:05:01Z</time>
      </trkpt>
      <trkpt lat="31.23070295833002" lon="121.39927870814162">
        <ele>17.876976296305656</ele>
        <time>2026-07-15T10:05:01Z</time>
      </trkpt>
      <trkpt lat="31.230481065057464" lon="121.3993337329681">
        <ele>18.77006559073925</ele>
        <time>2026-07-15T10:05:01Z</time>
      </trkpt>
      <trkpt lat="31.2301752143385" lon="121.39943477010658">
        <ele>11.186744973063469</ele>
        <time>2026-07-15T10:05:01Z</time>
      </trkpt>
      <trkpt lat="31.229906346900762" lon="121.39953480444224">
        <ele>-4.939056113362312</ele>
        <time>2026-07-15T10:05:01Z</time>
      </trkpt>
      <trkpt lat="31.22975143241019" lon="121.39969783681894">
        <ele>3.2731326073408127</ele>
        <time>2026-07-15T10:05:01Z</time>
      </trkpt>
      <trkpt lat="31.229696470062894" lon="121.39983285829246">
        <ele>14.558281227946281</ele>
        <time>2026-07-15T10:05:01Z</time>
      </trkpt>
      <trkpt lat="31.22968649761648" lon="121.40006689034054">
        <ele>18.349945351481438</ele>
        <time>2026-07-15T10:05:01Z</time>
      </trkpt>
      <trkpt lat="31.229789468621227" lon="121.40024290670515">
        <ele>9.958084389567375</ele>
        <time>2026-07-15T10:05:01Z</time>
      </trkpt>
      <trkpt lat="31.22984744956565" lon="121.40031291218135">
        <ele>19.525757119059563</ele>
        <time>2026-07-15T10:05:01Z</time>
      </trkpt>
      <trkpt lat="31.2299913922231" lon="121.40039491229298">
        <ele>17.76071958243847</ele>
        <time>2026-07-15T10:05:01Z</time>
      </trkpt>
      <trkpt lat="31.23029024836497" lon="121.40035087938375">
        <ele>17.42514829337597</ele>
        <time>2026-07-15T10:05:01Z</time>
      </trkpt>
      <trkpt lat="31.2305241307412" lon="121.40027084680547">
        <ele>12.19609098136425</ele>
        <time>2026-07-15T10:05:01Z</time>
      </trkpt>
      <trkpt lat="31.230686052524838" lon="121.40024282849879">
        <ele>16.03795652091503</ele>
        <time>2026-07-15T10:05:01Z</time>
      </trkpt>
      <trkpt lat="31.23097290867883" lon="121.4001427888755">
        <ele>16.56376676261425</ele>
        <time>2026-07-15T10:05:01Z</time>
      </trkpt>
      <trkpt lat="31.23102188155051" lon="121.40010077862793">
        <ele>15.808075234293938</ele>
        <time>2026-07-15T10:05:01Z</time>
      </trkpt>
      <trkpt lat="31.231164799647228" lon="121.39994574491035">
        <ele>0.9426424950361252</ele>
        <time>2026-07-15T10:05:01Z</time>
      </trkpt>
      <trkpt lat="31.231201773244475" lon="121.39984872902832">
        <ele>17.404014870524406</ele>
        <time>2026-07-15T10:05:01Z</time>
      </trkpt>
      <trkpt lat="31.231215757196548" lon="121.39974371466471">
        <ele>-1.0681225806474686</ele>
        <time>2026-07-15T10:05:01Z</time>
      </trkpt>
      <trkpt lat="31.23118575851422" lon="121.39959669985247">
        <ele>19.842834755778313</ele>
        <time>2026-07-15T10:05:01Z</time>
      </trkpt>
      <trkpt lat="31.231094788582375" lon="121.39944369085148">
        <ele>3.923134133219719</ele>
        <time>2026-07-15T10:05:01Z</time>
      </trkpt>
      <trkpt lat="31.230863884204307" lon="121.39928569479173">
        <ele>16.207062050700188</ele>
        <time>2026-07-15T10:05:01Z</time>
      </trkpt>
      <trkpt lat="31.230722947638448" lon="121.39925770435083">
        <ele>17.647102639079094</ele>
        <time>2026-07-15T10:05:01Z</time>
      </trkpt>
      <trkpt lat="31.230554029878874" lon="121.39931472469557">
        <ele>17.731651589274406</ele>
        <time>2026-07-15T10:05:01Z</time>
      </trkpt>
      <trkpt lat="31.230443086118747" lon="121.39938174118527">
        <ele>16.69059781730175</ele>
        <time>2026-07-15T10:05:01Z</time>
      </trkpt>
      <trkpt lat="31.23034613197719" lon="121.39939375088731">
        <ele>18.191406533122063</ele>
        <time>2026-07-15T10:05:01Z</time>
      </trkpt>
      <trkpt lat="31.23023018950141" lon="121.39944376626926">
        <ele>19.05278806388378</ele>
        <time>2026-07-15T10:05:01Z</time>
      </trkpt>
      <trkpt lat="31.23014523014838" lon="121.39945977539365">
        <ele>15.409096047282219</ele>
        <time>2026-07-15T10:05:01Z</time>
      </trkpt>
      <trkpt lat="31.229826392296" lon="121.39963582294091">
        <ele>-10.860389426350594</ele>
        <time>2026-07-15T10:05:01Z</time>
      </trkpt>
      <trkpt lat="31.229776416605237" lon="121.39964882882232">
        <ele>16.016815468668938</ele>
        <time>2026-07-15T10:05:01Z</time>
      </trkpt>
      <trkpt lat="31.22973743856406" lon="121.39969383755997">
        <ele>17.940391823649406</ele>
        <time>2026-07-15T10:05:01Z</time>
      </trkpt>
      <trkpt lat="31.229684490639027" lon="121.39998887980323">
        <ele>16.458076760172844</ele>
        <time>2026-07-15T10:05:01Z</time>
      </trkpt>
      <trkpt lat="31.229756475750712" lon="121.40016789858288">
        <ele>15.681251809000969</ele>
        <time>2026-07-15T10:05:01Z</time>
      </trkpt>
      <trkpt lat="31.229810458428304" lon="121.40023890428014">
        <ele>19.05278806388378</ele>
        <time>2026-07-15T10:05:01Z</time>
      </trkpt>
      <trkpt lat="31.229894426951" lon="121.40030590701873">
        <ele>15.472511574625969</ele>
        <time>2026-07-15T10:05:01Z</time>
      </trkpt>
      <trkpt lat="31.229980391732806" lon="121.40034690579466">
        <ele>18.82291440665722</ele>
        <time>2026-07-15T10:05:01Z</time>
      </trkpt>
      <trkpt lat="31.23014731470166" lon="121.40035089185142">
        <ele>17.393440529704094</ele>
        <time>2026-07-15T10:05:01Z</time>
      </trkpt>
      <trkpt lat="31.230451167744775" lon="121.40029885739364">
        <ele>18.981453225016594</ele>
        <time>2026-07-15T10:05:01Z</time>
      </trkpt>
      <trkpt lat="31.2305781010367" lon="121.40022883583941">
        <ele>6.441215798258781</ele>
        <time>2026-07-15T10:05:01Z</time>
      </trkpt>
      <trkpt lat="31.230879952187426" lon="121.400146797558">
        <ele>16.185920998454094</ele>
        <time>2026-07-15T10:05:01Z</time>
      </trkpt>
      <trkpt lat="31.231049861470645" lon="121.40003176657129">
        <ele>13.834297463297844</ele>
        <time>2026-07-15T10:05:01Z</time>
      </trkpt>
      <trkpt lat="31.231212765184438" lon="121.39981672400243">
        <ele>15.7552340477705</ele>
        <time>2026-07-15T10:05:01Z</time>
      </trkpt>
      <trkpt lat="31.231145770359277" lon="121.3995136940006">
        <ele>-20.90367479622364</ele>
        <time>2026-07-15T10:05:01Z</time>
      </trkpt>
      <trkpt lat="31.23106479963846" lon="121.39940568945133">
        <ele>18.286529824137688</ele>
        <time>2026-07-15T10:05:01Z</time>
      </trkpt>
      <trkpt lat="31.23086488546782" lon="121.39931069718077">
        <ele>17.82413510978222</ele>
        <time>2026-07-15T10:05:01Z</time>
      </trkpt>
      <trkpt lat="31.23067897151938" lon="121.39930871319854">
        <ele>1.7511828392744064</ele>
        <time>2026-07-15T10:05:01Z</time>
      </trkpt>
      <trkpt lat="31.23037211867967" lon="121.39937674685909">
        <ele>13.947914406657219</ele>
        <time>2026-07-15T10:05:01Z</time>
      </trkpt>
      <trkpt lat="31.230183209505434" lon="121.39941976782191">
        <ele>16.89933805167675</ele>
        <time>2026-07-15T10:05:01Z</time>
      </trkpt>
      <trkpt lat="31.229904347036012" lon="121.39952480350476">
        <ele>16.63774900138378</ele>
        <time>2026-07-15T10:05:01Z</time>
      </trkpt>
      <trkpt lat="31.22977841224623" lon="121.39960782387746">
        <ele>17.131859108805656</ele>
        <time>2026-07-15T10:05:01Z</time>
      </trkpt>
      <trkpt lat="31.22973743581655" lon="121.39966183375354">
        <ele>16.03795652091503</ele>
        <time>2026-07-15T10:05:01Z</time>
      </trkpt>
      <trkpt lat="31.22969947015903" lon="121.399848860071">
        <ele>6.546905800700188</ele>
        <time>2026-07-15T10:05:01Z</time>
      </trkpt>
      <trkpt lat="31.2296974811422" lon="121.3999538739672">
        <ele>16.867630288004875</ele>
        <time>2026-07-15T10:05:01Z</time>
      </trkpt>
      <trkpt lat="31.22974947409971" lon="121.40012189259319">
        <ele>16.61661557853222</ele>
        <time>2026-07-15T10:05:01Z</time>
      </trkpt>
      <trkpt lat="31.22980845660279" lon="121.40021390076046">
        <ele>16.7540133446455</ele>
        <time>2026-07-15T10:05:01Z</time>
      </trkpt>
      <trkpt lat="31.229919417858493" lon="121.40032790819457">
        <ele>15.797508522868156</ele>
        <time>2026-07-15T10:05:01Z</time>
      </trkpt>
      <trkpt lat="31.22998638929489" lon="121.40034990573407">
        <ele>14.254425331950188</ele>
        <time>2026-07-15T10:05:01Z</time>
      </trkpt>
      <trkpt lat="31.23007234938536" lon="121.40034989823609">
        <ele>18.1702731102705</ele>
        <time>2026-07-15T10:05:01Z</time>
      </trkpt>
      <trkpt lat="31.230387192811143" lon="121.40025785680324">
        <ele>16.323318764567375</ele>
        <time>2026-07-15T10:05:01Z</time>
      </trkpt>
      <trkpt lat="31.230593090250938" lon="121.40019382938749">
        <ele>10.000358864665031</ele>
        <time>2026-07-15T10:05:01Z</time>
      </trkpt>
      <trkpt lat="31.2306790496287" lon="121.40018682086824">
        <ele>17.142425820231438</ele>
        <time>2026-07-15T10:05:01Z</time>
      </trkpt>
      <trkpt lat="31.230718028214444" lon="121.4001558129769">
        <ele>15.81864957511425</ele>
        <time>2026-07-15T10:05:01Z</time>
      </trkpt>
      <trkpt lat="31.230953912108273" lon="121.40009178328842">
        <ele>17.142425820231438</ele>
        <time>2026-07-15T10:05:01Z</time>
      </trkpt>
      <trkpt lat="31.23110382344552" lon="121.3998997441655">
        <ele>14.14872770011425</ele>
        <time>2026-07-15T10:05:01Z</time>
      </trkpt>
      <trkpt lat="31.231151793428623" lon="121.399816729321">
        <ele>12.225158974528313</ele>
        <time>2026-07-15T10:05:01Z</time>
      </trkpt>
      <trkpt lat="31.231145770674036" lon="121.39951769444241">
        <ele>8.90910367667675</ele>
        <time>2026-07-15T10:05:01Z</time>
      </trkpt>
      <trkpt lat="31.231074793612557" lon="121.39938668659991">
        <ele>14.851578041911125</ele>
        <time>2026-07-15T10:05:01Z</time>
      </trkpt>
      <trkpt lat="31.230839893086852" lon="121.39925269366579">
        <ele>17.467430397868156</ele>
        <time>2026-07-15T10:05:01Z</time>
      </trkpt>
      <trkpt lat="31.230543037949086" lon="121.39935672989725">
        <ele>17.655029579997063</ele>
        <time>2026-07-15T10:05:01Z</time>
      </trkpt>
      <trkpt lat="31.23021319655963" lon="121.39943276658117">
        <ele>16.84648923575878</ele>
        <time>2026-07-15T10:05:01Z</time>
      </trkpt>
      <trkpt lat="31.23003828140737" lon="121.39948078699197">
        <ele>10.745483681559563</ele>
        <time>2026-07-15T10:05:01Z</time>
      </trkpt>
      <trkpt lat="31.22991234627921" lon="121.39956180694735">
        <ele>16.02738980948925</ele>
        <time>2026-07-15T10:05:01Z</time>
      </trkpt>
      <trkpt lat="31.229763428669884" lon="121.3997188383043">
        <ele>12.909500405192375</ele>
        <time>2026-07-15T10:05:01Z</time>
      </trkpt>
      <trkpt lat="31.22970647578916" lon="121.39994187158503">
        <ele>13.834297463297844</ele>
        <time>2026-07-15T10:05:01Z</time>
      </trkpt>
      <trkpt lat="31.229773467642513" lon="121.40016589681144">
        <ele>12.267433449625969</ele>
        <time>2026-07-15T10:05:01Z</time>
      </trkpt>
      <trkpt lat="31.229869434155848" lon="121.40026690331258">
        <ele>12.383690163493156</ele>
        <time>2026-07-15T10:05:01Z</time>
      </trkpt>
      <trkpt lat="31.230061356694858" lon="121.40036890213551">
        <ele>11.501175209879875</ele>
        <time>2026-07-15T10:05:01Z</time>
      </trkpt>
      <trkpt lat="31.230230277587697" lon="121.40036288647045">
        <ele>16.35502652823925</ele>
        <time>2026-07-15T10:05:01Z</time>
      </trkpt>
      <trkpt lat="31.23052712467982" lon="121.40022884028598">
        <ele>14.936126992106438</ele>
        <time>2026-07-15T10:05:01Z</time>
      </trkpt>
      <trkpt lat="31.230835970449395" lon="121.40012679853312">
        <ele>-9.518119528889656</ele>
        <time>2026-07-15T10:05:01Z</time>
      </trkpt>
      <trkpt lat="31.23093891978724" lon="121.4000987855824">
        <ele>6.850769326090813</ele>
        <time>2026-07-15T10:05:01Z</time>
      </trkpt>
      <trkpt lat="31.23109983289638" lon="121.39997775486127">
        <ele>17.509704872965813</ele>
        <time>2026-07-15T10:05:01Z</time>
      </trkpt>
      <trkpt lat="31.231189777682594" lon="121.39983672854325">
        <ele>17.351166054606438</ele>
        <time>2026-07-15T10:05:01Z</time>
      </trkpt>
      <trkpt lat="31.23121475379607" lon="121.39969970941647">
        <ele>17.43572263419628</ele>
        <time>2026-07-15T10:05:01Z</time>
      </trkpt>
      <trkpt lat="31.231171759980608" lon="121.39953469406251">
        <ele>2.422317788004875</ele>
        <time>2026-07-15T10:05:01Z</time>
      </trkpt>
      <trkpt lat="31.231132771514915" lon="121.39945068828628">
        <ele>17.37230710685253</ele>
        <time>2026-07-15T10:05:01Z</time>
      </trkpt>
      <trkpt lat="31.23102081524071" lon="121.39933968649272">
        <ele>17.21640805900097</ele>
        <time>2026-07-15T10:05:01Z</time>
      </trkpt>
      <trkpt lat="31.23082390063445" lon="121.39925469525426">
        <ele>14.537147805094719</ele>
        <time>2026-07-15T10:05:01Z</time>
      </trkpt>
      <trkpt lat="31.230511052928104" lon="121.39935873289159">
        <ele>15.985107704997063</ele>
        <time>2026-07-15T10:05:01Z</time>
      </trkpt>
      <trkpt lat="31.23043509107167" lon="121.39939874364858">
        <ele>11.049347206950188</ele>
        <time>2026-07-15T10:05:01Z</time>
      </trkpt>
      <trkpt lat="31.230128238876837" lon="121.39947077806166">
        <ele>4.805649086833</ele>
        <time>2026-07-15T10:05:01Z</time>
      </trkpt>
      <trkpt lat="31.229860373269755" lon="121.39959681546338">
        <ele>7.133491799235344</ele>
        <time>2026-07-15T10:05:01Z</time>
      </trkpt>
      <trkpt lat="31.22979041189109" lon="121.39966983007929">
        <ele>11.437759682536125</ele>
        <time>2026-07-15T10:05:01Z</time>
      </trkpt>
      <trkpt lat="31.229716463765573" lon="121.39986486064242">
        <ele>16.70116452872753</ele>
        <time>2026-07-15T10:05:01Z</time>
      </trkpt>
      <trkpt lat="31.229732471358975" lon="121.4000188797004">
        <ele>16.857063576579094</ele>
        <time>2026-07-15T10:05:01Z</time>
      </trkpt>
      <trkpt lat="31.229793455152368" lon="121.40013589075396">
        <ele>13.382469460368156</ele>
        <time>2026-07-15T10:05:01Z</time>
      </trkpt>
      <trkpt lat="31.229866428255857" lon="121.4002008937958">
        <ele>15.913772866129875</ele>
        <time>2026-07-15T10:05:01Z</time>
      </trkpt>
      <trkpt lat="31.229910416583245" lon="121.40027990169104">
        <ele>7.849548622965813</ele>
        <time>2026-07-15T10:05:01Z</time>
      </trkpt>
      <trkpt lat="31.230065348727457" lon="121.40031589363204">
        <ele>16.03795652091503</ele>
        <time>2026-07-15T10:05:01Z</time>
      </trkpt>
      <trkpt lat="31.230208281923996" lon="121.40031188055495">
        <ele>15.776375100016594</ele>
        <time>2026-07-15T10:05:01Z</time>
      </trkpt>
      <trkpt lat="31.230328221515297" lon="121.40026986374409">
        <ele>8.594673439860344</ele>
        <time>2026-07-15T10:05:01Z</time>
      </trkpt>
      <trkpt lat="31.230498141118503" lon="121.40025584682671">
        <ele>14.999542519450188</ele>
        <time>2026-07-15T10:05:01Z</time>
      </trkpt>
      <trkpt lat="31.23080998228497" lon="121.40012480051507">
        <ele>16.542633339762688</ele>
        <time>2026-07-15T10:05:01Z</time>
      </trkpt>
      <trkpt lat="31.23098190112602" lon="121.40011078352978">
        <ele>7.931457802653313</ele>
        <time>2026-07-15T10:05:01Z</time>
      </trkpt>
      <trkpt lat="31.2310818468538" lon="121.40003376405642">
        <ele>9.9263766258955</ele>
        <time>2026-07-15T10:05:01Z</time>
      </trkpt>
      <trkpt lat="31.231166790386602" lon="121.39985873336187">
        <ele>12.793243691325188</ele>
        <time>2026-07-15T10:05:01Z</time>
      </trkpt>
      <trkpt lat="31.231177763872697" lon="121.3996167028545">
        <ele>12.100967690348625</ele>
        <time>2026-07-15T10:05:01Z</time>
      </trkpt>
      <trkpt lat="31.2311507699432" lon="121.39953769622808">
        <ele>12.436538979411125</ele>
        <time>2026-07-15T10:05:01Z</time>
      </trkpt>
      <trkpt lat="31.23103981040748" lon="121.39939469048271">
        <ele>11.596290871500969</ele>
        <time>2026-07-15T10:05:01Z</time>
      </trkpt>
      <trkpt lat="31.230899869671184" lon="121.39931669472833">
        <ele>14.315193459391594</ele>
        <time>2026-07-15T10:05:01Z</time>
      </trkpt>
      <trkpt lat="31.23075093780438" lon="121.39930370642362">
        <ele>13.496086403727531</ele>
        <time>2026-07-15T10:05:01Z</time>
      </trkpt>
      <trkpt lat="31.230568025930253" lon="121.39935072710581">
        <ele>12.94120816886425</ele>
        <time>2026-07-15T10:05:01Z</time>
      </trkpt>
      <trkpt lat="31.230484068131293" lon="121.39939573906368">
        <ele>18.18083982169628</ele>
        <time>2026-07-15T10:05:01Z</time>
      </trkpt>
      <trkpt lat="31.230170217865567" lon="121.39945077224847">
        <ele>14.127594277262688</ele>
        <time>2026-07-15T10:05:01Z</time>
      </trkpt>
      <trkpt lat="31.229858370701276" lon="121.39955381075414">
        <ele>14.011329934000969</ele>
        <time>2026-07-15T10:05:01Z</time>
      </trkpt>
      <trkpt lat="31.229752431426203" lon="121.3996918360127">
        <ele>13.213363930583</ele>
        <time>2026-07-15T10:05:01Z</time>
      </trkpt>
      <trkpt lat="31.229706468597453" lon="121.3998668617719">
        <ele>6.084511086344719</ele>
        <time>2026-07-15T10:05:01Z</time>
      </trkpt>
      <trkpt lat="31.22969948139365" lon="121.39996587539791">
        <ele>14.138160988688469</ele>
        <time>2026-07-15T10:05:01Z</time>
      </trkpt>
      <trkpt lat="31.2297444763158" lon="121.40012089288686">
        <ele>10.431053444743156</ele>
        <time>2026-07-15T10:05:01Z</time>
      </trkpt>
      <trkpt lat="31.229782466925915" lon="121.40019790068033">
        <ele>13.665191933512688</ele>
        <time>2026-07-15T10:05:01Z</time>
      </trkpt>
      <trkpt lat="31.22984344689813" lon="121.4002729064797">
        <ele>14.653404518961906</ele>
        <time>2026-07-15T10:05:01Z</time>
      </trkpt>
      <trkpt lat="31.22991142111353" lon="121.40032390828007">
        <ele>14.420883461833</ele>
        <time>2026-07-15T10:05:01Z</time>
      </trkpt>
      <trkpt lat="31.230111331636177" lon="121.40035289529885">
        <ele>13.432670876383781</ele>
        <time>2026-07-15T10:05:01Z</time>
      </trkpt>
      <trkpt lat="31.23027525313251" lon="121.40033187776916">
        <ele>14.000763222575188</ele>
        <time>2026-07-15T10:05:01Z</time>
      </trkpt>
      <trkpt lat="31.23056610637912" lon="121.40022683658997">
        <ele>13.443245217204094</ele>
        <time>2026-07-15T10:05:01Z</time>
      </trkpt>
      <trkpt lat="31.230848967404476" lon="121.40015480141118">
        <ele>13.27677945792675</ele>
        <time>2026-07-15T10:05:01Z</time>
      </trkpt>
      <trkpt lat="31.23096391009483" lon="121.40011678595027">
        <ele>13.297920510172844</ele>
        <time>2026-07-15T10:05:01Z</time>
      </trkpt>
      <trkpt lat="31.231166792272912" lon="121.3998787359414">
        <ele>13.5489352196455</ele>
        <time>2026-07-15T10:05:01Z</time>
      </trkpt>
      <trkpt lat="31.231203763642494" lon="121.39975371693777">
        <ele>14.064178749918938</ele>
        <time>2026-07-15T10:05:01Z</time>
      </trkpt>
      <trkpt lat="31.231187752175167" lon="121.39952969211089">
        <ele>14.212143227458</ele>
        <time>2026-07-15T10:05:01Z</time>
      </trkpt>
      <trkpt lat="31.23110178118175" lon="121.3993876843495">
        <ele>14.053612038493156</ele>
        <time>2026-07-15T10:05:01Z</time>
      </trkpt>
      <trkpt lat="31.231047802028716" lon="121.399329683129">
        <ele>13.842224404215813</ele>
        <time>2026-07-15T10:05:01Z</time>
      </trkpt>
      <trkpt lat="31.230823900366204" lon="121.39925069486759">
        <ele>13.3401949852705</ele>
        <time>2026-07-15T10:05:01Z</time>
      </trkpt>
      <trkpt lat="31.23047606520708" lon="121.39930273030103">
        <ele>14.180435463786125</ele>
        <time>2026-07-15T10:05:01Z</time>
      </trkpt>
      <trkpt lat="31.230394106392154" lon="121.39934774197128">
        <ele>8.666015908122063</ele>
        <time>2026-07-15T10:05:01Z</time>
      </trkpt>
      <trkpt lat="31.230333139481107" lon="121.39941375411232">
        <ele>13.033691689372063</ele>
        <time>2026-07-15T10:05:01Z</time>
      </trkpt>
      <trkpt lat="31.230284164076135" lon="121.39943876102845">
        <ele>13.958488747477531</ele>
        <time>2026-07-15T10:05:01Z</time>
      </trkpt>
      <trkpt lat="31.230058269453536" lon="121.39944578147879">
        <ele>14.011329934000969</ele>
        <time>2026-07-15T10:05:01Z</time>
      </trkpt>
      <trkpt lat="31.2298113942181" lon="121.39957481722475">
        <ele>13.916214272379875</ele>
        <time>2026-07-15T10:05:01Z</time>
      </trkpt>
      <trkpt lat="31.229759424413782" lon="121.39964783018705">
        <ele>13.654625222086906</ele>
        <time>2026-07-15T10:05:01Z</time>
      </trkpt>
      <trkpt lat="31.22967548337018" lon="121.39987086499055">
        <ele>13.160522744059563</ele>
        <time>2026-07-15T10:05:01Z</time>
      </trkpt>
      <trkpt lat="31.22965849974404" lon="121.39995887803528">
        <ele>12.225158974528313</ele>
        <time>2026-07-15T10:05:01Z</time>
      </trkpt>
      <trkpt lat="31.229668503616008" lon="121.40004388871806">
        <ele>13.139381691813469</ele>
        <time>2026-07-15T10:05:01Z</time>
      </trkpt>
      <trkpt lat="31.229737488037642" lon="121.40019990489627">
        <ele>13.823730751872063</ele>
        <time>2026-07-15T10:05:01Z</time>
      </trkpt>
      <trkpt lat="31.229889435940454" lon="121.40036391635583">
        <ele>13.464378640055656</ele>
        <time>2026-07-15T10:05:01Z</time>
      </trkpt>
      <trkpt lat="31.229957405425715" lon="121.40037291182429">
        <ele>13.27677945792675</ele>
        <time>2026-07-15T10:05:01Z</time>
      </trkpt>
      <trkpt lat="31.230210278161213" lon="121.40028687659056">
        <ele>14.798729225993156</ele>
        <time>2026-07-15T10:05:01Z</time>
      </trkpt>
      <trkpt lat="31.230495146664158" lon="121.40029285264889">
        <ele>14.064178749918938</ele>
        <time>2026-07-15T10:05:01Z</time>
      </trkpt>
      <trkpt lat="31.23060808923325" lon="121.40024783604325">
        <ele>14.000763222575188</ele>
        <time>2026-07-15T10:05:01Z</time>
      </trkpt>
      <trkpt lat="31.230858959159267" lon="121.40012079567354">
        <ele>9.382065102458</ele>
        <time>2026-07-15T10:05:01Z</time>
      </trkpt>
      <trkpt lat="31.230979897783076" lon="121.40006977793898">
        <ele>13.004623696208</ele>
        <time>2026-07-15T10:05:01Z</time>
      </trkpt>
      <trkpt lat="31.2311108240669" lon="121.39993974882141">
        <ele>11.207878395915031</ele>
        <time>2026-07-15T10:05:01Z</time>
      </trkpt>
      <trkpt lat="31.231154797167157" lon="121.39987173608245">
        <ele>13.686332985758781</ele>
        <time>2026-07-15T10:05:01Z</time>
      </trkpt>
      <trkpt lat="31.23116876795681" lon="121.3996157035235">
        <ele>14.304626747965813</ele>
        <time>2026-07-15T10:05:01Z</time>
      </trkpt>
      <trkpt lat="31.231147770537927" lon="121.39952769537622">
        <ele>14.243850991129875</ele>
        <time>2026-07-15T10:05:01Z</time>
      </trkpt>
      <trkpt lat="31.23108379106091" lon="121.39940868810902">
        <ele>13.884506508708</ele>
        <time>2026-07-15T10:05:01Z</time>
      </trkpt>
      <trkpt lat="31.230960840093157" lon="121.3992976875189">
        <ele>13.464378640055656</ele>
        <time>2026-07-15T10:05:01Z</time>
      </trkpt>
      <trkpt lat="31.23079191749631" lon="121.39928470097095">
        <ele>13.979622170329094</ele>
        <time>2026-07-15T10:05:01Z</time>
      </trkpt>
      <trkpt lat="31.230635996352934" lon="121.39937772394472">
        <ele>14.296699807047844</ele>
        <time>2026-07-15T10:05:01Z</time>
      </trkpt>
      <trkpt lat="31.230375120002787" lon="121.39941375045046">
        <ele>14.642837807536125</ele>
        <time>2026-07-15T10:05:01Z</time>
      </trkpt>
      <trkpt lat="31.230254175974952" lon="121.39941176078999">
        <ele>14.272918984293938</ele>
        <time>2026-07-15T10:05:01Z</time>
      </trkpt>
      <trkpt lat="31.230094255190462" lon="121.39947778178392">
        <ele>13.969055458903313</ele>
        <time>2026-07-15T10:05:01Z</time>
      </trkpt>
      <trkpt lat="31.22989535224553" lon="121.39953780573586">
        <ele>14.14872770011425</ele>
        <time>2026-07-15T10:05:01Z</time>
      </trkpt>
      <trkpt lat="31.229795404684822" lon="121.39961182285684">
        <ele>5.593048378825188</ele>
        <time>2026-07-15T10:05:01Z</time>
      </trkpt>
      <trkpt lat="31.229745435717362" lon="121.399703838063">
        <ele>14.106453225016594</ele>
        <time>2026-07-15T10:05:01Z</time>
      </trkpt>
      <trkpt lat="31.229701480958553" lon="121.39997087589457">
        <ele>8.195686623454094</ele>
        <time>2026-07-15T10:05:01Z</time>
      </trkpt>
      <trkpt lat="31.22971548799469" lon="121.40010389300514">
        <ele>13.0865328758955</ele>
        <time>2026-07-15T10:05:01Z</time>
      </trkpt>
      <trkpt lat="31.229789470736208" lon="121.4002619095386">
        <ele>14.127594277262688</ele>
        <time>2026-07-15T10:05:01Z</time>
      </trkpt>
      <trkpt lat="31.229905427932767" lon="121.40035891418655">
        <ele>5.466217324137688</ele>
        <time>2026-07-15T10:05:01Z</time>
      </trkpt>
      <trkpt lat="31.23003736970137" lon="121.40038490671883">
        <ele>14.661331459879875</ele>
        <time>2026-07-15T10:05:01Z</time>
      </trkpt>
      <trkpt lat="31.230165310075172" lon="121.40038289524692">
        <ele>13.728607460856438</ele>
        <time>2026-07-15T10:05:01Z</time>
      </trkpt>
      <trkpt lat="31.23049414487446" lon="121.4002728497214">
        <ele>14.442024514079094</ele>
        <time>2026-07-15T10:05:01Z</time>
      </trkpt>
      <trkpt lat="31.23058209929273" lon="121.40022983563858">
        <ele>13.855438515543938</ele>
        <time>2026-07-15T10:05:01Z</time>
      </trkpt>
      <trkpt lat="31.230870956250495" lon="121.40014579819913">
        <ele>14.526573464274406</ele>
        <time>2026-07-15T10:05:01Z</time>
      </trkpt>
      <trkpt lat="31.231113821414404" lon="121.3999267468391">
        <ele>14.283485695719719</ele>
        <time>2026-07-15T10:05:01Z</time>
      </trkpt>
      <trkpt lat="31.23117078675889" lon="121.39983973058197">
        <ele>13.707474038004875</ele>
        <time>2026-07-15T10:05:01Z</time>
      </trkpt>
      <trkpt lat="31.231202763748957" lon="121.3997497165336">
        <ele>14.201576516032219</ele>
        <time>2026-07-15T10:05:01Z</time>
      </trkpt>
      <trkpt lat="31.2311797565152" lon="121.39953769369959">
        <ele>13.266212746500969</ele>
        <time>2026-07-15T10:05:01Z</time>
      </trkpt>
      <trkpt lat="31.23104680469751" lon="121.39936068636305">
        <ele>13.707474038004875</ele>
        <time>2026-07-15T10:05:01Z</time>
      </trkpt>
      <trkpt lat="31.23095784189792" lon="121.39930368837554">
        <ele>15.197716042399406</ele>
        <time>2026-07-15T10:05:01Z</time>
      </trkpt>
      <trkpt lat="31.230881875454596" lon="121.39927969263292">
        <ele>12.634704872965813</ele>
        <time>2026-07-15T10:05:01Z</time>
      </trkpt>
      <trkpt lat="31.230825903467867" lon="121.39930970048145">
        <ele>14.230644509196281</ele>
        <time>2026-07-15T10:05:01Z</time>
      </trkpt>
      <trkpt lat="31.23072894662214" lon="121.39928370636552">
        <ele>12.782676979899406</ele>
        <time>2026-07-15T10:05:01Z</time>
      </trkpt>
      <trkpt lat="31.230579018359272" lon="121.39931572261581">
        <ele>14.230644509196281</ele>
        <time>2026-07-15T10:05:01Z</time>
      </trkpt>
      <trkpt lat="31.23027516810019" lon="121.39943676160041">
        <ele>13.559501931071281</ele>
        <time>2026-07-15T10:05:22Z</time>
      </trkpt>
      <trkpt lat="31.230080263547595" lon="121.39950178562263">
        <ele>13.969055458903313</ele>
        <time>2026-07-15T10:05:22Z</time>
      </trkpt>
      <trkpt lat="31.229985306777213" lon="121.3994907927016">
        <ele>12.793243691325188</ele>
        <time>2026-07-15T10:05:22Z</time>
      </trkpt>
      <trkpt lat="31.229876361703933" lon="121.39954580828692">
        <ele>13.390396401286125</ele>
        <time>2026-07-15T10:05:22Z</time>
      </trkpt>
      <trkpt lat="31.229794412966754" lon="121.39970383379092">
        <ele>14.463157936930656</ele>
        <time>2026-07-15T10:05:23Z</time>
      </trkpt>
      <trkpt lat="31.229773429006084" lon="121.39977484429647">
        <ele>13.361336037516594</ele>
        <time>2026-07-15T10:05:23Z</time>
      </trkpt>
      <trkpt lat="31.229762448910495" lon="121.39993286550948">
        <ele>13.390396401286125</ele>
        <time>2026-07-15T10:05:23Z</time>
      </trkpt>
      <trkpt lat="31.22980245097391" lon="121.40013588996929">
        <ele>13.107673928141594</ele>
        <time>2026-07-15T10:05:23Z</time>
      </trkpt>
      <trkpt lat="31.229907427236583" lon="121.40036091432174">
        <ele>13.411537453532219</ele>
        <time>2026-07-15T10:05:23Z</time>
      </trkpt>
      <trkpt lat="31.23000638786046" lon="121.40041691444367">
        <ele>13.033691689372063</ele>
        <time>2026-07-15T10:05:23Z</time>
      </trkpt>
      <trkpt lat="31.23012433381718" lon="121.40042290510337">
        <ele>13.453811928629875</ele>
        <time>2026-07-15T10:05:23Z</time>
      </trkpt>
      <trkpt lat="31.23032860053674" lon="121.40043852506182">
        <ele>13.361336037516594</ele>
        <time>2026-07-15T10:05:23Z</time>
      </trkpt>
      <trkpt lat="31.230406094621944" lon="121.40039149904491">
        <ele>12.750969216227531</ele>
        <time>2026-07-15T10:05:23Z</time>
      </trkpt>
      <trkpt lat="31.23041518229178" lon="121.40027985766194">
        <ele>12.951782509684563</ele>
        <time>2026-07-15T10:05:23Z</time>
      </trkpt>
      <trkpt lat="31.230522135506654" lon="121.40030485211373">
        <ele>13.813164040446281</ele>
        <time>2026-07-15T10:05:23Z</time>
      </trkpt>
      <trkpt lat="31.230835977634076" lon="121.40019380820077">
        <ele>12.698120400309563</ele>
        <time>2026-07-15T10:05:23Z</time>
      </trkpt>
      <trkpt lat="31.23109484328523" lon="121.40005776624156">
        <ele>7.712150856852531</ele>
        <time>2026-07-15T10:43:08Z</time>
      </trkpt>
      <trkpt lat="31.23116380069742" lon="121.39995174579661">
        <ele>13.054832741618156</ele>
        <time>2026-07-15T10:05:23Z</time>
      </trkpt>
      <trkpt lat="31.231209758383628" lon="121.39972571299289">
        <ele>13.799949929118156</ele>
        <time>2026-07-15T10:05:23Z</time>
      </trkpt>
      <trkpt lat="31.231185756065923" lon="121.39956669643506">
        <ele>13.580642983317375</ele>
        <time>2026-07-15T10:05:24Z</time>
      </trkpt>
      <trkpt lat="31.231151763706197" lon="121.39946368802568">
        <ele>12.970276162028313</ele>
        <time>2026-07-15T10:05:24Z</time>
      </trkpt>
      <trkpt lat="31.23104880177717" lon="121.39933268334413">
        <ele>13.287346169352531</ele>
        <time>2026-07-15T10:05:24Z</time>
      </trkpt>
      <trkpt lat="31.23076692908091" lon="121.39928470315067">
        <ele>12.983490273356438</ele>
        <time>2026-07-15T10:05:24Z</time>
      </trkpt>
      <trkpt lat="31.230557026482437" lon="121.39928572155856">
        <ele>12.824951454997063</ele>
        <time>2026-07-15T10:05:24Z</time>
      </trkpt>
      <trkpt lat="31.230545037237068" lon="121.39935973002945">
        <ele>13.223938271403313</ele>
        <time>2026-07-15T10:05:24Z</time>
      </trkpt>
      <trkpt lat="31.230480066158687" lon="121.3993427339656">
        <ele>12.19609098136425</ele>
        <time>2026-07-15T10:05:24Z</time>
      </trkpt>
      <trkpt lat="31.230206200559348" lon="121.3994427682551">
        <ele>11.332069680094719</ele>
        <time>2026-07-15T10:05:24Z</time>
      </trkpt>
      <trkpt lat="31.22994632643848" lon="121.39951079829515">
        <ele>12.309707924723625</ele>
        <time>2026-07-15T10:05:24Z</time>
      </trkpt>
      <trkpt lat="31.229895352724313" lon="121.39954380640644">
        <ele>12.217232033610344</ele>
        <time>2026-07-15T10:05:24Z</time>
      </trkpt>
      <trkpt lat="31.229840384624957" lon="121.399621820091">
        <ele>14.346901223063469</ele>
        <time>2026-07-15T10:05:24Z</time>
      </trkpt>
      <trkpt lat="31.229724446428083" lon="121.39971484122053">
        <ele>-2.6746289283037186</ele>
        <time>2026-07-15T10:05:24Z</time>
      </trkpt>
      <trkpt lat="31.22969247369008" lon="121.39985186106533">
        <ele>9.601379677653313</ele>
        <time>2026-07-15T10:05:24Z</time>
      </trkpt>
      <trkpt lat="31.229684492741097" lon="121.4000098826557">
        <ele>12.698120400309563</ele>
        <time>2026-07-15T10:05:24Z</time>
      </trkpt>
      <trkpt lat="31.22974848655079" lon="121.40023290879606">
        <ele>13.506660744547844</ele>
        <time>2026-07-15T10:05:25Z</time>
      </trkpt>
      <trkpt lat="31.229845452209076" lon="121.40032791464628">
        <ele>12.19609098136425</ele>
        <time>2026-07-15T10:05:25Z</time>
      </trkpt>
      <trkpt lat="31.229969402904388" lon="121.400398914838">
        <ele>11.501175209879875</ele>
        <time>2026-07-15T10:05:25Z</time>
      </trkpt>
      <trkpt lat="31.23016131439991" lon="121.40040389888313">
        <ele>13.054832741618156</ele>
        <time>2026-07-15T10:05:25Z</time>
      </trkpt>
      <trkpt lat="31.230435180426078" lon="121.40034486581673">
        <ele>13.255638405680656</ele>
        <time>2026-07-15T10:05:25Z</time>
      </trkpt>
      <trkpt lat="31.23062108443224" lon="121.40025883655082">
        <ele>4.248131081461906</ele>
        <time>2026-07-15T10:05:25Z</time>
      </trkpt>
      <trkpt lat="31.230899944633574" lon="121.40016279811827">
        <ele>11.73368863761425</ele>
        <time>2026-07-15T10:05:25Z</time>
      </trkpt>
      <trkpt lat="31.231094843799234" lon="121.40006276693674">
        <ele>13.969055458903313</ele>
        <time>2026-07-15T10:05:25Z</time>
      </trkpt>
      <trkpt lat="31.231193781771037" lon="121.39989973631842">
        <ele>12.962349221110344</ele>
        <time>2026-07-15T10:05:25Z</time>
      </trkpt>
      <trkpt lat="31.23121476398262" lon="121.39981372344955">
        <ele>10.053207680583</ele>
        <time>2026-07-15T10:05:25Z</time>
      </trkpt>
      <trkpt lat="31.231214750784055" lon="121.39966470524492">
        <ele>13.287346169352531</ele>
        <time>2026-07-15T10:05:25Z</time>
      </trkpt>
      <trkpt lat="31.23116775599236" lon="121.39945968620016">
        <ele>11.723121926188469</ele>
        <time>2026-07-15T10:05:25Z</time>
      </trkpt>
      <trkpt lat="31.23111277557767" lon="121.39938068266552">
        <ele>11.659706398844719</ele>
        <time>2026-07-15T10:05:25Z</time>
      </trkpt>
      <trkpt lat="31.23104180410514" lon="121.39931968264774">
        <ele>11.712555214762688</ele>
        <time>2026-07-15T10:05:25Z</time>
      </trkpt>
      <trkpt lat="31.230908863082657" lon="121.39928169047506">
        <ele>13.033691689372063</ele>
        <time>2026-07-15T10:05:26Z</time>
      </trkpt>
      <trkpt lat="31.230843893060317" lon="121.39927969594609">
        <ele>12.983490273356438</ele>
        <time>2026-07-15T10:05:26Z</time>
      </trkpt>
      <trkpt lat="31.230759933495182" lon="121.39930170544037">
        <ele>13.012550637125969</ele>
        <time>2026-07-15T10:05:26Z</time>
      </trkpt>
      <trkpt lat="31.230707962258595" lon="121.39936771663766">
        <ele>7.355446144938469</ele>
        <time>2026-07-15T10:05:26Z</time>
      </trkpt>
      <trkpt lat="31.23066398164553" lon="121.39935371904139">
        <ele>13.054832741618156</ele>
        <time>2026-07-15T10:05:26Z</time>
      </trkpt>
      <trkpt lat="31.230523049317938" lon="121.39938573462437">
        <ele>13.171089455485344</ele>
        <time>2026-07-15T10:05:26Z</time>
      </trkpt>
      <trkpt lat="31.23037511663732" lon="121.39936774567119">
        <ele>10.872314736247063</ele>
        <time>2026-07-15T10:05:26Z</time>
      </trkpt>
      <trkpt lat="31.230288160575245" lon="121.39941675835128">
        <ele>12.100967690348625</ele>
        <time>2026-07-15T10:05:26Z</time>
      </trkpt>
      <trkpt lat="31.230131235656845" lon="121.39944677522101">
        <ele>12.867225930094719</ele>
        <time>2026-07-15T10:05:26Z</time>
      </trkpt>
      <trkpt lat="31.22992433838679" lon="121.3995328026501">
        <ele>12.415397927165031</ele>
        <time>2026-07-15T10:05:26Z</time>
      </trkpt>
      <trkpt lat="31.229852376736886" lon="121.399593815817">
        <ele>14.085319802165031</ele>
        <time>2026-07-15T10:05:26Z</time>
      </trkpt>
      <trkpt lat="31.229765426779533" lon="121.39970783680099">
        <ele>13.160522744059563</ele>
        <time>2026-07-15T10:05:26Z</time>
      </trkpt>
      <trkpt lat="31.22972047007009" lon="121.3999498714286">
        <ele>12.026985451579094</ele>
        <time>2026-07-15T10:05:26Z</time>
      </trkpt>
      <trkpt lat="31.229809457457005" lon="121.40022590244233">
        <ele>11.469467446208</ele>
        <time>2026-07-15T10:05:26Z</time>
      </trkpt>
      <trkpt lat="31.229890432468473" lon="121.40033791225659">
        <ele>13.213363930583</ele>
        <time>2026-07-15T10:05:26Z</time>
      </trkpt>
      <trkpt lat="31.229985395478607" lon="121.40039891344303">
        <ele>12.655845925211906</ele>
        <time>2026-07-15T10:05:26Z</time>
      </trkpt>
      <trkpt lat="31.230133333829357" lon="121.40045790988435">
        <ele>12.970276162028313</ele>
        <time>2026-07-15T10:05:26Z</time>
      </trkpt>
      <trkpt lat="31.230311175512416" lon="121.40042246474661">
        <ele>12.489380165934563</ele>
        <time>2026-07-15T10:05:26Z</time>
      </trkpt>
      <trkpt lat="31.230215213647266" lon="121.40034150228124">
        <ele>12.309707924723625</ele>
        <time>2026-07-15T10:05:27Z</time>
      </trkpt>
      <trkpt lat="31.230264255150292" lon="121.400304874608">
        <ele>11.606865212321281</ele>
        <time>2026-07-15T10:05:27Z</time>
      </trkpt>
      <trkpt lat="31.230582098191785" lon="121.40021983416173">
        <ele>12.676986977458</ele>
        <time>2026-07-15T10:05:27Z</time>
      </trkpt>
      <trkpt lat="31.230859963058005" lon="121.40016180146144">
        <ele>13.054832741618156</ele>
        <time>2026-07-15T10:05:27Z</time>
      </trkpt>
      <trkpt lat="31.231037871642453" lon="121.40007677386006">
        <ele>12.351982399821281</ele>
        <time>2026-07-15T10:05:27Z</time>
      </trkpt>
      <trkpt lat="31.231099835489115" lon="121.4000037583813">
        <ele>12.94120816886425</ele>
        <time>2026-07-15T10:05:27Z</time>
      </trkpt>
      <trkpt lat="31.23118777501927" lon="121.39979772379296">
        <ele>12.552795693278313</ele>
        <time>2026-07-15T10:05:27Z</time>
      </trkpt>
      <trkpt lat="31.231183758456158" lon="121.39958469865422">
        <ele>12.655845925211906</ele>
        <time>2026-07-15T10:05:27Z</time>
      </trkpt>
      <trkpt lat="31.23113276888848" lon="121.39941568457189">
        <ele>12.708694741129875</ele>
        <time>2026-07-15T10:05:27Z</time>
      </trkpt>
      <trkpt lat="31.231090784392002" lon="121.39936168262908">
        <ele>11.995277687907219</ele>
        <time>2026-07-15T10:05:27Z</time>
      </trkpt>
      <trkpt lat="31.230960839610887" lon="121.39929068682703">
        <ele>11.554016396403313</ele>
        <time>2026-07-15T10:05:27Z</time>
      </trkpt>
      <trkpt lat="31.230846890044955" lon="121.39925569334571">
        <ele>12.489380165934563</ele>
        <time>2026-07-15T10:05:27Z</time>
      </trkpt>
      <trkpt lat="31.23072594678782" lon="121.39926570486637">
        <ele>10.579017922282219</ele>
        <time>2026-07-15T10:05:27Z</time>
      </trkpt>
      <trkpt lat="31.230670973845314" lon="121.39928871191454">
        <ele>12.457672402262688</ele>
        <time>2026-07-15T10:05:27Z</time>
      </trkpt>
      <trkpt lat="31.230651986494408" lon="121.39934371907069">
        <ele>11.207878395915031</ele>
        <time>2026-07-15T10:05:28Z</time>
      </trkpt>
      <trkpt lat="31.23059301599489" lon="121.39937372728139">
        <ele>8.930237099528313</ele>
        <time>2026-07-15T10:05:28Z</time>
      </trkpt>
      <trkpt lat="31.230486066545332" lon="121.39938673795398">
        <ele>11.554016396403313</ele>
        <time>2026-07-15T10:05:28Z</time>
      </trkpt>
      <trkpt lat="31.230215200057376" lon="121.39949077264875">
        <ele>11.984710976481438</ele>
        <time>2026-07-15T10:05:28Z</time>
      </trkpt>
      <trkpt lat="31.229799401424167" lon="121.3995948205524">
        <ele>12.602997109293938</ele>
        <time>2026-07-15T10:05:28Z</time>
      </trkpt>
      <trkpt lat="31.229709456750143" lon="121.39975284716012">
        <ele>12.288566872477531</ele>
        <time>2026-07-15T10:05:28Z</time>
      </trkpt>
      <trkpt lat="31.229678479351044" lon="121.39984286113528">
        <ele>11.670280739665031</ele>
        <time>2026-07-15T10:05:28Z</time>
      </trkpt>
      <trkpt lat="31.229676490110798" lon="121.39994587473223">
        <ele>12.634704872965813</ele>
        <time>2026-07-15T10:05:28Z</time>
      </trkpt>
      <trkpt lat="31.229718490081883" lon="121.40013689743586">
        <ele>8.605240151286125</ele>
        <time>2026-07-15T10:05:28Z</time>
      </trkpt>
      <trkpt lat="31.229856448942897" lon="121.40034391614358">
        <ele>11.617431923747063</ele>
        <time>2026-07-15T10:05:28Z</time>
      </trkpt>
      <trkpt lat="31.229973401637547" lon="121.40040391527408">
        <ele>12.489380165934563</ele>
        <time>2026-07-15T10:05:28Z</time>
      </trkpt>
      <trkpt lat="31.230056362529496" lon="121.40039890725284">
        <ele>13.192230507731438</ele>
        <time>2026-07-15T10:05:28Z</time>
      </trkpt>
      <trkpt lat="31.230342218291547" lon="121.40029886689703">
        <ele>11.07048062980175</ele>
        <time>2026-07-15T10:05:28Z</time>
      </trkpt>
      <trkpt lat="31.230624079493097" lon="121.40022683153308">
        <ele>11.271293923258781</ele>
        <time>2026-07-15T10:05:28Z</time>
      </trkpt>
      <trkpt lat="31.23086196138137" lon="121.40015480027773">
        <ele>12.499954506754875</ele>
        <time>2026-07-15T10:05:29Z</time>
      </trkpt>
      <trkpt lat="31.2309828977391" lon="121.40008277949583">
        <ele>11.606865212321281</ele>
        <time>2026-07-15T10:05:29Z</time>
      </trkpt>
      <trkpt lat="31.231040870771217" lon="121.40008177429866">
        <ele>13.171089455485344</ele>
        <time>2026-07-15T10:05:29Z</time>
      </trkpt>
      <trkpt lat="31.23110383636091" lon="121.40003076172555">
        <ele>12.1326754540205</ele>
        <time>2026-07-15T10:05:29Z</time>
      </trkpt>
      <trkpt lat="31.231182787535097" lon="121.39990673819304">
        <ele>12.259506508708</ele>
        <time>2026-07-15T10:05:29Z</time>
      </trkpt>
      <trkpt lat="31.231209756371726" lon="121.39970271021296">
        <ele>12.425964638590813</ele>
        <time>2026-07-15T10:05:29Z</time>
      </trkpt>
      <trkpt lat="31.231129773817074" lon="121.39946268983616">
        <ele>12.362556740641594</ele>
        <time>2026-07-15T10:05:29Z</time>
      </trkpt>
      <trkpt lat="31.231030811892587" lon="121.39935768745136">
        <ele>11.953003212809563</ele>
        <time>2026-07-15T10:05:29Z</time>
      </trkpt>
      <trkpt lat="31.23089686905278" lon="121.39928769211139">
        <ele>11.762756630778313</ele>
        <time>2026-07-15T10:05:29Z</time>
      </trkpt>
      <trkpt lat="31.230575018963467" lon="121.39929772117367">
        <ele>11.953003212809563</ele>
        <time>2026-07-15T10:05:29Z</time>
      </trkpt>
      <trkpt lat="31.230442083352802" lon="121.39933673667137">
        <ele>12.016418740153313</ele>
        <time>2026-07-15T10:05:29Z</time>
      </trkpt>
      <trkpt lat="31.230366118737482" lon="121.39933874349985">
        <ele>11.712555214762688</ele>
        <time>2026-07-15T10:05:29Z</time>
      </trkpt>
      <trkpt lat="31.230099250959018" lon="121.39945277865291">
        <ele>11.416618630290031</ele>
        <time>2026-07-15T10:05:29Z</time>
      </trkpt>
      <trkpt lat="31.229900348892723" lon="121.3995248038535">
        <ele>11.836738869547844</ele>
        <time>2026-07-15T10:05:30Z</time>
      </trkpt>
      <trkpt lat="31.229835382184465" lon="121.39956381388646">
        <ele>11.313568398356438</ele>
        <time>2026-07-15T10:05:30Z</time>
      </trkpt>
      <trkpt lat="31.229754430670624" lon="121.39969383607782">
        <ele>12.204017922282219</ele>
        <time>2026-07-15T10:05:30Z</time>
      </trkpt>
      <trkpt lat="31.229690466377424" lon="121.39976184992474">
        <ele>11.437759682536125</ele>
        <time>2026-07-15T10:05:30Z</time>
      </trkpt>
      <trkpt lat="31.22966948521466" lon="121.39986086422546">
        <ele>11.953003212809563</ele>
        <time>2026-07-15T10:05:30Z</time>
      </trkpt>
      <trkpt lat="31.22968949591429" lon="121.40006388966108">
        <ele>11.007065102458</ele>
        <time>2026-07-15T10:05:30Z</time>
      </trkpt>
      <trkpt lat="31.229738484431355" lon="121.40017090058649">
        <ele>11.649139687418938</ele>
        <time>2026-07-15T10:05:30Z</time>
      </trkpt>
      <trkpt lat="31.229843450739384" lon="121.40030691161715">
        <ele>11.374344155192375</ele>
        <time>2026-07-15T10:05:30Z</time>
      </trkpt>
      <trkpt lat="31.229980398388765" lon="121.40040391466378">
        <ele>11.691414162516594</ele>
        <time>2026-07-15T10:05:30Z</time>
      </trkpt>
      <trkpt lat="31.230166306929583" lon="121.40035989158581">
        <ele>22.889374062418938</ele>
        <time>2026-07-15T10:05:30Z</time>
      </trkpt>
      <trkpt lat="31.230451164811974" lon="121.40027285347045">
        <ele>11.73368863761425</ele>
        <time>2026-07-15T10:05:30Z</time>
      </trkpt>
      <trkpt lat="31.230508135925355" lon="121.40025084520894">
        <ele>11.522308632731438</ele>
        <time>2026-07-15T10:05:30Z</time>
      </trkpt>
      <trkpt lat="31.230617084506406" lon="121.40024283451476">
        <ele>8.005447670817375</ele>
        <time>2026-07-15T10:05:30Z</time>
      </trkpt>
      <trkpt lat="31.230662060013064" lon="121.40020982571512">
        <ele>9.485115334391594</ele>
        <time>2026-07-15T10:05:30Z</time>
      </trkpt>
      <trkpt lat="31.23096091116877" lon="121.40011378578605">
        <ele>11.186744973063469</ele>
        <time>2026-07-15T10:05:30Z</time>
      </trkpt>
      <trkpt lat="31.231075851264173" lon="121.4000497667886">
        <ele>11.836738869547844</ele>
        <time>2026-07-15T10:05:31Z</time>
      </trkpt>
      <trkpt lat="31.231160800524325" lon="121.39993574393154">
        <ele>10.904014870524406</ele>
        <time>2026-07-15T10:05:31Z</time>
      </trkpt>
      <trkpt lat="31.231224751175066" lon="121.39972271132088">
        <ele>7.344871804118156</ele>
        <time>2026-07-15T10:05:31Z</time>
      </trkpt>
      <trkpt lat="31.23119275306787" lon="121.39956969616436">
        <ele>11.366417214274406</ele>
        <time>2026-07-15T10:05:31Z</time>
      </trkpt>
      <trkpt lat="31.231109779242473" lon="121.39941168615684">
        <ele>11.271293923258781</ele>
        <time>2026-07-15T10:05:31Z</time>
      </trkpt>
      <trkpt lat="31.23101581656818" lon="121.39932568551667">
        <ele>11.395477578043938</ele>
        <time>2026-07-15T10:05:31Z</time>
      </trkpt>
      <trkpt lat="31.230946845890028" lon="121.39928768775194">
        <ele>11.355850502848625</ele>
        <time>2026-07-15T10:05:31Z</time>
      </trkpt>
      <trkpt lat="31.23068896488669" lon="121.39927970946032">
        <ele>11.480034157633781</ele>
        <time>2026-07-15T10:05:31Z</time>
      </trkpt>
      <trkpt lat="31.23039810489409" lon="121.3993527421314">
        <ele>11.144462868571281</ele>
        <time>2026-07-15T10:05:31Z</time>
      </trkpt>
      <trkpt lat="31.23034413043827" lon="121.39935974755413">
        <ele>10.745483681559563</ele>
        <time>2026-07-15T10:05:31Z</time>
      </trkpt>
      <trkpt lat="31.23026017550988" lon="121.399442763547">
        <ele>10.935722634196281</ele>
        <time>2026-07-15T10:05:31Z</time>
      </trkpt>
      <trkpt lat="31.22994533160934" lon="121.39956980497482">
        <ele>11.007065102458</ele>
        <time>2026-07-15T10:05:32Z</time>
      </trkpt>
      <trkpt lat="31.229709462916748" lon="121.39982085563778">
        <ele>11.384910866618156</ele>
        <time>2026-07-15T10:05:32Z</time>
      </trkpt>
      <trkpt lat="31.229754471883684" lon="121.40012289229955">
        <ele>9.685928627848625</ele>
        <time>2026-07-15T10:05:32Z</time>
      </trkpt>
      <trkpt lat="31.229805457995585" lon="121.40021390102201">
        <ele>10.840606972575188</ele>
        <time>2026-07-15T10:05:32Z</time>
      </trkpt>
      <trkpt lat="31.22992941459606" lon="121.4003399091637">
        <ele>11.1338961571455</ele>
        <time>2026-07-15T10:05:32Z</time>
      </trkpt>
      <trkpt lat="31.23002137502412" lon="121.40036690531255">
        <ele>11.260727211833</ele>
        <time>2026-07-15T10:05:32Z</time>
      </trkpt>
      <trkpt lat="31.230189294753856" lon="121.40034688757278">
        <ele>7.49284391105175</ele>
        <time>2026-07-15T10:05:32Z</time>
      </trkpt>
      <trkpt lat="31.23023927294828" lon="121.40035888506644">
        <ele>11.260727211833</ele>
        <time>2026-07-15T10:05:32Z</time>
      </trkpt>
      <trkpt lat="31.23029923914341" lon="121.40030687186034">
        <ele>6.903618142008781</ele>
        <time>2026-07-15T10:05:32Z</time>
      </trkpt>
      <trkpt lat="31.230608086359265" lon="121.4002218321898">
        <ele>8.961944863200188</ele>
        <time>2026-07-15T10:05:32Z</time>
      </trkpt>
      <trkpt lat="31.23091893041457" lon="121.4001117891644">
        <ele>11.229019448161125</ele>
        <time>2026-07-15T10:05:32Z</time>
      </trkpt>
      <trkpt lat="31.231091843241217" lon="121.4000437645636">
        <ele>5.1412203758955</ele>
        <time>2026-07-15T10:05:32Z</time>
      </trkpt>
      <trkpt lat="31.231189779737075" lon="121.3998587313565">
        <ele>10.462761208415031</ele>
        <time>2026-07-15T10:05:33Z</time>
      </trkpt>
      <trkpt lat="31.23121175157713" lon="121.3996577046799">
        <ele>11.786537453532219</ele>
        <time>2026-07-15T10:05:33Z</time>
      </trkpt>
      <trkpt lat="31.231201750203745" lon="121.3995856971989">
        <ele>10.703209206461906</ele>
        <time>2026-07-15T10:05:33Z</time>
      </trkpt>
      <trkpt lat="31.231087789430557" lon="121.39941168807502">
        <ele>11.049347206950188</ele>
        <time>2026-07-15T10:05:33Z</time>
      </trkpt>
      <trkpt lat="31.230904863847897" lon="121.3992656892596">
        <ele>9.86296109855175</ele>
        <time>2026-07-15T10:05:33Z</time>
      </trkpt>
      <trkpt lat="31.23076993039491" lon="121.39932370676428">
        <ele>10.148330971598625</ele>
        <time>2026-07-15T10:05:33Z</time>
      </trkpt>
      <trkpt lat="31.230723949213385" lon="121.39928770719503">
        <ele>10.219665810465813</ele>
        <time>2026-07-15T10:05:33Z</time>
      </trkpt>
      <trkpt lat="31.23057901884928" lon="121.39932272331687">
        <ele>11.038772866129875</ele>
        <time>2026-07-15T10:59:18Z</time>
      </trkpt>
      <trkpt lat="31.23052629548116" lon="121.39932509957858">
        <ele>11.017639443278313</ele>
        <time>2026-07-15T10:59:21Z</time>
      </trkpt>
      <trkpt lat="31.230233189019025" lon="121.39945576729158">
        <ele>11.176170632243156</ele>
        <time>2026-07-15T10:59:33Z</time>
      </trkpt>
      <trkpt lat="31.229955322496878" lon="121.3995137978413">
        <ele>11.028206154704094</ele>
        <time>2026-07-15T10:59:49Z</time>
      </trkpt>
      <trkpt lat="31.22970845211653" lon="121.39969484020816">
        <ele>10.967430397868156</ele>
        <time>2026-07-15T11:00:01Z</time>
      </trkpt>
      <trkpt lat="31.229715478144847" lon="121.4000078796803">
        <ele>10.335930153727531</ele>
        <time>2026-07-15T11:00:13Z</time>
      </trkpt>
      <trkpt lat="31.22975447062001" lon="121.40011089059549">
        <ele>10.621292397379875</ele>
        <time>2026-07-15T11:00:19Z</time>
      </trkpt>
      <trkpt lat="31.22990542230011" lon="121.40030990666789">
        <ele>10.409912392497063</ele>
        <time>2026-07-15T11:00:31Z</time>
      </trkpt>
      <trkpt lat="31.22997739567702" lon="121.40036890945912">
        <ele>10.682068154215813</ele>
        <time>2026-07-15T11:00:37Z</time>
      </trkpt>
      <trkpt lat="31.230073351476147" lon="121.4003719015553">
        <ele>10.650360390543938</ele>
        <time>2026-07-15T11:00:40Z</time>
      </trkpt>
      <trkpt lat="31.23019228639875" lon="121.400285878009">
        <ele>10.148330971598625</ele>
        <time>2026-07-15T11:00:49Z</time>
      </trkpt>
      <trkpt lat="31.230324223034405" lon="121.40026686364291">
        <ele>10.713775917887688</ele>
        <time>2026-07-15T11:00:55Z</time>
      </trkpt>
      <trkpt lat="31.230458164839348" lon="121.40030185723829">
        <ele>10.819465920329094</ele>
        <time>2026-07-15T11:00:58Z</time>
      </trkpt>
      <trkpt lat="31.23052813091235" lon="121.40028884916708">
        <ele>10.904014870524406</ele>
        <time>2026-07-15T11:01:01Z</time>
      </trkpt>
      <trkpt lat="31.230724030186263" lon="121.40019981884313">
        <ele>10.021499916911125</ele>
        <time>2026-07-15T11:01:13Z</time>
      </trkpt>
      <trkpt lat="31.230773008899575" lon="121.40021281647817">
        <ele>7.418861672282219</ele>
        <time>2026-07-15T11:01:16Z</time>
      </trkpt>
      <trkpt lat="31.230878955977726" lon="121.40017780212153">
        <ele>10.462761208415031</ele>
        <time>2026-07-15T11:01:22Z</time>
      </trkpt>
      <trkpt lat="31.231005889484805" lon="121.40010578072945">
        <ele>9.360931679606438</ele>
        <time>2026-07-15T11:01:29Z</time>
      </trkpt>
      <trkpt lat="31.231151803430773" lon="121.39992274299821">
        <ele>10.692634865641594</ele>
        <time>2026-07-15T11:01:35Z</time>
      </trkpt>
      <trkpt lat="31.2311907748192" lon="121.39981072516407">
        <ele>11.427185341715813</ele>
        <time>2026-07-15T11:01:38Z</time>
      </trkpt>
      <trkpt lat="31.231212753855942" lon="121.39968970839242">
        <ele>10.766617104411125</ele>
        <time>2026-07-15T11:01:41Z</time>
      </trkpt>
      <trkpt lat="31.231170758547645" lon="121.39951069149005">
        <ele>10.671501442790031</ele>
        <time>2026-07-15T11:01:47Z</time>
      </trkpt>
      <trkpt lat="31.231021816420096" lon="121.39936268874754">
        <ele>8.644874855875969</ele>
        <time>2026-07-15T11:01:56Z</time>
      </trkpt>
      <trkpt lat="31.23082690073242" lon="121.39927669713428">
        <ele>10.335930153727531</ele>
        <time>2026-07-15T11:02:05Z</time>
      </trkpt>
      <trkpt lat="31.2305550300453" lon="121.39932372550973">
        <ele>10.074341103434563</ele>
        <time>2026-07-15T11:02:17Z</time>
      </trkpt>
      <trkpt lat="31.230272167922337" lon="121.39941575964104">
        <ele>10.671501442790031</ele>
        <time>2026-07-15T11:02:35Z</time>
      </trkpt>
      <trkpt lat="31.22997531313587" lon="121.39951279598725">
        <ele>10.304222390055656</ele>
        <time>2026-07-15T11:02:54Z</time>
      </trkpt>
      <trkpt lat="31.229809398933302" lon="121.39962082267776">
        <ele>10.766617104411125</ele>
        <time>2026-07-15T11:03:06Z</time>
      </trkpt>
      <trkpt lat="31.229754429377085" lon="121.39967883428686">
        <ele>10.335930153727531</ele>
        <time>2026-07-15T11:03:09Z</time>
      </trkpt>
      <trkpt lat="31.22971446592183" lon="121.39987786249519">
        <ele>10.808899208903313</ele>
        <time>2026-07-15T11:03:15Z</time>
      </trkpt>
      <trkpt lat="31.2297334786958" lon="121.40009489016605">
        <ele>9.432274147868156</ele>
        <time>2026-07-15T11:03:24Z</time>
      </trkpt>
      <trkpt lat="31.229780469821836" lon="121.40021590349596">
        <ele>8.78227262198925</ele>
        <time>2026-07-15T11:03:30Z</time>
      </trkpt>
      <trkpt lat="31.22991542340711" lon="121.40035991346946">
        <ele>10.608085915446281</ele>
        <time>2026-07-15T11:03:39Z</time>
      </trkpt>
      <trkpt lat="31.230145317719074" lon="121.40036889481189">
        <ele>10.766617104411125</ele>
        <time>2026-07-15T11:03:49Z</time>
      </trkpt>
      <trkpt lat="31.230280246029125" lon="121.40028987094055">
        <ele>8.259102150797844</ele>
        <time>2026-07-15T11:03:58Z</time>
      </trkpt>
      <trkpt lat="31.230604085805012" lon="121.40019982930569">
        <ele>8.687149330973625</ele>
        <time>2026-07-15T11:04:13Z</time>
      </trkpt>
      <trkpt lat="31.230773004014182" lon="121.40016780991401">
        <ele>9.52738980948925</ele>
        <time>2026-07-15T11:04:25Z</time>
      </trkpt>
      <trkpt lat="31.23108184797437" lon="121.40004476557368">
        <ele>11.007065102458</ele>
        <time>2026-07-15T11:04:40Z</time>
      </trkpt>
      <trkpt lat="31.231183781765605" lon="121.39985073085369">
        <ele>9.622513100504875</ele>
        <time>2026-07-15T11:04:46Z</time>
      </trkpt>
      <trkpt lat="31.231212756029514" lon="121.39971471139832">
        <ele>10.431053444743156</ele>
        <time>2026-07-15T11:04:52Z</time>
      </trkpt>
      <trkpt lat="31.231180759437052" lon="121.39957969834609">
        <ele>3.1991503685712814</ele>
        <time>2026-07-15T11:04:58Z</time>
      </trkpt>
      <trkpt lat="31.23111677922767" lon="121.39945469010992">
        <ele>9.138977333903313</ele>
        <time>2026-07-15T11:05:04Z</time>
      </trkpt>
      <trkpt lat="31.23097783544164" lon="121.39934369064717">
        <ele>13.496086403727531</ele>
        <time>2026-07-15T11:05:13Z</time>
      </trkpt>
      <trkpt lat="31.23087588142085" lon="121.39932569772314">
        <ele>13.527794167399406</ele>
        <time>2026-07-15T11:05:20Z</time>
      </trkpt>
      <trkpt lat="31.2307699274855" lon="121.39928170259431">
        <ele>8.089996621012688</ele>
        <time>2026-07-15T11:05:26Z</time>
      </trkpt>
      <trkpt lat="31.230466070887765" lon="121.39931773266808">
        <ele>14.389175698161125</ele>
        <time>2026-07-15T11:05:41Z</time>
      </trkpt>
      <trkpt lat="31.230408098906654" lon="121.39933373933279">
        <ele>9.65422086417675</ele>
        <time>2026-07-15T11:05:44Z</time>
      </trkpt>
      <trkpt lat="31.23032214296159" lon="121.3993917527718">
        <ele>10.388771340250969</ele>
        <time>2026-07-15T11:05:50Z</time>
      </trkpt>
      <trkpt lat="31.2300322848878" lon="121.39948978849475">
        <ele>10.209099099040031</ele>
        <time>2026-07-15T11:06:08Z</time>
      </trkpt>
      <trkpt lat="31.229904348067908" lon="121.3995378049512">
        <ele>10.209099099040031</ele>
        <time>2026-07-15T11:06:17Z</time>
      </trkpt>
      <trkpt lat="31.22972644541193" lon="121.3997138409253">
        <ele>10.756050392985344</ele>
        <time>2026-07-15T11:06:29Z</time>
      </trkpt>
      <trkpt lat="31.22967947925968" lon="121.39984686155897">
        <ele>10.335930153727531</ele>
        <time>2026-07-15T11:06:35Z</time>
      </trkpt>
      <trkpt lat="31.229698493595393" lon="121.4000818913909">
        <ele>10.515602394938469</ele>
        <time>2026-07-15T11:06:44Z</time>
      </trkpt>
      <trkpt lat="31.22972648796503" lon="121.40015189889016">
        <ele>10.431053444743156</ele>
        <time>2026-07-15T11:06:47Z</time>
      </trkpt>
      <trkpt lat="31.229852448615695" lon="121.40032491357694">
        <ele>10.357071205973625</ele>
        <time>2026-07-15T11:06:56Z</time>
      </trkpt>
      <trkpt lat="31.229907427934148" lon="121.40036691525171">
        <ele>11.384910866618156</ele>
        <time>2026-07-15T11:07:00Z</time>
      </trkpt>
      <trkpt lat="31.230067358132793" lon="121.40040490723574">
        <ele>10.621292397379875</ele>
        <time>2026-07-15T11:07:06Z</time>
      </trkpt>
      <trkpt lat="31.230365210931403" lon="121.40032786930952">
        <ele>9.759910866618156</ele>
        <time>2026-07-15T11:07:21Z</time>
      </trkpt>
      <trkpt lat="31.230658063733742" lon="121.40022682856869">
        <ele>10.335930153727531</ele>
        <time>2026-07-15T11:07:36Z</time>
      </trkpt>
      <trkpt lat="31.2309569128114" lon="121.40011178585122">
        <ele>8.058288857340813</ele>
        <time>2026-07-15T11:07:51Z</time>
      </trkpt>
      <trkpt lat="31.231139815665955" lon="121.39999075312926">
        <ele>10.11662320792675</ele>
        <time>2026-07-15T11:08:03Z</time>
      </trkpt>
      <trkpt lat="31.23120178115171" lon="121.39993173982718">
        <ele>9.852394387125969</ele>
        <time>2026-07-15T11:08:09Z</time>
      </trkpt>
      <trkpt lat="31.231231754465266" lon="121.39979571970622">
        <ele>7.57475309073925</ele>
        <time>2026-07-15T11:08:15Z</time>
      </trkpt>
      <trkpt lat="31.23122774943508" lon="121.39971871057446">
        <ele>10.713775917887688</ele>
        <time>2026-07-15T11:08:18Z</time>
      </trkpt>
      <trkpt lat="31.23117475599111" lon="121.39950169015171">
        <ele>9.360931679606438</ele>
        <time>2026-07-15T11:08:24Z</time>
      </trkpt>
      <trkpt lat="31.23110378216927" lon="121.39941368689009">
        <ele>3.460731789469719</ele>
        <time>2026-07-15T11:08:30Z</time>
      </trkpt>
      <trkpt lat="31.230793917463487" lon="121.39929770207944">
        <ele>10.11662320792675</ele>
        <time>2026-07-15T11:08:45Z</time>
      </trkpt>
      <trkpt lat="31.23068496639984" lon="121.39927470931931">
        <ele>9.759910866618156</ele>
        <time>2026-07-15T11:08:51Z</time>
      </trkpt>
      <trkpt lat="31.230607007281748" lon="121.39934272289274">
        <ele>9.738777443766594</ele>
        <time>2026-07-15T11:08:57Z</time>
      </trkpt>
      <trkpt lat="31.230390109897797" lon="121.39937074467169">
        <ele>8.813980385661125</ele>
        <time>2026-07-15T11:09:06Z</time>
      </trkpt>
      <trkpt lat="31.230086258134637" lon="121.39946778139944">
        <ele>9.7176363915205</ele>
        <time>2026-07-15T11:09:24Z</time>
      </trkpt>
      <trkpt lat="31.22988635899514" lon="121.39956981011878">
        <ele>9.52738980948925</ele>
        <time>2026-07-15T11:09:36Z</time>
      </trkpt>
      <trkpt lat="31.229751434680523" lon="121.39972383995669">
        <ele>10.639793679118156</ele>
        <time>2026-07-15T11:09:45Z</time>
      </trkpt>
      <trkpt lat="31.229720473424475" lon="121.39998387598882">
        <ele>7.952598854899406</ele>
        <time>2026-07-15T11:09:58Z</time>
      </trkpt>
      <trkpt lat="31.229740476386276" lon="121.40010389082552">
        <ele>10.095482155680656</ele>
        <time>2026-07-15T11:10:04Z</time>
      </trkpt>
      <trkpt lat="31.229804460550397" lon="121.40023290391369">
        <ele>-2.5055233985185623</ele>
        <time>2026-07-15T11:10:10Z</time>
      </trkpt>
      <trkpt lat="31.229804460550397" lon="121.40023290391369">
        <ele>17.36501006782055</ele>
        <time>2026-07-15T11:10:15Z</time>
      </trkpt>
      <trkpt lat="31.23030715243325" lon="121.3994257576442">
        <ele>13.8575159329921</ele>
        <time>2026-07-15T11:17:07Z</time>
      </trkpt>
      <trkpt lat="31.230213198525092" lon="121.39945876935748">
        <ele>14.391253115609288</ele>
        <time>2026-07-15T11:17:13Z</time>
      </trkpt>
      <trkpt lat="31.23009625357115" lon="121.39946878063554">
        <ele>14.00284064002335</ele>
        <time>2026-07-15T11:17:22Z</time>
      </trkpt>
      <trkpt lat="31.229855375016005" lon="121.3995898150977">
        <ele>13.551012637093663</ele>
        <time>2026-07-15T11:17:37Z</time>
      </trkpt>
      <trkpt lat="31.229751437962978" lon="121.39976084448311">
        <ele>13.677843691781163</ele>
        <time>2026-07-15T11:17:46Z</time>
      </trkpt>
      <trkpt lat="31.229711471138938" lon="121.39991786797675">
        <ele>14.359545351937413</ele>
        <time>2026-07-15T11:17:52Z</time>
      </trkpt>
      <trkpt lat="31.229715478950066" lon="121.40001588077222">
        <ele>12.134752871468663</ele>
        <time>2026-07-15T11:17:58Z</time>
      </trkpt>
      <trkpt lat="31.229740475132704" lon="121.40009188913342">
        <ele>13.698977114632726</ele>
        <time>2026-07-15T11:18:01Z</time>
      </trkpt>
      <trkpt lat="31.22980345793945" lon="121.40020489987457">
        <ele>12.17702734656632</ele>
        <time>2026-07-15T11:18:07Z</time>
      </trkpt>
      <trkpt lat="31.229852441041704" lon="121.40025790344784">
        <ele>13.635561587288976</ele>
        <time>2026-07-15T11:18:10Z</time>
      </trkpt>
      <trkpt lat="31.23002636831284" lon="121.40032889901883">
        <ele>11.997355105355382</ele>
        <time>2026-07-15T11:18:19Z</time>
      </trkpt>
      <trkpt lat="31.23022927447019" lon="121.40033188177973">
        <ele>12.774187685921788</ele>
        <time>2026-07-15T11:18:28Z</time>
      </trkpt>
      <trkpt lat="31.230560112374565" lon="121.40025584142109">
        <ele>13.772966982796788</ele>
        <time>2026-07-15T11:18:46Z</time>
      </trkpt>
      <trkpt lat="31.2307490242166" lon="121.40025082419668">
        <ele>13.624994875863194</ele>
        <time>2026-07-15T11:18:58Z</time>
      </trkpt>
      <trkpt lat="31.230938925923233" lon="121.40015679385232">
        <ele>14.203653933480382</ele>
        <time>2026-07-15T11:19:20Z</time>
      </trkpt>
      <trkpt lat="31.230991893778015" lon="121.40008477899167">
        <ele>12.816462161019444</ele>
        <time>2026-07-15T11:19:23Z</time>
      </trkpt>
      <trkpt lat="31.23110083482552" lon="121.40000175802207">
        <ele>13.416254641488194</ele>
        <time>2026-07-15T11:19:26Z</time>
      </trkpt>
      <trkpt lat="31.231174792491004" lon="121.39991974059765">
        <ele>13.836374880746007</ele>
        <time>2026-07-15T11:19:29Z</time>
      </trkpt>
      <trkpt lat="31.23120576990327" lon="121.39983272663943">
        <ele>13.825808169320226</ele>
        <time>2026-07-15T11:19:32Z</time>
      </trkpt>
      <trkpt lat="31.23121574972517" lon="121.39965770433113">
        <ele>13.152025820687413</ele>
        <time>2026-07-15T11:19:38Z</time>
      </trkpt>
      <trkpt lat="31.231199750232772" lon="121.39957469612109">
        <ele>13.825808169320226</ele>
        <time>2026-07-15T11:19:41Z</time>
      </trkpt>
      <trkpt lat="31.23113177054548" lon="121.39943168634913">
        <ele>13.92093146033585</ele>
        <time>2026-07-15T11:19:47Z</time>
      </trkpt>
      <trkpt lat="31.231052801990533" lon="121.39936168594228">
        <ele>14.224794985726476</ele>
        <time>2026-07-15T11:19:53Z</time>
      </trkpt>
      <trkpt lat="31.23090986371854" lon="121.39929769196554">
        <ele>10.84268439002335</ele>
        <time>2026-07-15T11:19:59Z</time>
      </trkpt>
      <trkpt lat="31.230695962052774" lon="121.39928570943941">
        <ele>12.79532110877335</ele>
        <time>2026-07-15T11:20:08Z</time>
      </trkpt>
      <trkpt lat="31.230519045895814" lon="121.39931172744765">
        <ele>13.614428164437413</ele>
        <time>2026-07-15T11:20:17Z</time>
      </trkpt>
      <trkpt lat="31.230403102861736" lon="121.3993567421035">
        <ele>7.957316042855382</ele>
        <time>2026-07-15T11:20:23Z</time>
      </trkpt>
      <trkpt lat="31.230341132117125" lon="121.3993637482252">
        <ele>12.17702734656632</ele>
        <time>2026-07-15T11:20:26Z</time>
      </trkpt>
      <trkpt lat="31.230080261455786" lon="121.39947478267939">
        <ele>13.204874636605382</ele>
        <time>2026-07-15T11:20:44Z</time>
      </trkpt>
      <trkpt lat="31.229963318705284" lon="121.39951279703348">
        <ele>12.890444399788976</ele>
        <time>2026-07-15T11:20:50Z</time>
      </trkpt>
      <trkpt lat="31.22990534872337" lon="121.39955180643162">
        <ele>13.416254641488194</ele>
        <time>2026-07-15T11:20:53Z</time>
      </trkpt>
      <trkpt lat="31.229698468486195" lon="121.39982585722976">
        <ele>12.261583926156163</ele>
        <time>2026-07-15T11:21:05Z</time>
      </trkpt>
      <trkpt lat="31.22967449211725" lon="121.39995687637301">
        <ele>13.9394251126796</ele>
        <time>2026-07-15T11:21:11Z</time>
      </trkpt>
      <trkpt lat="31.229702492465318" lon="121.40008889202463">
        <ele>13.561579348519444</ele>
        <time>2026-07-15T11:21:17Z</time>
      </trkpt>
      <trkpt lat="31.229807462044285" lon="121.40025890752062">
        <ele>13.405687930062413</ele>
        <time>2026-07-15T11:21:27Z</time>
      </trkpt>
      <trkpt lat="31.229869440609505" lon="121.40032391194185">
        <ele>14.9382044095546</ele>
        <time>2026-07-15T11:21:33Z</time>
      </trkpt>
      <trkpt lat="31.230095341501148" lon="121.40037389994814">
        <ele>13.331705691292882</ele>
        <time>2026-07-15T11:21:45Z</time>
      </trkpt>
      <trkpt lat="31.230385198349794" lon="121.400298863148">
        <ele>13.519304873421788</ele>
        <time>2026-07-15T11:22:00Z</time>
      </trkpt>
      <trkpt lat="31.23057410834754" lon="121.4002778434981">
        <ele>13.289431216195226</ele>
        <time>2026-07-15T11:22:12Z</time>
      </trkpt>
      <trkpt lat="31.23077301555313" lon="121.40027282539599">
        <ele>13.236582400277257</ele>
        <time>2026-07-15T11:22:21Z</time>
      </trkpt>
      <trkpt lat="31.231027877936192" lon="121.40009277697713">
        <ele>13.373980166390538</ele>
        <time>2026-07-15T11:22:33Z</time>
      </trkpt>
      <trkpt lat="31.231126822184944" lon="121.3999957549403">
        <ele>13.7306848783046</ele>
        <time>2026-07-15T11:22:39Z</time>
      </trkpt>
      <trkpt lat="31.23120277353033" lon="121.39985672996623">
        <ele>11.202028872445226</ele>
        <time>2026-07-15T11:22:45Z</time>
      </trkpt>
      <trkpt lat="31.23120375300296" lon="121.3996307022132">
        <ele>13.373980166390538</ele>
        <time>2026-07-15T11:22:54Z</time>
      </trkpt>
      <trkpt lat="31.231161760999342" lon="121.39948868986328">
        <ele>13.32113135047257</ele>
        <time>2026-07-15T11:23:00Z</time>
      </trkpt>
      <trkpt lat="31.23099382675814" lon="121.39932568743482">
        <ele>13.091257693246007</ele>
        <time>2026-07-15T11:23:12Z</time>
      </trkpt>
      <trkpt lat="31.230935851191663" lon="121.39929068900675">
        <ele>13.268290163949132</ele>
        <time>2026-07-15T11:23:15Z</time>
      </trkpt>
      <trkpt lat="31.230666976387987" lon="121.39929871325141">
        <ele>12.607721926644444</ele>
        <time>2026-07-15T11:23:27Z</time>
      </trkpt>
      <trkpt lat="31.23032913667934" lon="121.39934974784182">
        <ele>13.490236880257726</ele>
        <time>2026-07-15T11:23:42Z</time>
      </trkpt>
      <trkpt lat="31.230102248057783" lon="121.39943277625888">
        <ele>13.490236880257726</ele>
        <time>2026-07-15T11:23:55Z</time>
      </trkpt>
      <trkpt lat="31.23006326827226" lon="121.39946078265048">
        <ele>13.070116640999913</ele>
        <time>2026-07-15T11:23:58Z</time>
      </trkpt>
      <trkpt lat="31.230013290487406" lon="121.39944778561583">
        <ele>12.681704165413976</ele>
        <time>2026-07-15T11:24:04Z</time>
      </trkpt>
      <trkpt lat="31.229786413235978" lon="121.3996638297178">
        <ele>13.614428164437413</ele>
        <time>2026-07-15T11:24:19Z</time>
      </trkpt>
      <trkpt lat="31.2296884859108" lon="121.39995987555346">
        <ele>13.614428164437413</ele>
        <time>2026-07-15T11:24:25Z</time>
      </trkpt>
      <trkpt lat="31.229716485029584" lon="121.40007988954135">
        <ele>11.17824804969132</ele>
        <time>2026-07-15T11:24:31Z</time>
      </trkpt>
      <trkpt lat="31.2297424783015" lon="121.40013089448603">
        <ele>14.150805117562413</ele>
        <time>2026-07-15T11:24:34Z</time>
      </trkpt>
      <trkpt lat="31.22992541404335" lon="121.4003189062957">
        <ele>12.346132876351476</ele>
        <time>2026-07-15T11:24:46Z</time>
      </trkpt>
      <trkpt lat="31.230037364933764" lon="121.400343900363">
        <ele>12.774187685921788</ele>
        <time>2026-07-15T11:24:52Z</time>
      </trkpt>
      <trkpt lat="31.230109338172365" lon="121.40040090294575">
        <ele>13.289431216195226</ele>
        <time>2026-07-15T11:24:55Z</time>
      </trkpt>
      <trkpt lat="31.230272254179717" lon="121.40032887757101">
        <ele>13.059549929574132</ele>
        <time>2026-07-15T11:25:08Z</time>
      </trkpt>
      <trkpt lat="31.230568106777355" lon="121.40023883819285">
        <ele>13.709551455453038</ele>
        <time>2026-07-15T11:25:20Z</time>
      </trkpt>
      <trkpt lat="31.23086496214011" lon="121.40017480290676">
        <ele>13.971132876351476</ele>
        <time>2026-07-15T11:25:32Z</time>
      </trkpt>
      <trkpt lat="31.23097390620092" lon="121.40012378607372">
        <ele>11.149187685921788</ele>
        <time>2026-07-15T11:25:35Z</time>
      </trkpt>
      <trkpt lat="31.231148808822166" lon="121.3999637487083">
        <ele>12.890444399788976</ele>
        <time>2026-07-15T11:25:44Z</time>
      </trkpt>
      <trkpt lat="31.231196776777825" lon="121.39986173113175">
        <ele>13.469103457406163</ele>
        <time>2026-07-15T11:25:47Z</time>
      </trkpt>
      <trkpt lat="31.231199754186154" lon="121.39962270163177">
        <ele>13.091257693246007</ele>
        <time>2026-07-15T11:25:56Z</time>
      </trkpt>
      <trkpt lat="31.231142767111965" lon="121.39945368773576">
        <ele>13.006701113656163</ele>
        <time>2026-07-15T11:26:05Z</time>
      </trkpt>
      <trkpt lat="31.231055799670433" lon="121.39934868435422">
        <ele>13.173166872933507</ele>
        <time>2026-07-15T11:26:11Z</time>
      </trkpt>
      <trkpt lat="31.23093984851699" lon="121.3992786874779">
        <ele>13.017275454476476</ele>
        <time>2026-07-15T11:26:17Z</time>
      </trkpt>
      <trkpt lat="31.23084089568605" lon="121.39929769798157">
        <ele>13.25772345252335</ele>
        <time>2026-07-15T11:26:20Z</time>
      </trkpt>
      <trkpt lat="31.23071895023498" lon="121.39926870576896">
        <ele>11.50589239783585</ele>
        <time>2026-07-15T11:26:23Z</time>
      </trkpt>
      <trkpt lat="31.23038911050618" lon="121.39937274496468">
        <ele>-0.5058873873203993</ele>
        <time>2026-07-15T11:26:41Z</time>
      </trkpt>
      <trkpt lat="31.23022619150804" lon="121.39944576683146">
        <ele>8.504267336800694</ele>
        <time>2026-07-15T11:26:47Z</time>
      </trkpt>
      <trkpt lat="31.230128232298437" lon="121.3993827687526">
        <ele>13.1123987454921</ele>
        <time>2026-07-15T11:26:53Z</time>
      </trkpt>
    </trkseg>
  </trk>
</gpx>