<?xml version="1.0" encoding="UTF-8"?>
<gpx xmlns="http://www.topografix.com/GPX/1/1" xmlns:gpxtpx="http://www.garmin.com/xmlschemas/TrackPointExtension/v1" xmlns:xsi="http://www.w3.org/2001/XMLSchema-instance" xsi:schemaLocation="http://www.topografix.com/GPX/1/1 http://www.topografix.com/GPX/1/1/gpx.xsd" version="1.1" creator="gpx.py -- https://github.com/tkrajina/gpxpy">
  <trk>
    <name>gpx from keep</name>
    <type>Run</type>
    <trkseg>
      <trkpt lat="32.05191657537901" lon="118.80403315269493">
        <ele>11.062286271713674</ele>
        <time>2026-07-27T10:38:44Z</time>
      </trkpt>
      <trkpt lat="32.0519177939272" lon="118.80415840000076">
        <ele>14.631999864242971</ele>
        <time>2026-07-27T10:38:50Z</time>
      </trkpt>
      <trkpt lat="32.05199007577445" lon="118.80431069456112">
        <ele>13.133830918930471</ele>
        <time>2026-07-27T10:38:56Z</time>
      </trkpt>
      <trkpt lat="32.05206718570383" lon="118.80436379258819">
        <ele>13.448261155746877</ele>
        <time>2026-07-27T10:38:59Z</time>
      </trkpt>
      <trkpt lat="32.05237141460477" lon="118.80445594720123">
        <ele>11.543182267807424</ele>
        <time>2026-07-27T10:39:11Z</time>
      </trkpt>
      <trkpt lat="32.05264060950517" lon="118.80453307537182">
        <ele>15.572650804184377</ele>
        <time>2026-07-27T10:39:20Z</time>
      </trkpt>
      <trkpt lat="32.05295085921191" lon="118.80463625154884">
        <ele>11.115135087631643</ele>
        <time>2026-07-27T10:39:33Z</time>
      </trkpt>
      <trkpt lat="32.053147931177904" lon="118.80465226525236">
        <ele>14.975494279526174</ele>
        <time>2026-07-27T10:39:39Z</time>
      </trkpt>
      <trkpt lat="32.053236908903614" lon="118.80462820936249">
        <ele>15.134033097885549</ele>
        <time>2026-07-27T10:39:42Z</time>
      </trkpt>
      <trkpt lat="32.05330981994454" lon="118.8045680834169">
        <ele>13.207813157700002</ele>
        <time>2026-07-27T10:39:45Z</time>
      </trkpt>
      <trkpt lat="32.05337868808921" lon="118.80448391024024">
        <ele>14.745616807602346</ele>
        <time>2026-07-27T10:39:48Z</time>
      </trkpt>
      <trkpt lat="32.05342034905685" lon="118.80428451158993">
        <ele>15.614925279282033</ele>
        <time>2026-07-27T10:39:54Z</time>
      </trkpt>
      <trkpt lat="32.053412181157086" lon="118.8041893240825">
        <ele>-6.035865888930857</ele>
        <time>2026-07-27T10:39:57Z</time>
      </trkpt>
      <trkpt lat="32.05338001502656" lon="118.80409814684428">
        <ele>14.22244633641094</ele>
        <time>2026-07-27T10:40:00Z</time>
      </trkpt>
      <trkpt lat="32.05333889413866" lon="118.804034023974">
        <ele>15.017772569321096</ele>
        <time>2026-07-27T10:40:03Z</time>
      </trkpt>
      <trkpt lat="32.05322273915395" lon="118.80395988829369">
        <ele>14.809032334946096</ele>
        <time>2026-07-27T10:40:09Z</time>
      </trkpt>
      <trkpt lat="32.052980507353496" lon="118.80385770896991">
        <ele>15.081188096664846</ele>
        <time>2026-07-27T10:40:18Z</time>
      </trkpt>
      <trkpt lat="32.0528804519499" lon="118.80383868063373">
        <ele>14.370414628647268</ele>
        <time>2026-07-27T10:40:21Z</time>
      </trkpt>
      <trkpt lat="32.05259720594204" lon="118.80373349936346">
        <ele>14.275291337631643</ele>
        <time>2026-07-27T10:40:33Z</time>
      </trkpt>
      <trkpt lat="32.05244308977686" lon="118.80368642079453">
        <ele>14.190738572739065</ele>
        <time>2026-07-27T10:40:39Z</time>
      </trkpt>
      <trkpt lat="32.052354052524095" lon="118.80367640925145">
        <ele>14.34927739109844</ele>
        <time>2026-07-27T10:40:42Z</time>
      </trkpt>
      <trkpt lat="32.05218593152587" lon="118.80362833004276">
        <ele>14.642570390366018</ele>
        <time>2026-07-27T10:40:48Z</time>
      </trkpt>
      <trkpt lat="32.05210493955741" lon="118.80364336706243">
        <ele>14.661064042709768</ele>
        <time>2026-07-27T10:40:51Z</time>
      </trkpt>
      <trkpt lat="32.05202701440129" lon="118.80369647875777">
        <ele>15.56208027806133</ele>
        <time>2026-07-27T10:40:54Z</time>
      </trkpt>
      <trkpt lat="32.05196114944312" lon="118.80378265453126">
        <ele>14.986064805649221</ele>
        <time>2026-07-27T10:40:57Z</time>
      </trkpt>
      <trkpt lat="32.05190239252395" lon="118.80392995031785">
        <ele>14.254154100082815</ele>
        <time>2026-07-27T10:41:03Z</time>
      </trkpt>
      <trkpt lat="32.05189654822364" lon="118.8040201288184">
        <ele>13.950294389389455</ele>
        <time>2026-07-27T10:41:06Z</time>
      </trkpt>
      <trkpt lat="32.05191580746138" lon="118.80416641602669">
        <ele>13.85517109837383</ele>
        <time>2026-07-27T10:41:09Z</time>
      </trkpt>
      <trkpt lat="32.05195598422186" lon="118.80426260253678">
        <ele>13.009643449448049</ele>
        <time>2026-07-27T10:41:12Z</time>
      </trkpt>
      <trkpt lat="32.05202813324788" lon="118.8043387465896">
        <ele>14.904155625961721</ele>
        <time>2026-07-27T10:41:15Z</time>
      </trkpt>
      <trkpt lat="32.05224836089978" lon="118.80444092873213">
        <ele>10.288101091049612</ele>
        <time>2026-07-27T10:41:24Z</time>
      </trkpt>
      <trkpt lat="32.05256655970724" lon="118.80451404443707">
        <ele>15.194805040024221</ele>
        <time>2026-07-27T10:41:36Z</time>
      </trkpt>
      <trkpt lat="32.0528727927161" lon="118.8046082030629">
        <ele>14.893585099838674</ele>
        <time>2026-07-27T10:41:48Z</time>
      </trkpt>
      <trkpt lat="32.053090965852746" lon="118.80467932417602">
        <ele>13.86838139500469</ele>
        <time>2026-07-27T10:41:58Z</time>
      </trkpt>
      <trkpt lat="32.05325584473688" lon="118.80458913010602">
        <ele>4.23465336766094</ele>
        <time>2026-07-27T10:42:01Z</time>
      </trkpt>
      <trkpt lat="32.05333173194166" lon="118.80451497611685">
        <ele>14.798461808823049</ele>
        <time>2026-07-27T10:42:04Z</time>
      </trkpt>
      <trkpt lat="32.0533795919682" lon="118.80442880097196">
        <ele>12.946227922104299</ele>
        <time>2026-07-27T10:42:07Z</time>
      </trkpt>
      <trkpt lat="32.05340941483965" lon="118.80432358992174">
        <ele>15.134033097885549</ele>
        <time>2026-07-27T10:42:10Z</time>
      </trkpt>
      <trkpt lat="32.05341420782316" lon="118.8042043536115">
        <ele>13.971431626938283</ele>
        <time>2026-07-27T10:42:13Z</time>
      </trkpt>
      <trkpt lat="32.053392021192735" lon="118.80410014969985">
        <ele>13.897449388168752</ele>
        <time>2026-07-27T10:42:16Z</time>
      </trkpt>
      <trkpt lat="32.05334786297736" lon="118.80401498556375">
        <ele>14.306999101303518</ele>
        <time>2026-07-27T10:42:19Z</time>
      </trkpt>
      <trkpt lat="32.05328673596562" lon="118.80394986264196">
        <ele>14.28586186375469</ele>
        <time>2026-07-27T10:42:22Z</time>
      </trkpt>
      <trkpt lat="32.052970452836114" lon="118.80382765063722">
        <ele>12.30679692234844</ele>
        <time>2026-07-27T10:42:34Z</time>
      </trkpt>
      <trkpt lat="32.052672210472785" lon="118.80372647865723">
        <ele>13.971431626938283</ele>
        <time>2026-07-27T10:42:46Z</time>
      </trkpt>
      <trkpt lat="32.052346972653105" lon="118.80363132115833">
        <ele>13.635864152573049</ele>
        <time>2026-07-27T10:42:58Z</time>
      </trkpt>
      <trkpt lat="32.052168927733995" lon="118.80362833160538">
        <ele>12.56045903172344</ele>
        <time>2026-07-27T10:43:04Z</time>
      </trkpt>
      <trkpt lat="32.05207995834296" lon="118.80365739696644">
        <ele>14.169601335190237</ele>
        <time>2026-07-27T10:43:07Z</time>
      </trkpt>
      <trkpt lat="32.05201402020549" lon="118.80370148981602">
        <ele>14.045413865707815</ele>
        <time>2026-07-27T10:43:10Z</time>
      </trkpt>
      <trkpt lat="32.051964117015274" lon="118.80376361675157">
        <ele>14.098258866928518</ele>
        <time>2026-07-27T10:43:13Z</time>
      </trkpt>
      <trkpt lat="32.051896443518395" lon="118.80396001017091">
        <ele>14.692771806381643</ele>
        <time>2026-07-27T10:43:19Z</time>
      </trkpt>
      <trkpt lat="32.05190078489176" lon="118.80415539562264">
        <ele>14.975494279526174</ele>
        <time>2026-07-27T10:43:25Z</time>
      </trkpt>
      <trkpt lat="32.05196404198114" lon="118.80429466523015">
        <ele>9.881191148422658</ele>
        <time>2026-07-27T10:43:29Z</time>
      </trkpt>
      <trkpt lat="32.05211026007056" lon="118.80440086203743">
        <ele>14.777324571274221</ele>
        <time>2026-07-27T10:43:32Z</time>
      </trkpt>
      <trkpt lat="32.05239946464556" lon="118.80448099425789">
        <ele>12.893382920883596</ele>
        <time>2026-07-27T10:43:41Z</time>
      </trkpt>
      <trkpt lat="32.05270968273616" lon="118.80456613458492">
        <ele>14.515739335678518</ele>
        <time>2026-07-27T10:43:50Z</time>
      </trkpt>
      <trkpt lat="32.05299589555478" lon="118.8046512772332">
        <ele>13.123260392807424</ele>
        <time>2026-07-27T10:44:02Z</time>
      </trkpt>
      <trkpt lat="32.05315593120586" lon="118.80465126252903">
        <ele>12.475902452133596</ele>
        <time>2026-07-27T10:44:08Z</time>
      </trkpt>
      <trkpt lat="32.05329086656269" lon="118.80459714278699">
        <ele>12.674075975082815</ele>
        <time>2026-07-27T10:44:14Z</time>
      </trkpt>
      <trkpt lat="32.05337067929902" lon="118.80447990303375">
        <ele>13.699275865219533</ele>
        <time>2026-07-27T10:44:20Z</time>
      </trkpt>
      <trkpt lat="32.05340247803413" lon="118.80436066394338">
        <ele>14.22244633641094</ele>
        <time>2026-07-27T10:44:23Z</time>
      </trkpt>
      <trkpt lat="32.053403296296004" lon="118.80425645765517">
        <ele>12.925090684555471</ele>
        <time>2026-07-27T10:44:26Z</time>
      </trkpt>
      <trkpt lat="32.05338510698462" lon="118.80415024932789">
        <ele>13.939723863266408</ele>
        <time>2026-07-27T10:44:29Z</time>
      </trkpt>
      <trkpt lat="32.05334893477543" lon="118.80405606657938">
        <ele>13.062488450668752</ele>
        <time>2026-07-27T10:44:32Z</time>
      </trkpt>
      <trkpt lat="32.05324573206563" lon="118.80395287234109">
        <ele>13.553951158188283</ele>
        <time>2026-07-27T10:44:38Z</time>
      </trkpt>
      <trkpt lat="32.05298048643636" lon="118.80384568526739">
        <ele>14.066554917953908</ele>
        <time>2026-07-27T10:44:47Z</time>
      </trkpt>
      <trkpt lat="32.05269426065524" lon="118.80375252794218">
        <ele>14.505168809555471</ele>
        <time>2026-07-27T10:44:59Z</time>
      </trkpt>
      <trkpt lat="32.052430013781716" lon="118.80364433916058">
        <ele>13.876308335922658</ele>
        <time>2026-07-27T10:45:11Z</time>
      </trkpt>
      <trkpt lat="32.052383968725344" lon="118.80362430395688">
        <ele>13.104766740463674</ele>
        <time>2026-07-27T10:45:14Z</time>
      </trkpt>
      <trkpt lat="32.05223202009385" lon="118.80367341454868">
        <ele>14.045413865707815</ele>
        <time>2026-07-27T10:45:20Z</time>
      </trkpt>
      <trkpt lat="32.05219808562456" lon="118.80371550052286">
        <ele>13.614723100326955</ele>
        <time>2026-07-27T10:45:26Z</time>
      </trkpt>
      <trkpt lat="32.05201112575915" lon="118.8037626104578">
        <ele>11.825904740951955</ele>
        <time>2026-07-27T10:45:29Z</time>
      </trkpt>
      <trkpt lat="32.05196025028592" lon="118.80384076914589">
        <ele>14.370414628647268</ele>
        <time>2026-07-27T10:45:32Z</time>
      </trkpt>
      <trkpt lat="32.05191351710919" lon="118.80400008770022">
        <ele>14.045413865707815</ele>
        <time>2026-07-27T10:45:38Z</time>
      </trkpt>
      <trkpt lat="32.05192575552355" lon="118.80413535372521">
        <ele>14.024276628158987</ele>
        <time>2026-07-27T10:45:41Z</time>
      </trkpt>
      <trkpt lat="32.05195590553243" lon="118.80421751336833">
        <ele>13.596229447983205</ele>
        <time>2026-07-27T10:45:44Z</time>
      </trkpt>
      <trkpt lat="32.052057113468194" lon="118.8043237141795">
        <ele>-10.316349134780467</ele>
        <time>2026-07-27T10:45:51Z</time>
      </trkpt>
      <trkpt lat="32.05219631077241" lon="118.80441888985037">
        <ele>13.165538682602346</ele>
        <time>2026-07-27T10:45:57Z</time>
      </trkpt>
      <trkpt lat="32.05239840836416" lon="118.80444893082529">
        <ele>13.657001390121877</ele>
        <time>2026-07-27T10:46:09Z</time>
      </trkpt>
      <trkpt lat="32.05269668860463" lon="118.80457114571362">
        <ele>13.730983628891408</ele>
        <time>2026-07-27T10:46:27Z</time>
      </trkpt>
      <trkpt lat="32.05301491031548" lon="118.80465728741606">
        <ele>14.34927739109844</ele>
        <time>2026-07-27T10:46:42Z</time>
      </trkpt>
      <trkpt lat="32.053142947608976" lon="118.80466228559398">
        <ele>14.49460209812969</ele>
        <time>2026-07-27T10:46:48Z</time>
      </trkpt>
      <trkpt lat="32.05321090661955" lon="118.80463021572747">
        <ele>14.108829393051565</ele>
        <time>2026-07-27T10:46:51Z</time>
      </trkpt>
      <trkpt lat="32.05327682486657" lon="118.80457510035772">
        <ele>14.420619859360158</ele>
        <time>2026-07-27T10:46:54Z</time>
      </trkpt>
      <trkpt lat="32.05338549000141" lon="118.8043696833579">
        <ele>13.91858662571758</ele>
        <time>2026-07-27T10:47:03Z</time>
      </trkpt>
      <trkpt lat="32.05341630268933" lon="118.804258460424">
        <ele>14.378341569565237</ele>
        <time>2026-07-27T10:47:06Z</time>
      </trkpt>
      <trkpt lat="32.05337803204816" lon="118.80410816682145">
        <ele>13.041351213119924</ele>
        <time>2026-07-27T10:47:12Z</time>
      </trkpt>
      <trkpt lat="32.053276738971554" lon="118.80395286949168">
        <ele>12.999072923325002</ele>
        <time>2026-07-27T10:47:18Z</time>
      </trkpt>
      <trkpt lat="32.05300950684327" lon="118.80385369840322">
        <ele>9.735866441391408</ele>
        <time>2026-07-27T10:47:30Z</time>
      </trkpt>
      <trkpt lat="32.05272226167195" lon="118.80374951944783">
        <ele>29.86735142674297</ele>
        <time>2026-07-27T10:47:42Z</time>
      </trkpt>
      <trkpt lat="32.05245005652674" lon="118.8036663807051">
        <ele>13.271228685043752</ele>
        <time>2026-07-27T10:47:54Z</time>
      </trkpt>
      <trkpt lat="32.052174941251614" lon="118.80363534485473">
        <ele>12.716350450180471</ele>
        <time>2026-07-27T10:48:09Z</time>
      </trkpt>
      <trkpt lat="32.05207499377652" lon="118.8036784388412">
        <ele>12.748058213852346</ele>
        <time>2026-07-27T10:48:15Z</time>
      </trkpt>
      <trkpt lat="32.05197117432264" lon="118.80379567927616">
        <ele>11.85761250462383</ele>
        <time>2026-07-27T10:48:21Z</time>
      </trkpt>
      <trkpt lat="32.05190750878966" lon="118.80399608034132">
        <ele>12.977935685776174</ele>
        <time>2026-07-27T10:48:28Z</time>
      </trkpt>
      <trkpt lat="32.05190667791595" lon="118.80409327233315">
        <ele>14.180171861313283</ele>
        <time>2026-07-27T10:48:31Z</time>
      </trkpt>
      <trkpt lat="32.051926837879215" lon="118.80418244670305">
        <ele>14.254154100082815</ele>
        <time>2026-07-27T10:48:34Z</time>
      </trkpt>
      <trkpt lat="32.05197102080152" lon="118.80428163881696">
        <ele>14.233016862533987</ele>
        <time>2026-07-27T10:48:37Z</time>
      </trkpt>
      <trkpt lat="32.052048165712215" lon="118.80435477648336">
        <ele>14.610862626694143</ele>
        <time>2026-07-27T10:48:40Z</time>
      </trkpt>
      <trkpt lat="32.052335403073194" lon="118.80445394653978">
        <ele>13.910659684799612</ele>
        <time>2026-07-27T10:48:52Z</time>
      </trkpt>
      <trkpt lat="32.05261759386125" lon="118.80452706556846">
        <ele>14.119399919174612</ele>
        <time>2026-07-27T10:49:04Z</time>
      </trkpt>
      <trkpt lat="32.05269466361383" lon="118.80455711808325">
        <ele>12.182613267563283</ele>
        <time>2026-07-27T10:49:07Z</time>
      </trkpt>
      <trkpt lat="32.05283669877183" lon="118.80455910900646">
        <ele>14.045413865707815</ele>
        <time>2026-07-27T10:49:13Z</time>
      </trkpt>
      <trkpt lat="32.05303286695984" lon="118.80463023208598">
        <ele>13.64643086399883</ele>
        <time>2026-07-27T10:49:19Z</time>
      </trkpt>
      <trkpt lat="32.05312289578436" lon="118.80463523375396">
        <ele>14.515739335678518</ele>
        <time>2026-07-27T10:49:22Z</time>
      </trkpt>
      <trkpt lat="32.0532118682548" lon="118.80460817190816">
        <ele>12.935661210678518</ele>
        <time>2026-07-27T10:49:25Z</time>
      </trkpt>
      <trkpt lat="32.053337656180624" lon="118.80447088819868">
        <ele>13.614723100326955</ele>
        <time>2026-07-27T10:49:31Z</time>
      </trkpt>
      <trkpt lat="32.05341424628585" lon="118.8042263971969">
        <ele>13.324073686264455</ele>
        <time>2026-07-27T10:49:40Z</time>
      </trkpt>
      <trkpt lat="32.053405118428984" lon="118.80415425541017">
        <ele>14.328140153549612</ele>
        <time>2026-07-27T10:49:43Z</time>
      </trkpt>
      <trkpt lat="32.05323266986305" lon="118.80391880633161">
        <ele>13.239520921371877</ele>
        <time>2026-07-27T10:49:52Z</time>
      </trkpt>
      <trkpt lat="32.052921445401815" lon="118.80382965909084">
        <ele>13.667568101547658</ele>
        <time>2026-07-27T10:50:04Z</time>
      </trkpt>
      <trkpt lat="32.052781396771856" lon="118.80381965221163">
        <ele>13.062488450668752</ele>
        <time>2026-07-27T10:50:10Z</time>
      </trkpt>
      <trkpt lat="32.05262327966342" lon="118.803772573943">
        <ele>13.897449388168752</ele>
        <time>2026-07-27T10:50:16Z</time>
      </trkpt>
      <trkpt lat="32.052545192607255" lon="118.80373250216996">
        <ele>13.575092210434377</ele>
        <time>2026-07-27T10:50:19Z</time>
      </trkpt>
      <trkpt lat="32.052228972436396" lon="118.80364636157987">
        <ele>13.614723100326955</ele>
        <time>2026-07-27T10:50:31Z</time>
      </trkpt>
      <trkpt lat="32.05215000006341" lon="118.80367242011371">
        <ele>8.919402970932424</ele>
        <time>2026-07-27T10:50:34Z</time>
      </trkpt>
      <trkpt lat="32.052081068232184" lon="118.80372052114205">
        <ele>13.847244157455862</ele>
        <time>2026-07-27T10:50:37Z</time>
      </trkpt>
      <trkpt lat="32.052015180654436" lon="118.80379367128342">
        <ele>14.317569627426565</ele>
        <time>2026-07-27T10:50:40Z</time>
      </trkpt>
      <trkpt lat="32.05194844116366" lon="118.80395198957633">
        <ele>13.094196214340627</ele>
        <time>2026-07-27T10:50:46Z</time>
      </trkpt>
      <trkpt lat="32.05193861171255" lon="118.80405118628249">
        <ele>13.939723863266408</ele>
        <time>2026-07-27T10:50:49Z</time>
      </trkpt>
      <trkpt lat="32.05195578318391" lon="118.80414737472707">
        <ele>12.412490739487112</ele>
        <time>2026-07-27T10:50:52Z</time>
      </trkpt>
      <trkpt lat="32.051995937186085" lon="118.80423053544851">
        <ele>14.024276628158987</ele>
        <time>2026-07-27T10:50:55Z</time>
      </trkpt>
      <trkpt lat="32.05213121223353" lon="118.80437080059136">
        <ele>12.779765977524221</ele>
        <time>2026-07-27T10:51:01Z</time>
      </trkpt>
      <trkpt lat="32.05229735256257" lon="118.80442990239757">
        <ele>14.317569627426565</ele>
        <time>2026-07-27T10:51:07Z</time>
      </trkpt>
      <trkpt lat="32.052463401840065" lon="118.80443690103411">
        <ele>13.50110615696758</ele>
        <time>2026-07-27T10:51:13Z</time>
      </trkpt>
      <trkpt lat="32.05274662962898" lon="118.80453106165776">
        <ele>12.058425798080862</ele>
        <time>2026-07-27T10:51:25Z</time>
      </trkpt>
      <trkpt lat="32.0529928212127" lon="118.80460919402216">
        <ele>13.826106919907033</ele>
        <time>2026-07-27T10:51:37Z</time>
      </trkpt>
      <trkpt lat="32.05318284776379" lon="118.80460015867436">
        <ele>12.108627214096487</ele>
        <time>2026-07-27T10:51:43Z</time>
      </trkpt>
      <trkpt lat="32.05328579005389" lon="118.80455405780893">
        <ele>14.378341569565237</ele>
        <time>2026-07-27T10:51:46Z</time>
      </trkpt>
      <trkpt lat="32.05335760633319" lon="118.80443982482531">
        <ele>13.585658921860158</ele>
        <time>2026-07-27T10:51:49Z</time>
      </trkpt>
      <trkpt lat="32.053391424829556" lon="118.80433160743979">
        <ele>14.631999864242971</ele>
        <time>2026-07-27T10:51:52Z</time>
      </trkpt>
      <trkpt lat="32.053399183505405" lon="118.80419233121962">
        <ele>11.062286271713674</ele>
        <time>2026-07-27T10:51:56Z</time>
      </trkpt>
      <trkpt lat="32.053326947335954" lon="118.80406608838797">
        <ele>13.490535630844533</ele>
        <time>2026-07-27T10:51:59Z</time>
      </trkpt>
      <trkpt lat="32.053148689521564" lon="118.80394085753558">
        <ele>13.479968919418752</ele>
        <time>2026-07-27T10:52:08Z</time>
      </trkpt>
      <trkpt lat="32.05287247631215" lon="118.80385371099585">
        <ele>13.405986680649221</ele>
        <time>2026-07-27T10:52:20Z</time>
      </trkpt>
      <trkpt lat="32.05275129252029" lon="118.8037635444131">
        <ele>11.23139180149883</ele>
        <time>2026-07-27T10:52:26Z</time>
      </trkpt>
      <trkpt lat="32.052549186533724" lon="118.80372849390949">
        <ele>13.302936448715627</ele>
        <time>2026-07-27T10:52:32Z</time>
      </trkpt>
      <trkpt lat="32.05248310914042" lon="118.80369242895289">
        <ele>13.133830918930471</ele>
        <time>2026-07-27T10:52:35Z</time>
      </trkpt>
      <trkpt lat="32.05228698189199" lon="118.80364435230503">
        <ele>12.988506211899221</ele>
        <time>2026-07-27T10:52:44Z</time>
      </trkpt>
      <trkpt lat="32.05216299252046" lon="118.8036664070857">
        <ele>7.487293138168752</ele>
        <time>2026-07-27T10:52:50Z</time>
      </trkpt>
      <trkpt lat="32.05204211351598" lon="118.80375158589851">
        <ele>13.950294389389455</ele>
        <time>2026-07-27T10:52:56Z</time>
      </trkpt>
      <trkpt lat="32.05198921667221" lon="118.80381772105954">
        <ele>13.804969682358205</ele>
        <time>2026-07-27T10:52:59Z</time>
      </trkpt>
      <trkpt lat="32.051921482247444" lon="118.80397904543848">
        <ele>13.165538682602346</ele>
        <time>2026-07-27T10:53:05Z</time>
      </trkpt>
      <trkpt lat="32.05191562927965" lon="118.80406421411772">
        <ele>13.239520921371877</ele>
        <time>2026-07-27T10:53:08Z</time>
      </trkpt>
      <trkpt lat="32.05193381322508" lon="118.8041674163527">
        <ele>11.302734269760549</ele>
        <time>2026-07-27T10:53:11Z</time>
      </trkpt>
      <trkpt lat="32.05197498321401" lon="118.804259594845">
        <ele>13.43769062962383</ele>
        <time>2026-07-27T10:53:14Z</time>
      </trkpt>
      <trkpt lat="32.05203110066874" lon="118.80431970863765">
        <ele>13.186675920151174</ele>
        <time>2026-07-27T10:53:17Z</time>
      </trkpt>
      <trkpt lat="32.05217520454373" lon="118.80436077671212">
        <ele>12.769195451401174</ele>
        <time>2026-07-27T10:53:24Z</time>
      </trkpt>
      <trkpt lat="32.052332397149215" lon="118.80445094086068">
        <ele>11.931594743393362</ele>
        <time>2026-07-27T10:53:30Z</time>
      </trkpt>
      <trkpt lat="32.052614584429136" lon="118.8045220559137">
        <ele>12.925090684555471</ele>
        <time>2026-07-27T10:53:42Z</time>
      </trkpt>
      <trkpt lat="32.05292182643743" lon="118.80462122439766">
        <ele>12.600089921616018</ele>
        <time>2026-07-27T10:53:57Z</time>
      </trkpt>
      <trkpt lat="32.05309595292876" lon="118.80467130780858">
        <ele>13.720416917465627</ele>
        <time>2026-07-27T10:54:03Z</time>
      </trkpt>
      <trkpt lat="32.05315795095097" lon="118.80466228421547">
        <ele>13.543384446762502</ele>
        <time>2026-07-27T10:54:06Z</time>
      </trkpt>
      <trkpt lat="32.053283831686095" lon="118.8045781056752">
        <ele>12.893382920883596</ele>
        <time>2026-07-27T10:54:12Z</time>
      </trkpt>
      <trkpt lat="32.053394448248305" lon="118.8043446329448">
        <ele>12.610660447739065</ele>
        <time>2026-07-27T10:54:21Z</time>
      </trkpt>
      <trkpt lat="32.053383179941605" lon="118.8041923326902">
        <ele>11.973873033188283</ele>
        <time>2026-07-27T10:54:27Z</time>
      </trkpt>
      <trkpt lat="32.0533950742673" lon="118.80413020881002">
        <ele>13.313506974838674</ele>
        <time>2026-07-27T10:54:30Z</time>
      </trkpt>
      <trkpt lat="32.053366923071145" lon="118.80404704711847">
        <ele>13.720416917465627</ele>
        <time>2026-07-27T10:54:33Z</time>
      </trkpt>
      <trkpt lat="32.05327978674804" lon="118.80397992259766">
        <ele>13.458831681869924</ele>
        <time>2026-07-27T10:54:36Z</time>
      </trkpt>
      <trkpt lat="32.05308759919146" lon="118.8038967761845">
        <ele>8.240341081283987</ele>
        <time>2026-07-27T10:54:45Z</time>
      </trkpt>
      <trkpt lat="32.052899391706795" lon="118.8038016058238">
        <ele>7.999893083237112</ele>
        <time>2026-07-27T10:54:54Z</time>
      </trkpt>
      <trkpt lat="32.052742367168186" lon="118.80380763210144">
        <ele>9.180988206528127</ele>
        <time>2026-07-27T10:55:00Z</time>
      </trkpt>
      <trkpt lat="32.052632212003545" lon="118.80373249417308">
        <ele>13.094196214340627</ele>
        <time>2026-07-27T10:55:06Z</time>
      </trkpt>
      <trkpt lat="32.05236704323966" lon="118.80366939425083">
        <ele>13.176105394028127</ele>
        <time>2026-07-27T10:55:18Z</time>
      </trkpt>
      <trkpt lat="32.052230964182094" lon="118.80364135153725">
        <ele>12.518180741928518</ele>
        <time>2026-07-27T10:55:24Z</time>
      </trkpt>
      <trkpt lat="32.052110020731334" lon="118.80368945732069">
        <ele>12.800903215073049</ele>
        <time>2026-07-27T10:55:30Z</time>
      </trkpt>
      <trkpt lat="32.05203111802871" lon="118.80375559480386">
        <ele>13.511676683090627</ele>
        <time>2026-07-27T10:55:33Z</time>
      </trkpt>
      <trkpt lat="32.05194934894639" lon="118.80389888473519">
        <ele>13.522243394516408</ele>
        <time>2026-07-27T10:55:39Z</time>
      </trkpt>
      <trkpt lat="32.051928480319425" lon="118.80397704084058">
        <ele>11.574890031479299</ele>
        <time>2026-07-27T10:55:42Z</time>
      </trkpt>
      <trkpt lat="32.05194875191948" lon="118.80413034171241">
        <ele>12.864318742416799</ele>
        <time>2026-07-27T10:55:48Z</time>
      </trkpt>
      <trkpt lat="32.05197790169924" lon="118.80421250144082">
        <ele>10.404361619614065</ele>
        <time>2026-07-27T10:55:51Z</time>
      </trkpt>
      <trkpt lat="32.052031055179214" lon="118.80429365709014">
        <ele>12.465335740707815</ele>
        <time>2026-07-27T10:55:54Z</time>
      </trkpt>
      <trkpt lat="32.052166218290076" lon="118.80436979539112">
        <ele>11.072856797836721</ele>
        <time>2026-07-27T10:56:00Z</time>
      </trkpt>
      <trkpt lat="32.05238636540513" lon="118.80442588628">
        <ele>10.510051622055471</ele>
        <time>2026-07-27T10:56:10Z</time>
      </trkpt>
      <trkpt lat="32.05246038365751" lon="118.80442688146367">
        <ele>13.585658921860158</ele>
        <time>2026-07-27T10:56:13Z</time>
      </trkpt>
      <trkpt lat="32.052740621280655" lon="118.80452705426448">
        <ele>11.072856797836721</ele>
        <time>2026-07-27T10:56:25Z</time>
      </trkpt>
      <trkpt lat="32.05301785133876" lon="118.80462321955044">
        <ele>12.726920976303518</ele>
        <time>2026-07-27T10:56:37Z</time>
      </trkpt>
      <trkpt lat="32.05310388278014" lon="118.80463022556097">
        <ele>13.112693681381643</ele>
        <time>2026-07-27T10:56:40Z</time>
      </trkpt>
      <trkpt lat="32.05323281155787" lon="118.80457310042767">
        <ele>13.051921739242971</ele>
        <time>2026-07-27T10:56:46Z</time>
      </trkpt>
      <trkpt lat="32.05331566704777" lon="118.80447990808857">
        <ele>13.313506974838674</ele>
        <time>2026-07-27T10:56:49Z</time>
      </trkpt>
      <trkpt lat="32.05337945190787" lon="118.80434864225649">
        <ele>12.967368974350393</ele>
        <time>2026-07-27T10:56:52Z</time>
      </trkpt>
      <trkpt lat="32.053397251241854" lon="118.80423140866625">
        <ele>12.674075975082815</ele>
        <time>2026-07-27T10:56:55Z</time>
      </trkpt>
      <trkpt lat="32.053375071559614" lon="118.80413121262806">
        <ele>12.829967393539846</ele>
        <time>2026-07-27T10:56:58Z</time>
      </trkpt>
      <trkpt lat="32.05330181956977" lon="118.80399595221479">
        <ele>13.353137864731252</ele>
        <time>2026-07-27T10:57:04Z</time>
      </trkpt>
      <trkpt lat="32.05319463872566" lon="118.80390578413369">
        <ele>13.271228685043752</ele>
        <time>2026-07-27T10:57:10Z</time>
      </trkpt>
      <trkpt lat="32.0530455061498" lon="118.80384868521818">
        <ele>12.946227922104299</ele>
        <time>2026-07-27T10:57:19Z</time>
      </trkpt>
      <trkpt lat="32.05287839573859" lon="118.8038066176262">
        <ele>11.596027269028127</ele>
        <time>2026-07-27T10:57:25Z</time>
      </trkpt>
      <trkpt lat="32.052734340991954" lon="118.8037936051957">
        <ele>12.518180741928518</ele>
        <time>2026-07-27T10:57:31Z</time>
      </trkpt>
      <trkpt lat="32.05244503800852" lon="118.8036563614442">
        <ele>13.228954209946096</ele>
        <time>2026-07-27T10:57:43Z</time>
      </trkpt>
      <trkpt lat="32.05225690213064" lon="118.80360227226323">
        <ele>12.610660447739065</ele>
        <time>2026-07-27T10:57:52Z</time>
      </trkpt>
      <trkpt lat="32.052107964589" lon="118.80365739439273">
        <ele>12.549888505600393</ele>
        <time>2026-07-27T10:57:58Z</time>
      </trkpt>
      <trkpt lat="32.052000104146146" lon="118.80375158975897">
        <ele>11.765132798813283</ele>
        <time>2026-07-27T10:58:04Z</time>
      </trkpt>
      <trkpt lat="32.05191534136052" lon="118.80389888786021">
        <ele>12.507610215805471</ele>
        <time>2026-07-27T10:58:10Z</time>
      </trkpt>
      <trkpt lat="32.051893589450856" lon="118.80404417656962">
        <ele>11.878749742172658</ele>
        <time>2026-07-27T10:58:16Z</time>
      </trkpt>
      <trkpt lat="32.0519198765214" lon="118.80420549290425">
        <ele>12.256595506332815</ele>
        <time>2026-07-27T10:58:23Z</time>
      </trkpt>
      <trkpt lat="32.05196001834736" lon="118.8042816398279">
        <ele>12.695213212631643</ele>
        <time>2026-07-27T10:58:26Z</time>
      </trkpt>
      <trkpt lat="32.05204015867677" lon="118.80435177126856">
        <ele>12.800903215073049</ele>
        <time>2026-07-27T10:58:29Z</time>
      </trkpt>
      <trkpt lat="32.05213222821168" lon="118.80437981835277">
        <ele>11.85761250462383</ele>
        <time>2026-07-27T10:58:38Z</time>
      </trkpt>
      <trkpt lat="32.05244436607995" lon="118.80441886705837">
        <ele>12.903953447006643</ele>
        <time>2026-07-27T10:58:50Z</time>
      </trkpt>
      <trkpt lat="32.05251441496302" lon="118.80443789833173">
        <ele>11.963302507065237</ele>
        <time>2026-07-27T10:58:53Z</time>
      </trkpt>
      <trkpt lat="32.052681636173645" lon="118.80454309146695">
        <ele>12.716350450180471</ele>
        <time>2026-07-27T10:58:59Z</time>
      </trkpt>
      <trkpt lat="32.05281266537413" lon="118.80454307942776">
        <ele>12.925090684555471</ele>
        <time>2026-07-27T10:59:05Z</time>
      </trkpt>
      <trkpt lat="32.05306986818797" lon="118.80462622073465">
        <ele>12.674075975082815</ele>
        <time>2026-07-27T10:59:14Z</time>
      </trkpt>
      <trkpt lat="32.053167865467465" lon="118.80461218390172">
        <ele>12.872245683334768</ele>
        <time>2026-07-27T10:59:17Z</time>
      </trkpt>
      <trkpt lat="32.053267787797154" lon="118.80455506144978">
        <ele>11.691150560043752</ele>
        <time>2026-07-27T10:59:20Z</time>
      </trkpt>
      <trkpt lat="32.053333641274804" lon="118.80446287268478">
        <ele>12.507610215805471</ele>
        <time>2026-07-27T10:59:23Z</time>
      </trkpt>
      <trkpt lat="32.053378479689975" lon="118.80436467408327">
        <ele>11.691150560043752</ele>
        <time>2026-07-27T10:59:26Z</time>
      </trkpt>
      <trkpt lat="32.05337320218727" lon="118.80420636134184">
        <ele>12.256595506332815</ele>
        <time>2026-07-27T10:59:32Z</time>
      </trkpt>
      <trkpt lat="32.05332088140068" lon="118.80402901573763">
        <ele>12.119197740219533</ele>
        <time>2026-07-27T10:59:38Z</time>
      </trkpt>
      <trkpt lat="32.053267750923524" lon="118.80396088613449">
        <ele>12.37021244969219</ele>
        <time>2026-07-27T10:59:42Z</time>
      </trkpt>
      <trkpt lat="32.05316966978042" lon="118.80392682793344">
        <ele>12.549888505600393</ele>
        <time>2026-07-27T10:59:45Z</time>
      </trkpt>
      <trkpt lat="32.052990457293006" lon="118.80382764879887">
        <ele>8.855987443588674</ele>
        <time>2026-07-27T10:59:54Z</time>
      </trkpt>
      <trkpt lat="32.052768381676124" lon="118.8038126395842">
        <ele>11.85761250462383</ele>
        <time>2026-07-27T11:00:03Z</time>
      </trkpt>
      <trkpt lat="32.05255817286914" lon="118.8037194753244">
        <ele>12.56045903172344</ele>
        <time>2026-07-27T11:00:12Z</time>
      </trkpt>
      <trkpt lat="32.05241607505292" lon="118.80368141341421">
        <ele>12.465335740707815</ele>
        <time>2026-07-27T11:00:18Z</time>
      </trkpt>
      <trkpt lat="32.05228494490745" lon="118.80362331108549">
        <ele>29.164508714340627</ele>
        <time>2026-07-27T11:00:24Z</time>
      </trkpt>
      <trkpt lat="32.05210697828857" lon="118.80366541026099">
        <ele>11.722854509018362</ele>
        <time>2026-07-27T11:00:33Z</time>
      </trkpt>
      <trkpt lat="32.05204205953202" lon="118.8037205247268">
        <ele>11.659442796371877</ele>
        <time>2026-07-27T11:00:39Z</time>
      </trkpt>
      <trkpt lat="32.05195437273224" lon="118.80391190996455">
        <ele>11.733425035141408</ele>
        <time>2026-07-27T11:00:48Z</time>
      </trkpt>
      <trkpt lat="32.051935679146695" lon="118.80409026373046">
        <ele>11.910457505844533</ele>
        <time>2026-07-27T11:00:57Z</time>
      </trkpt>
      <trkpt lat="32.051968913677875" lon="118.8042205181171">
        <ele>9.976314439438283</ele>
        <time>2026-07-27T11:01:03Z</time>
      </trkpt>
      <trkpt lat="32.052001027494505" lon="118.80428163605981">
        <ele>12.06635273899883</ele>
        <time>2026-07-27T11:01:06Z</time>
      </trkpt>
      <trkpt lat="32.05207920063392" lon="118.80437080537034">
        <ele>12.12976826634258</ele>
        <time>2026-07-27T11:01:12Z</time>
      </trkpt>
      <trkpt lat="32.05235239810616" lon="118.8044489350528">
        <ele>11.482410325668752</ele>
        <time>2026-07-27T11:01:27Z</time>
      </trkpt>
      <trkpt lat="32.052649627287124" lon="118.80454209242143">
        <ele>14.024276628158987</ele>
        <time>2026-07-27T11:01:45Z</time>
      </trkpt>
      <trkpt lat="32.05280881002289" lon="118.80462624472084">
        <ele>12.663505448959768</ele>
        <time>2026-07-27T11:01:57Z</time>
      </trkpt>
      <trkpt lat="32.05310691327084" lon="118.80464725907986">
        <ele>11.85761250462383</ele>
        <time>2026-07-27T11:02:12Z</time>
      </trkpt>
      <trkpt lat="32.053161897456945" lon="118.80463122221848">
        <ele>11.995010270737112</ele>
        <time>2026-07-27T11:02:15Z</time>
      </trkpt>
      <trkpt lat="32.05329975460839" lon="118.80453201282138">
        <ele>12.528751268051565</ele>
        <time>2026-07-27T11:02:21Z</time>
      </trkpt>
      <trkpt lat="32.05335266127378" lon="118.80447188880535">
        <ele>11.167980088852346</ele>
        <time>2026-07-27T11:02:24Z</time>
      </trkpt>
      <trkpt lat="32.05339951762792" lon="118.80438370984372">
        <ele>10.01858891453594</ele>
        <time>2026-07-27T11:02:27Z</time>
      </trkpt>
      <trkpt lat="32.05341716653991" lon="118.804180305797">
        <ele>11.984439744614065</ele>
        <time>2026-07-27T11:02:33Z</time>
      </trkpt>
      <trkpt lat="32.0533589090682" lon="118.80404003400524">
        <ele>12.475902452133596</ele>
        <time>2026-07-27T11:02:39Z</time>
      </trkpt>
      <trkpt lat="32.05328772572159" lon="118.80394385068936">
        <ele>11.85761250462383</ele>
        <time>2026-07-27T11:02:42Z</time>
      </trkpt>
      <trkpt lat="32.05322362600468" lon="118.80389475973193">
        <ele>11.022655381821096</ele>
        <time>2026-07-27T11:02:45Z</time>
      </trkpt>
      <trkpt lat="32.05288338814091" lon="118.80380160729447">
        <ele>11.995010270737112</ele>
        <time>2026-07-27T11:02:58Z</time>
      </trkpt>
      <trkpt lat="32.05259720942483" lon="118.80373550331001">
        <ele>11.85761250462383</ele>
        <time>2026-07-27T11:03:10Z</time>
      </trkpt>
      <trkpt lat="32.05232297078065" lon="118.80363332730754">
        <ele>12.327937974594533</ele>
        <time>2026-07-27T11:03:22Z</time>
      </trkpt>
      <trkpt lat="32.052164951201085" lon="118.8036423595756">
        <ele>12.235458268783987</ele>
        <time>2026-07-27T11:03:28Z</time>
      </trkpt>
      <trkpt lat="32.05209098690252" lon="118.80367242553686">
        <ele>12.327937974594533</ele>
        <time>2026-07-27T11:03:31Z</time>
      </trkpt>
      <trkpt lat="32.05203306448912" lon="118.80372453344627">
        <ele>12.581596269272268</ele>
        <time>2026-07-27T11:03:34Z</time>
      </trkpt>
      <trkpt lat="32.0519463430458" lon="118.8038958790831">
        <ele>12.37021244969219</ele>
        <time>2026-07-27T11:03:40Z</time>
      </trkpt>
      <trkpt lat="32.051919487036066" lon="118.8039820515542">
        <ele>12.652934922836721</ele>
        <time>2026-07-27T11:03:43Z</time>
      </trkpt>
      <trkpt lat="32.05191263559501" lon="118.80406822230826">
        <ele>12.16147221531719</ele>
        <time>2026-07-27T11:03:46Z</time>
      </trkpt>
      <trkpt lat="32.05193079508022" lon="118.80415739682576">
        <ele>11.167980088852346</ele>
        <time>2026-07-27T11:03:49Z</time>
      </trkpt>
      <trkpt lat="32.05202008771632" lon="118.80431369775205">
        <ele>12.327937974594533</ele>
        <time>2026-07-27T11:03:55Z</time>
      </trkpt>
      <trkpt lat="32.052087205919555" lon="118.80437280860241">
        <ele>12.277732743881643</ele>
        <time>2026-07-27T11:03:58Z</time>
      </trkpt>
      <trkpt lat="32.05215226243561" lon="118.80439685024118">
        <ele>11.418994798325002</ele>
        <time>2026-07-27T11:04:01Z</time>
      </trkpt>
      <trkpt lat="32.05229429585805" lon="118.80439783917497">
        <ele>12.108627214096487</ele>
        <time>2026-07-27T11:04:07Z</time>
      </trkpt>
      <trkpt lat="32.05256448917206" lon="118.80447396519658">
        <ele>10.602531327866018</ele>
        <time>2026-07-27T11:04:19Z</time>
      </trkpt>
      <trkpt lat="32.05278071083543" lon="118.8045731419676">
        <ele>12.56045903172344</ele>
        <time>2026-07-27T11:04:28Z</time>
      </trkpt>
      <trkpt lat="32.052910815216094" lon="118.80461621547059">
        <ele>26.32670201268047</ele>
        <time>2026-07-27T11:04:34Z</time>
      </trkpt>
      <trkpt lat="32.05298991527182" lon="118.8046633016431">
        <ele>11.617164506576955</ele>
        <time>2026-07-27T11:04:37Z</time>
      </trkpt>
      <trkpt lat="32.05314192984109" lon="118.80465226580377">
        <ele>12.12976826634258</ele>
        <time>2026-07-27T11:04:46Z</time>
      </trkpt>
      <trkpt lat="32.05325085414463" lon="118.80459514248862">
        <ele>13.86838139500469</ele>
        <time>2026-07-27T11:04:52Z</time>
      </trkpt>
      <trkpt lat="32.05333072295645" lon="118.80450996627916">
        <ele>13.543384446762502</ele>
        <time>2026-07-27T11:04:58Z</time>
      </trkpt>
      <trkpt lat="32.05336662059855" lon="118.80444683789186">
        <ele>12.140334977768362</ele>
        <time>2026-07-27T11:05:04Z</time>
      </trkpt>
      <trkpt lat="32.05338516290803" lon="118.80418231269938">
        <ele>12.16147221531719</ele>
        <time>2026-07-27T11:05:13Z</time>
      </trkpt>
      <trkpt lat="32.053338485995546" lon="118.80380655439531">
        <ele>10.969806565903127</ele>
        <time>2026-07-27T11:05:25Z</time>
      </trkpt>
      <trkpt lat="32.05319453934826" lon="118.80384867152245">
        <ele>11.77570332493633</ele>
        <time>2026-07-27T11:05:28Z</time>
      </trkpt>
      <trkpt lat="32.05309353427647" lon="118.8038587005586">
        <ele>11.429565324448049</ele>
        <time>2026-07-27T11:05:31Z</time>
      </trkpt>
      <trkpt lat="32.05286942509905" lon="118.80382465399653">
        <ele>11.868183030746877</ele>
        <time>2026-07-27T11:05:40Z</time>
      </trkpt>
      <trkpt lat="32.0526001804918" lon="118.80371846949082">
        <ele>10.560256852768362</ele>
        <time>2026-07-27T11:05:52Z</time>
      </trkpt>
      <trkpt lat="32.052299960431554" lon="118.80363032350701">
        <ele>11.355579270981252</ele>
        <time>2026-07-27T11:06:07Z</time>
      </trkpt>
      <trkpt lat="32.05212595816283" lon="118.80365138090664">
        <ele>12.047855271957815</ele>
        <time>2026-07-27T11:06:13Z</time>
      </trkpt>
      <trkpt lat="32.05205802653955" lon="118.8036994818263">
        <ele>10.383224382065237</ele>
        <time>2026-07-27T11:06:16Z</time>
      </trkpt>
      <trkpt lat="32.05192337976793" lon="118.80391992862378">
        <ele>11.878749742172658</ele>
        <time>2026-07-27T11:06:25Z</time>
      </trkpt>
      <trkpt lat="32.05190250243861" lon="118.80399307486827">
        <ele>11.58545674290508</ele>
        <time>2026-07-27T11:06:28Z</time>
      </trkpt>
      <trkpt lat="32.05189964666456" lon="118.80407623933345">
        <ele>8.039527787826955</ele>
        <time>2026-07-27T11:06:31Z</time>
      </trkpt>
      <trkpt lat="32.05194895292961" lon="118.80424556949042">
        <ele>10.248466386459768</ele>
        <time>2026-07-27T11:06:37Z</time>
      </trkpt>
      <trkpt lat="32.05202010171435" lon="118.80432171361424">
        <ele>11.80740727391094</ele>
        <time>2026-07-27T11:06:40Z</time>
      </trkpt>
      <trkpt lat="32.05216125568895" lon="118.80439183949402">
        <ele>11.617164506576955</ele>
        <time>2026-07-27T11:06:46Z</time>
      </trkpt>
      <trkpt lat="32.05244447468003" lon="118.80448099012229">
        <ele>10.832408799789846</ele>
        <time>2026-07-27T11:06:59Z</time>
      </trkpt>
      <trkpt lat="32.05273770651075" lon="118.80457615188006">
        <ele>11.670009507797658</ele>
        <time>2026-07-27T11:07:11Z</time>
      </trkpt>
      <trkpt lat="32.05301890068003" lon="118.8046512751195">
        <ele>9.37915791478008</ele>
        <time>2026-07-27T11:07:23Z</time>
      </trkpt>
      <trkpt lat="32.053152948082406" lon="118.80466128268668">
        <ele>12.22488774266094</ele>
        <time>2026-07-27T11:07:29Z</time>
      </trkpt>
      <trkpt lat="32.05332182437089" lon="118.80456908430088">
        <ele>10.980377092026174</ele>
        <time>2026-07-27T11:07:38Z</time>
      </trkpt>
      <trkpt lat="32.05337669114793" lon="118.80448591439502">
        <ele>8.562698259018362</ele>
        <time>2026-07-27T11:07:41Z</time>
      </trkpt>
      <trkpt lat="32.053422464985886" lon="118.80435064227107">
        <ele>11.408424272201955</ele>
        <time>2026-07-27T11:07:47Z</time>
      </trkpt>
      <trkpt lat="32.053435312167984" lon="118.80426146462332">
        <ele>11.701717271469533</ele>
        <time>2026-07-27T11:07:50Z</time>
      </trkpt>
      <trkpt lat="32.05342217814065" lon="118.80418631722125">
        <ele>11.178546800278127</ele>
        <time>2026-07-27T11:07:53Z</time>
      </trkpt>
      <trkpt lat="32.053363957323874" lon="118.8040670869659">
        <ele>11.408424272201955</ele>
        <time>2026-07-27T11:07:59Z</time>
      </trkpt>
      <trkpt lat="32.053239716773014" lon="118.80394485707808">
        <ele>11.44013203587383</ele>
        <time>2026-07-27T11:08:05Z</time>
      </trkpt>
      <trkpt lat="32.052966507720036" lon="118.80385971420742">
        <ele>11.115135087631643</ele>
        <time>2026-07-27T11:08:17Z</time>
      </trkpt>
      <trkpt lat="32.05284336354518" lon="118.80379259320243">
        <ele>11.041149034164846</ele>
        <time>2026-07-27T11:08:23Z</time>
      </trkpt>
      <trkpt lat="32.052616220626476" lon="118.80373950945682">
        <ele>10.43606938328594</ele>
        <time>2026-07-27T11:08:32Z</time>
      </trkpt>
      <trkpt lat="32.05229597345896" lon="118.80363833964745">
        <ele>11.167980088852346</ele>
        <time>2026-07-27T11:08:48Z</time>
      </trkpt>
      <trkpt lat="32.05211103139911" lon="118.80369546906412">
        <ele>11.093994035385549</ele>
        <time>2026-07-27T11:08:57Z</time>
      </trkpt>
      <trkpt lat="32.052014124686636" lon="118.80376160820835">
        <ele>10.22732914891094</ele>
        <time>2026-07-27T11:09:00Z</time>
      </trkpt>
      <trkpt lat="32.05196421457989" lon="118.8038197273067">
        <ele>11.334442033432424</ele>
        <time>2026-07-27T11:09:03Z</time>
      </trkpt>
      <trkpt lat="32.05191740982499" lon="118.8039379647515">
        <ele>11.022655381821096</ele>
        <time>2026-07-27T11:09:09Z</time>
      </trkpt>
      <trkpt lat="32.05191257623224" lon="118.80403415504074">
        <ele>11.376720323227346</ele>
        <time>2026-07-27T11:09:12Z</time>
      </trkpt>
      <trkpt lat="32.05192674701101" lon="118.80413034373439">
        <ele>9.976314439438283</ele>
        <time>2026-07-27T11:09:15Z</time>
      </trkpt>
      <trkpt lat="32.05197398299091" lon="118.80425959493692">
        <ele>11.199687852524221</ele>
        <time>2026-07-27T11:09:18Z</time>
      </trkpt>
      <trkpt lat="32.052096216680035" lon="118.80437781769379">
        <ele>10.927532090805471</ele>
        <time>2026-07-27T11:09:24Z</time>
      </trkpt>
      <trkpt lat="32.052454480413964" lon="118.80448299317409">
        <ele>10.811271562241018</ele>
        <time>2026-07-27T11:09:42Z</time>
      </trkpt>
      <trkpt lat="32.052512552925116" lon="118.80451705535762">
        <ele>11.178546800278127</ele>
        <time>2026-07-27T11:09:45Z</time>
      </trkpt>
      <trkpt lat="32.05264761632409" lon="118.80453608068727">
        <ele>11.146839036606252</ele>
        <time>2026-07-27T11:09:51Z</time>
      </trkpt>
      <trkpt lat="32.05290685291464" lon="118.80463825956828">
        <ele>11.093994035385549</ele>
        <time>2026-07-27T11:10:03Z</time>
      </trkpt>
      <trkpt lat="32.05314892964627" lon="118.80465126317235">
        <ele>10.782207383774221</ele>
        <time>2026-07-27T11:10:12Z</time>
      </trkpt>
      <trkpt lat="32.0532958255924" lon="118.80457309463776">
        <ele>10.79013432469219</ele>
        <time>2026-07-27T11:10:18Z</time>
      </trkpt>
      <trkpt lat="32.05340156359593" lon="118.80440976124578">
        <ele>10.541759385727346</ele>
        <time>2026-07-27T11:10:24Z</time>
      </trkpt>
      <trkpt lat="32.053419480070225" lon="118.80435966039744">
        <ele>8.929973497055471</ele>
        <time>2026-07-27T11:10:27Z</time>
      </trkpt>
      <trkpt lat="32.053430274329365" lon="118.80424042346657">
        <ele>10.980377092026174</ele>
        <time>2026-07-27T11:10:30Z</time>
      </trkpt>
      <trkpt lat="32.05340412170115" lon="118.80415625946243">
        <ele>10.570823564194143</ele>
        <time>2026-07-27T11:10:33Z</time>
      </trkpt>
      <trkpt lat="32.0532737557495" lon="118.80396288953705">
        <ele>10.906394853256643</ele>
        <time>2026-07-27T11:10:42Z</time>
      </trkpt>
      <trkpt lat="32.053085516805766" lon="118.80384968351665">
        <ele>10.64480961766094</ele>
        <time>2026-07-27T11:10:51Z</time>
      </trkpt>
      <trkpt lat="32.05277529090276" lon="118.80375953431219">
        <ele>10.990947618149221</ele>
        <time>2026-07-27T11:11:04Z</time>
      </trkpt>
      <trkpt lat="32.05249912141206" lon="118.80369743734524">
        <ele>10.64480961766094</ele>
        <time>2026-07-27T11:11:16Z</time>
      </trkpt>
      <trkpt lat="32.052288964937944" lon="118.80363433240437">
        <ele>10.288101091049612</ele>
        <time>2026-07-27T11:11:25Z</time>
      </trkpt>
      <trkpt lat="32.05221394299076" lon="118.80363133338358">
        <ele>9.23383320774883</ele>
        <time>2026-07-27T11:11:28Z</time>
      </trkpt>
      <trkpt lat="32.05207602533239" lon="118.80369647425384">
        <ele>10.591964616440237</ele>
        <time>2026-07-27T11:11:34Z</time>
      </trkpt>
      <trkpt lat="32.05192229235893" lon="118.8038698299208">
        <ele>10.132205857895315</ele>
        <time>2026-07-27T11:11:43Z</time>
      </trkpt>
      <trkpt lat="32.05188758112877" lon="118.80404016920784">
        <ele>7.999893083237112</ele>
        <time>2026-07-27T11:11:52Z</time>
      </trkpt>
      <trkpt lat="32.05206320406679" lon="118.80437481477543">
        <ele>9.640743150375783</ele>
        <time>2026-07-27T11:12:04Z</time>
      </trkpt>
      <trkpt lat="32.05227036405496" lon="118.80443992472553">
        <ele>9.453143968246877</ele>
        <time>2026-07-27T11:12:13Z</time>
      </trkpt>
      <trkpt lat="32.052473423336416" lon="118.80444792194768">
        <ele>10.06879414524883</ele>
        <time>2026-07-27T11:12:22Z</time>
      </trkpt>
      <trkpt lat="32.052743614938706" lon="118.80452304604435">
        <ele>7.696029557846487</ele>
        <time>2026-07-27T11:12:34Z</time>
      </trkpt>
      <trkpt lat="32.053031875507834" lon="118.80463524211699">
        <ele>9.997451676987112</ele>
        <time>2026-07-27T11:12:47Z</time>
      </trkpt>
      <trkpt lat="32.053167904056224" lon="118.80463422763053">
        <ele>10.520622148178518</ele>
        <time>2026-07-27T11:12:53Z</time>
      </trkpt>
      <trkpt lat="32.0532468690369" lon="118.80460416074196">
        <ele>9.86005391087383</ele>
        <time>2026-07-27T11:12:56Z</time>
      </trkpt>
      <trkpt lat="32.053356716481105" lon="118.80450294998886">
        <ele>9.817775621078908</ele>
        <time>2026-07-27T11:13:02Z</time>
      </trkpt>
      <trkpt lat="32.05340224361305" lon="118.80422639829983">
        <ele>10.047653093002737</ele>
        <time>2026-07-27T11:13:11Z</time>
      </trkpt>
      <trkpt lat="32.0533369600408" lon="118.80407209934151">
        <ele>9.368591203354299</ele>
        <time>2026-07-27T11:13:17Z</time>
      </trkpt>
      <trkpt lat="32.05323575600778" lon="118.80396790291528">
        <ele>10.132205857895315</ele>
        <time>2026-07-27T11:13:23Z</time>
      </trkpt>
      <trkpt lat="32.05298251302879" lon="118.8038607147121">
        <ele>9.556190385483205</ele>
        <time>2026-07-27T11:13:35Z</time>
      </trkpt>
      <trkpt lat="32.052665313415254" lon="118.80378659771867">
        <ele>10.467777146957815</ele>
        <time>2026-07-27T11:13:50Z</time>
      </trkpt>
      <trkpt lat="32.05239507037007" lon="118.8036814153445">
        <ele>9.170421495102346</ele>
        <time>2026-07-27T11:14:02Z</time>
      </trkpt>
      <trkpt lat="32.0522389833675" lon="118.80365137051987">
        <ele>9.838916673325002</ele>
        <time>2026-07-27T11:14:08Z</time>
      </trkpt>
      <trkpt lat="32.05216397882076" lon="118.80365839121731">
        <ele>10.467777146957815</ele>
        <time>2026-07-27T11:14:11Z</time>
      </trkpt>
      <trkpt lat="32.052091037382915" lon="118.80370148273843">
        <ele>9.37915791478008</ele>
        <time>2026-07-27T11:14:15Z</time>
      </trkpt>
      <trkpt lat="32.051974248180656" lon="118.80383776193416">
        <ele>10.718791856430471</ele>
        <time>2026-07-27T11:14:21Z</time>
      </trkpt>
      <trkpt lat="32.051920586745965" lon="118.80403916419657">
        <ele>10.425498857162893</ele>
        <time>2026-07-27T11:14:27Z</time>
      </trkpt>
      <trkpt lat="32.051920742178154" lon="118.80412834032636">
        <ele>9.305175676010549</ele>
        <time>2026-07-27T11:14:30Z</time>
      </trkpt>
      <trkpt lat="32.0519459207854" lon="118.80422753409978">
        <ele>7.600910081528127</ele>
        <time>2026-07-27T11:14:33Z</time>
      </trkpt>
      <trkpt lat="32.05208918536036" lon="118.80436078461584">
        <ele>9.704158677719533</ele>
        <time>2026-07-27T11:14:39Z</time>
      </trkpt>
      <trkpt lat="32.05217028746203" lon="118.80440887239665">
        <ele>7.579769029282033</ele>
        <time>2026-07-27T11:14:42Z</time>
      </trkpt>
      <trkpt lat="32.05237740192963" lon="118.80444793077037">
        <ele>10.771636857651174</ele>
        <time>2026-07-27T11:14:51Z</time>
      </trkpt>
      <trkpt lat="32.05256954986127" lon="118.80450803224609">
        <ele>10.026515855453908</ele>
        <time>2026-07-27T11:15:00Z</time>
      </trkpt>
      <trkpt lat="32.05262956674271" lon="118.80451003070364">
        <ele>10.959239854477346</ele>
        <time>2026-07-27T11:15:03Z</time>
      </trkpt>
      <trkpt lat="32.052926866143245" lon="118.80464326766999">
        <ele>10.30923832859844</ele>
        <time>2026-07-27T11:15:18Z</time>
      </trkpt>
      <trkpt lat="32.05302393513077" lon="118.80467031243698">
        <ele>10.362087144516408</ele>
        <time>2026-07-27T11:15:21Z</time>
      </trkpt>
      <trkpt lat="32.053103942428685" lon="118.80466429315473">
        <ele>7.558631791733205</ele>
        <time>2026-07-27T11:15:24Z</time>
      </trkpt>
      <trkpt lat="32.05317291218706" lon="118.80463823512254">
        <ele>9.527126207016408</ele>
        <time>2026-07-27T11:15:27Z</time>
      </trkpt>
      <trkpt lat="32.05334368905375" lon="118.80448892338444">
        <ele>10.528549089096487</ele>
        <time>2026-07-27T11:15:36Z</time>
      </trkpt>
      <trkpt lat="32.05341745512132" lon="118.80434563281415">
        <ele>8.763507737778127</ele>
        <time>2026-07-27T11:15:42Z</time>
      </trkpt>
      <trkpt lat="32.05353298797938" lon="118.80406306351749">
        <ele>9.997451676987112</ele>
        <time>2026-07-27T11:15:48Z</time>
      </trkpt>
      <trkpt lat="32.05347795477787" lon="118.80405104482976">
        <ele>9.817775621078908</ele>
        <time>2026-07-27T11:15:51Z</time>
      </trkpt>
      <trkpt lat="32.053264663039805" lon="118.80391078758024">
        <ele>9.128143205307424</ele>
        <time>2026-07-27T11:16:00Z</time>
      </trkpt>
      <trkpt lat="32.0529724724529" lon="118.80383867217735">
        <ele>10.990947618149221</ele>
        <time>2026-07-27T11:16:12Z</time>
      </trkpt>
      <trkpt lat="32.05268231023646" lon="118.80378258825968">
        <ele>9.609035386703908</ele>
        <time>2026-07-27T11:16:24Z</time>
      </trkpt>
      <trkpt lat="32.05235905886084" lon="118.80367941470884">
        <ele>9.619605912826955</ele>
        <time>2026-07-27T11:16:39Z</time>
      </trkpt>
      <trkpt lat="32.05220098881391" lon="118.80365938978834">
        <ele>9.934036149643362</ele>
        <time>2026-07-27T11:16:46Z</time>
      </trkpt>
      <trkpt lat="32.05197317651114" lon="118.80379668106661">
        <ele>9.23383320774883</ele>
        <time>2026-07-27T11:16:55Z</time>
      </trkpt>
      <trkpt lat="32.051912454067065" lon="118.80396401660833">
        <ele>8.774078263901174</ele>
        <time>2026-07-27T11:17:01Z</time>
      </trkpt>
      <trkpt lat="32.05191060197341" lon="118.80404918489907">
        <ele>8.982818498276174</ele>
        <time>2026-07-27T11:17:04Z</time>
      </trkpt>
      <trkpt lat="32.051954912302776" lon="118.804221521385">
        <ele>9.79663838353008</ele>
        <time>2026-07-27T11:17:10Z</time>
      </trkpt>
      <trkpt lat="32.0520040561535" lon="118.80429766750123">
        <ele>9.79663838353008</ele>
        <time>2026-07-27T11:17:13Z</time>
      </trkpt>
      <trkpt lat="32.0520621635846" lon="118.80435176924668">
        <ele>9.37915791478008</ele>
        <time>2026-07-27T11:17:16Z</time>
      </trkpt>
      <trkpt lat="32.05212422292595" lon="118.80437781512049">
        <ele>9.033019914291799</ele>
        <time>2026-07-27T11:17:19Z</time>
      </trkpt>
      <trkpt lat="32.052323298823815" lon="118.80439583254167">
        <ele>9.484851731918752</ele>
        <time>2026-07-27T11:17:28Z</time>
      </trkpt>
      <trkpt lat="32.05263656129353" lon="118.804506022117">
        <ele>9.503345384262502</ele>
        <time>2026-07-27T11:17:43Z</time>
      </trkpt>
      <trkpt lat="32.05291777643926" lon="118.8045931691177">
        <ele>9.23383320774883</ele>
        <time>2026-07-27T11:17:58Z</time>
      </trkpt>
      <trkpt lat="32.05301885857785" lon="118.80462722740934">
        <ele>8.449077500961721</ele>
        <time>2026-07-27T11:18:02Z</time>
      </trkpt>
      <trkpt lat="32.05318688899406" lon="118.80462320401902">
        <ele>9.284038438461721</ele>
        <time>2026-07-27T11:18:08Z</time>
      </trkpt>
      <trkpt lat="32.053278867396884" lon="118.8045991478644">
        <ele>8.866557969711721</ele>
        <time>2026-07-27T11:18:11Z</time>
      </trkpt>
      <trkpt lat="32.053319809899584" lon="118.80456106859064">
        <ele>7.611476792953908</ele>
        <time>2026-07-27T11:18:14Z</time>
      </trkpt>
      <trkpt lat="32.053409533861185" lon="118.80439172479606">
        <ele>9.421436204575002</ele>
        <time>2026-07-27T11:18:20Z</time>
      </trkpt>
      <trkpt lat="32.053414248034315" lon="118.80422739917823">
        <ele>8.594402207992971</ele>
        <time>2026-07-27T11:18:26Z</time>
      </trkpt>
      <trkpt lat="32.053400112073064" lon="118.8041512499293">
        <ele>9.064727677963674</ele>
        <time>2026-07-27T11:18:29Z</time>
      </trkpt>
      <trkpt lat="32.05328473726461" lon="118.80395086480263">
        <ele>8.541557206772268</ele>
        <time>2026-07-27T11:18:38Z</time>
      </trkpt>
      <trkpt lat="32.05322564214427" lon="118.8039037773321">
        <ele>-3.298469648696482</ele>
        <time>2026-07-27T11:18:41Z</time>
      </trkpt>
      <trkpt lat="32.05315962046489" lon="118.80389977549444">
        <ele>8.877128495834768</ele>
        <time>2026-07-27T11:18:44Z</time>
      </trkpt>
      <trkpt lat="32.05310869456482" lon="118.80394887702619">
        <ele>8.742370500229299</ele>
        <time>2026-07-27T11:18:47Z</time>
      </trkpt>
      <trkpt lat="32.05303170532136" lon="118.8039649157347">
        <ele>9.202125444076955</ele>
        <time>2026-07-27T11:18:53Z</time>
      </trkpt>
      <trkpt lat="32.052948496736" lon="118.80385570796068">
        <ele>9.556190385483205</ele>
        <time>2026-07-27T11:18:56Z</time>
      </trkpt>
      <trkpt lat="32.05275234674652" lon="118.80379460551544">
        <ele>9.537696733139455</ele>
        <time>2026-07-27T11:19:02Z</time>
      </trkpt>
      <trkpt lat="32.0527072687782" lon="118.80375553266802">
        <ele>9.527126207016408</ele>
        <time>2026-07-27T11:19:05Z</time>
      </trkpt>
      <trkpt lat="32.052399029491305" lon="118.80365736764445">
        <ele>8.58383549656719</ele>
        <time>2026-07-27T11:19:20Z</time>
      </trkpt>
      <trkpt lat="32.052272954409915" lon="118.80363032598882">
        <ele>6.702537431381643</ele>
        <time>2026-07-27T11:19:26Z</time>
      </trkpt>
      <trkpt lat="32.05216200099961" lon="118.80367141703847">
        <ele>8.834850206039846</ele>
        <time>2026-07-27T11:19:29Z</time>
      </trkpt>
      <trkpt lat="32.0520959793156" lon="118.80366741521635">
        <ele>8.594402207992971</ele>
        <time>2026-07-27T11:19:32Z</time>
      </trkpt>
      <trkpt lat="32.051940268483136" lon="118.80385379666068">
        <ele>9.410865678451955</ele>
        <time>2026-07-27T11:19:42Z</time>
      </trkpt>
      <trkpt lat="32.05188755145215" lon="118.80402313557951">
        <ele>9.305175676010549</ele>
        <time>2026-07-27T11:19:48Z</time>
      </trkpt>
      <trkpt lat="32.05190273292089" lon="118.80412533604165">
        <ele>8.018386735580862</ele>
        <time>2026-07-27T11:19:51Z</time>
      </trkpt>
      <trkpt lat="32.051940905682486" lon="118.80421951870927">
        <ele>8.813712968491018</ele>
        <time>2026-07-27T11:19:54Z</time>
      </trkpt>
      <trkpt lat="32.0520631848115" lon="118.8043637929558">
        <ele>9.598468675278127</ele>
        <time>2026-07-27T11:20:00Z</time>
      </trkpt>
      <trkpt lat="32.05210825086998" lon="118.80439585230087">
        <ele>9.463710679672658</ele>
        <time>2026-07-27T11:20:03Z</time>
      </trkpt>
      <trkpt lat="32.052425458179314" lon="118.80447397797104">
        <ele>6.37753666844219</ele>
        <time>2026-07-27T11:20:15Z</time>
      </trkpt>
      <trkpt lat="32.05274665241591" lon="118.80454408747971">
        <ele>8.417369737289846</ele>
        <time>2026-07-27T11:20:27Z</time>
      </trkpt>
      <trkpt lat="32.053065947998924" lon="118.80467231255403">
        <ele>8.594402207992971</ele>
        <time>2026-07-27T11:20:42Z</time>
      </trkpt>
      <trkpt lat="32.0531439688877" lon="118.8046743093627">
        <ele>4.078758134506643</ele>
        <time>2026-07-27T11:20:45Z</time>
      </trkpt>
      <trkpt lat="32.05327187986756" lon="118.80460716440658">
        <ele>8.028957261703908</ele>
        <time>2026-07-27T11:20:51Z</time>
      </trkpt>
      <trkpt lat="32.053336799661494" lon="118.80455305113526">
        <ele>9.484851731918752</ele>
        <time>2026-07-27T11:20:54Z</time>
      </trkpt>
      <trkpt lat="32.05342652364168" lon="118.8043837073622">
        <ele>8.908836259506643</ele>
        <time>2026-07-27T11:21:00Z</time>
      </trkpt>
      <trkpt lat="32.0534334026875" lon="118.80431356788773">
        <ele>9.92346943821758</ele>
        <time>2026-07-27T11:21:03Z</time>
      </trkpt>
      <trkpt lat="32.05339713586975" lon="118.80416527792826">
        <ele>-0.7698136428371072</ele>
        <time>2026-07-27T11:21:09Z</time>
      </trkpt>
      <trkpt lat="32.05330988942448" lon="118.80403502861773">
        <ele>9.37915791478008</ele>
        <time>2026-07-27T11:21:15Z</time>
      </trkpt>
      <trkpt lat="32.053216783183125" lon="118.80398594025256">
        <ele>9.003955735825002</ele>
        <time>2026-07-27T11:21:18Z</time>
      </trkpt>
      <trkpt lat="32.05319522492626" lon="118.80395626185981">
        <ele>2.427337541244924</ele>
        <time>2026-07-27T11:21:21Z</time>
      </trkpt>
      <trkpt lat="32.05313865415292" lon="118.8039218209008">
        <ele>8.626109971664846</ele>
        <time>2026-07-27T11:21:24Z</time>
      </trkpt>
      <trkpt lat="32.05304462797598" lon="118.80391882361188">
        <ele>9.463710679672658</ele>
        <time>2026-07-27T11:21:27Z</time>
      </trkpt>
      <trkpt lat="32.05297747879592" lon="118.80384167764284">
        <ele>9.86005391087383</ele>
        <time>2026-07-27T11:21:33Z</time>
      </trkpt>
      <trkpt lat="32.05266825834261" lon="118.80375453427921">
        <ele>8.385665788315237</ele>
        <time>2026-07-27T11:21:45Z</time>
      </trkpt>
      <trkpt lat="32.05234801985852" lon="118.8036583743043">
        <ele>9.44257344212383</ele>
        <time>2026-07-27T11:21:57Z</time>
      </trkpt>
      <trkpt lat="32.05227397029244" lon="118.80363934364135">
        <ele>9.598468675278127</ele>
        <time>2026-07-27T11:22:00Z</time>
      </trkpt>
      <trkpt lat="32.05219095526038" lon="118.803641355214">
        <ele>9.294605149887502</ele>
        <time>2026-07-27T11:22:03Z</time>
      </trkpt>
      <trkpt lat="32.05205104412859" lon="118.80371050417014">
        <ele>9.693588151596487</ele>
        <time>2026-07-27T11:22:09Z</time>
      </trkpt>
      <trkpt lat="32.051970196750446" lon="118.80380870503494">
        <ele>9.725295915268362</ele>
        <time>2026-07-27T11:22:12Z</time>
      </trkpt>
      <trkpt lat="32.051924359063136" lon="118.80390790481734">
        <ele>8.332820787094533</ele>
        <time>2026-07-27T11:22:15Z</time>
      </trkpt>
      <trkpt lat="32.051905497872646" lon="118.8039900686601">
        <ele>9.410865678451955</ele>
        <time>2026-07-27T11:22:18Z</time>
      </trkpt>
      <trkpt lat="32.05194382419448" lon="118.80417242533555">
        <ele>9.410865678451955</ele>
        <time>2026-07-27T11:22:24Z</time>
      </trkpt>
      <trkpt lat="32.052055100773515" lon="118.80431670048361">
        <ele>9.619605912826955</ele>
        <time>2026-07-27T11:22:30Z</time>
      </trkpt>
      <trkpt lat="32.05211818657836" lon="118.8043577760003">
        <ele>9.58789814915508</ele>
        <time>2026-07-27T11:22:33Z</time>
      </trkpt>
      <trkpt lat="32.0523263695383" lon="118.80443591164016">
        <ele>9.767574205063283</ele>
        <time>2026-07-27T11:22:42Z</time>
      </trkpt>
      <trkpt lat="32.05253549321832" lon="118.80447997977377">
        <ele>9.566760911606252</ele>
        <time>2026-07-27T11:22:51Z</time>
      </trkpt>
      <trkpt lat="32.05287081156328" lon="118.80461922510938">
        <ele>10.06879414524883</ele>
        <time>2026-07-27T11:23:07Z</time>
      </trkpt>
      <trkpt lat="32.053094938668764" lon="118.80466329199352">
        <ele>9.273467912338674</ele>
        <time>2026-07-27T11:23:16Z</time>
      </trkpt>
      <trkpt lat="32.05316793563386" lon="118.80465226341434">
        <ele>8.877128495834768</ele>
        <time>2026-07-27T11:23:19Z</time>
      </trkpt>
      <trkpt lat="32.053302839425434" lon="118.80458010790299">
        <ele>9.495418443344533</ele>
        <time>2026-07-27T11:23:25Z</time>
      </trkpt>
      <trkpt lat="32.05341952208258" lon="118.80438370800556">
        <ele>8.721233262680471</ele>
        <time>2026-07-27T11:23:34Z</time>
      </trkpt>
      <trkpt lat="32.05342637313511" lon="118.80429753680934">
        <ele>9.159850968979299</ele>
        <time>2026-07-27T11:23:37Z</time>
      </trkpt>
      <trkpt lat="32.05332297787844" lon="118.80408412437542">
        <ele>9.191558732651174</ele>
        <time>2026-07-27T11:23:46Z</time>
      </trkpt>
      <trkpt lat="32.05313267897931" lon="118.80393685109965">
        <ele>9.503345384262502</ele>
        <time>2026-07-27T11:23:55Z</time>
      </trkpt>
      <trkpt lat="32.0528593810496" lon="118.80380060752614">
        <ele>9.828346147201955</ele>
        <time>2026-07-27T11:24:07Z</time>
      </trkpt>
      <trkpt lat="32.052714345245185" lon="118.80379861690548">
        <ele>9.085868730209768</ele>
        <time>2026-07-27T11:24:13Z</time>
      </trkpt>
      <trkpt lat="32.052429050103676" lon="118.80366538066326">
        <ele>8.134647264145315</ele>
        <time>2026-07-27T11:24:25Z</time>
      </trkpt>
      <trkpt lat="32.05229995521199" lon="118.8036273175925">
        <ele>9.054160966537893</ele>
        <time>2026-07-27T11:24:31Z</time>
      </trkpt>
      <trkpt lat="32.0522269337114" lon="118.80362431838823">
        <ele>7.978755845688283</ele>
        <time>2026-07-27T11:24:34Z</time>
      </trkpt>
      <trkpt lat="32.05210599024859" lon="118.8036724241581">
        <ele>9.284038438461721</ele>
        <time>2026-07-27T11:24:40Z</time>
      </trkpt>
      <trkpt lat="32.052026073375266" lon="118.80373054592853">
        <ele>9.503345384262502</ele>
        <time>2026-07-27T11:24:43Z</time>
      </trkpt>
      <trkpt lat="32.051933362815085" lon="118.80390890596625">
        <ele>8.855987443588674</ele>
        <time>2026-07-27T11:24:49Z</time>
      </trkpt>
      <trkpt lat="32.05191266353616" lon="118.80408425397009">
        <ele>9.096435441635549</ele>
        <time>2026-07-27T11:24:55Z</time>
      </trkpt>
      <trkpt lat="32.05193581891423" lon="118.80417042210999">
        <ele>9.326312913559377</ele>
        <time>2026-07-27T11:24:58Z</time>
      </trkpt>
      <trkpt lat="32.05197395500983" lon="118.80424356322959">
        <ele>9.107005967758596</ele>
        <time>2026-07-27T11:25:01Z</time>
      </trkpt>
      <trkpt lat="32.05203004970795" lon="118.80429065123495">
        <ele>8.31167973484844</ele>
        <time>2026-07-27T11:25:04Z</time>
      </trkpt>
      <trkpt lat="32.05231333511587" lon="118.80441787711334">
        <ele>8.427940263412893</ele>
        <time>2026-07-27T11:25:16Z</time>
      </trkpt>
      <trkpt lat="32.05259148993587" lon="118.80447095675939">
        <ele>9.484851731918752</ele>
        <time>2026-07-27T11:25:28Z</time>
      </trkpt>
      <trkpt lat="32.05281269517575" lon="118.80456011319876">
        <ele>9.368591203354299</ele>
        <time>2026-07-27T11:25:37Z</time>
      </trkpt>
      <trkpt lat="32.053097867410656" lon="118.80462221021064">
        <ele>9.180988206528127</ele>
        <time>2026-07-27T11:25:49Z</time>
      </trkpt>
      <trkpt lat="32.05322287772082" lon="118.8046121788471">
        <ele>9.389728440903127</ele>
        <time>2026-07-27T11:25:55Z</time>
      </trkpt>
      <trkpt lat="32.053290843766135" lon="118.80458411695393">
        <ele>4.181808366440237</ele>
        <time>2026-07-27T11:25:58Z</time>
      </trkpt>
      <trkpt lat="32.05335076596887" lon="118.80453200813426">
        <ele>9.170421495102346</ele>
        <time>2026-07-27T11:26:01Z</time>
      </trkpt>
      <trkpt lat="32.05339464610341" lon="118.80445785715305">
        <ele>9.474281205795705</ele>
        <time>2026-07-27T11:26:04Z</time>
      </trkpt>
      <trkpt lat="32.05335817961703" lon="118.8041953409304">
        <ele>9.347453965805471</ele>
        <time>2026-07-27T11:26:13Z</time>
      </trkpt>
      <trkpt lat="32.05329189065205" lon="118.80403803620693">
        <ele>7.151721849106252</ele>
        <time>2026-07-27T11:26:19Z</time>
      </trkpt>
      <trkpt lat="32.053237768667074" lon="118.8039749165717">
        <ele>9.138713731430471</ele>
        <time>2026-07-27T11:26:22Z</time>
      </trkpt>
      <trkpt lat="32.0531086352603" lon="118.80391480982412">
        <ele>7.487293138168752</ele>
        <time>2026-07-27T11:26:28Z</time>
      </trkpt>
      <trkpt lat="32.053006577654976" lon="118.80389477967786">
        <ele>8.855987443588674</ele>
        <time>2026-07-27T11:26:34Z</time>
      </trkpt>
      <trkpt lat="32.05271332759974" lon="118.80378859725492">
        <ele>9.202125444076955</ele>
        <time>2026-07-27T11:26:46Z</time>
      </trkpt>
      <trkpt lat="32.052444137003945" lon="118.80371347396527">
        <ele>9.807208909653127</ele>
        <time>2026-07-27T11:26:58Z</time>
      </trkpt>
      <trkpt lat="32.05229399737427" lon="118.80365236743623">
        <ele>9.432002916000783</ele>
        <time>2026-07-27T11:27:04Z</time>
      </trkpt>
      <trkpt lat="32.05216499818785" lon="118.80366941281834">
        <ele>9.159850968979299</ele>
        <time>2026-07-27T11:27:10Z</time>
      </trkpt>
      <trkpt lat="32.05202010512477" lon="118.80374958397361">
        <ele>9.389728440903127</ele>
        <time>2026-07-27T11:27:16Z</time>
      </trkpt>
      <trkpt lat="32.051966209798266" lon="118.80381672119896">
        <ele>8.742370500229299</ele>
        <time>2026-07-27T11:27:20Z</time>
      </trkpt>
      <trkpt lat="32.051934781993296" lon="118.80414938061719">
        <ele>9.117572679184377</ele>
        <time>2026-07-27T11:27:32Z</time>
      </trkpt>
      <trkpt lat="32.05198501867728" lon="118.80427863158377">
        <ele>8.993389024399221</ele>
        <time>2026-07-27T11:27:38Z</time>
      </trkpt>
      <trkpt lat="32.05206416403077" lon="118.80435176906288">
        <ele>8.79257573094219</ele>
        <time>2026-07-27T11:27:41Z</time>
      </trkpt>
      <trkpt lat="32.052325400843074" lon="118.8044539474588">
        <ele>8.993389024399221</ele>
        <time>2026-07-27T11:27:53Z</time>
      </trkpt>
      <trkpt lat="32.052569600687576" lon="118.8045370898419">
        <ele>8.710662736557424</ele>
        <time>2026-07-27T11:28:05Z</time>
      </trkpt>
      <trkpt lat="32.052721676645085" lon="118.80456112354851">
        <ele>9.527126207016408</ele>
        <time>2026-07-27T11:28:11Z</time>
      </trkpt>
      <trkpt lat="32.0529859389461" lon="118.8046773298485">
        <ele>9.400298967026174</ele>
        <time>2026-07-27T11:28:23Z</time>
      </trkpt>
      <trkpt lat="32.05319194273532" lon="118.80465326319684">
        <ele>9.138713731430471</ele>
        <time>2026-07-27T11:28:32Z</time>
      </trkpt>
      <trkpt lat="32.053347746021075" lon="118.80452098656241">
        <ele>8.353958024643362</ele>
        <time>2026-07-27T11:28:41Z</time>
      </trkpt>
      <trkpt lat="32.05340863520834" lon="118.80444983998648">
        <ele>8.710662736557424</ele>
        <time>2026-07-27T11:28:44Z</time>
      </trkpt>
      <trkpt lat="32.05342250524463" lon="118.804373687892">
        <ele>9.944606675766408</ele>
        <time>2026-07-27T11:28:48Z</time>
      </trkpt>
      <trkpt lat="32.05341128233846" lon="118.80424743908418">
        <ele>11.083427323959768</ele>
        <time>2026-07-27T11:28:51Z</time>
      </trkpt>
      <trkpt lat="32.05343909804465" lon="118.80413822060457">
        <ele>8.240341081283987</ele>
        <time>2026-07-27T11:28:54Z</time>
      </trkpt>
      <trkpt lat="32.053405011862004" lon="118.80409313465037">
        <ele>8.700096025131643</ele>
        <time>2026-07-27T11:28:57Z</time>
      </trkpt>
      <trkpt lat="32.05330986067875" lon="118.80427365040514">
        <ele>7.38159932103008</ele>
        <time>2026-07-27T11:29:06Z</time>
      </trkpt>
      <trkpt lat="32.05306521750862" lon="118.80400285253288">
        <ele>9.022453202866018</ele>
        <time>2026-07-27T11:29:12Z</time>
      </trkpt>
      <trkpt lat="32.0530146160589" lon="118.8039158204405">
        <ele>7.894203080795705</ele>
        <time>2026-07-27T11:29:15Z</time>
      </trkpt>
      <trkpt lat="32.05274537654937" lon="118.80381264169829">
        <ele>8.449077500961721</ele>
        <time>2026-07-27T11:29:27Z</time>
      </trkpt>
      <trkpt lat="32.05264725191944" lon="118.80375353423591">
        <ele>9.149280442856252</ele>
        <time>2026-07-27T11:29:33Z</time>
      </trkpt>
      <trkpt lat="32.05236706586672" lon="118.8036824198906">
        <ele>8.834850206039846</ele>
        <time>2026-07-27T11:29:45Z</time>
      </trkpt>
      <trkpt lat="32.052265013530366" lon="118.80366539573794">
        <ele>8.198062791489065</ele>
        <time>2026-07-27T11:29:51Z</time>
      </trkpt>
      <trkpt lat="32.05211906103875" lon="118.80371149989266">
        <ele>6.900707139633596</ele>
        <time>2026-07-27T11:29:57Z</time>
      </trkpt>
      <trkpt lat="32.05199118226926" lon="118.80379768138644">
        <ele>9.262897386215627</ele>
        <time>2026-07-27T11:30:03Z</time>
      </trkpt>
      <trkpt lat="32.05192629673813" lon="118.80387183350415">
        <ele>9.170421495102346</ele>
        <time>2026-07-27T11:30:06Z</time>
      </trkpt>
      <trkpt lat="32.05190943246219" lon="118.80395199316087">
        <ele>8.803142442367971</ele>
        <time>2026-07-27T11:30:09Z</time>
      </trkpt>
      <trkpt lat="32.051925701368276" lon="118.80410429235843">
        <ele>9.262897386215627</ele>
        <time>2026-07-27T11:30:15Z</time>
      </trkpt>
      <trkpt lat="32.05195789723715" lon="118.80421250327893">
        <ele>8.689525499008596</ele>
        <time>2026-07-27T11:30:18Z</time>
      </trkpt>
      <trkpt lat="32.05199603162682" lon="118.80428464246597">
        <ele>8.573264970444143</ele>
        <time>2026-07-27T11:30:21Z</time>
      </trkpt>
      <trkpt lat="32.05205815219114" lon="118.80434575771466">
        <ele>9.212695970200002</ele>
        <time>2026-07-27T11:30:24Z</time>
      </trkpt>
      <trkpt lat="32.052239278338924" lon="118.80439483827755">
        <ele>8.552127732895315</ele>
        <time>2026-07-27T11:30:33Z</time>
      </trkpt>
      <trkpt lat="32.052397472959996" lon="118.80448600436888">
        <ele>9.23383320774883</ele>
        <time>2026-07-27T11:30:43Z</time>
      </trkpt>
      <trkpt lat="32.05267864602264" lon="118.80454910366129">
        <ele>7.088306321762502</ele>
        <time>2026-07-27T11:30:52Z</time>
      </trkpt>
      <trkpt lat="32.05294985021815" lon="118.80463124170159">
        <ele>8.499282731674612</ele>
        <time>2026-07-27T11:31:04Z</time>
      </trkpt>
      <trkpt lat="32.05307794891806" lon="118.80467130946279">
        <ele>7.86249531712383</ele>
        <time>2026-07-27T11:31:10Z</time>
      </trkpt>
      <trkpt lat="32.05322391653237" lon="118.80463422248403">
        <ele>8.594402207992971</ele>
        <time>2026-07-27T11:31:16Z</time>
      </trkpt>
      <trkpt lat="32.05337472399524" lon="118.80450495230613">
        <ele>8.417369737289846</ele>
        <time>2026-07-27T11:31:25Z</time>
      </trkpt>
      <trkpt lat="32.05341260807526" lon="118.80443380786217">
        <ele>7.809650315903127</ele>
        <time>2026-07-27T11:31:28Z</time>
      </trkpt>
      <trkpt lat="32.05343227652349" lon="118.80424142526431">
        <ele>8.763507737778127</ele>
        <time>2026-07-27T11:31:37Z</time>
      </trkpt>
      <trkpt lat="32.05339904895346" lon="118.80411517874758">
        <ele>8.343387498520315</ele>
        <time>2026-07-27T11:31:40Z</time>
      </trkpt>
      <trkpt lat="32.05335991452843" lon="118.80404303984831">
        <ele>9.495418443344533</ele>
        <time>2026-07-27T11:31:43Z</time>
      </trkpt>
      <trkpt lat="32.05330082458258" lon="118.80399895823952">
        <ele>8.626109971664846</ele>
        <time>2026-07-27T11:31:46Z</time>
      </trkpt>
      <trkpt lat="32.053041531405874" lon="118.80386371521514">
        <ele>8.176925553940237</ele>
        <time>2026-07-27T11:31:58Z</time>
      </trkpt>
      <trkpt lat="32.05289840193841" lon="118.80380761776232">
        <ele>3.5344504257664084</ele>
        <time>2026-07-27T11:32:04Z</time>
      </trkpt>
      <trkpt lat="32.052751344781356" lon="118.8037936036331">
        <ele>8.499282731674612</ele>
        <time>2026-07-27T11:32:10Z</time>
      </trkpt>
      <trkpt lat="32.052447073262556" lon="118.80367640070303">
        <ele>8.58383549656719</ele>
        <time>2026-07-27T11:32:25Z</time>
      </trkpt>
      <trkpt lat="32.05226295043977" lon="118.8036293249365">
        <ele>7.883632554672658</ele>
        <time>2026-07-27T11:32:34Z</time>
      </trkpt>
      <trkpt lat="32.05219095526038" lon="118.803641355214">
        <ele>8.668388261459768</ele>
        <time>2026-07-27T11:32:37Z</time>
      </trkpt>
      <trkpt lat="32.05204806609417" lon="118.80372353009446">
        <ele>8.615543260239065</ele>
        <time>2026-07-27T11:32:43Z</time>
      </trkpt>
      <trkpt lat="32.05198714827555" lon="118.8037786442454">
        <ele>8.689525499008596</ele>
        <time>2026-07-27T11:32:46Z</time>
      </trkpt>
      <trkpt lat="32.05191239998788" lon="118.80393295532824">
        <ele>6.292983903549612</ele>
        <time>2026-07-27T11:32:52Z</time>
      </trkpt>
      <trkpt lat="32.051899672861" lon="118.80409126901826">
        <ele>7.59033955540508</ele>
        <time>2026-07-27T11:32:58Z</time>
      </trkpt>
      <trkpt lat="32.05196798689914" lon="118.80426260143392">
        <ele>8.657817735336721</ele>
        <time>2026-07-27T11:33:04Z</time>
      </trkpt>
      <trkpt lat="32.05208419649786" lon="118.80436779896002">
        <ele>8.145217790268362</ele>
        <time>2026-07-27T11:33:10Z</time>
      </trkpt>
      <trkpt lat="32.05230335039805" lon="118.80442789787702">
        <ele>7.632617845200002</ele>
        <time>2026-07-27T11:33:20Z</time>
      </trkpt>
      <trkpt lat="32.052428369517024" lon="118.80442287646659">
        <ele>8.470218553207815</ele>
        <time>2026-07-27T11:33:26Z</time>
      </trkpt>
      <trkpt lat="32.052744657228956" lon="118.80454709362282">
        <ele>8.301113023422658</ele>
        <time>2026-07-27T11:33:38Z</time>
      </trkpt>
      <trkpt lat="32.05306690260382" lon="118.80464626076787">
        <ele>8.427940263412893</ele>
        <time>2026-07-27T11:33:53Z</time>
      </trkpt>
      <trkpt lat="32.053257857457695" lon="118.80459614383254">
        <ele>7.664321794174612</ele>
        <time>2026-07-27T11:34:02Z</time>
      </trkpt>
      <trkpt lat="32.053345714030876" lon="118.80450295099982">
        <ele>6.316764726303518</ele>
        <time>2026-07-27T11:34:08Z</time>
      </trkpt>
      <trkpt lat="32.053397581967396" lon="118.80442078344146">
        <ele>8.406803025864065</ele>
        <time>2026-07-27T11:34:11Z</time>
      </trkpt>
      <trkpt lat="32.05341432673007" lon="118.80427248835531">
        <ele>7.497859849594533</ele>
        <time>2026-07-27T11:34:17Z</time>
      </trkpt>
      <trkpt lat="32.0533549483345" lon="118.80406307987826">
        <ele>7.883632554672658</ele>
        <time>2026-07-27T11:34:26Z</time>
      </trkpt>
      <trkpt lat="32.05325374082616" lon="118.80395687951341">
        <ele>8.028957261703908</ele>
        <time>2026-07-27T11:34:29Z</time>
      </trkpt>
      <trkpt lat="32.053047530999585" lon="118.80386271268823">
        <ele>5.30213154759258</ele>
        <time>2026-07-27T11:34:38Z</time>
      </trkpt>
      <trkpt lat="32.052955512241645" lon="118.80386372312">
        <ele>7.392169847153127</ele>
        <time>2026-07-27T11:34:41Z</time>
      </trkpt>
      <trkpt lat="32.05288938425108" lon="118.8037986008199">
        <ele>8.37509526219219</ele>
        <time>2026-07-27T11:34:44Z</time>
      </trkpt>
      <trkpt lat="32.05275328425719" lon="118.80375853436071">
        <ele>8.449077500961721</ele>
        <time>2026-07-27T11:34:50Z</time>
      </trkpt>
      <trkpt lat="32.05244812396763" lon="118.8037054578148">
        <ele>6.900707139633596</ele>
        <time>2026-07-27T11:34:59Z</time>
      </trkpt>
      <trkpt lat="32.05219793420245" lon="118.80362832893972">
        <ele>7.518997087143362</ele>
        <time>2026-07-27T11:35:11Z</time>
      </trkpt>
      <trkpt lat="32.05207302988575" lon="118.80369948044753">
        <ele>8.573264970444143</ele>
        <time>2026-07-27T11:35:18Z</time>
      </trkpt>
      <trkpt lat="32.05195818013386" lon="118.80380069034258">
        <ele>8.198062791489065</ele>
        <time>2026-07-27T11:35:21Z</time>
      </trkpt>
      <trkpt lat="32.05189166583647" lon="118.80408826381627">
        <ele>7.120014085434377</ele>
        <time>2026-07-27T11:35:30Z</time>
      </trkpt>
      <trkpt lat="32.05199597041051" lon="118.80424957309744">
        <ele>8.10293950047344</ele>
        <time>2026-07-27T11:35:39Z</time>
      </trkpt>
      <trkpt lat="32.052075089488035" lon="118.80430768080133">
        <ele>8.187492265366018</ele>
        <time>2026-07-27T11:35:42Z</time>
      </trkpt>
      <trkpt lat="32.05232636778688" lon="118.80443490965548">
        <ele>7.727737321518362</ele>
        <time>2026-07-27T11:35:54Z</time>
      </trkpt>
      <trkpt lat="32.05253057446468" lon="118.80452707356393">
        <ele>8.22977055516094</ele>
        <time>2026-07-27T11:36:03Z</time>
      </trkpt>
      <trkpt lat="32.05271962536321" lon="118.80453206612532">
        <ele>8.155788316391408</ele>
        <time>2026-07-27T11:36:12Z</time>
      </trkpt>
      <trkpt lat="32.053016870411156" lon="118.80463424150766">
        <ele>7.770015611313283</ele>
        <time>2026-07-27T11:36:27Z</time>
      </trkpt>
      <trkpt lat="32.053205847626856" lon="118.80459715059874">
        <ele>5.719608201645315</ele>
        <time>2026-07-27T11:36:36Z</time>
      </trkpt>
      <trkpt lat="32.05333872999589" lon="118.80451297150164">
        <ele>6.483226670883596</ele>
        <time>2026-07-27T11:36:42Z</time>
      </trkpt>
      <trkpt lat="32.053406517436386" lon="118.80438270721649">
        <ele>7.056602372787893</ele>
        <time>2026-07-27T11:36:48Z</time>
      </trkpt>
      <trkpt lat="32.05340023617385" lon="118.80422239055845">
        <ele>3.9307898422703147</ele>
        <time>2026-07-27T11:36:54Z</time>
      </trkpt>
      <trkpt lat="32.05328974361207" lon="118.80395387027366">
        <ele>6.649688615463674</ele>
        <time>2026-07-27T11:37:06Z</time>
      </trkpt>
      <trkpt lat="32.053231645224805" lon="118.80390477875666">
        <ele>6.837291612289846</ele>
        <time>2026-07-27T11:37:09Z</time>
      </trkpt>
      <trkpt lat="32.053047544946075" lon="118.80387072849193">
        <ele>7.466152085922658</ele>
        <time>2026-07-27T11:37:15Z</time>
      </trkpt>
      <trkpt lat="32.05278532622777" lon="118.80377857089601">
        <ele>6.596843614242971</ele>
        <time>2026-07-27T11:37:27Z</time>
      </trkpt>
      <trkpt lat="32.052520117390245" lon="118.8036924255519">
        <ele>7.17285908665508</ele>
        <time>2026-07-27T11:37:39Z</time>
      </trkpt>
      <trkpt lat="32.05241411812706" lon="118.80370646291283">
        <ele>6.858428849838674</ele>
        <time>2026-07-27T11:37:42Z</time>
      </trkpt>
      <trkpt lat="32.05222402875283" lon="118.8036794271178">
        <ele>6.316764726303518</ele>
        <time>2026-07-27T11:37:54Z</time>
      </trkpt>
      <trkpt lat="32.052102024169066" lon="118.80369246397362">
        <ele>7.455585374496877</ele>
        <time>2026-07-27T11:38:01Z</time>
      </trkpt>
      <trkpt lat="32.05199611718737" lon="118.80375960591546">
        <ele>7.289119615219533</ele>
        <time>2026-07-27T11:38:07Z</time>
      </trkpt>
      <trkpt lat="32.051919293432945" lon="118.80387083217202">
        <ele>7.579769029282033</ele>
        <time>2026-07-27T11:38:13Z</time>
      </trkpt>
      <trkpt lat="32.0519265968138" lon="118.8040441735366">
        <ele>6.995826615951955</ele>
        <time>2026-07-27T11:38:19Z</time>
      </trkpt>
      <trkpt lat="32.051962889611545" lon="118.80420749291423">
        <ele>7.727737321518362</ele>
        <time>2026-07-27T11:38:25Z</time>
      </trkpt>
      <trkpt lat="32.05216625330265" lon="118.8043898350666">
        <ele>6.744811906479299</ele>
        <time>2026-07-27T11:38:34Z</time>
      </trkpt>
      <trkpt lat="32.052462480445726" lon="118.80448199045345">
        <ele>7.632617845200002</ele>
        <time>2026-07-27T11:38:49Z</time>
      </trkpt>
      <trkpt lat="32.052656667414894" lon="118.80456413548222">
        <ele>7.622047319076955</ele>
        <time>2026-07-27T11:38:58Z</time>
      </trkpt>
      <trkpt lat="32.05278971634818" lon="118.80457514511427">
        <ele>6.10538090672344</ele>
        <time>2026-07-27T11:39:04Z</time>
      </trkpt>
      <trkpt lat="32.05306796248274" lon="118.80468032827831">
        <ele>8.22977055516094</ele>
        <time>2026-07-27T11:39:17Z</time>
      </trkpt>
      <trkpt lat="32.05331983269197" lon="118.80457409441895">
        <ele>7.067169084213674</ele>
        <time>2026-07-27T11:39:29Z</time>
      </trkpt>
      <trkpt lat="32.05340465708957" lon="118.80446286615944">
        <ele>7.257411851547658</ele>
        <time>2026-07-27T11:39:35Z</time>
      </trkpt>
      <trkpt lat="32.053427527365805" lon="118.80438571123806">
        <ele>7.318187608383596</ele>
        <time>2026-07-27T11:39:38Z</time>
      </trkpt>
      <trkpt lat="32.053432372722014" lon="118.80429653427542">
        <ele>6.837291612289846</ele>
        <time>2026-07-27T11:39:41Z</time>
      </trkpt>
      <trkpt lat="32.05335896144879" lon="118.80407009336177">
        <ele>7.71717061009258</ele>
        <time>2026-07-27T11:39:50Z</time>
      </trkpt>
      <trkpt lat="32.05322866373981" lon="118.8039158007704">
        <ele>8.010459794662893</ele>
        <time>2026-07-27T11:39:56Z</time>
      </trkpt>
      <trkpt lat="32.05297045980721" lon="118.80383165853661">
        <ele>12.349075212143362</ele>
        <time>2026-07-27T11:40:08Z</time>
      </trkpt>
      <trkpt lat="32.05278938984205" lon="118.80381464160311">
        <ele>6.189933671616018</ele>
        <time>2026-07-27T11:40:17Z</time>
      </trkpt>
    </trkseg>
  </trk>
</gpx>