<?xml version="1.0" encoding="UTF-8"?>
<gpx xmlns="http://www.topografix.com/GPX/1/1" xmlns:gpxtpx="http://www.garmin.com/xmlschemas/TrackPointExtension/v1" xmlns:xsi="http://www.w3.org/2001/XMLSchema-instance" xsi:schemaLocation="http://www.topografix.com/GPX/1/1 http://www.topografix.com/GPX/1/1/gpx.xsd" version="1.1" creator="gpx.py -- https://github.com/tkrajina/gpxpy">
  <trk>
    <name>gpx from keep</name>
    <type>Ride</type>
    <trkseg>
      <trkpt lat="31.37964908682928" lon="121.49361413023165">
        <ele>17.04416524246335</ele>
        <time>2026-09-18T07:04:45Z</time>
      </trkpt>
      <trkpt lat="31.379576925411776" lon="121.49355291574736">
        <ele>15.770588506013155</ele>
        <time>2026-09-18T07:04:53Z</time>
      </trkpt>
      <trkpt lat="31.379492938983358" lon="121.49354890846271">
        <ele>17.06530438736081</ele>
        <time>2026-09-18T07:04:55Z</time>
      </trkpt>
      <trkpt lat="31.37934920830795" lon="121.49362419205694">
        <ele>19.311236012727022</ele>
        <time>2026-09-18T07:04:59Z</time>
      </trkpt>
      <trkpt lat="31.379185441685923" lon="121.49368542673365">
        <ele>17.28725491836667</ele>
        <time>2026-09-18T07:05:03Z</time>
      </trkpt>
      <trkpt lat="31.378900214376195" lon="121.49391427601385">
        <ele>17.213270772248507</ele>
        <time>2026-09-18T07:05:10Z</time>
      </trkpt>
      <trkpt lat="31.37843422900939" lon="121.4942053652514">
        <ele>18.19619618728757</ele>
        <time>2026-09-18T07:05:22Z</time>
      </trkpt>
      <trkpt lat="31.37836635204515" lon="121.4942394941003">
        <ele>18.782782185822725</ele>
        <time>2026-09-18T07:05:24Z</time>
      </trkpt>
      <trkpt lat="31.378207409748878" lon="121.49424251854863">
        <ele>17.50392209365964</ele>
        <time>2026-09-18T07:05:32Z</time>
      </trkpt>
      <trkpt lat="31.378115359760297" lon="121.49421643232685">
        <ele>19.78684674575925</ele>
        <time>2026-09-18T07:05:36Z</time>
      </trkpt>
      <trkpt lat="31.378048097677077" lon="121.49412209790944">
        <ele>17.77343236282468</ele>
        <time>2026-09-18T07:05:39Z</time>
      </trkpt>
      <trkpt lat="31.3778395678966" lon="121.49359019819498">
        <ele>20.34700833633542</ele>
        <time>2026-09-18T07:05:50Z</time>
      </trkpt>
      <trkpt lat="31.37764915629759" lon="121.4930994460051">
        <ele>20.70107327774167</ele>
        <time>2026-09-18T07:05:58Z</time>
      </trkpt>
      <trkpt lat="31.377462798068585" lon="121.4926267593425">
        <ele>18.75107442215085</ele>
        <time>2026-09-18T07:06:06Z</time>
      </trkpt>
      <trkpt lat="31.377231313138182" lon="121.49210690764508">
        <ele>13.33969746902585</ele>
        <time>2026-09-18T07:06:14Z</time>
      </trkpt>
      <trkpt lat="31.377028826118774" lon="121.49158906186649">
        <ele>18.00066815689206</ele>
        <time>2026-09-18T07:06:22Z</time>
      </trkpt>
      <trkpt lat="31.376813293046105" lon="121.49105415719555">
        <ele>19.43806516006589</ele>
        <time>2026-09-18T07:06:30Z</time>
      </trkpt>
      <trkpt lat="31.37659185284656" lon="121.49054936268429">
        <ele>19.406357396394014</ele>
        <time>2026-09-18T07:06:38Z</time>
      </trkpt>
      <trkpt lat="31.376362275476666" lon="121.48999740113594">
        <ele>21.451478589326143</ele>
        <time>2026-09-18T07:06:46Z</time>
      </trkpt>
      <trkpt lat="31.37615799704413" lon="121.48954780627892">
        <ele>19.644163716584444</ele>
        <time>2026-09-18T07:06:54Z</time>
      </trkpt>
      <trkpt lat="31.375969272248927" lon="121.48894967958819">
        <ele>18.72993527725339</ele>
        <time>2026-09-18T07:07:02Z</time>
      </trkpt>
      <trkpt lat="31.375824073698965" lon="121.48853219789638">
        <ele>19.247822392731905</ele>
        <time>2026-09-18T07:07:08Z</time>
      </trkpt>
      <trkpt lat="31.37565809757071" lon="121.48818697760984">
        <ele>18.333595860749483</ele>
        <time>2026-09-18T07:08:42Z</time>
      </trkpt>
      <trkpt lat="31.37542021607118" lon="121.48786585048688">
        <ele>19.300667393952608</ele>
        <time>2026-09-18T07:08:54Z</time>
      </trkpt>
      <trkpt lat="31.37537196548347" lon="121.48777653562384">
        <ele>17.324246037751436</ele>
        <time>2026-09-18T07:08:56Z</time>
      </trkpt>
      <trkpt lat="31.37536067665684" lon="121.48767818541177">
        <ele>18.61367665603757</ele>
        <time>2026-09-18T07:09:01Z</time>
      </trkpt>
      <trkpt lat="31.37540445135321" lon="121.4876069272837">
        <ele>17.345385182648897</ele>
        <time>2026-09-18T07:09:07Z</time>
      </trkpt>
      <trkpt lat="31.375219036729533" lon="121.4877845774075">
        <ele>17.35595380142331</ele>
        <time>2026-09-18T07:10:52Z</time>
      </trkpt>
      <trkpt lat="31.374921272266413" lon="121.48783277497695">
        <ele>17.202702153474092</ele>
        <time>2026-09-18T07:11:00Z</time>
      </trkpt>
      <trkpt lat="31.37486651006062" lon="121.48790704493716">
        <ele>16.383597005158663</ele>
        <time>2026-09-18T07:11:04Z</time>
      </trkpt>
      <trkpt lat="31.374790691755877" lon="121.48796024145278">
        <ele>19.031155217438936</ele>
        <time>2026-09-18T07:11:06Z</time>
      </trkpt>
      <trkpt lat="31.374680624465075" lon="121.48792612898995">
        <ele>18.053513158112764</ele>
        <time>2026-09-18T07:11:09Z</time>
      </trkpt>
      <trkpt lat="31.374537433096634" lon="121.48818305933045">
        <ele>15.781159032136202</ele>
        <time>2026-09-18T07:11:15Z</time>
      </trkpt>
      <trkpt lat="31.374459537921783" lon="121.48821016286638">
        <ele>20.23603307083249</ele>
        <time>2026-09-18T07:11:17Z</time>
      </trkpt>
      <trkpt lat="31.374378718321935" lon="121.48826235635322">
        <ele>18.312456715852022</ele>
        <time>2026-09-18T07:11:19Z</time>
      </trkpt>
      <trkpt lat="31.37420049904314" lon="121.4881700415803">
        <ele>17.26611577346921</ele>
        <time>2026-09-18T07:11:22Z</time>
      </trkpt>
      <trkpt lat="31.374076591346206" lon="121.48818811677157">
        <ele>17.667742360383272</ele>
        <time>2026-09-18T07:11:24Z</time>
      </trkpt>
      <trkpt lat="31.373879825802955" lon="121.48824634171348">
        <ele>18.497416127473116</ele>
        <time>2026-09-18T07:11:28Z</time>
      </trkpt>
      <trkpt lat="31.37372668839085" lon="121.48818413241696">
        <ele>18.053513158112764</ele>
        <time>2026-09-18T07:11:35Z</time>
      </trkpt>
      <trkpt lat="31.37365272339123" lon="121.4881881531063">
        <ele>17.75229512527585</ele>
        <time>2026-09-18T07:12:24Z</time>
      </trkpt>
      <trkpt lat="31.37346609513998" lon="121.48829354580963">
        <ele>18.57140027359128</ele>
        <time>2026-09-18T07:12:30Z</time>
      </trkpt>
      <trkpt lat="31.373011840370708" lon="121.48849630970136">
        <ele>19.04172383621335</ele>
        <time>2026-09-18T07:12:40Z</time>
      </trkpt>
      <trkpt lat="31.372593509088265" lon="121.48867699182235">
        <ele>18.893757451325655</ele>
        <time>2026-09-18T07:12:48Z</time>
      </trkpt>
      <trkpt lat="31.37240772268581" lon="121.48872919448976">
        <ele>17.826279271394014</ele>
        <time>2026-09-18T07:12:52Z</time>
      </trkpt>
      <trkpt lat="31.37231577540605" lon="121.4887372311013">
        <ele>17.59904347732663</ele>
        <time>2026-09-18T07:12:55Z</time>
      </trkpt>
      <trkpt lat="31.37212329014276" lon="121.48888979359383">
        <ele>17.472214329987764</ele>
        <time>2026-09-18T07:13:18Z</time>
      </trkpt>
      <trkpt lat="31.371721041385996" lon="121.48909957908705">
        <ele>14.999045003205538</ele>
        <time>2026-09-18T07:13:30Z</time>
      </trkpt>
      <trkpt lat="31.371419528006403" lon="121.48923107582011">
        <ele>20.288878072053194</ele>
        <time>2026-09-18T07:13:36Z</time>
      </trkpt>
      <trkpt lat="31.371226974547778" lon="121.48936055614602">
        <ele>17.815708745270967</ele>
        <time>2026-09-18T07:13:40Z</time>
      </trkpt>
      <trkpt lat="31.37108640485137" lon="121.4894900321337">
        <ele>19.321804631501436</ele>
        <time>2026-09-18T07:13:44Z</time>
      </trkpt>
      <trkpt lat="31.370807037666864" lon="121.48967271081672">
        <ele>18.988878834992647</ele>
        <time>2026-09-18T07:13:50Z</time>
      </trkpt>
      <trkpt lat="31.370737266252824" lon="121.48974196508136">
        <ele>18.914894688874483</ele>
        <time>2026-09-18T07:13:52Z</time>
      </trkpt>
      <trkpt lat="31.370663403327125" lon="121.48978010815993">
        <ele>19.010017979890108</ele>
        <time>2026-09-18T07:13:55Z</time>
      </trkpt>
      <trkpt lat="31.37066314889541" lon="121.4896948023027">
        <ele>19.08400021865964</ele>
        <time>2026-09-18T07:14:04Z</time>
      </trkpt>
      <trkpt lat="31.37083692645631" lon="121.48963858592325">
        <ele>18.655953038483858</ele>
        <time>2026-09-18T07:14:09Z</time>
      </trkpt>
      <trkpt lat="31.3712770724995" lon="121.4893986885083">
        <ele>17.297823537141085</ele>
        <time>2026-09-18T07:14:19Z</time>
      </trkpt>
      <trkpt lat="31.37169924565027" lon="121.4891658181866">
        <ele>14.956768620759249</ele>
        <time>2026-09-18T07:14:27Z</time>
      </trkpt>
      <trkpt lat="31.372031641826688" lon="121.48899818949745">
        <ele>14.80351697281003</ele>
        <time>2026-09-18T07:14:33Z</time>
      </trkpt>
      <trkpt lat="31.37209644806128" lon="121.48893997553617">
        <ele>16.901482213288546</ele>
        <time>2026-09-18T07:14:36Z</time>
      </trkpt>
      <trkpt lat="31.372152185408737" lon="121.48885767615647">
        <ele>17.160425771027803</ele>
        <time>2026-09-18T07:14:42Z</time>
      </trkpt>
      <trkpt lat="31.37222501907511" lon="121.48880949748758">
        <ele>21.150259602814913</ele>
        <time>2026-09-18T07:14:45Z</time>
      </trkpt>
      <trkpt lat="31.372752366728662" lon="121.4886458668886">
        <ele>18.291319478303194</ele>
        <time>2026-09-18T07:14:56Z</time>
      </trkpt>
      <trkpt lat="31.37319981749346" lon="121.48850833666707">
        <ele>16.912052739411592</ele>
        <time>2026-09-18T07:15:04Z</time>
      </trkpt>
      <trkpt lat="31.37334765183201" lon="121.48846818041106">
        <ele>17.50392209365964</ele>
        <time>2026-09-18T07:15:06Z</time>
      </trkpt>
      <trkpt lat="31.373430491548437" lon="121.48842301179224">
        <ele>18.46042500808835</ele>
        <time>2026-09-18T07:15:08Z</time>
      </trkpt>
      <trkpt lat="31.3735044714541" lon="121.4884240090404">
        <ele>18.77221356704831</ele>
        <time>2026-09-18T07:15:11Z</time>
      </trkpt>
      <trkpt lat="31.373121835876592" lon="121.48850633617116">
        <ele>18.021807301789522</ele>
        <time>2026-09-18T07:15:20Z</time>
      </trkpt>
      <trkpt lat="31.37269465078605" lon="121.4887351914496">
        <ele>19.54904042556882</ele>
        <time>2026-09-18T07:15:30Z</time>
      </trkpt>
      <trkpt lat="31.37239722820036" lon="121.48889779886139">
        <ele>23.924646962434053</ele>
        <time>2026-09-18T07:15:39Z</time>
      </trkpt>
      <trkpt lat="31.3719270365345" lon="121.48911963332232">
        <ele>22.14375363662839</ele>
        <time>2026-09-18T07:15:51Z</time>
      </trkpt>
      <trkpt lat="31.371494842424873" lon="121.48934447566184">
        <ele>24.35269509628415</ele>
        <time>2026-09-18T07:16:00Z</time>
      </trkpt>
      <trkpt lat="31.371065767555997" lon="121.4896094619837">
        <ele>26.18114911392331</ele>
        <time>2026-09-18T07:16:11Z</time>
      </trkpt>
      <trkpt lat="31.370641610839073" lon="121.4898473511649">
        <ele>29.373015511780977</ele>
        <time>2026-09-18T07:16:22Z</time>
      </trkpt>
      <trkpt lat="31.370146572865306" lon="121.49011736200582">
        <ele>27.882773030549288</ele>
        <time>2026-09-18T07:16:32Z</time>
      </trkpt>
      <trkpt lat="31.369726412906225" lon="121.49035424799584">
        <ele>31.00594102218747</ele>
        <time>2026-09-18T07:16:40Z</time>
      </trkpt>
      <trkpt lat="31.369629605394607" lon="121.49040845082655">
        <ele>29.954315770417452</ele>
        <time>2026-09-18T07:16:42Z</time>
      </trkpt>
      <trkpt lat="31.369178509767416" lon="121.49066340474467">
        <ele>28.458788502961397</ele>
        <time>2026-09-18T07:16:50Z</time>
      </trkpt>
      <trkpt lat="31.36870234462525" lon="121.49089226742633">
        <ele>20.310015309602022</ele>
        <time>2026-09-18T07:16:58Z</time>
      </trkpt>
      <trkpt lat="31.368243120561043" lon="121.49110306401691">
        <ele>24.130743611603975</ele>
        <time>2026-09-18T07:17:06Z</time>
      </trkpt>
      <trkpt lat="31.367828744581438" lon="121.49126769104625">
        <ele>18.323025334626436</ele>
        <time>2026-09-18T07:17:12Z</time>
      </trkpt>
      <trkpt lat="31.367389466889126" lon="121.49146242859265">
        <ele>16.764084447175264</ele>
        <time>2026-09-18T07:17:18Z</time>
      </trkpt>
      <trkpt lat="31.366940165740743" lon="121.49164813469345">
        <ele>18.323025334626436</ele>
        <time>2026-09-18T07:17:24Z</time>
      </trkpt>
      <trkpt lat="31.36652478201983" lon="121.49180975140612">
        <ele>17.525059331208467</ele>
        <time>2026-09-18T07:17:30Z</time>
      </trkpt>
      <trkpt lat="31.366051483227288" lon="121.49199345262868">
        <ele>21.05513821914792</ele>
        <time>2026-09-18T07:17:38Z</time>
      </trkpt>
      <trkpt lat="31.365830776291773" lon="121.4920677387324">
        <ele>19.517334569245577</ele>
        <time>2026-09-18T07:17:41Z</time>
      </trkpt>
      <trkpt lat="31.36556092303904" lon="121.49208783404502">
        <ele>19.755138982087374</ele>
        <time>2026-09-18T07:17:50Z</time>
      </trkpt>
      <trkpt lat="31.365489018231184" lon="121.49211192686982">
        <ele>16.912052739411592</ele>
        <time>2026-09-18T07:17:52Z</time>
      </trkpt>
      <trkpt lat="31.365346388476226" lon="121.49222032913167">
        <ele>17.366522420197725</ele>
        <time>2026-09-18T07:17:57Z</time>
      </trkpt>
      <trkpt lat="31.364882937178837" lon="121.4923538491953">
        <ele>17.35595380142331</ele>
        <time>2026-09-18T07:18:05Z</time>
      </trkpt>
      <trkpt lat="31.36438371405162" lon="121.49255963253">
        <ele>19.08400021865964</ele>
        <time>2026-09-18T07:18:12Z</time>
      </trkpt>
      <trkpt lat="31.363959316880045" lon="121.49271522892631">
        <ele>17.213270772248507</ele>
        <time>2026-09-18T07:18:20Z</time>
      </trkpt>
      <trkpt lat="31.3634571465239" lon="121.49293807423093">
        <ele>18.957171071320772</ele>
        <time>2026-09-18T07:18:28Z</time>
      </trkpt>
      <trkpt lat="31.362945997521656" lon="121.49316694216245">
        <ele>19.17383824661374</ele>
        <time>2026-09-18T07:18:36Z</time>
      </trkpt>
      <trkpt lat="31.36268158838122" lon="121.49333557220179">
        <ele>18.428717244416475</ele>
        <time>2026-09-18T07:18:43Z</time>
      </trkpt>
      <trkpt lat="31.362532765999152" lon="121.49337874041352">
        <ele>19.031155217438936</ele>
        <time>2026-09-18T07:19:12Z</time>
      </trkpt>
      <trkpt lat="31.36228228938166" lon="121.49352629342161">
        <ele>19.538471806794405</ele>
        <time>2026-09-18T07:19:18Z</time>
      </trkpt>
      <trkpt lat="31.361806009694067" lon="121.49371501408984">
        <ele>18.719366658478975</ele>
        <time>2026-09-18T07:19:30Z</time>
      </trkpt>
      <trkpt lat="31.361373565664362" lon="121.49385355023021">
        <ele>17.546196568757296</ele>
        <time>2026-09-18T07:19:38Z</time>
      </trkpt>
      <trkpt lat="31.360871243963928" lon="121.49402521177576">
        <ele>17.303108800202608</ele>
        <time>2026-09-18T07:19:48Z</time>
      </trkpt>
      <trkpt lat="31.36041993596839" lon="121.49420690521052">
        <ele>21.89538060501218</ele>
        <time>2026-09-18T07:19:57Z</time>
      </trkpt>
      <trkpt lat="31.360072359632415" lon="121.4943103076039">
        <ele>20.99172269180417</ele>
        <time>2026-09-18T07:20:03Z</time>
      </trkpt>
      <trkpt lat="31.359932895632973" lon="121.49447390936044">
        <ele>20.056357014924288</ele>
        <time>2026-09-18T07:20:05Z</time>
      </trkpt>
      <trkpt lat="31.359574491524754" lon="121.49463351540014">
        <ele>18.19091283157468</ele>
        <time>2026-09-18T07:20:11Z</time>
      </trkpt>
      <trkpt lat="31.35932873169712" lon="121.49468672821334">
        <ele>13.857582677155733</ele>
        <time>2026-09-18T07:20:15Z</time>
      </trkpt>
      <trkpt lat="31.358885421996522" lon="121.49486842119252">
        <ele>16.53684865310788</ele>
        <time>2026-09-18T07:20:21Z</time>
      </trkpt>
      <trkpt lat="31.358398223282723" lon="121.49508223380398">
        <ele>16.610832799226046</ele>
        <time>2026-09-18T07:20:29Z</time>
      </trkpt>
      <trkpt lat="31.35793800091201" lon="121.49529102606999">
        <ele>14.93563138321042</ele>
        <time>2026-09-18T07:20:38Z</time>
      </trkpt>
      <trkpt lat="31.357464771069797" lon="121.49549580501345">
        <ele>19.496195424348116</ele>
        <time>2026-09-18T07:20:46Z</time>
      </trkpt>
      <trkpt lat="31.357204251407445" lon="121.49562730153417">
        <ele>15.168150532990694</ele>
        <time>2026-09-18T07:20:50Z</time>
      </trkpt>
      <trkpt lat="31.356978780372547" lon="121.49577886748753">
        <ele>16.71123944595456</ele>
        <time>2026-09-18T07:20:54Z</time>
      </trkpt>
      <trkpt lat="31.356473603778902" lon="121.4959976999259">
        <ele>19.020586598664522</ele>
        <time>2026-09-18T07:21:02Z</time>
      </trkpt>
      <trkpt lat="31.355991278480403" lon="121.49616936025518">
        <ele>18.978310216218233</ele>
        <time>2026-09-18T07:21:13Z</time>
      </trkpt>
      <trkpt lat="31.3555479795426" lon="121.49635406432992">
        <ele>18.14863644912839</ele>
        <time>2026-09-18T07:21:22Z</time>
      </trkpt>
      <trkpt lat="31.355394163153015" lon="121.49639823677728">
        <ele>16.494572270661592</ele>
        <time>2026-09-18T07:21:29Z</time>
      </trkpt>
      <trkpt lat="31.355319143039978" lon="121.49638318886839">
        <ele>17.64660321548581</ele>
        <time>2026-09-18T07:22:47Z</time>
      </trkpt>
      <trkpt lat="31.355049335309676" lon="121.49641733500788">
        <ele>18.560829747468233</ele>
        <time>2026-09-18T07:22:58Z</time>
      </trkpt>
      <trkpt lat="31.354546216242117" lon="121.4966552360914">
        <ele>16.75351582840085</ele>
        <time>2026-09-18T07:23:08Z</time>
      </trkpt>
      <trkpt lat="31.354080018887014" lon="121.49687105435508">
        <ele>18.21733533218503</ele>
        <time>2026-09-18T07:23:16Z</time>
      </trkpt>
      <trkpt lat="31.35367073648541" lon="121.49706478808726">
        <ele>18.75107442215085</ele>
        <time>2026-09-18T07:23:22Z</time>
      </trkpt>
      <trkpt lat="31.353346263368717" lon="121.49720431904753">
        <ele>16.859205830842257</ele>
        <time>2026-09-18T07:23:28Z</time>
      </trkpt>
      <trkpt lat="31.353124521274694" lon="121.4972655588245">
        <ele>19.247822392731905</ele>
        <time>2026-09-18T07:23:32Z</time>
      </trkpt>
      <trkpt lat="31.352905847363527" lon="121.4973498816084">
        <ele>18.603108037263155</ele>
        <time>2026-09-18T07:23:36Z</time>
      </trkpt>
      <trkpt lat="31.352451240884147" lon="121.49743021003235">
        <ele>18.375872243195772</ele>
        <time>2026-09-18T07:23:44Z</time>
      </trkpt>
      <trkpt lat="31.352020557410057" lon="121.49748745313848">
        <ele>16.362457860261202</ele>
        <time>2026-09-18T07:23:53Z</time>
      </trkpt>
      <trkpt lat="31.35179677723187" lon="121.49753564600617">
        <ele>15.548637975007296</ele>
        <time>2026-09-18T07:24:43Z</time>
      </trkpt>
      <trkpt lat="31.35162989069938" lon="121.4975547290289">
        <ele>17.461643803864717</ele>
        <time>2026-09-18T07:24:48Z</time>
      </trkpt>
      <trkpt lat="31.351351426749382" lon="121.49770228495744">
        <ele>18.333595860749483</ele>
        <time>2026-09-18T07:24:55Z</time>
      </trkpt>
      <trkpt lat="31.350839584876724" lon="121.49769731051657">
        <ele>15.490507710725069</ele>
        <time>2026-09-18T07:25:06Z</time>
      </trkpt>
      <trkpt lat="31.350371557073384" lon="121.49763512598872">
        <ele>16.859205830842257</ele>
        <time>2026-09-18T07:25:14Z</time>
      </trkpt>
      <trkpt lat="31.349894490492865" lon="121.49755889154629">
        <ele>16.742947209626436</ele>
        <time>2026-09-18T07:25:22Z</time>
      </trkpt>
      <trkpt lat="31.349700454198132" lon="121.49752478500922">
        <ele>17.847416508942842</ele>
        <time>2026-09-18T07:25:24Z</time>
      </trkpt>
      <trkpt lat="31.349284159803638" lon="121.49737929557462">
        <ele>17.968960393220186</ele>
        <time>2026-09-18T07:25:31Z</time>
      </trkpt>
      <trkpt lat="31.348794538720014" lon="121.49711638878813">
        <ele>16.700668919831514</ele>
        <time>2026-09-18T07:25:42Z</time>
      </trkpt>
      <trkpt lat="31.34834298602996" lon="121.49688057648504">
        <ele>16.505140889436007</ele>
        <time>2026-09-18T07:25:50Z</time>
      </trkpt>
      <trkpt lat="31.347880377136317" lon="121.49662469270687">
        <ele>19.776276219636202</ele>
        <time>2026-09-18T07:25:58Z</time>
      </trkpt>
      <trkpt lat="31.347520949675683" lon="121.49644106081138">
        <ele>16.827499974519014</ele>
        <time>2026-09-18T07:26:03Z</time>
      </trkpt>
      <trkpt lat="31.347299553239594" lon="121.49628351127978">
        <ele>17.805140126496553</ele>
        <time>2026-09-18T07:26:07Z</time>
      </trkpt>
      <trkpt lat="31.34684086823198" lon="121.4960025367005">
        <ele>15.506361592561007</ele>
        <time>2026-09-18T07:26:15Z</time>
      </trkpt>
      <trkpt lat="31.346397232414745" lon="121.49573962605531">
        <ele>14.481159795075655</ele>
        <time>2026-09-18T07:26:23Z</time>
      </trkpt>
      <trkpt lat="31.345938535812152" lon="121.49545463712525">
        <ele>18.074652303010225</ele>
        <time>2026-09-18T07:27:14Z</time>
      </trkpt>
      <trkpt lat="31.345552970681155" lon="121.49522183026704">
        <ele>19.17383824661374</ele>
        <time>2026-09-18T07:27:21Z</time>
      </trkpt>
      <trkpt lat="31.345129343665697" lon="121.49496393625826">
        <ele>17.345385182648897</ele>
        <time>2026-09-18T07:27:29Z</time>
      </trkpt>
      <trkpt lat="31.344661653909277" lon="121.49467995204009">
        <ele>15.300264943391085</ele>
        <time>2026-09-18T07:27:39Z</time>
      </trkpt>
      <trkpt lat="31.344228958361118" lon="121.49439797222942">
        <ele>17.023028004914522</ele>
        <time>2026-09-18T07:27:47Z</time>
      </trkpt>
      <trkpt lat="31.343770287147002" lon="121.4941210129031">
        <ele>15.717743504792452</ele>
        <time>2026-09-18T07:27:54Z</time>
      </trkpt>
      <trkpt lat="31.343296657545228" lon="121.49385609844848">
        <ele>18.96774159744382</ele>
        <time>2026-09-18T07:28:02Z</time>
      </trkpt>
      <trkpt lat="31.342859997399493" lon="121.49358515933535">
        <ele>17.35595380142331</ele>
        <time>2026-09-18T07:28:10Z</time>
      </trkpt>
      <trkpt lat="31.3423903490803" lon="121.49331422326335">
        <ele>16.589693654328585</ele>
        <time>2026-09-18T07:28:18Z</time>
      </trkpt>
      <trkpt lat="31.34204488628294" lon="121.49311955151141">
        <ele>16.15107785537839</ele>
        <time>2026-09-18T07:28:24Z</time>
      </trkpt>
      <trkpt lat="31.34188657779379" lon="121.49299812771456">
        <ele>17.657173741608858</ele>
        <time>2026-09-18T07:28:28Z</time>
      </trkpt>
      <trkpt lat="31.341815653638424" lon="121.49301519521369">
        <ele>16.57912503555417</ele>
        <time>2026-09-18T07:29:10Z</time>
      </trkpt>
      <trkpt lat="31.341404061024207" lon="121.49276934504185">
        <ele>19.41692792251706</ele>
        <time>2026-09-18T07:29:32Z</time>
      </trkpt>
      <trkpt lat="31.341015463700792" lon="121.49252449674813">
        <ele>16.93318997696042</ele>
        <time>2026-09-18T07:29:39Z</time>
      </trkpt>
      <trkpt lat="31.340585790971815" lon="121.49224954387343">
        <ele>17.493351567536592</ele>
        <time>2026-09-18T07:29:48Z</time>
      </trkpt>
      <trkpt lat="31.340145125519314" lon="121.49197559587454">
        <ele>18.90432607010007</ele>
        <time>2026-09-18T07:29:56Z</time>
      </trkpt>
      <trkpt lat="31.339713373315316" lon="121.4916735464186">
        <ele>16.97546635940671</ele>
        <time>2026-09-18T07:30:04Z</time>
      </trkpt>
      <trkpt lat="31.339417726801344" lon="121.49142266973128">
        <ele>17.19213353469968</ele>
        <time>2026-09-18T07:30:09Z</time>
      </trkpt>
      <trkpt lat="31.339014097618218" lon="121.49116477735568">
        <ele>17.366522420197725</ele>
        <time>2026-09-18T07:30:17Z</time>
      </trkpt>
      <trkpt lat="31.33880763632944" lon="121.49098615324755">
        <ele>15.506361592561007</ele>
        <time>2026-09-18T07:30:21Z</time>
      </trkpt>
      <trkpt lat="31.338531866777743" lon="121.49069613524136">
        <ele>15.279125798493624</ele>
        <time>2026-09-18T07:30:27Z</time>
      </trkpt>
      <trkpt lat="31.338178113192832" lon="121.4904021099839">
        <ele>17.625465977936983</ele>
        <time>2026-09-18T07:30:35Z</time>
      </trkpt>
      <trkpt lat="31.33776429446676" lon="121.4900789859991">
        <ele>17.868555653840303</ele>
        <time>2026-09-18T07:30:43Z</time>
      </trkpt>
      <trkpt lat="31.337564891681602" lon="121.48992043440788">
        <ele>14.565712559968233</ele>
        <time>2026-09-18T07:30:47Z</time>
      </trkpt>
      <trkpt lat="31.337101133562292" lon="121.48961136605041">
        <ele>18.08522092178464</ele>
        <time>2026-09-18T07:30:56Z</time>
      </trkpt>
      <trkpt lat="31.3366482047552" lon="121.48924609614926">
        <ele>21.23481236770749</ele>
        <time>2026-09-18T07:31:05Z</time>
      </trkpt>
      <trkpt lat="31.336467843969867" lon="121.48910360131919">
        <ele>16.964897740632296</ele>
        <time>2026-09-18T07:31:08Z</time>
      </trkpt>
      <trkpt lat="31.336045303270186" lon="121.48887180771922">
        <ele>15.966118443757296</ele>
        <time>2026-09-18T07:31:17Z</time>
      </trkpt>
      <trkpt lat="31.335625561846868" lon="121.48857277381433">
        <ele>17.097010243684053</ele>
        <time>2026-09-18T07:31:25Z</time>
      </trkpt>
      <trkpt lat="31.335240829563755" lon="121.48828076271839">
        <ele>17.879124272614717</ele>
        <time>2026-09-18T07:31:35Z</time>
      </trkpt>
      <trkpt lat="31.334761925639107" lon="121.48791951308887">
        <ele>18.978310216218233</ele>
        <time>2026-09-18T07:31:46Z</time>
      </trkpt>
      <trkpt lat="31.334333049640204" lon="121.48757331398602">
        <ele>19.443350423127413</ele>
        <time>2026-09-18T07:31:56Z</time>
      </trkpt>
      <trkpt lat="31.333928157113185" lon="121.48722410314808">
        <ele>19.892536748200655</ele>
        <time>2026-09-18T07:32:06Z</time>
      </trkpt>
      <trkpt lat="31.333742749806465" lon="121.48706455032261">
        <ele>18.698229420930147</ele>
        <time>2026-09-18T07:32:10Z</time>
      </trkpt>
      <trkpt lat="31.33354843225878" lon="121.48693410216102">
        <ele>18.946602452546358</ele>
        <time>2026-09-18T07:32:14Z</time>
      </trkpt>
      <trkpt lat="31.333428118110806" lon="121.48681368355723">
        <ele>16.848637212067842</ele>
        <time>2026-09-18T07:32:18Z</time>
      </trkpt>
      <trkpt lat="31.333269954558183" lon="121.48673943267868">
        <ele>16.77465306594968</ele>
        <time>2026-09-18T07:32:30Z</time>
      </trkpt>
      <trkpt lat="31.332886140267924" lon="121.48641832270425">
        <ele>17.73115598037839</ele>
        <time>2026-09-18T07:32:41Z</time>
      </trkpt>
      <trkpt lat="31.33250749147369" lon="121.48615341305145">
        <ele>19.559610951691866</ele>
        <time>2026-09-18T07:32:49Z</time>
      </trkpt>
      <trkpt lat="31.332111686232878" lon="121.48583330954912">
        <ele>18.52912389114499</ele>
        <time>2026-09-18T07:32:58Z</time>
      </trkpt>
      <trkpt lat="31.331744990172623" lon="121.48555334704994">
        <ele>16.674246419221163</ele>
        <time>2026-09-18T07:33:06Z</time>
      </trkpt>
      <trkpt lat="31.331335215583913" lon="121.48524127523277">
        <ele>20.336437810212374</ele>
        <time>2026-09-18T07:33:14Z</time>
      </trkpt>
      <trkpt lat="31.330969526787282" lon="121.48496332155302">
        <ele>17.170994389802217</ele>
        <time>2026-09-18T07:33:20Z</time>
      </trkpt>
      <trkpt lat="31.33058075837603" lon="121.48465526418654">
        <ele>16.494572270661592</ele>
        <time>2026-09-18T07:33:28Z</time>
      </trkpt>
      <trkpt lat="31.33012788116629" lon="121.48430205379131">
        <ele>19.290098775178194</ele>
        <time>2026-09-18T07:33:37Z</time>
      </trkpt>
      <trkpt lat="31.32973614853495" lon="121.48400503803863">
        <ele>15.469370473176241</ele>
        <time>2026-09-18T07:33:45Z</time>
      </trkpt>
      <trkpt lat="31.32931144068594" lon="121.48371204034439">
        <ele>17.50392209365964</ele>
        <time>2026-09-18T07:33:53Z</time>
      </trkpt>
      <trkpt lat="31.32890673838998" lon="121.48342305614639">
        <ele>17.968960393220186</ele>
        <time>2026-09-18T07:34:02Z</time>
      </trkpt>
      <trkpt lat="31.3287054903427" lon="121.48331368805374">
        <ele>17.75229512527585</ele>
        <time>2026-09-18T07:34:06Z</time>
      </trkpt>
      <trkpt lat="31.32832676234951" lon="121.48301868191197">
        <ele>20.288878072053194</ele>
        <time>2026-09-18T07:34:14Z</time>
      </trkpt>
      <trkpt lat="31.32793185020388" lon="121.48265844907536">
        <ele>18.840912450104952</ele>
        <time>2026-09-18T07:34:22Z</time>
      </trkpt>
      <trkpt lat="31.327566925719708" lon="121.48229721188416">
        <ele>16.22506009414792</ele>
        <time>2026-09-18T07:34:29Z</time>
      </trkpt>
      <trkpt lat="31.327163131359253" lon="121.48197511695962">
        <ele>18.291319478303194</ele>
        <time>2026-09-18T07:34:37Z</time>
      </trkpt>
      <trkpt lat="31.326744370169447" lon="121.48166205638664">
        <ele>19.591316808015108</ele>
        <time>2026-09-18T07:34:45Z</time>
      </trkpt>
      <trkpt lat="31.32632665086094" lon="121.48136304623944">
        <ele>19.50676404312253</ele>
        <time>2026-09-18T07:34:53Z</time>
      </trkpt>
      <trkpt lat="31.325928039735" lon="121.48110317240658">
        <ele>18.159205067902803</ele>
        <time>2026-09-18T07:35:02Z</time>
      </trkpt>
      <trkpt lat="31.32571577872412" lon="121.48098678425775">
        <ele>14.232786763459444</ele>
        <time>2026-09-18T07:35:06Z</time>
      </trkpt>
      <trkpt lat="31.325250427025367" lon="121.48080719753322">
        <ele>15.728314030915499</ele>
        <time>2026-09-18T07:35:14Z</time>
      </trkpt>
      <trkpt lat="31.324797290238763" lon="121.48070287255723">
        <ele>17.720587361603975</ele>
        <time>2026-09-18T07:35:21Z</time>
      </trkpt>
      <trkpt lat="31.32436527726944" lon="121.4806437032883">
        <ele>25.076677907258272</ele>
        <time>2026-09-18T07:35:29Z</time>
      </trkpt>
      <trkpt lat="31.323905344845304" lon="121.48060862038268">
        <ele>17.3982301838696</ele>
        <time>2026-09-18T07:35:45Z</time>
      </trkpt>
      <trkpt lat="31.323447525621575" lon="121.48061267366928">
        <ele>16.71123944595456</ele>
        <time>2026-09-18T07:35:53Z</time>
      </trkpt>
      <trkpt lat="31.323064661391438" lon="121.48061069954177">
        <ele>15.342541325837374</ele>
        <time>2026-09-18T07:35:59Z</time>
      </trkpt>
      <trkpt lat="31.322860838923333" lon="121.48064583942532">
        <ele>16.816929448395967</ele>
        <time>2026-09-18T07:36:03Z</time>
      </trkpt>
      <trkpt lat="31.32261287244304" lon="121.48062579077265">
        <ele>17.18156300857663</ele>
        <time>2026-09-18T07:38:32Z</time>
      </trkpt>
      <trkpt lat="31.322525793894286" lon="121.48058766538269">
        <ele>12.779535878449678</ele>
        <time>2026-09-18T07:38:38Z</time>
      </trkpt>
      <trkpt lat="31.322244927206732" lon="121.4805977244543">
        <ele>17.604326833039522</ele>
        <time>2026-09-18T07:38:46Z</time>
      </trkpt>
      <trkpt lat="31.32219973986449" lon="121.48052748363055">
        <ele>17.77343236282468</ele>
        <time>2026-09-18T07:38:55Z</time>
      </trkpt>
      <trkpt lat="31.322232497434925" lon="121.48044820474495">
        <ele>17.160425771027803</ele>
        <time>2026-09-18T07:39:00Z</time>
      </trkpt>
      <trkpt lat="31.3222281901764" lon="121.48034183483873">
        <ele>14.285631764680147</ele>
        <time>2026-09-18T07:39:16Z</time>
      </trkpt>
      <trkpt lat="31.322231766584984" lon="121.480196328306">
        <ele>4.543489686213434</ele>
        <time>2026-09-18T07:42:54Z</time>
      </trkpt>
      <trkpt lat="31.32224101065799" lon="121.48028162422547">
        <ele>5.859342805109918</ele>
        <time>2026-09-18T07:43:21Z</time>
      </trkpt>
      <trkpt lat="31.32219930868416" lon="121.48037896654552">
        <ele>7.534544221125543</ele>
        <time>2026-09-18T07:43:27Z</time>
      </trkpt>
      <trkpt lat="31.32209361600347" lon="121.48047129703286">
        <ele>7.159342042170465</ele>
        <time>2026-09-18T07:43:29Z</time>
      </trkpt>
      <trkpt lat="31.321974785457336" lon="121.48051445750446">
        <ele>4.934545747004449</ele>
        <time>2026-09-18T07:43:32Z</time>
      </trkpt>
      <trkpt lat="31.321896957216918" lon="121.48056363545884">
        <ele>7.576820603571832</ele>
        <time>2026-09-18T07:43:34Z</time>
      </trkpt>
      <trkpt lat="31.32136830241698" lon="121.48061485914009">
        <ele>5.145927659235895</ele>
        <time>2026-09-18T07:43:46Z</time>
      </trkpt>
      <trkpt lat="31.32115040682114" lon="121.48062290581575">
        <ele>8.665437928400934</ele>
        <time>2026-09-18T07:43:50Z</time>
      </trkpt>
      <trkpt lat="31.320682467368314" lon="121.4805838096243">
        <ele>10.203241578303277</ele>
        <time>2026-09-18T07:43:58Z</time>
      </trkpt>
      <trkpt lat="31.320217594094274" lon="121.48056779359202">
        <ele>6.736578217707574</ele>
        <time>2026-09-18T07:44:05Z</time>
      </trkpt>
      <trkpt lat="31.31974874004466" lon="121.48055779887845">
        <ele>6.805277100764215</ele>
        <time>2026-09-18T07:44:14Z</time>
      </trkpt>
      <trkpt lat="31.319237963161548" lon="121.48056888117145">
        <ele>5.610967866145074</ele>
        <time>2026-09-18T07:44:22Z</time>
      </trkpt>
      <trkpt lat="31.318693170160856" lon="121.48056993142656">
        <ele>5.4365789806470275</ele>
        <time>2026-09-18T07:44:30Z</time>
      </trkpt>
      <trkpt lat="31.3181904229375" lon="121.48059205148579">
        <ele>6.77356933709234</ele>
        <time>2026-09-18T07:44:36Z</time>
      </trkpt>
      <trkpt lat="31.317752616585857" lon="121.48060212402197">
        <ele>7.94673942681402</ele>
        <time>2026-09-18T07:44:43Z</time>
      </trkpt>
      <trkpt lat="31.317201829651854" lon="121.480604178285">
        <ele>7.471128693781793</ele>
        <time>2026-09-18T07:44:51Z</time>
      </trkpt>
      <trkpt lat="31.316711145800664" lon="121.48064937774035">
        <ele>5.621538392268121</ele>
        <time>2026-09-18T07:45:01Z</time>
      </trkpt>
      <trkpt lat="31.31662226100071" lon="121.48067748328678">
        <ele>5.510561219416559</ele>
        <time>2026-09-18T07:45:04Z</time>
      </trkpt>
      <trkpt lat="31.316123469698326" lon="121.48068455057326">
        <ele>9.146330109797418</ele>
        <time>2026-09-18T07:45:12Z</time>
      </trkpt>
      <trkpt lat="31.31572552967203" lon="121.4806534763117">
        <ele>7.006088486872613</ele>
        <time>2026-09-18T07:45:18Z</time>
      </trkpt>
      <trkpt lat="31.315208812743272" lon="121.48068362556748">
        <ele>5.4048712169751525</ele>
        <time>2026-09-18T07:45:26Z</time>
      </trkpt>
      <trkpt lat="31.31487894940643" lon="121.48068766786362">
        <ele>5.267473450861871</ele>
        <time>2026-09-18T07:45:30Z</time>
      </trkpt>
      <trkpt lat="31.314665158856997" lon="121.48073184010903">
        <ele>8.554460755549371</ele>
        <time>2026-09-18T07:45:33Z</time>
      </trkpt>
      <trkpt lat="31.31445223090065" lon="121.48072884788635">
        <ele>7.0483648693189025</ele>
        <time>2026-09-18T07:45:36Z</time>
      </trkpt>
      <trkpt lat="31.314021129162327" lon="121.48063756662563">
        <ele>7.191047898493707</ele>
        <time>2026-09-18T07:45:44Z</time>
      </trkpt>
      <trkpt lat="31.313876149272822" lon="121.48062553710865">
        <ele>9.90202163811773</ele>
        <time>2026-09-18T07:45:46Z</time>
      </trkpt>
      <trkpt lat="31.313701982219158" lon="121.4805452723915">
        <ele>4.855278245173395</ele>
        <time>2026-09-18T07:45:49Z</time>
      </trkpt>
      <trkpt lat="31.31355004003005" lon="121.48054528543027">
        <ele>5.653244248591363</ele>
        <time>2026-09-18T07:45:52Z</time>
      </trkpt>
      <trkpt lat="31.313455146126703" lon="121.48056937746172">
        <ele>5.589830628596246</ele>
        <time>2026-09-18T07:45:54Z</time>
      </trkpt>
      <trkpt lat="31.313007197213086" lon="121.48052827259797">
        <ele>6.932106248103082</ele>
        <time>2026-09-18T07:46:02Z</time>
      </trkpt>
      <trkpt lat="31.31265523814514" lon="121.4804961909724">
        <ele>3.06910156365484</ele>
        <time>2026-09-18T07:46:08Z</time>
      </trkpt>
      <trkpt lat="31.3121913773504" lon="121.48048318535189">
        <ele>6.942674866877496</ele>
        <time>2026-09-18T07:46:14Z</time>
      </trkpt>
      <trkpt lat="31.311719563557187" lon="121.48048523282704">
        <ele>6.451212159357965</ele>
        <time>2026-09-18T07:46:22Z</time>
      </trkpt>
      <trkpt lat="31.311241813497105" lon="121.4805083541922">
        <ele>5.24105095025152</ele>
        <time>2026-09-18T07:46:30Z</time>
      </trkpt>
      <trkpt lat="31.31077405694355" lon="121.48053047121168">
        <ele>4.199995270930231</ele>
        <time>2026-09-18T07:46:36Z</time>
      </trkpt>
      <trkpt lat="31.310268230706953" lon="121.48052349015074">
        <ele>7.148771516047418</ele>
        <time>2026-09-18T07:47:16Z</time>
      </trkpt>
      <trkpt lat="31.310080244635103" lon="121.48050343638981">
        <ele>7.407715073786676</ele>
        <time>2026-09-18T07:48:47Z</time>
      </trkpt>
      <trkpt lat="31.30992645244539" lon="121.48055462781957">
        <ele>7.30730842705816</ele>
        <time>2026-09-18T07:48:53Z</time>
      </trkpt>
      <trkpt lat="31.309554106139963" lon="121.48073027165509">
        <ele>6.4459268962964416</ele>
        <time>2026-09-18T07:49:05Z</time>
      </trkpt>
      <trkpt lat="31.309391244713066" lon="121.4807563765765">
        <ele>5.901619187556207</ele>
        <time>2026-09-18T07:49:09Z</time>
      </trkpt>
      <trkpt lat="31.309092313190067" lon="121.48074034625317">
        <ele>7.77234863396734</ele>
        <time>2026-09-18T07:49:17Z</time>
      </trkpt>
      <trkpt lat="31.308563549239498" lon="121.48075143009541">
        <ele>6.382513276301324</ele>
        <time>2026-09-18T07:49:28Z</time>
      </trkpt>
      <trkpt lat="31.308468612153945" lon="121.48076046972383">
        <ele>4.876417390070856</ele>
        <time>2026-09-18T07:49:30Z</time>
      </trkpt>
      <trkpt lat="31.308400737591285" lon="121.48079459449617">
        <ele>5.029669038020074</ele>
        <time>2026-09-18T07:49:32Z</time>
      </trkpt>
      <trkpt lat="31.308050936956153" lon="121.48081670148132">
        <ele>9.008932343684137</ele>
        <time>2026-09-18T07:49:38Z</time>
      </trkpt>
      <trkpt lat="31.307586093409515" lon="121.48080871336644">
        <ele>9.225599518977106</ele>
        <time>2026-09-18T07:49:45Z</time>
      </trkpt>
      <trkpt lat="31.307414072447333" lon="121.48077862316184">
        <ele>4.585766068659723</ele>
        <time>2026-09-18T07:49:47Z</time>
      </trkpt>
      <trkpt lat="31.307076197512465" lon="121.48077664514983">
        <ele>3.1430838024243712</ele>
        <time>2026-09-18T07:49:52Z</time>
      </trkpt>
      <trkpt lat="31.30675812534473" lon="121.48070943807454">
        <ele>6.276821366511285</ele>
        <time>2026-09-18T07:49:57Z</time>
      </trkpt>
      <trkpt lat="31.306555209924266" lon="121.4807114624768">
        <ele>-2.8495919788256288</ele>
        <time>2026-09-18T07:50:01Z</time>
      </trkpt>
      <trkpt lat="31.30604672846256" lon="121.48082189090556">
        <ele>6.0495855724439025</ele>
        <time>2026-09-18T07:50:14Z</time>
      </trkpt>
      <trkpt lat="31.305638059655788" lon="121.48088113243315">
        <ele>5.0930826580151916</ele>
        <time>2026-09-18T07:50:21Z</time>
      </trkpt>
      <trkpt lat="31.30522771888909" lon="121.48105276634298">
        <ele>6.48291992302984</ele>
        <time>2026-09-18T07:50:30Z</time>
      </trkpt>
      <trkpt lat="31.305023096719577" lon="121.48115514122723">
        <ele>7.449991456232965</ele>
        <time>2026-09-18T07:50:34Z</time>
      </trkpt>
      <trkpt lat="31.304548778827037" lon="121.48132577780301">
        <ele>7.058935395441949</ele>
        <time>2026-09-18T07:50:45Z</time>
      </trkpt>
      <trkpt lat="31.304476836162824" lon="121.48133581903856">
        <ele>6.879259339533746</ele>
        <time>2026-09-18T07:50:59Z</time>
      </trkpt>
      <trkpt lat="31.304415003651116" lon="121.48138499618526">
        <ele>6.30852913018316</ele>
        <time>2026-09-18T07:51:26Z</time>
      </trkpt>
      <trkpt lat="31.303949829348795" lon="121.48160580804823">
        <ele>9.41584228631109</ele>
        <time>2026-09-18T07:51:44Z</time>
      </trkpt>
      <trkpt lat="31.303839048385534" lon="121.48166602820629">
        <ele>5.965032807551324</ele>
        <time>2026-09-18T07:51:46Z</time>
      </trkpt>
      <trkpt lat="31.30348848144292" lon="121.48176741298964">
        <ele>6.620317689143121</ele>
        <time>2026-09-18T07:51:52Z</time>
      </trkpt>
      <trkpt lat="31.303406630702906" lon="121.48180756053259">
        <ele>6.4459268962964416</ele>
        <time>2026-09-18T07:51:54Z</time>
      </trkpt>
      <trkpt lat="31.30315390848136" lon="121.48186879654426">
        <ele>5.975603333674371</ele>
        <time>2026-09-18T07:51:58Z</time>
      </trkpt>
      <trkpt lat="31.302608685290306" lon="121.48206151828401">
        <ele>5.558122864924371</ele>
        <time>2026-09-18T07:52:09Z</time>
      </trkpt>
      <trkpt lat="31.302504907913583" lon="121.48212374525798">
        <ele>6.039016953669488</ele>
        <time>2026-09-18T07:52:11Z</time>
      </trkpt>
      <trkpt lat="31.302273172039126" lon="121.48218297269766">
        <ele>8.623161545954645</ele>
        <time>2026-09-18T07:52:16Z</time>
      </trkpt>
      <trkpt lat="31.302078621277975" lon="121.48231043635039">
        <ele>7.354870072565973</ele>
        <time>2026-09-18T07:52:20Z</time>
      </trkpt>
      <trkpt lat="31.301955822239968" lon="121.48236262995368">
        <ele>4.35853027459234</ele>
        <time>2026-09-18T07:52:22Z</time>
      </trkpt>
      <trkpt lat="31.30150232961206" lon="121.4824750632682">
        <ele>7.376007310114801</ele>
        <time>2026-09-18T07:52:30Z</time>
      </trkpt>
      <trkpt lat="31.301269647480943" lon="121.48255235448977">
        <ele>5.1142218029126525</ele>
        <time>2026-09-18T07:52:34Z</time>
      </trkpt>
      <trkpt lat="31.30089718814372" lon="121.48268685869584">
        <ele>5.933325043879449</ele>
        <time>2026-09-18T07:52:40Z</time>
      </trkpt>
      <trkpt lat="31.300600837378088" lon="121.48286852240903">
        <ele>4.82357048150152</ele>
        <time>2026-09-18T07:52:48Z</time>
      </trkpt>
      <trkpt lat="31.300411450703432" lon="121.48305218444656">
        <ele>5.7906439220532775</ele>
        <time>2026-09-18T07:52:56Z</time>
      </trkpt>
      <trkpt lat="31.300329636108096" lon="121.48310437504506">
        <ele>6.451212159357965</ele>
        <time>2026-09-18T07:52:58Z</time>
      </trkpt>
      <trkpt lat="31.30022364557822" lon="121.48309334528753">
        <ele>7.492267838679254</ele>
        <time>2026-09-18T07:53:00Z</time>
      </trkpt>
      <trkpt lat="31.300029854653054" lon="121.48313852078769">
        <ele>5.8012125408276916</ele>
        <time>2026-09-18T07:53:04Z</time>
      </trkpt>
      <trkpt lat="31.299735309831675" lon="121.48325395220924">
        <ele>7.740640870295465</ele>
        <time>2026-09-18T07:53:09Z</time>
      </trkpt>
      <trkpt lat="31.29965253998024" lon="121.48332119602588">
        <ele>4.35853027459234</ele>
        <time>2026-09-18T07:53:11Z</time>
      </trkpt>
      <trkpt lat="31.299376976183822" lon="121.48343261194567">
        <ele>5.510561219416559</ele>
        <time>2026-09-18T07:53:15Z</time>
      </trkpt>
      <trkpt lat="31.299307130604866" lon="121.48347576994777">
        <ele>7.027227631770074</ele>
        <time>2026-09-18T07:53:17Z</time>
      </trkpt>
      <trkpt lat="31.299191491924603" lon="121.48358315823388">
        <ele>6.060156098566949</ele>
        <time>2026-09-18T07:53:21Z</time>
      </trkpt>
      <trkpt lat="31.298949929827664" lon="121.48369958929361">
        <ele>5.975603333674371</ele>
        <time>2026-09-18T07:53:27Z</time>
      </trkpt>
      <trkpt lat="31.298717231596537" lon="121.48377086048063">
        <ele>5.251619569025934</ele>
        <time>2026-09-18T07:53:31Z</time>
      </trkpt>
      <trkpt lat="31.298538606479866" lon="121.48387424038737">
        <ele>4.813001862727106</ele>
        <time>2026-09-18T07:53:35Z</time>
      </trkpt>
      <trkpt lat="31.298419795346586" lon="121.48392242052157">
        <ele>7.027227631770074</ele>
        <time>2026-09-18T07:53:38Z</time>
      </trkpt>
      <trkpt lat="31.298232984674378" lon="121.48396157463264">
        <ele>6.673162690363824</ele>
        <time>2026-09-18T07:53:42Z</time>
      </trkpt>
      <trkpt lat="31.298012057669517" lon="121.48395657584592">
        <ele>6.995519868098199</ele>
        <time>2026-09-18T07:53:46Z</time>
      </trkpt>
      <trkpt lat="31.297920132590217" lon="121.48396962975905">
        <ele>6.578041306696832</ele>
        <time>2026-09-18T07:53:47Z</time>
      </trkpt>
      <trkpt lat="31.297842263953303" lon="121.48400375685085">
        <ele>5.965032807551324</ele>
        <time>2026-09-18T07:53:48Z</time>
      </trkpt>
      <trkpt lat="31.29767141458693" lon="121.48403187066471">
        <ele>5.17763542290777</ele>
        <time>2026-09-18T07:53:50Z</time>
      </trkpt>
      <trkpt lat="31.297394071526956" lon="121.48421754996315">
        <ele>7.027227631770074</ele>
        <time>2026-09-18T07:53:55Z</time>
      </trkpt>
      <trkpt lat="31.29708664918378" lon="121.48437212229707">
        <ele>5.579262009821832</ele>
        <time>2026-09-18T07:54:01Z</time>
      </trkpt>
      <trkpt lat="31.296711141897894" lon="121.48448856591256">
        <ele>9.706493607722223</ele>
        <time>2026-09-18T07:54:07Z</time>
      </trkpt>
      <trkpt lat="31.296484554744644" lon="121.48459797208847">
        <ele>5.552839509211481</ele>
        <time>2026-09-18T07:54:10Z</time>
      </trkpt>
      <trkpt lat="31.29626072101182" lon="121.48462408353049">
        <ele>7.254463425837457</ele>
        <time>2026-09-18T07:54:15Z</time>
      </trkpt>
      <trkpt lat="31.29616089995869" lon="121.48467125890743">
        <ele>8.998363724909723</ele>
        <time>2026-09-18T07:54:17Z</time>
      </trkpt>
      <trkpt lat="31.296070146357476" lon="121.48474251874609">
        <ele>7.576820603571832</ele>
        <time>2026-09-18T07:54:19Z</time>
      </trkpt>
      <trkpt lat="31.295765647013503" lon="121.48487099939231">
        <ele>8.221534959040582</ele>
        <time>2026-09-18T07:54:26Z</time>
      </trkpt>
      <trkpt lat="31.295682845967406" lon="121.48492720541675">
        <ele>10.90080093499273</ele>
        <time>2026-09-18T07:54:28Z</time>
      </trkpt>
      <trkpt lat="31.295599953163762" lon="121.48495230133469">
        <ele>5.4471475994214416</ele>
        <time>2026-09-18T07:54:30Z</time>
      </trkpt>
      <trkpt lat="31.295090807451924" lon="121.48483392573996">
        <ele>8.385355225764215</ele>
        <time>2026-09-18T07:54:40Z</time>
      </trkpt>
      <trkpt lat="31.29500076948897" lon="121.48480884465906">
        <ele>7.191047898493707</ele>
        <time>2026-09-18T07:54:42Z</time>
      </trkpt>
      <trkpt lat="31.294894569275307" lon="121.48472656257468">
        <ele>4.855278245173395</ele>
        <time>2026-09-18T07:54:44Z</time>
      </trkpt>
      <trkpt lat="31.294788286308265" lon="121.48461618119347">
        <ele>7.222755662165582</ele>
        <time>2026-09-18T07:54:45Z</time>
      </trkpt>
      <trkpt lat="31.294481188103926" lon="121.48420174267453">
        <ele>5.4154398357495666</ele>
        <time>2026-09-18T07:54:53Z</time>
      </trkpt>
      <trkpt lat="31.294325396916747" lon="121.48391173221285">
        <ele>5.674383393488824</ele>
        <time>2026-09-18T07:55:00Z</time>
      </trkpt>
      <trkpt lat="31.294169167333155" lon="121.48347219590607">
        <ele>5.632107011042535</ele>
        <time>2026-09-18T07:55:08Z</time>
      </trkpt>
      <trkpt lat="31.294102860862733" lon="121.48335880217137">
        <ele>9.183323136530817</ele>
        <time>2026-09-18T07:55:10Z</time>
      </trkpt>
      <trkpt lat="31.294086590409744" lon="121.4832644714334">
        <ele>6.609747163020074</ele>
        <time>2026-09-18T07:55:12Z</time>
      </trkpt>
      <trkpt lat="31.294103333298906" lon="121.4831791697652">
        <ele>6.30852913018316</ele>
        <time>2026-09-18T07:55:14Z</time>
      </trkpt>
      <trkpt lat="31.2940910761278" lon="121.48308985655251">
        <ele>5.53170036431402</ele>
        <time>2026-09-18T07:55:16Z</time>
      </trkpt>
      <trkpt lat="31.294034877892337" lon="121.48301459661866">
        <ele>5.996740571223199</ele>
        <time>2026-09-18T07:55:19Z</time>
      </trkpt>
      <trkpt lat="31.293961916025044" lon="121.48301761345742">
        <ele>5.869911423884332</ele>
        <time>2026-09-18T07:55:24Z</time>
      </trkpt>
      <trkpt lat="31.29377621732013" lon="121.4830949011763">
        <ele>8.977224580012262</ele>
        <time>2026-09-18T07:55:31Z</time>
      </trkpt>
      <trkpt lat="31.29347351569158" lon="121.48315513895962">
        <ele>6.974382630549371</ele>
        <time>2026-09-18T07:55:38Z</time>
      </trkpt>
      <trkpt lat="31.29329751286537" lon="121.48313006575773">
        <ele>-6.395524748601019</ele>
        <time>2026-09-18T07:55:43Z</time>
      </trkpt>
      <trkpt lat="31.29318944151338" lon="121.48309093731775">
        <ele>6.535764924250543</ele>
        <time>2026-09-18T07:55:46Z</time>
      </trkpt>
      <trkpt lat="31.29312331797583" lon="121.48303976294632">
        <ele>7.793485871516168</ele>
        <time>2026-09-18T07:55:49Z</time>
      </trkpt>
      <trkpt lat="31.293099086365885" lon="121.48295747562443">
        <ele>6.578041306696832</ele>
        <time>2026-09-18T07:55:56Z</time>
      </trkpt>
      <trkpt lat="31.29280239690521" lon="121.48268153114999">
        <ele>6.514625779353082</ele>
        <time>2026-09-18T07:56:07Z</time>
      </trkpt>
      <trkpt lat="31.292615755036273" lon="121.48243668743243">
        <ele>6.514625779353082</ele>
        <time>2026-09-18T07:56:16Z</time>
      </trkpt>
      <trkpt lat="31.2925386216438" lon="121.48238049684547">
        <ele>4.966253510676324</ele>
        <time>2026-09-18T07:56:18Z</time>
      </trkpt>
      <trkpt lat="31.292430066506974" lon="121.48217578815533">
        <ele>6.567472687922418</ele>
        <time>2026-09-18T07:56:22Z</time>
      </trkpt>
      <trkpt lat="31.292153876016656" lon="121.48173025114544">
        <ele>6.826414338313043</ele>
        <time>2026-09-18T07:56:29Z</time>
      </trkpt>
      <trkpt lat="31.291820813187357" lon="121.48131984453588">
        <ele>4.395523301325738</ele>
        <time>2026-09-18T07:56:35Z</time>
      </trkpt>
      <trkpt lat="31.291581141153856" lon="121.48105594352512">
        <ele>5.8012125408276916</ele>
        <time>2026-09-18T07:56:40Z</time>
      </trkpt>
      <trkpt lat="31.291168286173036" lon="121.48070475412253">
        <ele>4.6650335704907775</ele>
        <time>2026-09-18T07:56:49Z</time>
      </trkpt>
      <trkpt lat="31.2908887664577" lon="121.48048701965267">
        <ele>6.578041306696832</ele>
        <time>2026-09-18T07:56:55Z</time>
      </trkpt>
      <trkpt lat="31.290492207471168" lon="121.48023919125693">
        <ele>4.210563889704645</ele>
        <time>2026-09-18T07:58:21Z</time>
      </trkpt>
      <trkpt lat="31.290065670305605" lon="121.47999437685243">
        <ele>4.834139100275934</ele>
        <time>2026-09-18T07:58:33Z</time>
      </trkpt>
      <trkpt lat="31.289764272166863" lon="121.47981477901851">
        <ele>5.653244248591363</ele>
        <time>2026-09-18T07:58:42Z</time>
      </trkpt>
      <trkpt lat="31.28958716682241" lon="121.47975358178628">
        <ele>6.350805512629449</ele>
        <time>2026-09-18T07:58:46Z</time>
      </trkpt>
      <trkpt lat="31.289322887870288" lon="121.47962014151324">
        <ele>7.233324280939996</ele>
        <time>2026-09-18T07:58:52Z</time>
      </trkpt>
      <trkpt lat="31.288979623941838" lon="121.47948068744041">
        <ele>3.597555390559137</ele>
        <time>2026-09-18T07:58:58Z</time>
      </trkpt>
      <trkpt lat="31.288841445139443" lon="121.47939941767845">
        <ele>5.975603333674371</ele>
        <time>2026-09-18T07:59:00Z</time>
      </trkpt>
      <trkpt lat="31.288670349450843" lon="121.47934223424672">
        <ele>5.1142218029126525</ele>
        <time>2026-09-18T07:59:03Z</time>
      </trkpt>
      <trkpt lat="31.288587232498802" lon="121.47929006069333">
        <ele>6.546333543024957</ele>
        <time>2026-09-18T07:59:05Z</time>
      </trkpt>
      <trkpt lat="31.28838809328864" lon="121.47921381378148">
        <ele>4.7601568615064025</ele>
        <time>2026-09-18T07:59:09Z</time>
      </trkpt>
      <trkpt lat="31.287958868401656" lon="121.47907537149169">
        <ele>6.847553483210504</ele>
        <time>2026-09-18T07:59:21Z</time>
      </trkpt>
      <trkpt lat="31.287877730617197" lon="121.47901617371284">
        <ele>6.30852913018316</ele>
        <time>2026-09-18T07:59:26Z</time>
      </trkpt>
      <trkpt lat="31.287795778538047" lon="121.47902119809191">
        <ele>6.24511360283941</ele>
        <time>2026-09-18T07:59:29Z</time>
      </trkpt>
      <trkpt lat="31.28735222738873" lon="121.4787673588422">
        <ele>6.889829865656793</ele>
        <time>2026-09-18T07:59:42Z</time>
      </trkpt>
      <trkpt lat="31.286896916195957" lon="121.47859480210474">
        <ele>5.568691483698785</ele>
        <time>2026-09-18T07:59:49Z</time>
      </trkpt>
      <trkpt lat="31.28647049273546" lon="121.47838712233072">
        <ele>6.868690720759332</ele>
        <time>2026-09-18T07:59:57Z</time>
      </trkpt>
      <trkpt lat="31.28624033009271" lon="121.47829783430882">
        <ele>4.628042451106012</ele>
        <time>2026-09-18T08:00:01Z</time>
      </trkpt>
      <trkpt lat="31.286131308390633" lon="121.47827476415004">
        <ele>6.836982957087457</ele>
        <time>2026-09-18T08:00:03Z</time>
      </trkpt>
      <trkpt lat="31.285917396081157" lon="121.47827478250575">
        <ele>5.1564981853589416</ele>
        <time>2026-09-18T08:00:07Z</time>
      </trkpt>
      <trkpt lat="31.28548723214598" lon="121.4781564116254">
        <ele>6.070724717341363</ele>
        <time>2026-09-18T08:00:16Z</time>
      </trkpt>
      <trkpt lat="31.285403188784272" lon="121.47812932556347">
        <ele>4.0625955974683166</ele>
        <time>2026-09-18T08:00:17Z</time>
      </trkpt>
      <trkpt lat="31.285220188966942" lon="121.47810325146018">
        <ele>6.472349396906793</ele>
        <time>2026-09-18T08:00:20Z</time>
      </trkpt>
      <trkpt lat="31.285093125848014" lon="121.47806312422279">
        <ele>5.558122864924371</ele>
        <time>2026-09-18T08:00:22Z</time>
      </trkpt>
      <trkpt lat="31.28477728738963" lon="121.47807418931185">
        <ele>5.3731634533032775</ele>
        <time>2026-09-18T08:00:29Z</time>
      </trkpt>
      <trkpt lat="31.284536222250825" lon="121.47801701318616">
        <ele>5.748367539606988</ele>
        <time>2026-09-18T08:00:37Z</time>
      </trkpt>
      <trkpt lat="31.284391483599833" lon="121.47808726731341">
        <ele>3.391458741389215</ele>
        <time>2026-09-18T08:01:15Z</time>
      </trkpt>
      <trkpt lat="31.283922786211175" lon="121.47812543878034">
        <ele>6.652025452814996</ele>
        <time>2026-09-18T08:01:34Z</time>
      </trkpt>
      <trkpt lat="31.283420800046084" lon="121.47805825046215">
        <ele>6.149992219172418</ele>
        <time>2026-09-18T08:01:46Z</time>
      </trkpt>
      <trkpt lat="31.28319177063656" lon="121.47801512165152">
        <ele>4.781294099055231</ele>
        <time>2026-09-18T08:01:50Z</time>
      </trkpt>
      <trkpt lat="31.282770889740693" lon="121.47799609217763">
        <ele>3.1800768291577697</ele>
        <time>2026-09-18T08:01:56Z</time>
      </trkpt>
      <trkpt lat="31.28264403440363" lon="121.47802821353278">
        <ele>6.620317689143121</ele>
        <time>2026-09-18T08:02:00Z</time>
      </trkpt>
      <trkpt lat="31.282308112819777" lon="121.47800716985967">
        <ele>3.65040039177984</ele>
        <time>2026-09-18T08:02:06Z</time>
      </trkpt>
      <trkpt lat="31.28202325954912" lon="121.47801722882366">
        <ele>7.159342042170465</ele>
        <time>2026-09-18T08:02:14Z</time>
      </trkpt>
      <trkpt lat="31.281893235586267" lon="121.47799014677636">
        <ele>6.652025452814996</ele>
        <time>2026-09-18T08:02:16Z</time>
      </trkpt>
      <trkpt lat="31.28142181748973" lon="121.47777645240882">
        <ele>10.382915726862848</ele>
        <time>2026-09-18T08:02:27Z</time>
      </trkpt>
      <trkpt lat="31.281344725694645" lon="121.47773331077939">
        <ele>8.686575165949762</ele>
        <time>2026-09-18T08:02:29Z</time>
      </trkpt>
      <trkpt lat="31.281039116211772" lon="121.47747645512467">
        <ele>7.555681458674371</ele>
        <time>2026-09-18T08:02:38Z</time>
      </trkpt>
      <trkpt lat="31.280926720413767" lon="121.47732193483984">
        <ele>4.606905213557184</ele>
        <time>2026-09-18T08:02:41Z</time>
      </trkpt>
      <trkpt lat="31.28079445090476" lon="121.47720855762428">
        <ele>7.941454163752496</ele>
        <time>2026-09-18T08:02:45Z</time>
      </trkpt>
      <trkpt lat="31.280544525283567" lon="121.47684834617381">
        <ele>5.579262009821832</ele>
        <time>2026-09-18T08:02:55Z</time>
      </trkpt>
      <trkpt lat="31.280508294021782" lon="121.4767620542954">
        <ele>6.747146836481988</ele>
        <time>2026-09-18T08:03:02Z</time>
      </trkpt>
      <trkpt lat="31.280438142809526" lon="121.47669884431005">
        <ele>6.879259339533746</ele>
        <time>2026-09-18T08:03:05Z</time>
      </trkpt>
      <trkpt lat="31.2802481237387" lon="121.47631354564194">
        <ele>5.589830628596246</ele>
        <time>2026-09-18T08:03:14Z</time>
      </trkpt>
      <trkpt lat="31.279985843570596" lon="121.4758249045671">
        <ele>4.036173096857965</ele>
        <time>2026-09-18T08:03:24Z</time>
      </trkpt>
      <trkpt lat="31.279762647610514" lon="121.47537038048738">
        <ele>5.7906439220532775</ele>
        <time>2026-09-18T08:03:32Z</time>
      </trkpt>
      <trkpt lat="31.279648982249903" lon="121.4751185369375">
        <ele>1.964630356989801</ele>
        <time>2026-09-18T08:03:36Z</time>
      </trkpt>
      <trkpt lat="31.279453151073366" lon="121.4747954609549">
        <ele>5.901619187556207</ele>
        <time>2026-09-18T08:03:42Z</time>
      </trkpt>
      <trkpt lat="31.27938096314632" lon="121.47471820615027">
        <ele>5.933325043879449</ele>
        <time>2026-09-18T08:03:45Z</time>
      </trkpt>
      <trkpt lat="31.279339768064784" lon="121.47464295558082">
        <ele>4.834139100275934</ele>
        <time>2026-09-18T08:03:54Z</time>
      </trkpt>
      <trkpt lat="31.27921142562172" lon="121.4745024925852">
        <ele>5.251619569025934</ele>
        <time>2026-09-18T08:04:02Z</time>
      </trkpt>
      <trkpt lat="31.279109996048142" lon="121.47433493639649">
        <ele>4.876417390070856</ele>
        <time>2026-09-18T08:04:07Z</time>
      </trkpt>
      <trkpt lat="31.27893061077334" lon="121.47417140100514">
        <ele>1.2300779735669494</ele>
        <time>2026-09-18T08:04:12Z</time>
      </trkpt>
      <trkpt lat="31.278537087161748" lon="121.47392661136091">
        <ele>5.60039924737066</ele>
        <time>2026-09-18T08:04:19Z</time>
      </trkpt>
      <trkpt lat="31.27804965464668" lon="121.47369989167905">
        <ele>5.66381477471441</ele>
        <time>2026-09-18T08:04:29Z</time>
      </trkpt>
      <trkpt lat="31.277849499311397" lon="121.47361462273592">
        <ele>6.7260076915845275</ele>
        <time>2026-09-18T08:04:33Z</time>
      </trkpt>
      <trkpt lat="31.27751444276951" lon="121.4735444160023">
        <ele>8.041860810481012</ele>
        <time>2026-09-18T08:04:39Z</time>
      </trkpt>
      <trkpt lat="31.277401372098584" lon="121.47350228445359">
        <ele>7.428852311335504</ele>
        <time>2026-09-18T08:04:41Z</time>
      </trkpt>
      <trkpt lat="31.276967340489097" lon="121.47342606623114">
        <ele>6.1130010997876525</ele>
        <time>2026-09-18T08:04:49Z</time>
      </trkpt>
      <trkpt lat="31.276543133866824" lon="121.47328864239253">
        <ele>7.148771516047418</ele>
        <time>2026-09-18T08:04:58Z</time>
      </trkpt>
      <trkpt lat="31.27644007893081" lon="121.4732535337221">
        <ele>5.0825140392407775</ele>
        <time>2026-09-18T08:05:00Z</time>
      </trkpt>
      <trkpt lat="31.27636188460193" lon="121.47317226855289">
        <ele>3.06910156365484</ele>
        <time>2026-09-18T08:05:04Z</time>
      </trkpt>
      <trkpt lat="31.27591261657567" lon="121.47300876047565">
        <ele>5.922756425105035</ele>
        <time>2026-09-18T08:05:12Z</time>
      </trkpt>
      <trkpt lat="31.275491362631964" lon="121.47285428072325">
        <ele>5.1142218029126525</ele>
        <time>2026-09-18T08:05:20Z</time>
      </trkpt>
      <trkpt lat="31.27501607895775" lon="121.4726807425957">
        <ele>3.734953156672418</ele>
        <time>2026-09-18T08:05:29Z</time>
      </trkpt>
      <trkpt lat="31.274553776634182" lon="121.47250218732779">
        <ele>5.6955206310376525</ele>
        <time>2026-09-18T08:05:39Z</time>
      </trkpt>
      <trkpt lat="31.27415450148824" lon="121.4723426907662">
        <ele>3.5235731517896056</ele>
        <time>2026-09-18T08:05:47Z</time>
      </trkpt>
      <trkpt lat="31.274046466238488" lon="121.4723136032884">
        <ele>5.748367539606988</ele>
        <time>2026-09-18T08:05:50Z</time>
      </trkpt>
      <trkpt lat="31.273627952208027" lon="121.47206481254258">
        <ele>2.641052476130426</ele>
        <time>2026-09-18T08:05:58Z</time>
      </trkpt>
      <trkpt lat="31.273231457990583" lon="121.47182605458067">
        <ele>7.566251984797418</ele>
        <time>2026-09-18T08:06:06Z</time>
      </trkpt>
      <trkpt lat="31.272858830095135" lon="121.47154214653312">
        <ele>7.962591401301324</ele>
        <time>2026-09-18T08:06:14Z</time>
      </trkpt>
      <trkpt lat="31.272576522816486" lon="121.47138766003565">
        <ele>8.364217988215387</ele>
        <time>2026-09-18T08:06:19Z</time>
      </trkpt>
      <trkpt lat="31.272102843670776" lon="121.4710686478408">
        <ele>4.8024332439526916</ele>
        <time>2026-09-18T08:06:30Z</time>
      </trkpt>
      <trkpt lat="31.27168810311126" lon="121.47073558681574">
        <ele>4.273977509699762</ele>
        <time>2026-09-18T08:06:38Z</time>
      </trkpt>
      <trkpt lat="31.2713461937107" lon="121.47035135438769">
        <ele>4.950399628840387</ele>
        <time>2026-09-18T08:06:46Z</time>
      </trkpt>
      <trkpt lat="31.270970356667636" lon="121.46998719410765">
        <ele>6.815845719538629</ele>
        <time>2026-09-18T08:06:55Z</time>
      </trkpt>
      <trkpt lat="31.27082105288816" lon="121.46985276753315">
        <ele>5.642675629816949</ele>
        <time>2026-09-18T08:06:59Z</time>
      </trkpt>
      <trkpt lat="31.270651492748673" lon="121.46962102567049">
        <ele>7.492267838679254</ele>
        <time>2026-09-18T08:07:06Z</time>
      </trkpt>
      <trkpt lat="31.27056810732942" lon="121.46946652929138">
        <ele>6.149992219172418</ele>
        <time>2026-09-18T08:08:18Z</time>
      </trkpt>
      <trkpt lat="31.27038839529364" lon="121.46917660140146">
        <ele>7.899177781306207</ele>
        <time>2026-09-18T08:08:28Z</time>
      </trkpt>
      <trkpt lat="31.2700303805307" lon="121.46874623582397">
        <ele>9.362997285090387</ele>
        <time>2026-09-18T08:08:40Z</time>
      </trkpt>
      <trkpt lat="31.269690324280234" lon="121.4683018281557">
        <ele>8.332510224543512</ele>
        <time>2026-09-18T08:08:50Z</time>
      </trkpt>
      <trkpt lat="31.269376347599678" lon="121.4678895266692">
        <ele>7.59795784112066</ele>
        <time>2026-09-18T08:08:57Z</time>
      </trkpt>
      <trkpt lat="31.269080455756153" lon="121.4675103342811">
        <ele>8.158121339045465</ele>
        <time>2026-09-18T08:09:06Z</time>
      </trkpt>
      <trkpt lat="31.268961001571125" lon="121.46732174029172">
        <ele>6.514625779353082</ele>
        <time>2026-09-18T08:09:10Z</time>
      </trkpt>
      <trkpt lat="31.268607409777296" lon="121.4670438821563">
        <ele>4.844709626398981</ele>
        <time>2026-09-18T08:09:20Z</time>
      </trkpt>
      <trkpt lat="31.268528339132047" lon="121.46700476402746">
        <ele>5.4471475994214416</ele>
        <time>2026-09-18T08:09:24Z</time>
      </trkpt>
      <trkpt lat="31.26833907749222" lon="121.46687637056563">
        <ele>6.329666367731988</ele>
        <time>2026-09-18T08:09:55Z</time>
      </trkpt>
      <trkpt lat="31.268136621553943" lon="121.46667273907188">
        <ele>5.299181214533746</ele>
        <time>2026-09-18T08:12:12Z</time>
      </trkpt>
      <trkpt lat="31.26798445179303" lon="121.46658447122472">
        <ele>4.363815537653863</ele>
        <time>2026-09-18T08:12:16Z</time>
      </trkpt>
      <trkpt lat="31.267802137864347" lon="121.46643701808748">
        <ele>5.1142218029126525</ele>
        <time>2026-09-18T08:12:20Z</time>
      </trkpt>
      <trkpt lat="31.267428244551052" lon="121.46603979030515">
        <ele>5.780073395930231</ele>
        <time>2026-09-18T08:12:30Z</time>
      </trkpt>
      <trkpt lat="31.267239762861273" lon="121.46582713382107">
        <ele>7.117063752375543</ele>
        <time>2026-09-18T08:12:35Z</time>
      </trkpt>
      <trkpt lat="31.267174536461745" lon="121.46573083523144">
        <ele>4.6650335704907775</ele>
        <time>2026-09-18T08:12:38Z</time>
      </trkpt>
      <trkpt lat="31.266831673557316" lon="121.46534765688679">
        <ele>6.752430192194879</ele>
        <time>2026-09-18T08:12:46Z</time>
      </trkpt>
      <trkpt lat="31.266744470899194" lon="121.4652563772774">
        <ele>4.997961274348199</ele>
        <time>2026-09-18T08:12:48Z</time>
      </trkpt>
      <trkpt lat="31.26646649784967" lon="121.46484009486441">
        <ele>7.804056397639215</ele>
        <time>2026-09-18T08:12:56Z</time>
      </trkpt>
      <trkpt lat="31.266329971213043" lon="121.46461640673157">
        <ele>7.545112839899957</ele>
        <time>2026-09-18T08:13:00Z</time>
      </trkpt>
      <trkpt lat="31.26614060986269" lon="121.464446893612">
        <ele>7.106495133601129</ele>
        <time>2026-09-18T08:13:04Z</time>
      </trkpt>
      <trkpt lat="31.265959138708826" lon="121.46423625254542">
        <ele>7.677227250300348</ele>
        <time>2026-09-18T08:13:08Z</time>
      </trkpt>
      <trkpt lat="31.265895891721367" lon="121.46413093013376">
        <ele>5.684952012263238</ele>
        <time>2026-09-18T08:13:11Z</time>
      </trkpt>
      <trkpt lat="31.265874668648063" lon="121.46404165431652">
        <ele>3.4812948619946837</ele>
        <time>2026-09-18T08:13:13Z</time>
      </trkpt>
      <trkpt lat="31.265607576216592" lon="121.4635762336874">
        <ele>6.535764924250543</ele>
        <time>2026-09-18T08:13:23Z</time>
      </trkpt>
      <trkpt lat="31.265390441891117" lon="121.46310078436844">
        <ele>6.826414338313043</ele>
        <time>2026-09-18T08:13:31Z</time>
      </trkpt>
      <trkpt lat="31.26517319507918" lon="121.46257920051636">
        <ele>6.0812933361157775</ele>
        <time>2026-09-18T08:13:40Z</time>
      </trkpt>
      <trkpt lat="31.264974967548422" lon="121.4620656478866">
        <ele>4.564628831110895</ele>
        <time>2026-09-18T08:13:50Z</time>
      </trkpt>
      <trkpt lat="31.2648431027729" lon="121.46170355743295">
        <ele>6.30852913018316</ele>
        <time>2026-09-18T08:14:11Z</time>
      </trkpt>
      <trkpt lat="31.26483785542983" lon="121.46160525948584">
        <ele>6.451212159357965</ele>
        <time>2026-09-18T08:15:08Z</time>
      </trkpt>
      <trkpt lat="31.26475143237567" lon="121.461423716622">
        <ele>6.424789658747613</ele>
        <time>2026-09-18T08:15:14Z</time>
      </trkpt>
      <trkpt lat="31.264648073309132" lon="121.46126424297438">
        <ele>7.148771516047418</ele>
        <time>2026-09-18T08:15:18Z</time>
      </trkpt>
      <trkpt lat="31.26444892456886" lon="121.46077478415461">
        <ele>6.4459268962964416</ele>
        <time>2026-09-18T08:15:31Z</time>
      </trkpt>
      <trkpt lat="31.264230637490428" lon="121.46022415173728">
        <ele>6.102430573664606</ele>
        <time>2026-09-18T08:15:42Z</time>
      </trkpt>
      <trkpt lat="31.26404746575052" lon="121.45972267229594">
        <ele>3.121946564875543</ele>
        <time>2026-09-18T08:15:51Z</time>
      </trkpt>
      <trkpt lat="31.263918823879063" lon="121.45944184968938">
        <ele>6.620317689143121</ele>
        <time>2026-09-18T08:16:02Z</time>
      </trkpt>
      <trkpt lat="31.26380094663128" lon="121.45906675036349">
        <ele>6.493488541804254</ele>
        <time>2026-09-18T08:16:10Z</time>
      </trkpt>
      <trkpt lat="31.26356466144254" lon="121.45850311244509">
        <ele>4.7390177166089416</ele>
        <time>2026-09-18T08:16:20Z</time>
      </trkpt>
      <trkpt lat="31.26338742087824" lon="121.45796455328988">
        <ele>7.856901398859918</ele>
        <time>2026-09-18T08:16:27Z</time>
      </trkpt>
      <trkpt lat="31.26333080327488" lon="121.4577007907072">
        <ele>8.136982194148004</ele>
        <time>2026-09-18T08:16:31Z</time>
      </trkpt>
      <trkpt lat="31.26331848951933" lon="121.45756941039008">
        <ele>6.4459268962964416</ele>
        <time>2026-09-18T08:16:33Z</time>
      </trkpt>
      <trkpt lat="31.263140046492676" lon="121.45694060874474">
        <ele>7.471128693781793</ele>
        <time>2026-09-18T08:16:44Z</time>
      </trkpt>
      <trkpt lat="31.263015617876967" lon="121.45674004280919">
        <ele>5.965032807551324</ele>
        <time>2026-09-18T08:16:48Z</time>
      </trkpt>
      <trkpt lat="31.262901010819633" lon="121.45646626782741">
        <ele>4.781294099055231</ele>
        <time>2026-09-18T08:16:53Z</time>
      </trkpt>
      <trkpt lat="31.26272525547693" lon="121.4561182892229">
        <ele>7.159342042170465</ele>
        <time>2026-09-18T08:16:58Z</time>
      </trkpt>
      <trkpt lat="31.262581000351762" lon="121.45556372687975">
        <ele>5.0613748943433166</ele>
        <time>2026-09-18T08:17:06Z</time>
      </trkpt>
      <trkpt lat="31.262507363913965" lon="121.45528093444975">
        <ele>5.145927659235895</ele>
        <time>2026-09-18T08:17:10Z</time>
      </trkpt>
      <trkpt lat="31.262312544561482" lon="121.45489687106625">
        <ele>6.77356933709234</ele>
        <time>2026-09-18T08:17:15Z</time>
      </trkpt>
      <trkpt lat="31.262168424571215" lon="121.45439147026535">
        <ele>6.995519868098199</ele>
        <time>2026-09-18T08:17:24Z</time>
      </trkpt>
      <trkpt lat="31.262045740418344" lon="121.45407459959544">
        <ele>7.407715073786676</ele>
        <time>2026-09-18T08:17:30Z</time>
      </trkpt>
      <trkpt lat="31.26196551080677" lon="121.45352809539206">
        <ele>4.976822129450738</ele>
        <time>2026-09-18T08:17:39Z</time>
      </trkpt>
      <trkpt lat="31.261935995118705" lon="121.45329846633027">
        <ele>5.1142218029126525</ele>
        <time>2026-09-18T08:17:43Z</time>
      </trkpt>
      <trkpt lat="31.261861530478985" lon="121.45308187883805">
        <ele>6.630886307917535</ele>
        <time>2026-09-18T08:17:48Z</time>
      </trkpt>
      <trkpt lat="31.261737031813357" lon="121.45284022903238">
        <ele>6.297960511408746</ele>
        <time>2026-09-18T08:17:52Z</time>
      </trkpt>
      <trkpt lat="31.261714748676084" lon="121.4527118810164">
        <ele>6.7260076915845275</ele>
        <time>2026-09-18T08:17:54Z</time>
      </trkpt>
      <trkpt lat="31.261728445870425" lon="121.45258152506146">
        <ele>6.932106248103082</ele>
        <time>2026-09-18T08:17:56Z</time>
      </trkpt>
      <trkpt lat="31.26171978710472" lon="121.45228973402966">
        <ele>6.0812933361157775</ele>
        <time>2026-09-18T08:18:04Z</time>
      </trkpt>
      <trkpt lat="31.261683487375343" lon="121.45215036012061">
        <ele>4.4166605388745666</ele>
        <time>2026-09-18T08:18:08Z</time>
      </trkpt>
      <trkpt lat="31.261675983522107" lon="121.45192575472319">
        <ele>6.6942999279126525</ele>
        <time>2026-09-18T08:18:12Z</time>
      </trkpt>
      <trkpt lat="31.261579847642164" lon="121.45140135564257">
        <ele>2.508939973078668</ele>
        <time>2026-09-18T08:18:21Z</time>
      </trkpt>
      <trkpt lat="31.261467725474795" lon="121.45087596601783">
        <ele>5.53170036431402</ele>
        <time>2026-09-18T08:18:32Z</time>
      </trkpt>
      <trkpt lat="31.261415130824343" lon="121.450597232584">
        <ele>6.171131364069879</ele>
        <time>2026-09-18T08:20:11Z</time>
      </trkpt>
      <trkpt lat="31.261395458229718" lon="121.45028842024851">
        <ele>6.234544984064996</ele>
        <time>2026-09-18T08:20:18Z</time>
      </trkpt>
      <trkpt lat="31.261248353153096" lon="121.44975503586274">
        <ele>6.6942999279126525</ele>
        <time>2026-09-18T08:20:29Z</time>
      </trkpt>
      <trkpt lat="31.261230908446112" lon="121.44954749683195">
        <ele>9.183323136530817</ele>
        <time>2026-09-18T08:20:33Z</time>
      </trkpt>
      <trkpt lat="31.261103974594494" lon="121.44909132577982">
        <ele>8.136982194148004</ele>
        <time>2026-09-18T08:20:41Z</time>
      </trkpt>
      <trkpt lat="31.261034253221812" lon="121.44874243343557">
        <ele>8.718282929621637</ele>
        <time>2026-09-18T08:20:48Z</time>
      </trkpt>
      <trkpt lat="31.261004074772522" lon="121.44865320708644">
        <ele>8.073568574152887</ele>
        <time>2026-09-18T08:20:51Z</time>
      </trkpt>
      <trkpt lat="31.26091999107105" lon="121.44812887546334">
        <ele>5.267473450861871</ele>
        <time>2026-09-18T08:21:00Z</time>
      </trkpt>
      <trkpt lat="31.26077893319452" lon="121.44760054997509">
        <ele>6.836982957087457</ele>
        <time>2026-09-18T08:21:07Z</time>
      </trkpt>
      <trkpt lat="31.260651786778684" lon="121.44702812465661">
        <ele>6.900398484431207</ele>
        <time>2026-09-18T08:21:14Z</time>
      </trkpt>
      <trkpt lat="31.260565721127204" lon="121.44649781364711">
        <ele>5.933325043879449</ele>
        <time>2026-09-18T08:21:22Z</time>
      </trkpt>
      <trkpt lat="31.26054849634544" lon="121.4463855375098">
        <ele>6.223976365290582</ele>
        <time>2026-09-18T08:21:24Z</time>
      </trkpt>
      <trkpt lat="31.260546019747405" lon="121.44615396679097">
        <ele>7.037796250544488</ele>
        <time>2026-09-18T08:21:28Z</time>
      </trkpt>
      <trkpt lat="31.260458958684403" lon="121.44561766077562">
        <ele>6.95324348565191</ele>
        <time>2026-09-18T08:21:40Z</time>
      </trkpt>
      <trkpt lat="31.260435607528393" lon="121.44544023091461">
        <ele>6.4353582775220275</ele>
        <time>2026-09-18T08:22:36Z</time>
      </trkpt>
      <trkpt lat="31.26025867609222" lon="121.44494204076842">
        <ele>8.83454345818609</ele>
        <time>2026-09-18T08:22:49Z</time>
      </trkpt>
      <trkpt lat="31.260143710615452" lon="121.44443583678404">
        <ele>7.106495133601129</ele>
        <time>2026-09-18T08:23:01Z</time>
      </trkpt>
      <trkpt lat="31.260077096953548" lon="121.44411307430589">
        <ele>6.974382630549371</ele>
        <time>2026-09-18T08:23:06Z</time>
      </trkpt>
      <trkpt lat="31.259998527927717" lon="121.44380835997038">
        <ele>6.171131364069879</ele>
        <time>2026-09-18T08:23:10Z</time>
      </trkpt>
      <trkpt lat="31.259885523784686" lon="121.4432721105002">
        <ele>6.826414338313043</ele>
        <time>2026-09-18T08:23:16Z</time>
      </trkpt>
      <trkpt lat="31.259773411658024" lon="121.4426747322659">
        <ele>5.4154398357495666</ele>
        <time>2026-09-18T08:23:25Z</time>
      </trkpt>
      <trkpt lat="31.25969928666803" lon="121.4420723550991">
        <ele>4.749586335383356</ele>
        <time>2026-09-18T08:23:36Z</time>
      </trkpt>
      <trkpt lat="31.25963900906147" lon="121.44191299699158">
        <ele>2.5512144481763244</ele>
        <time>2026-09-18T08:23:39Z</time>
      </trkpt>
      <trkpt lat="31.259607381878624" lon="121.4415752333943">
        <ele>6.070724717341363</ele>
        <time>2026-09-18T08:23:47Z</time>
      </trkpt>
      <trkpt lat="31.259440483504992" lon="121.4410590866678">
        <ele>7.513405076228082</ele>
        <time>2026-09-18T08:24:02Z</time>
      </trkpt>
      <trkpt lat="31.25942006566137" lon="121.44083057818595">
        <ele>5.7272283947095275</ele>
        <time>2026-09-18T08:24:06Z</time>
      </trkpt>
      <trkpt lat="31.259323588278022" lon="121.4405509653908">
        <ele>2.5512144481763244</ele>
        <time>2026-09-18T08:24:12Z</time>
      </trkpt>
      <trkpt lat="31.25917959725157" lon="121.43997871768953">
        <ele>8.707714310847223</ele>
        <time>2026-09-18T08:24:24Z</time>
      </trkpt>
      <trkpt lat="31.25908003920663" lon="121.43964900701971">
        <ele>9.082916489802301</ele>
        <time>2026-09-18T08:24:30Z</time>
      </trkpt>
      <trkpt lat="31.25886515848457" lon="121.43910986017123">
        <ele>8.913810960017145</ele>
        <time>2026-09-18T08:24:40Z</time>
      </trkpt>
      <trkpt lat="31.258687354792368" lon="121.43861682149816">
        <ele>10.953645936213434</ele>
        <time>2026-09-18T08:24:50Z</time>
      </trkpt>
      <trkpt lat="31.25849657686275" lon="121.43812980787976">
        <ele>9.965435258112848</ele>
        <time>2026-09-18T08:24:59Z</time>
      </trkpt>
      <trkpt lat="31.258306788653293" lon="121.43763178229626">
        <ele>13.83900951500982</ele>
        <time>2026-09-18T08:25:09Z</time>
      </trkpt>
      <trkpt lat="31.25808291151243" lon="121.43706763533508">
        <ele>14.747951737605035</ele>
        <time>2026-09-18T08:25:21Z</time>
      </trkpt>
      <trkpt lat="31.257870139040858" lon="121.43656061829583">
        <ele>15.641040078364313</ele>
        <time>2026-09-18T08:25:32Z</time>
      </trkpt>
      <trkpt lat="31.257655293786076" lon="121.43600351315061">
        <ele>13.490228882990777</ele>
        <time>2026-09-18T08:25:42Z</time>
      </trkpt>
      <trkpt lat="31.25742843812203" lon="121.43542939014777">
        <ele>11.70933651085943</ele>
        <time>2026-09-18T08:25:51Z</time>
      </trkpt>
      <trkpt lat="31.257216616930084" lon="121.43487231481839">
        <ele>11.741044274531305</ele>
        <time>2026-09-18T08:25:59Z</time>
      </trkpt>
      <trkpt lat="31.257001790336552" lon="121.43430323155613">
        <ele>12.169092408381402</ele>
        <time>2026-09-18T08:26:08Z</time>
      </trkpt>
      <trkpt lat="31.25680201319577" lon="121.43376121391903">
        <ele>11.312996140681207</ele>
        <time>2026-09-18T08:26:16Z</time>
      </trkpt>
      <trkpt lat="31.256600263052267" lon="121.43322822758181">
        <ele>10.139826050959527</ele>
        <time>2026-09-18T08:26:24Z</time>
      </trkpt>
      <trkpt lat="31.256381454969738" lon="121.43264516424829">
        <ele>5.880480042658746</ele>
        <time>2026-09-18T08:26:32Z</time>
      </trkpt>
      <trkpt lat="31.25614973951793" lon="121.43211020595695">
        <ele>-5.586988219060004</ele>
        <time>2026-09-18T08:26:41Z</time>
      </trkpt>
      <trkpt lat="31.256105635972105" lon="121.43202906260593">
        <ele>9.505680314265192</ele>
        <time>2026-09-18T08:26:44Z</time>
      </trkpt>
      <trkpt lat="31.256045414374366" lon="121.43186477082752">
        <ele>6.673162690363824</ele>
        <time>2026-09-18T08:27:42Z</time>
      </trkpt>
      <trkpt lat="31.255980337454528" lon="121.43179465011903">
        <ele>6.715439072810113</ele>
        <time>2026-09-18T08:29:18Z</time>
      </trkpt>
      <trkpt lat="31.255882123685424" lon="121.43162335097881">
        <ele>8.010153046809137</ele>
        <time>2026-09-18T08:29:23Z</time>
      </trkpt>
      <trkpt lat="31.25557571412016" lon="121.43125772573559">
        <ele>6.556902161799371</ele>
        <time>2026-09-18T08:29:31Z</time>
      </trkpt>
      <trkpt lat="31.25521537071897" lon="121.43091715579475">
        <ele>7.793485871516168</ele>
        <time>2026-09-18T08:29:38Z</time>
      </trkpt>
      <trkpt lat="31.255058256578923" lon="121.43079194984931">
        <ele>8.956087342463434</ele>
        <time>2026-09-18T08:29:42Z</time>
      </trkpt>
      <trkpt lat="31.25481419314493" lon="121.43067476623301">
        <ele>8.533323518000543</ele>
        <time>2026-09-18T08:29:47Z</time>
      </trkpt>
      <trkpt lat="31.25473311664485" lon="121.43059763884149">
        <ele>7.576820603571832</ele>
        <time>2026-09-18T08:29:49Z</time>
      </trkpt>
      <trkpt lat="31.25462208414496" lon="121.43054155091072">
        <ele>3.724384537898004</ele>
        <time>2026-09-18T08:29:51Z</time>
      </trkpt>
      <trkpt lat="31.25431375279672" lon="121.43021801789664">
        <ele>7.06421875115484</ele>
        <time>2026-09-18T08:29:58Z</time>
      </trkpt>
      <trkpt lat="31.25428056763762" lon="121.43007878146577">
        <ele>6.297960511408746</ele>
        <time>2026-09-18T08:30:00Z</time>
      </trkpt>
      <trkpt lat="31.254101434907188" lon="121.42993054330707">
        <ele>4.855278245173395</ele>
        <time>2026-09-18T08:30:04Z</time>
      </trkpt>
      <trkpt lat="31.25378812696086" lon="121.42961603585607">
        <ele>6.715439072810113</ele>
        <time>2026-09-18T08:30:10Z</time>
      </trkpt>
      <trkpt lat="31.253357814815697" lon="121.42925847138703">
        <ele>5.457716218195856</ele>
        <time>2026-09-18T08:30:21Z</time>
      </trkpt>
      <trkpt lat="31.253063560306526" lon="121.42898203604842">
        <ele>2.8682882701978087</ele>
        <time>2026-09-18T08:30:29Z</time>
      </trkpt>
      <trkpt lat="31.252931488492504" lon="121.4288878914318">
        <ele>3.877636185847223</ele>
        <time>2026-09-18T08:30:33Z</time>
      </trkpt>
      <trkpt lat="31.252594123257673" lon="121.42851330409034">
        <ele>5.3414556896314025</ele>
        <time>2026-09-18T08:31:46Z</time>
      </trkpt>
      <trkpt lat="31.252519958181438" lon="121.42836807335182">
        <ele>4.997961274348199</ele>
        <time>2026-09-18T08:31:52Z</time>
      </trkpt>
      <trkpt lat="31.252367778462393" lon="121.42818579038786">
        <ele>3.7930834209546447</ele>
        <time>2026-09-18T08:31:56Z</time>
      </trkpt>
      <trkpt lat="31.2522076656863" lon="121.42804958407889">
        <ele>6.276821366511285</ele>
        <time>2026-09-18T08:32:00Z</time>
      </trkpt>
      <trkpt lat="31.251859139510486" lon="121.42753979845017">
        <ele>5.7695047771558166</ele>
        <time>2026-09-18T08:32:13Z</time>
      </trkpt>
      <trkpt lat="31.25155984744937" lon="121.42721731512567">
        <ele>5.684952012263238</ele>
        <time>2026-09-18T08:32:23Z</time>
      </trkpt>
      <trkpt lat="31.2513116243618" lon="121.42696193709854">
        <ele>5.103651276789606</ele>
        <time>2026-09-18T08:32:29Z</time>
      </trkpt>
      <trkpt lat="31.251111389247434" lon="121.4267115659549">
        <ele>6.329666367731988</ele>
        <time>2026-09-18T08:32:35Z</time>
      </trkpt>
      <trkpt lat="31.250741018074272" lon="121.42629295564848">
        <ele>2.757313004694879</ele>
        <time>2026-09-18T08:32:46Z</time>
      </trkpt>
      <trkpt lat="31.250487764685353" lon="121.42600353868431">
        <ele>5.499992600642145</ele>
        <time>2026-09-18T08:32:56Z</time>
      </trkpt>
      <trkpt lat="31.25041574007412" lon="121.42595847698345">
        <ele>6.0178778087720275</ele>
        <time>2026-09-18T08:33:00Z</time>
      </trkpt>
      <trkpt lat="31.250039815786106" lon="121.4258853996768">
        <ele>4.210563889704645</ele>
        <time>2026-09-18T08:33:08Z</time>
      </trkpt>
      <trkpt lat="31.249850769721427" lon="121.42578125983567">
        <ele>2.371540299616754</ele>
        <time>2026-09-18T08:33:12Z</time>
      </trkpt>
      <trkpt lat="31.249510454203385" lon="121.42540472901358">
        <ele>4.554058304987848</ele>
        <time>2026-09-18T08:33:22Z</time>
      </trkpt>
      <trkpt lat="31.249194118391532" lon="121.42501518439364">
        <ele>2.8524343883618712</ele>
        <time>2026-09-18T08:33:32Z</time>
      </trkpt>
      <trkpt lat="31.249136040970072" lon="121.42493006546694">
        <ele>4.363815537653863</ele>
        <time>2026-09-18T08:33:35Z</time>
      </trkpt>
      <trkpt lat="31.24885084695663" lon="121.4246637047193">
        <ele>7.619096986018121</ele>
        <time>2026-09-18T08:33:53Z</time>
      </trkpt>
      <trkpt lat="31.248758727378114" lon="121.424529519885">
        <ele>5.4154398357495666</ele>
        <time>2026-09-18T08:33:57Z</time>
      </trkpt>
      <trkpt lat="31.248526291319614" lon="121.42407389221444">
        <ele>6.007309189997613</ele>
        <time>2026-09-18T08:34:09Z</time>
      </trkpt>
      <trkpt lat="31.248269812708404" lon="121.42356420246739">
        <ele>2.789020768366754</ele>
        <time>2026-09-18T08:34:18Z</time>
      </trkpt>
      <trkpt lat="31.248102277409853" lon="121.42302948447264">
        <ele>3.412595978938043</ele>
        <time>2026-09-18T08:34:28Z</time>
      </trkpt>
      <trkpt lat="31.248081172838173" lon="121.42292834941973">
        <ele>2.371540299616754</ele>
        <time>2026-09-18T08:34:30Z</time>
      </trkpt>
      <trkpt lat="31.247921024543786" lon="121.42273209923937">
        <ele>4.554058304987848</ele>
        <time>2026-09-18T08:34:31Z</time>
      </trkpt>
      <trkpt lat="31.24785585207787" lon="121.4225508627781">
        <ele>4.834139100275934</ele>
        <time>2026-09-18T08:34:36Z</time>
      </trkpt>
      <trkpt lat="31.24783974628994" lon="121.42244872848028">
        <ele>4.00446533318609</ele>
        <time>2026-09-18T08:34:40Z</time>
      </trkpt>
      <trkpt lat="31.2478237335667" lon="121.42243070598464">
        <ele>4.7601568615064025</ele>
        <time>2026-09-18T08:34:59Z</time>
      </trkpt>
    </trkseg>
  </trk>
</gpx>