<?xml version="1.0" encoding="UTF-8"?>
<gpx xmlns="http://www.topografix.com/GPX/1/1" xmlns:gpxtpx="http://www.garmin.com/xmlschemas/TrackPointExtension/v1" xmlns:xsi="http://www.w3.org/2001/XMLSchema-instance" xsi:schemaLocation="http://www.topografix.com/GPX/1/1 http://www.topografix.com/GPX/1/1/gpx.xsd" version="1.1" creator="gpx.py -- https://github.com/tkrajina/gpxpy">
  <trk>
    <name>gpx from keep</name>
    <type>Run</type>
    <trkseg>
      <trkpt lat="31.22968149363196" lon="121.40000488223599">
        <ele>15.868753703311086</ele>
        <time>2026-06-08T09:23:26Z</time>
      </trkpt>
      <trkpt lat="31.22974348146432" lon="121.40016489928244">
        <ele>19.478102000430226</ele>
        <time>2026-06-08T09:23:32Z</time>
      </trkpt>
      <trkpt lat="31.229834451975467" lon="121.40028090846772">
        <ele>16.222818644717336</ele>
        <time>2026-06-08T09:23:35Z</time>
      </trkpt>
      <trkpt lat="31.229940412151656" lon="121.4003629117544">
        <ele>18.52952411957085</ele>
        <time>2026-06-08T09:23:38Z</time>
      </trkpt>
      <trkpt lat="31.230055361700266" lon="121.40038790561802">
        <ele>20.910211833193898</ele>
        <time>2026-06-08T09:23:41Z</time>
      </trkpt>
      <trkpt lat="31.23039619438467" lon="121.40030886370731">
        <ele>3.862261088564992</ele>
        <time>2026-06-08T09:23:50Z</time>
      </trkpt>
      <trkpt lat="31.230766010722775" lon="121.40019981518122">
        <ele>20.02240970917046</ele>
        <time>2026-06-08T09:23:59Z</time>
      </trkpt>
      <trkpt lat="31.230956914710088" lon="121.40012978841112">
        <ele>6.520389826968312</ele>
        <time>2026-06-08T09:24:05Z</time>
      </trkpt>
      <trkpt lat="31.23109384099186" lon="121.40003076259744">
        <ele>20.712042124941945</ele>
        <time>2026-06-08T09:24:11Z</time>
      </trkpt>
      <trkpt lat="31.231205772704833" lon="121.39986273047569">
        <ele>7.886444361880422</ele>
        <time>2026-06-08T09:24:17Z</time>
      </trkpt>
      <trkpt lat="31.231228753321243" lon="121.39976771648432">
        <ele>22.10980442352593</ele>
        <time>2026-06-08T09:24:20Z</time>
      </trkpt>
      <trkpt lat="31.231234739069848" lon="121.39963570009338">
        <ele>21.607775004580617</ele>
        <time>2026-06-08T09:24:23Z</time>
      </trkpt>
      <trkpt lat="31.231202744755" lon="121.39952369013687">
        <ele>3.624456675723195</ele>
        <time>2026-06-08T09:24:26Z</time>
      </trkpt>
      <trkpt lat="31.23107479201759" lon="121.39936468433147">
        <ele>20.722612651064992</ele>
        <time>2026-06-08T09:24:32Z</time>
      </trkpt>
      <trkpt lat="31.230992826590526" lon="121.39931668661974">
        <ele>23.563055308535695</ele>
        <time>2026-06-08T09:24:35Z</time>
      </trkpt>
      <trkpt lat="31.230852891516022" lon="121.39931769892625">
        <ele>22.862852366641164</ele>
        <time>2026-06-08T09:24:38Z</time>
      </trkpt>
      <trkpt lat="31.23058302048573" lon="121.39937172794734">
        <ele>-60.79153606109321</ele>
        <time>2026-06-08T09:24:44Z</time>
      </trkpt>
      <trkpt lat="31.230310151041817" lon="121.39942575738263">
        <ele>8.742544444277883</ele>
        <time>2026-06-08T09:24:53Z</time>
      </trkpt>
      <trkpt lat="31.230047276231794" lon="121.39946778479971">
        <ele>12.412664683535695</ele>
        <time>2026-06-08T09:25:02Z</time>
      </trkpt>
      <trkpt lat="31.229965316447938" lon="121.39949579499168">
        <ele>21.179727824404836</ele>
        <time>2026-06-08T09:25:05Z</time>
      </trkpt>
      <trkpt lat="31.22982339185144" lon="121.39961382064674">
        <ele>20.355337413027883</ele>
        <time>2026-06-08T09:25:11Z</time>
      </trkpt>
      <trkpt lat="31.229756432271085" lon="121.39972283939943">
        <ele>21.023836405947804</ele>
        <time>2026-06-08T09:25:14Z</time>
      </trkpt>
      <trkpt lat="31.229713463751505" lon="121.39984985897837">
        <ele>18.93643787689507</ele>
        <time>2026-06-08T09:25:17Z</time>
      </trkpt>
      <trkpt lat="31.229709477540403" lon="121.39997387560031">
        <ele>13.509207041934133</ele>
        <time>2026-06-08T09:25:20Z</time>
      </trkpt>
      <trkpt lat="31.229770470004507" lon="121.40017489837638">
        <ele>20.889078410342336</ele>
        <time>2026-06-08T09:25:26Z</time>
      </trkpt>
      <trkpt lat="31.22988343411067" lon="121.40032391072127">
        <ele>19.78196552582085</ele>
        <time>2026-06-08T09:25:32Z</time>
      </trkpt>
      <trkpt lat="31.229951408093864" lon="121.40037191219196">
        <ele>20.323633464053273</ele>
        <time>2026-06-08T09:25:35Z</time>
      </trkpt>
      <trkpt lat="31.230186299047148" lon="121.40037189170326">
        <ele>20.99212864227593</ele>
        <time>2026-06-08T09:25:44Z</time>
      </trkpt>
      <trkpt lat="31.230276255205904" lon="121.40035388106755">
        <ele>20.096395762637258</ele>
        <time>2026-06-08T09:25:47Z</time>
      </trkpt>
      <trkpt lat="31.230334224850107" lon="121.40032387140033">
        <ele>8.576082499697804</ele>
        <time>2026-06-08T09:25:50Z</time>
      </trkpt>
      <trkpt lat="31.230638076217783" lon="121.40025583462044">
        <ele>22.672613414004445</ele>
        <time>2026-06-08T09:26:02Z</time>
      </trkpt>
      <trkpt lat="31.230957917014774" lon="121.40015579205165">
        <ele>2.8529169876128435</ele>
        <time>2026-06-08T09:26:11Z</time>
      </trkpt>
      <trkpt lat="31.231027880766863" lon="121.40011978079642">
        <ele>16.389286311343312</ele>
        <time>2026-06-08T09:26:14Z</time>
      </trkpt>
      <trkpt lat="31.231187783213805" lon="121.39988573501823">
        <ele>19.906152995303273</ele>
        <time>2026-06-08T09:26:23Z</time>
      </trkpt>
      <trkpt lat="31.231217760310503" lon="121.39978872005214">
        <ele>15.617742808535695</ele>
        <time>2026-06-08T09:26:26Z</time>
      </trkpt>
      <trkpt lat="31.231218746729706" lon="121.39963870183891">
        <ele>0.3189757186919451</ele>
        <time>2026-06-08T09:26:29Z</time>
      </trkpt>
      <trkpt lat="31.231180754941228" lon="121.39952369205504">
        <ele>18.289081843569875</ele>
        <time>2026-06-08T09:26:32Z</time>
      </trkpt>
      <trkpt lat="31.231073793638558" lon="121.39938068606592">
        <ele>4.102712901309133</ele>
        <time>2026-06-08T09:26:38Z</time>
      </trkpt>
      <trkpt lat="31.230927853803433" lon="121.39927468813248">
        <ele>1.3732436019927263</ele>
        <time>2026-06-08T09:26:44Z</time>
      </trkpt>
      <trkpt lat="31.23084189142519" lon="121.39924169243127">
        <ele>3.8622649032622576</ele>
        <time>2026-06-08T09:26:47Z</time>
      </trkpt>
      <trkpt lat="31.23075593120815" lon="121.39924069983344">
        <ele>19.155748637393117</ele>
        <time>2026-06-08T09:26:50Z</time>
      </trkpt>
      <trkpt lat="31.230454077505847" lon="121.39933273522128">
        <ele>20.07525852508843</ele>
        <time>2026-06-08T09:26:59Z</time>
      </trkpt>
      <trkpt lat="31.230144227301736" lon="121.39941577080094">
        <ele>19.958997996523976</ele>
        <time>2026-06-08T09:27:11Z</time>
      </trkpt>
      <trkpt lat="31.22993832936913" lon="121.39950079789337">
        <ele>19.855947764590383</ele>
        <time>2026-06-08T09:27:20Z</time>
      </trkpt>
      <trkpt lat="31.229815393831657" lon="121.39959281892835">
        <ele>15.617742808535695</ele>
        <time>2026-06-08T09:27:26Z</time>
      </trkpt>
      <trkpt lat="31.22976242352885" lon="121.3996538306307">
        <ele>9.627706797793508</ele>
        <time>2026-06-08T09:27:29Z</time>
      </trkpt>
      <trkpt lat="31.229730445754754" lon="121.39973884361396">
        <ele>17.41184643097222</ele>
        <time>2026-06-08T09:27:32Z</time>
      </trkpt>
      <trkpt lat="31.229709481534595" lon="121.40001388102202">
        <ele>19.2191603500396</ele>
        <time>2026-06-08T09:27:41Z</time>
      </trkpt>
      <trkpt lat="31.229732480100907" lon="121.400103891523">
        <ele>18.267942698672414</ele>
        <time>2026-06-08T09:27:44Z</time>
      </trkpt>
      <trkpt lat="31.229818456825846" lon="121.40025790641214">
        <ele>16.159408839419484</ele>
        <time>2026-06-08T09:27:50Z</time>
      </trkpt>
      <trkpt lat="31.22987043957342" lon="121.40031891109089">
        <ele>13.020386012271047</ele>
        <time>2026-06-08T09:27:53Z</time>
      </trkpt>
      <trkpt lat="31.230022378307375" lon="121.40039891021715">
        <ele>13.625467570498586</ele>
        <time>2026-06-08T09:27:59Z</time>
      </trkpt>
      <trkpt lat="31.23010933888058" lon="121.40040690388834">
        <ele>17.100057872012258</ele>
        <time>2026-06-08T09:28:02Z</time>
      </trkpt>
      <trkpt lat="31.230404193534213" lon="121.40033386682877">
        <ele>14.761644633486867</ele>
        <time>2026-06-08T09:28:14Z</time>
      </trkpt>
      <trkpt lat="31.23065306671312" lon="121.40023282989232">
        <ele>20.910215647891164</ele>
        <time>2026-06-08T09:28:20Z</time>
      </trkpt>
      <trkpt lat="31.230928931413732" lon="121.40016479587875">
        <ele>18.50839069671929</ele>
        <time>2026-06-08T09:28:26Z</time>
      </trkpt>
      <trkpt lat="31.23105386704368" lon="121.4001037762616">
        <ele>17.078918727114797</ele>
        <time>2026-06-08T09:28:29Z</time>
      </trkpt>
      <trkpt lat="31.231142815777577" lon="121.40000575490438">
        <ele>17.277090342715383</ele>
        <time>2026-06-08T09:28:32Z</time>
      </trkpt>
      <trkpt lat="31.231202776078643" lon="121.39988373345075">
        <ele>15.94009998627007</ele>
        <time>2026-06-08T09:28:35Z</time>
      </trkpt>
      <trkpt lat="31.23122875091163" lon="121.39974071316423">
        <ele>13.406158717349172</ele>
        <time>2026-06-08T09:28:38Z</time>
      </trkpt>
      <trkpt lat="31.231209746254603" lon="121.39958269615926">
        <ele>18.267942698672414</ele>
        <time>2026-06-08T09:28:41Z</time>
      </trkpt>
      <trkpt lat="31.23113976926282" lon="121.39946368907196">
        <ele>19.198023112490773</ele>
        <time>2026-06-08T09:28:44Z</time>
      </trkpt>
      <trkpt lat="31.23105580219318" lon="121.39938368794567">
        <ele>18.038065226748586</ele>
        <time>2026-06-08T09:28:47Z</time>
      </trkpt>
      <trkpt lat="31.230980833555527" lon="121.39933668967686">
        <ele>16.732782633975148</ele>
        <time>2026-06-08T09:28:50Z</time>
      </trkpt>
      <trkpt lat="31.23076193126104" lon="121.39928270339004">
        <ele>17.871601374819875</ele>
        <time>2026-06-08T09:28:56Z</time>
      </trkpt>
      <trkpt lat="31.230573021280463" lon="121.39931772333898">
        <ele>18.016926081851125</ele>
        <time>2026-06-08T09:29:02Z</time>
      </trkpt>
      <trkpt lat="31.23047207172995" lon="121.39936873731672">
        <ele>17.52810695953667</ele>
        <time>2026-06-08T09:29:05Z</time>
      </trkpt>
      <trkpt lat="31.230189208596844" lon="121.39944476995062">
        <ele>12.95697239227593</ele>
        <time>2026-06-08T09:29:15Z</time>
      </trkpt>
      <trkpt lat="31.2299543227254" lon="121.39951079759767">
        <ele>1.9651129562407732</ele>
        <time>2026-06-08T09:29:24Z</time>
      </trkpt>
      <trkpt lat="31.229835384628817" lon="121.39959381729916">
        <ele>14.896400721743703</ele>
        <time>2026-06-08T09:29:30Z</time>
      </trkpt>
      <trkpt lat="31.229719454440303" lon="121.39977884950106">
        <ele>7.949863703921437</ele>
        <time>2026-06-08T09:29:36Z</time>
      </trkpt>
      <trkpt lat="31.22970548019099" lon="121.39998187702668">
        <ele>20.49273899383843</ele>
        <time>2026-06-08T09:29:42Z</time>
      </trkpt>
      <trkpt lat="31.229735482294362" lon="121.4001378960968">
        <ele>11.580347331240773</ele>
        <time>2026-06-08T09:29:48Z</time>
      </trkpt>
      <trkpt lat="31.229890430861317" lon="121.40032391011097">
        <ele>12.330753596499562</ele>
        <time>2026-06-08T09:29:57Z</time>
      </trkpt>
      <trkpt lat="31.230091346878275" lon="121.40040390498616">
        <ele>18.74883678741753</ele>
        <time>2026-06-08T09:30:06Z</time>
      </trkpt>
      <trkpt lat="31.230138325661617" lon="121.40040890167457">
        <ele>9.149456294253469</ele>
        <time>2026-06-08T09:30:09Z</time>
      </trkpt>
      <trkpt lat="31.230409190985828" lon="121.40033186608612">
        <ele>4.958809169009328</ele>
        <time>2026-06-08T09:30:21Z</time>
      </trkpt>
      <trkpt lat="31.23076801088806" lon="121.40020981647318">
        <ele>17.29822758026421</ele>
        <time>2026-06-08T09:30:39Z</time>
      </trkpt>
      <trkpt lat="31.231027879295073" lon="121.40010577881128">
        <ele>18.42383793182671</ele>
        <time>2026-06-08T09:30:51Z</time>
      </trkpt>
      <trkpt lat="31.23109384457127" lon="121.40006576744169">
        <ele>16.484407695010304</ele>
        <time>2026-06-08T09:30:54Z</time>
      </trkpt>
      <trkpt lat="31.231144815253366" lon="121.40000975527514">
        <ele>15.741928370669484</ele>
        <time>2026-06-08T09:30:57Z</time>
      </trkpt>
      <trkpt lat="31.231212769088025" lon="121.39985872935112">
        <ele>18.122617991641164</ele>
        <time>2026-06-08T09:31:03Z</time>
      </trkpt>
      <trkpt lat="31.23123574243166" lon="121.39968070531293">
        <ele>19.176885874941945</ele>
        <time>2026-06-08T09:31:09Z</time>
      </trkpt>
      <trkpt lat="31.23116775584002" lon="121.39945768598524">
        <ele>18.310219081118703</ele>
        <time>2026-06-08T09:31:18Z</time>
      </trkpt>
      <trkpt lat="31.231123771873477" lon="121.39939968367999">
        <ele>13.583191188052297</ele>
        <time>2026-06-08T09:31:21Z</time>
      </trkpt>
      <trkpt lat="31.230876876145672" lon="121.39925569073004">
        <ele>14.386442454531789</ele>
        <time>2026-06-08T09:31:33Z</time>
      </trkpt>
      <trkpt lat="31.230720947761107" lon="121.39924570336586">
        <ele>17.86103275604546</ele>
        <time>2026-06-08T09:31:39Z</time>
      </trkpt>
      <trkpt lat="31.23057501903254" lon="121.39929872127271">
        <ele>19.478105815127492</ele>
        <time>2026-06-08T09:31:45Z</time>
      </trkpt>
      <trkpt lat="31.230251174365964" lon="121.39937075679069">
        <ele>18.175462992861867</ele>
        <time>2026-06-08T09:32:00Z</time>
      </trkpt>
      <trkpt lat="31.229942325652633" lon="121.39947679492778">
        <ele>17.32729366607964</ele>
        <time>2026-06-08T09:32:15Z</time>
      </trkpt>
      <trkpt lat="31.229789407719505" lon="121.39961482372667">
        <ele>17.16082981415093</ele>
        <time>2026-06-08T09:32:24Z</time>
      </trkpt>
      <trkpt lat="31.229744434106177" lon="121.39967983527775">
        <ele>10.462665827944875</ele>
        <time>2026-06-08T09:32:27Z</time>
      </trkpt>
      <trkpt lat="31.229717454108698" lon="121.39976484794106">
        <ele>10.182585032656789</ele>
        <time>2026-06-08T09:32:30Z</time>
      </trkpt>
      <trkpt lat="31.229750463607708" lon="121.40002487895315">
        <ele>17.57038334198296</ele>
        <time>2026-06-08T09:32:39Z</time>
      </trkpt>
      <trkpt lat="31.229742475667177" lon="121.4001058909339">
        <ele>17.213674815371633</ele>
        <time>2026-06-08T09:32:42Z</time>
      </trkpt>
      <trkpt lat="31.229798463999515" lon="121.40023890532638">
        <ele>14.803921015933156</ele>
        <time>2026-06-08T09:32:48Z</time>
      </trkpt>
      <trkpt lat="31.229936409280658" lon="121.40032190579477">
        <ele>9.878723414614797</ele>
        <time>2026-06-08T09:32:54Z</time>
      </trkpt>
      <trkpt lat="31.230092341960948" lon="121.40036589896722">
        <ele>9.910431178286672</ele>
        <time>2026-06-08T09:33:00Z</time>
      </trkpt>
      <trkpt lat="31.23016031075979" lon="121.4003688935041">
        <ele>14.658596308901906</ele>
        <time>2026-06-08T09:33:03Z</time>
      </trkpt>
      <trkpt lat="31.23022127806647" lon="121.40033088232396">
        <ele>17.808187754824758</ele>
        <time>2026-06-08T09:33:06Z</time>
      </trkpt>
      <trkpt lat="31.23051013790553" lon="121.40027684892766">
        <ele>16.97322872467339</ele>
        <time>2026-06-08T09:33:18Z</time>
      </trkpt>
      <trkpt lat="31.230589098819568" lon="121.40025483874336">
        <ele>18.957575114443898</ele>
        <time>2026-06-08T09:33:21Z</time>
      </trkpt>
      <trkpt lat="31.230688046326144" lon="121.40019482125072">
        <ele>18.93643787689507</ele>
        <time>2026-06-08T09:33:24Z</time>
      </trkpt>
      <trkpt lat="31.23091593582954" lon="121.40014979485018">
        <ele>19.813673289492726</ele>
        <time>2026-06-08T09:33:30Z</time>
      </trkpt>
      <trkpt lat="31.23101788018201" lon="121.40006977462579">
        <ele>17.88216999359429</ele>
        <time>2026-06-08T09:33:33Z</time>
      </trkpt>
      <trkpt lat="31.23111383051532" lon="121.40001875920758">
        <ele>18.00635746307671</ele>
        <time>2026-06-08T09:33:36Z</time>
      </trkpt>
      <trkpt lat="31.23117779353014" lon="121.39994474364389">
        <ele>18.059202464297414</ele>
        <time>2026-06-08T09:33:39Z</time>
      </trkpt>
      <trkpt lat="31.231218747911893" lon="121.39965270348071">
        <ele>16.775057109072804</ele>
        <time>2026-06-08T09:33:45Z</time>
      </trkpt>
      <trkpt lat="31.231183753315243" lon="121.3995206914611">
        <ele>16.87018040008843</ele>
        <time>2026-06-08T09:33:48Z</time>
      </trkpt>
      <trkpt lat="31.231142766732777" lon="121.39944868720042">
        <ele>19.031561167910695</ele>
        <time>2026-06-08T09:33:51Z</time>
      </trkpt>
      <trkpt lat="31.231041805727358" lon="121.39934268496565">
        <ele>18.989282878115773</ele>
        <time>2026-06-08T09:33:54Z</time>
      </trkpt>
      <trkpt lat="31.23075293434313" lon="121.39926670260965">
        <ele>-4.378987995907664</ele>
        <time>2026-06-08T09:34:03Z</time>
      </trkpt>
      <trkpt lat="31.23044308246526" lon="121.39933073597874">
        <ele>12.029531748965383</ele>
        <time>2026-06-08T09:34:15Z</time>
      </trkpt>
      <trkpt lat="31.23025317293338" lon="121.39936375589765">
        <ele>10.536648066714406</ele>
        <time>2026-06-08T09:34:24Z</time>
      </trkpt>
      <trkpt lat="31.230059269671646" lon="121.39945478235475">
        <ele>16.315300257876515</ele>
        <time>2026-06-08T09:34:33Z</time>
      </trkpt>
      <trkpt lat="31.229876357991937" lon="121.39949880307967">
        <ele>3.989092143252492</ele>
        <time>2026-06-08T09:34:42Z</time>
      </trkpt>
      <trkpt lat="31.229751420136864" lon="121.39955081974587">
        <ele>14.259611399844289</ele>
        <time>2026-06-08T09:34:48Z</time>
      </trkpt>
      <trkpt lat="31.229751420136864" lon="121.39955081974587">
        <ele>23.256124932318926</ele>
        <time>2026-06-08T09:34:51Z</time>
      </trkpt>
    </trkseg>
  </trk>
</gpx>