<?xml version="1.0" encoding="UTF-8"?>
<gpx xmlns="http://www.topografix.com/GPX/1/1" xmlns:gpxtpx="http://www.garmin.com/xmlschemas/TrackPointExtension/v1" xmlns:xsi="http://www.w3.org/2001/XMLSchema-instance" xsi:schemaLocation="http://www.topografix.com/GPX/1/1 http://www.topografix.com/GPX/1/1/gpx.xsd" version="1.1" creator="gpx.py -- https://github.com/tkrajina/gpxpy">
  <trk>
    <name>gpx from keep</name>
    <type>Run</type>
    <trkseg>
      <trkpt lat="31.229671471302023" lon="121.39971784620425">
        <ele>21.736427451483905</ele>
        <time>2026-07-06T09:35:55Z</time>
      </trkpt>
      <trkpt lat="31.22979844192975" lon="121.40003087559224">
        <ele>26.548011924140155</ele>
        <time>2026-07-06T09:36:10Z</time>
      </trkpt>
      <trkpt lat="31.2298374384674" lon="121.40017089195517">
        <ele>30.16528334748</ele>
        <time>2026-07-06T09:36:13Z</time>
      </trkpt>
      <trkpt lat="31.2299174176424" lon="121.40031790684057">
        <ele>26.014267112128437</ele>
        <time>2026-07-06T09:36:16Z</time>
      </trkpt>
      <trkpt lat="31.230034372267692" lon="121.400394908544">
        <ele>24.315284873358905</ele>
        <time>2026-07-06T09:36:19Z</time>
      </trkpt>
      <trkpt lat="31.230189301409805" lon="121.40040389644192">
        <ele>25.668129111640155</ele>
        <time>2026-07-06T09:36:25Z</time>
      </trkpt>
      <trkpt lat="31.230290252323865" lon="121.4003848846607">
        <ele>26.25471511017531</ele>
        <time>2026-07-06T09:36:28Z</time>
      </trkpt>
      <trkpt lat="31.230582099182435" lon="121.40022883549067">
        <ele>20.563263083808124</ele>
        <time>2026-07-06T09:36:34Z</time>
      </trkpt>
      <trkpt lat="31.230839975346225" lon="121.40018980726823">
        <ele>26.349838401190937</ele>
        <time>2026-07-06T09:36:40Z</time>
      </trkpt>
      <trkpt lat="31.23104387073432" lon="121.40009477586372">
        <ele>19.265899802558124</ele>
        <time>2026-07-06T09:36:46Z</time>
      </trkpt>
      <trkpt lat="31.231126826014737" lon="121.40003376013289">
        <ele>24.07484450470656</ele>
        <time>2026-07-06T09:36:49Z</time>
      </trkpt>
      <trkpt lat="31.231214773584735" lon="121.39991573658385">
        <ele>27.99597945343703</ele>
        <time>2026-07-06T09:36:52Z</time>
      </trkpt>
      <trkpt lat="31.231235749900822" lon="121.39976571562674">
        <ele>26.349838401190937</ele>
        <time>2026-07-06T09:36:55Z</time>
      </trkpt>
      <trkpt lat="31.231205746563145" lon="121.39956369435211">
        <ele>27.37768569123</ele>
        <time>2026-07-06T09:37:01Z</time>
      </trkpt>
      <trkpt lat="31.231090787597502" lon="121.3994056871844">
        <ele>14.216514731757343</ele>
        <time>2026-07-06T09:37:07Z</time>
      </trkpt>
      <trkpt lat="31.230945849132958" lon="121.39932769182101">
        <ele>23.908378745429218</ele>
        <time>2026-07-06T09:37:13Z</time>
      </trkpt>
      <trkpt lat="31.230874880556648" lon="121.39930669591048">
        <ele>19.85248580109328</ele>
        <time>2026-07-06T09:37:16Z</time>
      </trkpt>
      <trkpt lat="31.230622998172993" lon="121.39931871907969">
        <ele>22.38642897736281</ele>
        <time>2026-07-06T09:37:25Z</time>
      </trkpt>
      <trkpt lat="31.23030515463734" lon="121.3994427596236">
        <ele>22.50268569123</ele>
        <time>2026-07-06T09:37:40Z</time>
      </trkpt>
      <trkpt lat="31.230023294358904" lon="121.39955679670604">
        <ele>18.668747092597187</ele>
        <time>2026-07-06T09:37:52Z</time>
      </trkpt>
      <trkpt lat="31.229913350654893" lon="121.39962081361047">
        <ele>25.501670981757343</ele>
        <time>2026-07-06T09:37:55Z</time>
      </trkpt>
      <trkpt lat="31.229821404125115" lon="121.39974583653645">
        <ele>25.855735923163593</ele>
        <time>2026-07-06T09:38:01Z</time>
      </trkpt>
      <trkpt lat="31.229787427902195" lon="121.39983385048572">
        <ele>24.6719972146675</ele>
        <time>2026-07-06T09:38:04Z</time>
      </trkpt>
      <trkpt lat="31.229781445698492" lon="121.39998987148158">
        <ele>24.117118979804218</ele>
        <time>2026-07-06T09:38:10Z</time>
      </trkpt>
      <trkpt lat="31.22982844415773" lon="121.40018489477282">
        <ele>-13.12044892180711</ele>
        <time>2026-07-06T09:38:16Z</time>
      </trkpt>
      <trkpt lat="31.22988843076112" lon="121.40031490891147">
        <ele>18.56305709015578</ele>
        <time>2026-07-06T09:38:19Z</time>
      </trkpt>
      <trkpt lat="31.229980395802716" lon="121.40038191122036">
        <ele>22.35736098419875</ele>
        <time>2026-07-06T09:38:22Z</time>
      </trkpt>
      <trkpt lat="31.230195298744363" lon="121.40040489607591">
        <ele>28.27870192658156</ele>
        <time>2026-07-06T09:38:31Z</time>
      </trkpt>
      <trkpt lat="31.230451173353494" lon="121.40034786488397">
        <ele>31.30938735138625</ele>
        <time>2026-07-06T09:38:40Z</time>
      </trkpt>
      <trkpt lat="31.23055211764818" lon="121.40026984421415">
        <ele>27.74231734406203</ele>
        <time>2026-07-06T09:38:43Z</time>
      </trkpt>
      <trkpt lat="31.230626080334652" lon="121.40024283373006">
        <ele>26.265289450995624</ele>
        <time>2026-07-06T09:38:46Z</time>
      </trkpt>
      <trkpt lat="31.230749022442318" lon="121.40023482181859">
        <ele>15.064689780585468</ele>
        <time>2026-07-06T09:38:49Z</time>
      </trkpt>
      <trkpt lat="31.231062862352402" lon="121.40009877477095">
        <ele>24.95471968781203</ele>
        <time>2026-07-06T09:39:01Z</time>
      </trkpt>
      <trkpt lat="31.23116180408715" lon="121.39997674932084">
        <ele>28.40552535187453</ele>
        <time>2026-07-06T09:39:07Z</time>
      </trkpt>
      <trkpt lat="31.2312347532586" lon="121.39979771969504">
        <ele>17.07545485626906</ele>
        <time>2026-07-06T09:39:13Z</time>
      </trkpt>
      <trkpt lat="31.231199749583787" lon="121.3995666952144">
        <ele>25.467323447577655</ele>
        <time>2026-07-06T09:39:22Z</time>
      </trkpt>
      <trkpt lat="31.23111677394371" lon="121.39938368262712">
        <ele>-41.14440140593797</ele>
        <time>2026-07-06T09:39:28Z</time>
      </trkpt>
      <trkpt lat="31.23101081720986" lon="121.39930168355595">
        <ele>27.734398032538593</ele>
        <time>2026-07-06T09:39:34Z</time>
      </trkpt>
      <trkpt lat="31.230897867497422" lon="121.39927169045494">
        <ele>27.31427779328078</ele>
        <time>2026-07-06T09:39:40Z</time>
      </trkpt>
      <trkpt lat="31.230608007745467" lon="121.39935572412793">
        <ele>15.085830832831562</ele>
        <time>2026-07-06T09:39:52Z</time>
      </trkpt>
      <trkpt lat="31.230390110187262" lon="121.3993747450835">
        <ele>28.751670981757343</ele>
        <time>2026-07-06T09:40:01Z</time>
      </trkpt>
      <trkpt lat="31.23011324591327" lon="121.39947177947757">
        <ele>27.565292502753437</ele>
        <time>2026-07-06T09:40:13Z</time>
      </trkpt>
      <trkpt lat="31.230008295947997" lon="121.39948879047816">
        <ele>19.054527427069843</ele>
        <time>2026-07-06T09:40:19Z</time>
      </trkpt>
      <trkpt lat="31.2298713679168" lon="121.39959381416048">
        <ele>28.162445212714374</ele>
        <time>2026-07-06T09:40:22Z</time>
      </trkpt>
      <trkpt lat="31.229784419446542" lon="121.39972483720096">
        <ele>25.813469077460468</ele>
        <time>2026-07-06T09:40:28Z</time>
      </trkpt>
      <trkpt lat="31.229745466842154" lon="121.40003388062574">
        <ele>25.982574607245624</ele>
        <time>2026-07-06T09:40:40Z</time>
      </trkpt>
      <trkpt lat="31.229802459059766" lon="121.40021090084248">
        <ele>7.716529990546405</ele>
        <time>2026-07-06T09:40:46Z</time>
      </trkpt>
      <trkpt lat="31.229855445737876" lon="121.40031191133157">
        <ele>12.562461997382343</ele>
        <time>2026-07-06T09:40:49Z</time>
      </trkpt>
      <trkpt lat="31.229915426323064" lon="121.40038491735547">
        <ele>25.594154502265155</ele>
        <time>2026-07-06T09:40:52Z</time>
      </trkpt>
      <trkpt lat="31.230043371640253" lon="121.40042491248174">
        <ele>26.463462973944843</ele>
        <time>2026-07-06T09:40:55Z</time>
      </trkpt>
      <trkpt lat="31.230333229928828" lon="121.4003638776452">
        <ele>23.84497084748</ele>
        <time>2026-07-06T09:41:07Z</time>
      </trkpt>
      <trkpt lat="31.230650070655688" lon="121.40025583357419">
        <ele>28.54029097687453</ele>
        <time>2026-07-06T09:41:22Z</time>
      </trkpt>
      <trkpt lat="31.23070903954631" lon="121.40022182338382">
        <ele>27.66041579376906</ele>
        <time>2026-07-06T09:41:26Z</time>
      </trkpt>
      <trkpt lat="31.230950919829574" lon="121.40015179208616">
        <ele>25.520172263495624</ele>
        <time>2026-07-06T09:41:38Z</time>
      </trkpt>
      <trkpt lat="31.231055865489836" lon="121.40009777524023">
        <ele>24.378708030097187</ele>
        <time>2026-07-06T09:41:44Z</time>
      </trkpt>
      <trkpt lat="31.231123825783605" lon="121.40001775819886">
        <ele>15.453109885565937</ele>
        <time>2026-07-06T09:41:50Z</time>
      </trkpt>
      <trkpt lat="31.231217758414044" lon="121.39976771744341">
        <ele>29.06610121857375</ele>
        <time>2026-07-06T09:41:59Z</time>
      </trkpt>
      <trkpt lat="31.231209750392622" lon="121.39963270192314">
        <ele>28.780738974921405</ele>
        <time>2026-07-06T09:42:05Z</time>
      </trkpt>
      <trkpt lat="31.23118075344738" lon="121.39950468995796">
        <ele>18.782371665351093</ele>
        <time>2026-07-06T09:42:08Z</time>
      </trkpt>
      <trkpt lat="31.23114176636552" lon="121.39943768611445">
        <ele>26.51631178986281</ele>
        <time>2026-07-06T09:42:11Z</time>
      </trkpt>
      <trkpt lat="31.231021813789177" lon="121.39932568499353">
        <ele>20.584404136054218</ele>
        <time>2026-07-06T09:42:17Z</time>
      </trkpt>
      <trkpt lat="31.23089486956848" lon="121.39928169169572">
        <ele>26.830742026679218</ele>
        <time>2026-07-06T09:42:23Z</time>
      </trkpt>
      <trkpt lat="31.230675972840295" lon="121.39930771336053">
        <ele>12.279739524237812</ele>
        <time>2026-07-06T09:42:32Z</time>
      </trkpt>
      <trkpt lat="31.230335138183186" lon="121.39940875341308">
        <ele>28.006553794257343</ele>
        <time>2026-07-06T09:42:47Z</time>
      </trkpt>
      <trkpt lat="31.230101252405305" lon="121.39948378182531">
        <ele>16.739898825995624</ele>
        <time>2026-07-06T09:42:59Z</time>
      </trkpt>
      <trkpt lat="31.229996306406864" lon="121.39955079838539">
        <ele>28.07789626251906</ele>
        <time>2026-07-06T09:43:02Z</time>
      </trkpt>
      <trkpt lat="31.22994932765966" lon="121.39954380169841">
        <ele>26.15960707794875</ele>
        <time>2026-07-06T09:43:05Z</time>
      </trkpt>
      <trkpt lat="31.22984238461636" lon="121.39963282119594">
        <ele>26.748832846991718</ele>
        <time>2026-07-06T09:43:11Z</time>
      </trkpt>
      <trkpt lat="31.229782420375113" lon="121.39972483737535">
        <ele>27.020980979315937</ele>
        <time>2026-07-06T09:43:14Z</time>
      </trkpt>
      <trkpt lat="31.229753446773735" lon="121.3998668576742">
        <ele>25.84516921173781</ele>
        <time>2026-07-06T09:43:20Z</time>
      </trkpt>
      <trkpt lat="31.229805452141445" lon="121.40015989315498">
        <ele>-8.324714516289532</ele>
        <time>2026-07-06T09:43:32Z</time>
      </trkpt>
      <trkpt lat="31.22988042972215" lon="121.40027290325384">
        <ele>29.536430503241718</ele>
        <time>2026-07-06T09:43:38Z</time>
      </trkpt>
      <trkpt lat="31.229957403101384" lon="121.40035290872547">
        <ele>4.210235740058124</ele>
        <time>2026-07-06T09:43:41Z</time>
      </trkpt>
      <trkpt lat="31.23004536798763" lon="121.40040190868261">
        <ele>27.208587790839374</ele>
        <time>2026-07-06T09:43:44Z</time>
      </trkpt>
      <trkpt lat="31.23020129619714" lon="121.4004068958672">
        <ele>24.703712607733905</ele>
        <time>2026-07-06T09:43:50Z</time>
      </trkpt>
      <trkpt lat="31.23051013533204" lon="121.40025384548194">
        <ele>23.131553794257343</ele>
        <time>2026-07-06T09:44:05Z</time>
      </trkpt>
      <trkpt lat="31.230817985431187" lon="121.40018880904054">
        <ele>25.29029860626906</ele>
        <time>2026-07-06T09:44:17Z</time>
      </trkpt>
      <trkpt lat="31.23105086927234" lon="121.40011177765544">
        <ele>18.29090895783156</ele>
        <time>2026-07-06T09:44:26Z</time>
      </trkpt>
      <trkpt lat="31.231166795520302" lon="121.39991274037486">
        <ele>27.427894736640155</ele>
        <time>2026-07-06T09:44:35Z</time>
      </trkpt>
      <trkpt lat="31.231231741047846" lon="121.39964270117346">
        <ele>24.60858931671828</ele>
        <time>2026-07-06T09:44:44Z</time>
      </trkpt>
      <trkpt lat="31.231187748033907" lon="121.39947668629169">
        <ele>27.890289450995624</ele>
        <time>2026-07-06T09:44:50Z</time>
      </trkpt>
      <trkpt lat="31.231142762781385" lon="121.39939568160634">
        <ele>28.162445212714374</ele>
        <time>2026-07-06T09:44:53Z</time>
      </trkpt>
      <trkpt lat="31.23103080718773" lon="121.39929068072378">
        <ele>26.24415602814406</ele>
        <time>2026-07-06T09:44:59Z</time>
      </trkpt>
      <trkpt lat="31.230901864630777" lon="121.39925668864717">
        <ele>16.343559409491718</ele>
        <time>2026-07-06T09:45:05Z</time>
      </trkpt>
      <trkpt lat="31.23074193957612" lon="121.39926870376362">
        <ele>27.398826743476093</ele>
        <time>2026-07-06T09:45:11Z</time>
      </trkpt>
      <trkpt lat="31.230449083118533" lon="121.3993787403521">
        <ele>24.022003318183124</ele>
        <time>2026-07-06T09:45:23Z</time>
      </trkpt>
      <trkpt lat="31.230182214438575" lon="121.39947877421999">
        <ele>6.773239280097187</ele>
        <time>2026-07-06T09:45:35Z</time>
      </trkpt>
      <trkpt lat="31.229941333061056" lon="121.39956480475779">
        <ele>18.00818648468703</ele>
        <time>2026-07-06T09:45:44Z</time>
      </trkpt>
      <trkpt lat="31.22979341343103" lon="121.3997038338781">
        <ele>25.049850608222187</ele>
        <time>2026-07-06T09:45:50Z</time>
      </trkpt>
      <trkpt lat="31.22974844025348" lon="121.39977084598036">
        <ele>21.654525901190937</ele>
        <time>2026-07-06T09:45:53Z</time>
      </trkpt>
      <trkpt lat="31.2297314609855" lon="121.39990886505123">
        <ele>26.119972373358905</ele>
        <time>2026-07-06T09:45:59Z</time>
      </trkpt>
      <trkpt lat="31.229764459959142" lon="121.40005288159395">
        <ele>-24.381812904961407</ele>
        <time>2026-07-06T09:46:05Z</time>
      </trkpt>
      <trkpt lat="31.229916420630143" lon="121.40033991029712">
        <ele>23.477691794745624</ele>
        <time>2026-07-06T09:46:14Z</time>
      </trkpt>
      <trkpt lat="31.230094345958754" lon="121.4004079053534">
        <ele>2.6512910379096866</ele>
        <time>2026-07-06T09:46:20Z</time>
      </trkpt>
      <trkpt lat="31.230153318938836" lon="121.40041090068159">
        <ele>27.702690268866718</ele>
        <time>2026-07-06T09:46:23Z</time>
      </trkpt>
      <trkpt lat="31.23023727690804" lon="121.40038488928158">
        <ele>4.807388450019062</ele>
        <time>2026-07-06T09:46:26Z</time>
      </trkpt>
      <trkpt lat="31.230492143677512" lon="121.40025384705132">
        <ele>24.89131178986281</ele>
        <time>2026-07-06T09:46:32Z</time>
      </trkpt>
      <trkpt lat="31.230782002655424" lon="121.40019381290894">
        <ele>26.946998740546405</ele>
        <time>2026-07-06T09:46:41Z</time>
      </trkpt>
      <trkpt lat="31.23102687611677" lon="121.40007077398066">
        <ele>24.756553794257343</ele>
        <time>2026-07-06T09:46:53Z</time>
      </trkpt>
      <trkpt lat="31.231144809691347" lon="121.39995374772">
        <ele>28.60370650421828</ele>
        <time>2026-07-06T09:46:59Z</time>
      </trkpt>
      <trkpt lat="31.231208766760574" lon="121.3998137239727">
        <ele>23.612449790351093</ele>
        <time>2026-07-06T09:47:05Z</time>
      </trkpt>
      <trkpt lat="31.23121575117611" lon="121.39967470634303">
        <ele>5.790313865058124</ele>
        <time>2026-07-06T09:47:11Z</time>
      </trkpt>
      <trkpt lat="31.23113277083437" lon="121.39944168732502">
        <ele>18.83522048126906</ele>
        <time>2026-07-06T09:47:20Z</time>
      </trkpt>
      <trkpt lat="31.231077791858837" lon="121.39938168582056">
        <ele>23.477691794745624</ele>
        <time>2026-07-06T09:47:23Z</time>
      </trkpt>
      <trkpt lat="31.230923861240594" lon="121.39935469647432">
        <ele>26.463462973944843</ele>
        <time>2026-07-06T09:47:32Z</time>
      </trkpt>
      <trkpt lat="31.23085988736741" lon="121.39930469701942">
        <ele>26.791107322089374</ele>
        <time>2026-07-06T09:47:35Z</time>
      </trkpt>
      <trkpt lat="31.230700959872614" lon="121.39928770920035">
        <ele>28.33155074249953</ele>
        <time>2026-07-06T09:47:41Z</time>
      </trkpt>
      <trkpt lat="31.230569027120424" lon="121.39937372937389">
        <ele>26.85187544953078</ele>
        <time>2026-07-06T09:47:47Z</time>
      </trkpt>
      <trkpt lat="31.230357128350445" lon="121.39941375201983">
        <ele>27.501876975409687</ele>
        <time>2026-07-06T09:47:56Z</time>
      </trkpt>
      <trkpt lat="31.230024291975464" lon="121.39953279393151">
        <ele>27.155738974921405</ele>
        <time>2026-07-06T09:48:11Z</time>
      </trkpt>
      <trkpt lat="31.229851380019518" lon="121.39962781982898">
        <ele>27.11346449982375</ele>
        <time>2026-07-06T09:48:21Z</time>
      </trkpt>
      <trkpt lat="31.2297694345968" lon="121.39981584977505">
        <ele>24.516105796210468</ele>
        <time>2026-07-06T09:48:27Z</time>
      </trkpt>
      <trkpt lat="31.22976844132246" lon="121.3998828584351">
        <ele>23.802696372382343</ele>
        <time>2026-07-06T09:48:30Z</time>
      </trkpt>
      <trkpt lat="31.229738465464447" lon="121.39998787495999">
        <ele>24.997001792304218</ele>
        <time>2026-07-06T09:48:36Z</time>
      </trkpt>
      <trkpt lat="31.229767466587795" lon="121.40012989216369">
        <ele>12.290306235663593</ele>
        <time>2026-07-06T09:48:42Z</time>
      </trkpt>
      <trkpt lat="31.22983544615854" lon="121.40023290121094">
        <ele>24.61915602814406</ele>
        <time>2026-07-06T09:48:48Z</time>
      </trkpt>
      <trkpt lat="31.229989392681105" lon="121.40039091184127">
        <ele>14.520385886542499</ele>
        <time>2026-07-06T09:48:57Z</time>
      </trkpt>
      <trkpt lat="31.230062361635973" lon="121.40041490924581">
        <ele>25.982574607245624</ele>
        <time>2026-07-06T09:49:03Z</time>
      </trkpt>
      <trkpt lat="31.23021628971164" lon="121.40041089518886">
        <ele>26.685417319647968</ele>
        <time>2026-07-06T09:49:09Z</time>
      </trkpt>
      <trkpt lat="31.23051613523619" lon="121.40027784855498">
        <ele>15.976280356757343</ele>
        <time>2026-07-06T09:49:24Z</time>
      </trkpt>
      <trkpt lat="31.230642071811673" lon="121.40023283085138">
        <ele>26.767326499335468</ele>
        <time>2026-07-06T09:49:30Z</time>
      </trkpt>
      <trkpt lat="31.230810990197973" lon="121.4002028116971">
        <ele>27.05268874298781</ele>
        <time>2026-07-06T09:49:36Z</time>
      </trkpt>
      <trkpt lat="31.23094392211229" lon="121.40014279140398">
        <ele>27.755539084784687</ele>
        <time>2026-07-06T09:49:42Z</time>
      </trkpt>
      <trkpt lat="31.231053857999164" lon="121.40001576402862">
        <ele>26.85187544953078</ele>
        <time>2026-07-06T09:49:51Z</time>
      </trkpt>
      <trkpt lat="31.231160803758808" lon="121.3999687483325">
        <ele>28.07789626251906</ele>
        <time>2026-07-06T09:49:54Z</time>
      </trkpt>
      <trkpt lat="31.231203779353546" lon="121.39992273846434">
        <ele>27.208587790839374</ele>
        <time>2026-07-06T09:49:57Z</time>
      </trkpt>
      <trkpt lat="31.231256741801385" lon="121.39978371602851">
        <ele>24.830536033026874</ele>
        <time>2026-07-06T09:50:03Z</time>
      </trkpt>
      <trkpt lat="31.231240735454254" lon="121.3996256984054">
        <ele>17.022621299140155</ele>
        <time>2026-07-06T09:50:09Z</time>
      </trkpt>
      <trkpt lat="31.231158758493702" lon="121.39943768463223">
        <ele>28.14131178986281</ele>
        <time>2026-07-06T09:50:15Z</time>
      </trkpt>
      <trkpt lat="31.231052798451813" lon="121.39931168088894">
        <ele>13.43177046906203</ele>
        <time>2026-07-06T09:50:21Z</time>
      </trkpt>
      <trkpt lat="31.230992823558143" lon="121.39927268226965">
        <ele>27.837448264472187</ele>
        <time>2026-07-06T09:50:24Z</time>
      </trkpt>
      <trkpt lat="31.23081990141909" lon="121.39923869406141">
        <ele>27.462242270819843</ele>
        <time>2026-07-06T09:50:33Z</time>
      </trkpt>
      <trkpt lat="31.230501058500877" lon="121.39937173509675">
        <ele>27.47016921173781</ele>
        <time>2026-07-06T09:50:48Z</time>
      </trkpt>
      <trkpt lat="31.23044908282836" lon="121.39937473993945">
        <ele>25.636436606757343</ele>
        <time>2026-07-06T09:50:51Z</time>
      </trkpt>
      <trkpt lat="31.230372121468243" lon="121.39941475081714">
        <ele>24.629730368964374</ele>
        <time>2026-07-06T09:50:54Z</time>
      </trkpt>
      <trkpt lat="31.23020620162015" lon="121.39945676975296">
        <ele>25.594154502265155</ele>
        <time>2026-07-06T09:51:03Z</time>
      </trkpt>
      <trkpt lat="31.229891357161467" lon="121.39957581036349">
        <ele>26.999847556464374</ele>
        <time>2026-07-06T09:51:15Z</time>
      </trkpt>
      <trkpt lat="31.229792412163945" lon="121.3996838315695">
        <ele>25.205742026679218</ele>
        <time>2026-07-06T09:51:18Z</time>
      </trkpt>
      <trkpt lat="31.22974244768581" lon="121.39982185288716">
        <ele>24.94416060578078</ele>
        <time>2026-07-06T09:51:21Z</time>
      </trkpt>
      <trkpt lat="31.229731466140425" lon="121.39996187207213">
        <ele>25.060417319647968</ele>
        <time>2026-07-06T09:51:24Z</time>
      </trkpt>
      <trkpt lat="31.229756466042122" lon="121.40007588549412">
        <ele>24.830536033026874</ele>
        <time>2026-07-06T09:51:27Z</time>
      </trkpt>
      <trkpt lat="31.22983744511963" lon="121.4002319008885">
        <ele>26.946998740546405</ele>
        <time>2026-07-06T09:51:33Z</time>
      </trkpt>
      <trkpt lat="31.229972397997585" lon="121.40036890989505">
        <ele>26.841308738105</ele>
        <time>2026-07-06T09:51:39Z</time>
      </trkpt>
      <trkpt lat="31.230042369379785" lon="121.40040190894418">
        <ele>21.41407790314406</ele>
        <time>2026-07-06T09:51:42Z</time>
      </trkpt>
      <trkpt lat="31.230325234570678" lon="121.40037187958433">
        <ele>23.38257613312453</ele>
        <time>2026-07-06T09:51:54Z</time>
      </trkpt>
      <trkpt lat="31.23049814527323" lon="121.40029285238732">
        <ele>24.693138266913593</ele>
        <time>2026-07-06T09:52:03Z</time>
      </trkpt>
      <trkpt lat="31.230637077239194" lon="121.40026083545486">
        <ele>26.130539084784687</ele>
        <time>2026-07-06T09:52:09Z</time>
      </trkpt>
      <trkpt lat="31.23081698774541" lon="121.4002058116138">
        <ele>23.895172263495624</ele>
        <time>2026-07-06T09:52:18Z</time>
      </trkpt>
      <trkpt lat="31.23105386114614" lon="121.40004676829153">
        <ele>27.607566977851093</ele>
        <time>2026-07-06T09:52:33Z</time>
      </trkpt>
      <trkpt lat="31.23109683617741" lon="121.39999675769167">
        <ele>24.80940261017531</ele>
        <time>2026-07-06T09:52:36Z</time>
      </trkpt>
      <trkpt lat="31.23119678600647" lon="121.39995774372032">
        <ele>27.639274741522968</ele>
        <time>2026-07-06T09:52:39Z</time>
      </trkpt>
      <trkpt lat="31.231233753995284" lon="121.39980072015823">
        <ele>27.24029555451125</ele>
        <time>2026-07-06T09:52:45Z</time>
      </trkpt>
      <trkpt lat="31.231235745994503" lon="121.3997217102405">
        <ele>27.816307212226093</ele>
        <time>2026-07-06T09:52:48Z</time>
      </trkpt>
      <trkpt lat="31.231164760076002" lon="121.39949469025687">
        <ele>26.003708030097187</ele>
        <time>2026-07-06T09:52:57Z</time>
      </trkpt>
      <trkpt lat="31.23106679550671" lon="121.39936168472163">
        <ele>19.276481772772968</ele>
        <time>2026-07-06T09:53:03Z</time>
      </trkpt>
      <trkpt lat="31.230999823628128" lon="121.3993206864099">
        <ele>28.017120505683124</ele>
        <time>2026-07-06T09:53:06Z</time>
      </trkpt>
      <trkpt lat="31.230703962963734" lon="121.39935171535005">
        <ele>27.670982505194843</ele>
        <time>2026-07-06T09:53:21Z</time>
      </trkpt>
      <trkpt lat="31.23043809019628" lon="121.39940574411851">
        <ele>25.784401084296405</ele>
        <time>2026-07-06T09:53:33Z</time>
      </trkpt>
      <trkpt lat="31.230159225109094" lon="121.39947877622528">
        <ele>24.997001792304218</ele>
        <time>2026-07-06T09:53:48Z</time>
      </trkpt>
      <trkpt lat="31.229880364397534" lon="121.39960181429383">
        <ele>24.640297080390155</ele>
        <time>2026-07-06T09:54:00Z</time>
      </trkpt>
      <trkpt lat="31.229775427897273" lon="121.39977284387413">
        <ele>26.24415602814406</ele>
        <time>2026-07-06T09:54:09Z</time>
      </trkpt>
      <trkpt lat="31.229771462202176" lon="121.40010588840553">
        <ele>25.01814284455031</ele>
        <time>2026-07-06T09:54:24Z</time>
      </trkpt>
      <trkpt lat="31.22980446010895" lon="121.4002289033217">
        <ele>21.28724684845656</ele>
        <time>2026-07-06T09:54:30Z</time>
      </trkpt>
      <trkpt lat="31.229903425974005" lon="121.40033391050909">
        <ele>26.590294028632343</ele>
        <time>2026-07-06T09:54:36Z</time>
      </trkpt>
      <trkpt lat="31.23010934196797" lon="121.40043290799478">
        <ele>30.91040816437453</ele>
        <time>2026-07-06T09:54:49Z</time>
      </trkpt>
      <trkpt lat="31.230451163468484" lon="121.40026085167175">
        <ele>22.859405661933124</ele>
        <time>2026-07-06T09:54:55Z</time>
      </trkpt>
      <trkpt lat="31.23079599649451" lon="121.40019681212671">
        <ele>19.191925193183124</ele>
        <time>2026-07-06T09:55:04Z</time>
      </trkpt>
      <trkpt lat="31.230963913594042" lon="121.40014979066513">
        <ele>22.449852134101093</ele>
        <time>2026-07-06T09:55:10Z</time>
      </trkpt>
      <trkpt lat="31.231113832441583" lon="121.40003776181736">
        <ele>23.372001792304218</ele>
        <time>2026-07-06T09:55:19Z</time>
      </trkpt>
      <trkpt lat="31.231231760573163" lon="121.39986172808011">
        <ele>23.823829795233905</ele>
        <time>2026-07-06T09:55:28Z</time>
      </trkpt>
      <trkpt lat="31.231247740966552" lon="121.39972770992271">
        <ele>23.749847556464374</ele>
        <time>2026-07-06T09:55:34Z</time>
      </trkpt>
      <trkpt lat="31.231186751139294" lon="121.39951069009501">
        <ele>27.166313315741718</ele>
        <time>2026-07-06T09:55:43Z</time>
      </trkpt>
      <trkpt lat="31.231099783208347" lon="121.39940268608589">
        <ele>24.788261557929218</ele>
        <time>2026-07-06T09:55:49Z</time>
      </trkpt>
      <trkpt lat="31.230984831844363" lon="121.39933868953034">
        <ele>24.420990134589374</ele>
        <time>2026-07-06T09:55:55Z</time>
      </trkpt>
      <trkpt lat="31.23070196232971" lon="121.39932971329634">
        <ele>25.311432029120624</ele>
        <time>2026-07-06T09:56:10Z</time>
      </trkpt>
      <trkpt lat="31.230619000658706" lon="121.39932772033167">
        <ele>25.060417319647968</ele>
        <time>2026-07-06T09:56:16Z</time>
      </trkpt>
      <trkpt lat="31.230504058126815" lon="121.39938573628095">
        <ele>24.294159079901874</ele>
        <time>2026-07-06T09:56:22Z</time>
      </trkpt>
      <trkpt lat="31.230448083002578" lon="121.39937073961481">
        <ele>8.02039351593703</ele>
        <time>2026-07-06T09:56:25Z</time>
      </trkpt>
      <trkpt lat="31.230191210649114" lon="121.39948377397853">
        <ele>26.444969321601093</ele>
        <time>2026-07-06T09:56:34Z</time>
      </trkpt>
      <trkpt lat="31.229946332529956" lon="121.39958680682103">
        <ele>23.697006369940937</ele>
        <time>2026-07-06T09:56:46Z</time>
      </trkpt>
      <trkpt lat="31.22980441113104" lon="121.39973583679603">
        <ele>24.212249900214374</ele>
        <time>2026-07-06T09:56:52Z</time>
      </trkpt>
      <trkpt lat="31.229752452101295" lon="121.39991786440217">
        <ele>24.032570029608905</ele>
        <time>2026-07-06T09:57:01Z</time>
      </trkpt>
      <trkpt lat="31.22975246491683" lon="121.40004688180926">
        <ele>24.19903578888625</ele>
        <time>2026-07-06T09:57:07Z</time>
      </trkpt>
      <trkpt lat="31.229827449541332" lon="121.40022990146436">
        <ele>23.612449790351093</ele>
        <time>2026-07-06T09:57:16Z</time>
      </trkpt>
      <trkpt lat="31.22991942039183" lon="121.4003499115755">
        <ele>25.195175315253437</ele>
        <time>2026-07-06T09:57:22Z</time>
      </trkpt>
      <trkpt lat="31.229983395465727" lon="121.40039091236439">
        <ele>21.28724684845656</ele>
        <time>2026-07-06T09:57:25Z</time>
      </trkpt>
      <trkpt lat="31.23007435382368" lon="121.40039590521322">
        <ele>24.55574050080031</ele>
        <time>2026-07-06T09:57:31Z</time>
      </trkpt>
      <trkpt lat="31.23018529974439" lon="121.40037389210138">
        <ele>23.05757155548781</ele>
        <time>2026-07-06T09:57:37Z</time>
      </trkpt>
      <trkpt lat="31.230299240054684" lon="121.400314873078">
        <ele>20.470787192694843</ele>
        <time>2026-07-06T09:57:43Z</time>
      </trkpt>
      <trkpt lat="31.230606088719593" lon="121.40023483428647">
        <ele>27.575859214179218</ele>
        <time>2026-07-06T09:57:58Z</time>
      </trkpt>
      <trkpt lat="31.230867958067126" lon="121.40014979903525">
        <ele>27.9219972146675</ele>
        <time>2026-07-06T09:58:10Z</time>
      </trkpt>
      <trkpt lat="31.23106285996046" lon="121.40007577154044">
        <ele>18.12445082794875</ele>
        <time>2026-07-06T09:58:19Z</time>
      </trkpt>
      <trkpt lat="31.231206780200544" lon="121.39994574124839">
        <ele>25.69984450470656</ele>
        <time>2026-07-06T09:58:28Z</time>
      </trkpt>
      <trkpt lat="31.23123775987417" lon="121.3998837303991">
        <ele>23.580742026679218</ele>
        <time>2026-07-06T09:58:31Z</time>
      </trkpt>
      <trkpt lat="31.231205744955723" lon="121.39954369210322">
        <ele>24.830536033026874</ele>
        <time>2026-07-06T09:58:46Z</time>
      </trkpt>
      <trkpt lat="31.231167755763916" lon="121.39945668587785">
        <ele>17.294777060858905</ele>
        <time>2026-07-06T09:58:49Z</time>
      </trkpt>
      <trkpt lat="31.231069794983085" lon="121.39937368569235">
        <ele>26.37098708283156</ele>
        <time>2026-07-06T09:58:55Z</time>
      </trkpt>
      <trkpt lat="31.230923857648005" lon="121.39930369133997">
        <ele>24.12769332062453</ele>
        <time>2026-07-06T09:59:01Z</time>
      </trkpt>
      <trkpt lat="31.23061400325822" lon="121.3993317211704">
        <ele>13.254737998358905</ele>
        <time>2026-07-06T09:59:16Z</time>
      </trkpt>
      <trkpt lat="31.230481070627977" lon="121.39941074089352">
        <ele>25.501678611151874</ele>
        <time>2026-07-06T09:59:22Z</time>
      </trkpt>
      <trkpt lat="31.23034813252438" lon="121.39941375280452">
        <ele>27.607566977851093</ele>
        <time>2026-07-06T09:59:28Z</time>
      </trkpt>
      <trkpt lat="31.23008326231178" lon="121.39950378558063">
        <ele>26.130539084784687</ele>
        <time>2026-07-06T09:59:40Z</time>
      </trkpt>
      <trkpt lat="31.229896353383484" lon="121.39955780789127">
        <ele>21.036232138983905</ele>
        <time>2026-07-06T09:59:52Z</time>
      </trkpt>
      <trkpt lat="31.229896353383484" lon="121.39955780789127">
        <ele>20.427604340604166</ele>
        <time>2026-07-06T09:59:54Z</time>
      </trkpt>
    </trkseg>
  </trk>
</gpx>