<?xml version="1.0" encoding="UTF-8"?>
<gpx xmlns="http://www.topografix.com/GPX/1/1" xmlns:gpxtpx="http://www.garmin.com/xmlschemas/TrackPointExtension/v1" xmlns:xsi="http://www.w3.org/2001/XMLSchema-instance" xsi:schemaLocation="http://www.topografix.com/GPX/1/1 http://www.topografix.com/GPX/1/1/gpx.xsd" version="1.1" creator="gpx.py -- https://github.com/tkrajina/gpxpy">
  <trk>
    <name>gpx from keep</name>
    <type>Run</type>
    <trkseg>
      <trkpt lat="31.229653479485968" lon="121.39971584753158">
        <ele>19.27135686110705</ele>
        <time>2026-05-14T09:28:18Z</time>
      </trkpt>
      <trkpt lat="31.229693481144093" lon="121.39993487179002">
        <ele>19.741682331077754</ele>
        <time>2026-05-14T09:28:30Z</time>
      </trkpt>
      <trkpt lat="31.22976546783424" lon="121.40013289276636">
        <ele>12.097584049217403</ele>
        <time>2026-05-14T09:28:36Z</time>
      </trkpt>
      <trkpt lat="31.229842444681758" lon="121.40024890297705">
        <ele>22.661394397728145</ele>
        <time>2026-05-14T09:28:39Z</time>
      </trkpt>
      <trkpt lat="31.22995940252064" lon="121.40035590901458">
        <ele>23.411800662986934</ele>
        <time>2026-05-14T09:28:42Z</time>
      </trkpt>
      <trkpt lat="31.23004836354386" lon="121.40037590435703">
        <ele>23.224199573509395</ele>
        <time>2026-05-14T09:28:45Z</time>
      </trkpt>
      <trkpt lat="31.23018929695649" lon="121.40036589051016">
        <ele>21.49350957106799</ele>
        <time>2026-05-14T09:28:48Z</time>
      </trkpt>
      <trkpt lat="31.230282246120048" lon="121.40029887212823">
        <ele>20.65855054091662</ele>
        <time>2026-05-14T09:28:51Z</time>
      </trkpt>
      <trkpt lat="31.23054311104866" lon="121.4001718305464">
        <ele>12.055307666771114</ele>
        <time>2026-05-14T09:28:57Z</time>
      </trkpt>
      <trkpt lat="31.230734016027846" lon="121.40011080515256">
        <ele>11.6272585792467</ele>
        <time>2026-05-14T09:29:03Z</time>
      </trkpt>
      <trkpt lat="31.23096688737644" lon="121.39990475676412">
        <ele>23.599401752464473</ele>
        <time>2026-05-14T09:29:09Z</time>
      </trkpt>
      <trkpt lat="31.231036845858704" lon="121.39980773821371">
        <ele>22.83842686843127</ele>
        <time>2026-05-14T09:29:12Z</time>
      </trkpt>
      <trkpt lat="31.23107480991458" lon="121.39959670953053">
        <ele>12.774006168358028</ele>
        <time>2026-05-14T09:29:18Z</time>
      </trkpt>
      <trkpt lat="31.231065808987232" lon="121.3995337031932">
        <ele>20.18822697829455</ele>
        <time>2026-05-14T09:29:21Z</time>
      </trkpt>
      <trkpt lat="31.23102382123833" lon="121.39944069672215">
        <ele>16.674001972191036</ele>
        <time>2026-05-14T09:29:24Z</time>
      </trkpt>
      <trkpt lat="31.230913864733708" lon="121.39933869572076">
        <ele>22.71423939894885</ele>
        <time>2026-05-14T09:29:30Z</time>
      </trkpt>
      <trkpt lat="31.230833900039837" lon="121.39931370018297">
        <ele>18.885584156028926</ele>
        <time>2026-05-14T09:29:33Z</time>
      </trkpt>
      <trkpt lat="31.23048806438367" lon="121.3993697360245">
        <ele>12.055307666771114</ele>
        <time>2026-05-14T09:29:45Z</time>
      </trkpt>
      <trkpt lat="31.230376114882112" lon="121.39934974374404">
        <ele>24.50834302138537</ele>
        <time>2026-05-14T09:29:48Z</time>
      </trkpt>
      <trkpt lat="31.230167213768087" lon="121.39937676473241">
        <ele>23.81078366469592</ele>
        <time>2026-05-14T09:29:57Z</time>
      </trkpt>
      <trkpt lat="31.229871361644314" lon="121.39951580538569">
        <ele>-48.32593508530408</ele>
        <time>2026-05-14T09:30:09Z</time>
      </trkpt>
      <trkpt lat="31.229783410422154" lon="121.39961382413415">
        <ele>22.827858249656856</ele>
        <time>2026-05-14T09:30:15Z</time>
      </trkpt>
      <trkpt lat="31.22973444283789" lon="121.39972684180316">
        <ele>22.619118015281856</ele>
        <time>2026-05-14T09:30:18Z</time>
      </trkpt>
      <trkpt lat="31.22971247300304" lon="121.39994187106191">
        <ele>22.71423939894885</ele>
        <time>2026-05-14T09:30:24Z</time>
      </trkpt>
      <trkpt lat="31.22972247915348" lon="121.40004988484004">
        <ele>23.903263370506465</ele>
        <time>2026-05-14T09:30:27Z</time>
      </trkpt>
      <trkpt lat="31.229762475233557" lon="121.40018890110977">
        <ele>23.549198429100215</ele>
        <time>2026-05-14T09:30:30Z</time>
      </trkpt>
      <trkpt lat="31.229812461065404" lon="121.40027090888213">
        <ele>9.772382060997188</ele>
        <time>2026-05-14T09:30:33Z</time>
      </trkpt>
      <trkpt lat="31.22995640264075" lon="121.40034490757901">
        <ele>14.182337085716426</ele>
        <time>2026-05-14T09:30:36Z</time>
      </trkpt>
      <trkpt lat="31.230147317958206" lon="121.40037889619272">
        <ele>15.25510052870959</ele>
        <time>2026-05-14T09:30:42Z</time>
      </trkpt>
      <trkpt lat="31.230320229176012" lon="121.40030486972553">
        <ele>20.80387524794787</ele>
        <time>2026-05-14T09:30:48Z</time>
      </trkpt>
      <trkpt lat="31.23048115112644" lon="121.40027485115536">
        <ele>21.99289921950549</ele>
        <time>2026-05-14T09:30:57Z</time>
      </trkpt>
      <trkpt lat="31.230747016062654" lon="121.4001678121809">
        <ele>9.376041690818965</ele>
        <time>2026-05-14T09:31:06Z</time>
      </trkpt>
      <trkpt lat="31.23090793352188" lon="121.40009278743982">
        <ele>23.224199573509395</ele>
        <time>2026-05-14T09:31:12Z</time>
      </trkpt>
      <trkpt lat="31.231065844809173" lon="121.39993875261226">
        <ele>19.92664174269885</ele>
        <time>2026-05-14T09:31:18Z</time>
      </trkpt>
      <trkpt lat="31.231103818997074" lon="121.39985273808504">
        <ele>23.652246753685176</ele>
        <time>2026-05-14T09:31:21Z</time>
      </trkpt>
      <trkpt lat="31.231104805252222" lon="121.39970571972891">
        <ele>17.236805240623653</ele>
        <time>2026-05-14T09:31:27Z</time>
      </trkpt>
      <trkpt lat="31.231148772149574" lon="121.39955369819488">
        <ele>17.413837711326778</ele>
        <time>2026-05-14T09:31:30Z</time>
      </trkpt>
      <trkpt lat="31.231135771881167" lon="121.39947369050057">
        <ele>21.546354572288692</ele>
        <time>2026-05-14T09:31:33Z</time>
      </trkpt>
      <trkpt lat="31.23109778509627" lon="121.39941568762353">
        <ele>24.341881076805294</ele>
        <time>2026-05-14T09:31:36Z</time>
      </trkpt>
      <trkpt lat="31.230979833735987" lon="121.3993326893602">
        <ele>19.81302289199084</ele>
        <time>2026-05-14T09:31:42Z</time>
      </trkpt>
      <trkpt lat="31.23081690659924" lon="121.39929469977727">
        <ele>14.504694263450801</ele>
        <time>2026-05-14T09:31:48Z</time>
      </trkpt>
      <trkpt lat="31.230494060023354" lon="121.39934773325253">
        <ele>23.361597339622676</ele>
        <time>2026-05-14T09:32:00Z</time>
      </trkpt>
      <trkpt lat="31.230203200152708" lon="121.3994187659728">
        <ele>18.832739154808223</ele>
        <time>2026-05-14T09:32:12Z</time>
      </trkpt>
      <trkpt lat="31.22988335893545" lon="121.3995518083497">
        <ele>1.9882433814927936</ele>
        <time>2026-05-14T09:32:24Z</time>
      </trkpt>
      <trkpt lat="31.229791407958285" lon="121.39962882517645">
        <ele>22.703670780174434</ele>
        <time>2026-05-14T09:32:27Z</time>
      </trkpt>
      <trkpt lat="31.22973244315144" lon="121.39971984112817">
        <ele>16.362213413231075</ele>
        <time>2026-05-14T09:32:30Z</time>
      </trkpt>
      <trkpt lat="31.22969847930902" lon="121.39993987201699">
        <ele>-20.20157213974744</ele>
        <time>2026-05-14T09:32:39Z</time>
      </trkpt>
      <trkpt lat="31.229707484385383" lon="121.40003288380116">
        <ele>19.406112949363887</ele>
        <time>2026-05-14T09:32:42Z</time>
      </trkpt>
      <trkpt lat="31.229734480326957" lon="121.40011489290636">
        <ele>23.55976704787463</ele>
        <time>2026-05-14T09:32:45Z</time>
      </trkpt>
      <trkpt lat="31.229805457886002" lon="121.40021290087495">
        <ele>22.08802060317248</ele>
        <time>2026-05-14T09:32:48Z</time>
      </trkpt>
      <trkpt lat="31.229843449491014" lon="121.4002959099484">
        <ele>12.285185138694942</ele>
        <time>2026-05-14T09:32:51Z</time>
      </trkpt>
      <trkpt lat="31.229956407058665" lon="121.40038291346877">
        <ele>19.64655904006213</ele>
        <time>2026-05-14T09:32:57Z</time>
      </trkpt>
      <trkpt lat="31.230037370640332" lon="121.4003929079693">
        <ele>25.55204228591174</ele>
        <time>2026-05-14T09:33:00Z</time>
      </trkpt>
      <trkpt lat="31.230322230530145" lon="121.4003248725995">
        <ele>14.22197179030627</ele>
        <time>2026-05-14T09:33:15Z</time>
      </trkpt>
      <trkpt lat="31.23054412372062" lon="121.40029084807429">
        <ele>20.35468892287463</ele>
        <time>2026-05-14T09:33:24Z</time>
      </trkpt>
      <trkpt lat="31.230625082020676" lon="121.40025383545537">
        <ele>24.05915669631213</ele>
        <time>2026-05-14T09:33:27Z</time>
      </trkpt>
      <trkpt lat="31.230675060409236" lon="121.40026783319006">
        <ele>20.44981030654162</ele>
        <time>2026-05-14T09:33:33Z</time>
      </trkpt>
      <trkpt lat="31.23090993510991" lon="121.40011679065847">
        <ele>17.841886798851192</ele>
        <time>2026-05-14T09:33:45Z</time>
      </trkpt>
      <trkpt lat="31.23102487787064" lon="121.40007877527343">
        <ele>18.351845066063106</ele>
        <time>2026-05-14T09:33:48Z</time>
      </trkpt>
      <trkpt lat="31.231155804107964" lon="121.39994874609437">
        <ele>23.673385898582637</ele>
        <time>2026-05-14T09:33:57Z</time>
      </trkpt>
      <trkpt lat="31.2311857849018" lon="121.39989373623325">
        <ele>22.69310216140002</ele>
        <time>2026-05-14T09:34:00Z</time>
      </trkpt>
      <trkpt lat="31.231209752843366" lon="121.3996617053263">
        <ele>16.224815647117794</ele>
        <time>2026-05-14T09:34:10Z</time>
      </trkpt>
      <trkpt lat="31.23115576277388" lon="121.3994756889734">
        <ele>25.48069981765002</ele>
        <time>2026-05-14T09:34:16Z</time>
      </trkpt>
      <trkpt lat="31.231110779150395" lon="121.3994166865953">
        <ele>1.2299101753160357</ele>
        <time>2026-05-14T09:34:19Z</time>
      </trkpt>
      <trkpt lat="31.230998826714053" lon="121.39935769024142">
        <ele>7.251652519218624</ele>
        <time>2026-05-14T09:34:25Z</time>
      </trkpt>
      <trkpt lat="31.230857888920063" lon="121.39931369809044">
        <ele>23.38273314666003</ele>
        <time>2026-05-14T09:34:31Z</time>
      </trkpt>
      <trkpt lat="31.230649744258876" lon="121.39929553277717">
        <ele>9.574209968559444</ele>
        <time>2026-05-14T09:34:40Z</time>
      </trkpt>
      <trkpt lat="31.230552032281647" lon="121.3993357269797">
        <ele>22.389239112846553</ele>
        <time>2026-05-14T09:34:43Z</time>
      </trkpt>
      <trkpt lat="31.23039110594551" lon="121.39932173960783">
        <ele>15.47440795134753</ele>
        <time>2026-05-14T09:34:49Z</time>
      </trkpt>
      <trkpt lat="31.230098248793457" lon="121.39941777502204">
        <ele>23.71566085051745</ele>
        <time>2026-05-14T09:35:01Z</time>
      </trkpt>
      <trkpt lat="31.229861366522695" lon="121.39951880658913">
        <ele>24.81220320891589</ele>
        <time>2026-05-14T09:35:13Z</time>
      </trkpt>
      <trkpt lat="31.229711452114934" lon="121.3997108418708">
        <ele>22.785580436699092</ele>
        <time>2026-05-14T09:35:22Z</time>
      </trkpt>
      <trkpt lat="31.229682475639077" lon="121.39982285824479">
        <ele>23.726229469291866</ele>
        <time>2026-05-14T09:35:25Z</time>
      </trkpt>
      <trkpt lat="31.22968348549629" lon="121.39993187226479">
        <ele>23.287611762993038</ele>
        <time>2026-05-14T09:35:28Z</time>
      </trkpt>
      <trkpt lat="31.22972448454979" lon="121.40011089321104">
        <ele>23.580904762260616</ele>
        <time>2026-05-14T09:35:34Z</time>
      </trkpt>
      <trkpt lat="31.229785468599577" lon="121.40022590453476">
        <ele>22.389239112846553</ele>
        <time>2026-05-14T09:35:40Z</time>
      </trkpt>
      <trkpt lat="31.229951405192335" lon="121.40034690832304">
        <ele>26.71199874114245</ele>
        <time>2026-05-14T09:35:46Z</time>
      </trkpt>
      <trkpt lat="31.230144318766" lon="121.40037389567601">
        <ele>23.20305899810046</ele>
        <time>2026-05-14T09:35:55Z</time>
      </trkpt>
      <trkpt lat="31.23023127423227" lon="121.40033788252617">
        <ele>23.3087509078905</ele>
        <time>2026-05-14T09:36:01Z</time>
      </trkpt>
      <trkpt lat="31.23039719689526" lon="121.40033486759252">
        <ele>25.65773085784167</ele>
        <time>2026-05-14T09:36:07Z</time>
      </trkpt>
      <trkpt lat="31.230578105035224" lon="121.40026484119767">
        <ele>20.460379402153194</ele>
        <time>2026-05-14T09:36:13Z</time>
      </trkpt>
      <trkpt lat="31.230644069672397" lon="121.40022182905103">
        <ele>13.450426856987178</ele>
        <time>2026-05-14T09:36:16Z</time>
      </trkpt>
      <trkpt lat="31.230812985156774" lon="121.40016480599265">
        <ele>24.851837913505733</ele>
        <time>2026-05-14T09:36:22Z</time>
      </trkpt>
      <trkpt lat="31.231017876901603" lon="121.40003777018754">
        <ele>18.10347060393542</ele>
        <time>2026-05-14T09:36:31Z</time>
      </trkpt>
      <trkpt lat="31.231122814934224" lon="121.39990274290095">
        <ele>18.45753554534167</ele>
        <time>2026-05-14T09:36:37Z</time>
      </trkpt>
      <trkpt lat="31.231155784711376" lon="121.39974071952909">
        <ele>22.671961585991085</ele>
        <time>2026-05-14T09:36:43Z</time>
      </trkpt>
      <trkpt lat="31.231152779405903" lon="121.39966371053244">
        <ele>12.48335341643542</ele>
        <time>2026-05-14T09:36:46Z</time>
      </trkpt>
      <trkpt lat="31.231174761564436" lon="121.39957169796044">
        <ele>21.337612907402217</ele>
        <time>2026-05-14T09:36:49Z</time>
      </trkpt>
      <trkpt lat="31.231123775152906" lon="121.39944368832298">
        <ele>20.07460669707507</ele>
        <time>2026-05-14T09:36:55Z</time>
      </trkpt>
      <trkpt lat="31.23097783466239" lon="121.39933268953457">
        <ele>25.594317237846553</ele>
        <time>2026-05-14T09:37:04Z</time>
      </trkpt>
      <trkpt lat="31.230913862349922" lon="121.39930469231122">
        <ele>6.46953849028796</ele>
        <time>2026-05-14T09:37:07Z</time>
      </trkpt>
      <trkpt lat="31.230665978944213" lon="121.39932871633445">
        <ele>24.759358207695186</ele>
        <time>2026-05-14T09:37:19Z</time>
      </trkpt>
      <trkpt lat="31.230631999374054" lon="121.39939372595165">
        <ele>7.4894569320604205</ele>
        <time>2026-05-14T09:37:22Z</time>
      </trkpt>
      <trkpt lat="31.23056303128567" lon="121.3993927318636">
        <ele>24.851837913505733</ele>
        <time>2026-05-14T09:37:25Z</time>
      </trkpt>
      <trkpt lat="31.230357132191106" lon="121.39946475744827">
        <ele>25.906105796806514</ele>
        <time>2026-05-14T09:37:37Z</time>
      </trkpt>
      <trkpt lat="31.230297160171702" lon="121.39946676289516">
        <ele>17.91586951445788</ele>
        <time>2026-05-14T09:37:40Z</time>
      </trkpt>
      <trkpt lat="31.23017021244884" lon="121.39937776457403">
        <ele>5.999213973991573</ele>
        <time>2026-05-14T09:37:43Z</time>
      </trkpt>
      <trkpt lat="31.23006126753335" lon="121.39943878047106">
        <ele>23.057735244743526</ele>
        <time>2026-05-14T09:37:49Z</time>
      </trkpt>
      <trkpt lat="31.229988308761968" lon="121.39953379718158">
        <ele>24.26789645384997</ele>
        <time>2026-05-14T09:37:52Z</time>
      </trkpt>
      <trkpt lat="31.229928340312856" lon="121.39957980759243">
        <ele>24.196555892936885</ele>
        <time>2026-05-14T09:37:58Z</time>
      </trkpt>
      <trkpt lat="31.22988336169067" lon="121.39958581219958">
        <ele>21.763021270744503</ele>
        <time>2026-05-14T09:38:01Z</time>
      </trkpt>
      <trkpt lat="31.22975742602007" lon="121.39965583130213">
        <ele>24.299604217521846</ele>
        <time>2026-05-14T09:38:07Z</time>
      </trkpt>
      <trkpt lat="31.22972645209544" lon="121.3997888501359">
        <ele>22.693101684562862</ele>
        <time>2026-05-14T09:38:10Z</time>
      </trkpt>
      <trkpt lat="31.229711474053495" lon="121.3999478719469">
        <ele>22.484361450187862</ele>
        <time>2026-05-14T09:38:13Z</time>
      </trkpt>
      <trkpt lat="31.229735478707916" lon="121.40010389126144">
        <ele>5.906736175529659</ele>
        <time>2026-05-14T09:38:16Z</time>
      </trkpt>
      <trkpt lat="31.229795461435298" lon="121.4002029002789">
        <ele>21.05489234160632</ele>
        <time>2026-05-14T09:38:19Z</time>
      </trkpt>
      <trkpt lat="31.23009334371559" lon="121.4003849018364">
        <ele>12.147787849418819</ele>
        <time>2026-05-14T09:38:28Z</time>
      </trkpt>
      <trkpt lat="31.230221276692102" lon="121.40031888048864">
        <ele>20.085177223198116</ele>
        <time>2026-05-14T09:38:34Z</time>
      </trkpt>
      <trkpt lat="31.230391199907704" lon="121.4003368684227">
        <ele>23.9349716110155</ele>
        <time>2026-05-14T09:38:40Z</time>
      </trkpt>
      <trkpt lat="31.230607091592145" lon="121.40026483866923">
        <ele>22.410378257744014</ele>
        <time>2026-05-14T09:38:49Z</time>
      </trkpt>
      <trkpt lat="31.23071803384019" lon="121.40020782053891">
        <ele>22.360174934379756</ele>
        <time>2026-05-14T09:38:52Z</time>
      </trkpt>
      <trkpt lat="31.230813979693014" lon="121.40011779917062">
        <ele>23.14228896331042</ele>
        <time>2026-05-14T09:38:55Z</time>
      </trkpt>
      <trkpt lat="31.23100488251601" lon="121.40003377077">
        <ele>20.86729125212878</ele>
        <time>2026-05-14T09:39:01Z</time>
      </trkpt>
      <trkpt lat="31.231106825821804" lon="121.39993874903749">
        <ele>18.301642219536006</ele>
        <time>2026-05-14T09:39:04Z</time>
      </trkpt>
      <trkpt lat="31.23117977475475" lon="121.39975371903031">
        <ele>18.54209021758288</ele>
        <time>2026-05-14T09:39:10Z</time>
      </trkpt>
      <trkpt lat="31.231186758628205" lon="121.39960370056949">
        <ele>11.658966819755733</ele>
        <time>2026-05-14T09:39:16Z</time>
      </trkpt>
      <trkpt lat="31.23117675726838" lon="121.39952969306998">
        <ele>20.920136253349483</ele>
        <time>2026-05-14T09:39:19Z</time>
      </trkpt>
      <trkpt lat="31.23113976774387" lon="121.39944368692794">
        <ele>16.372782508842647</ele>
        <time>2026-05-14T09:39:22Z</time>
      </trkpt>
      <trkpt lat="31.231035810584988" lon="121.39937168845088">
        <ele>11.939047615043819</ele>
        <time>2026-05-14T09:39:28Z</time>
      </trkpt>
      <trkpt lat="31.230825905291912" lon="121.3993357030901">
        <ele>-1.4572813110426068</ele>
        <time>2026-05-14T09:39:37Z</time>
      </trkpt>
      <trkpt lat="31.230597013851394" lon="121.39936972652102">
        <ele>23.63110903929919</ele>
        <time>2026-05-14T09:39:46Z</time>
      </trkpt>
      <trkpt lat="31.230274161833076" lon="121.39934475212904">
        <ele>23.871555129997432</ele>
        <time>2026-05-14T09:39:58Z</time>
      </trkpt>
      <trkpt lat="31.230013287939737" lon="121.39941378201203">
        <ele>18.341275970451534</ele>
        <time>2026-05-14T09:40:10Z</time>
      </trkpt>
      <trkpt lat="31.229907343212975" lon="121.39949379982976">
        <ele>16.82989482115954</ele>
        <time>2026-05-14T09:40:16Z</time>
      </trkpt>
      <trkpt lat="31.229909349540126" lon="121.39958480981865">
        <ele>18.30164126586169</ele>
        <time>2026-05-14T09:40:19Z</time>
      </trkpt>
      <trkpt lat="31.229909349540126" lon="121.39958480981865">
        <ele>8.1992380307078</ele>
        <time>2026-05-14T09:40:21Z</time>
      </trkpt>
    </trkseg>
  </trk>
</gpx>