<?xml version="1.0" encoding="UTF-8"?>
<gpx xmlns="http://www.topografix.com/GPX/1/1" xmlns:gpxtpx="http://www.garmin.com/xmlschemas/TrackPointExtension/v1" xmlns:xsi="http://www.w3.org/2001/XMLSchema-instance" xsi:schemaLocation="http://www.topografix.com/GPX/1/1 http://www.topografix.com/GPX/1/1/gpx.xsd" version="1.1" creator="gpx.py -- https://github.com/tkrajina/gpxpy">
  <trk>
    <name>gpx from keep</name>
    <type>Run</type>
    <trkseg>
      <trkpt lat="32.05187849010321" lon="118.80398906916423">
        <ele>7.500112645328045</ele>
        <time>2026-08-16T10:35:23Z</time>
      </trkpt>
      <trkpt lat="32.05189067609256" lon="118.80409427578283">
        <ele>7.698278538882732</ele>
        <time>2026-08-16T10:35:29Z</time>
      </trkpt>
      <trkpt lat="32.05191480723826" lon="118.80416641611859">
        <ele>7.489538304507732</ele>
        <time>2026-08-16T10:35:32Z</time>
      </trkpt>
      <trkpt lat="32.052073153787184" lon="118.80434475435288">
        <ele>7.888525120913982</ele>
        <time>2026-08-16T10:35:44Z</time>
      </trkpt>
      <trkpt lat="32.052212295078995" lon="118.8044078665525">
        <ele>7.373281590640545</ele>
        <time>2026-08-16T10:35:56Z</time>
      </trkpt>
      <trkpt lat="32.052368333372506" lon="118.80440985618405">
        <ele>8.076124303042889</ele>
        <time>2026-08-16T10:36:02Z</time>
      </trkpt>
      <trkpt lat="32.05256855840064" lon="118.80451304226735">
        <ele>8.086698643863201</ele>
        <time>2026-08-16T10:36:15Z</time>
      </trkpt>
      <trkpt lat="32.052904822648784" lon="118.80462122595998">
        <ele>8.308645360171795</ele>
        <time>2026-08-16T10:36:27Z</time>
      </trkpt>
      <trkpt lat="32.05298188190869" lon="118.80464526659144">
        <ele>8.707632176578045</ele>
        <time>2026-08-16T10:36:30Z</time>
      </trkpt>
      <trkpt lat="32.05316494198334" lon="118.8046562716427">
        <ele>9.389333836734295</ele>
        <time>2026-08-16T10:36:36Z</time>
      </trkpt>
      <trkpt lat="32.05329584838696" lon="118.80458612046857">
        <ele>7.542387120425701</ele>
        <time>2026-08-16T10:36:42Z</time>
      </trkpt>
      <trkpt lat="32.05337668063547" lon="118.80447990248233">
        <ele>7.856817357242107</ele>
        <time>2026-08-16T10:36:48Z</time>
      </trkpt>
      <trkpt lat="32.05340747389678" lon="118.80435765753342">
        <ele>7.846250645816326</ele>
        <time>2026-08-16T10:36:51Z</time>
      </trkpt>
      <trkpt lat="32.05341517483366" lon="118.80418531588396">
        <ele>7.048284642398357</ele>
        <time>2026-08-16T10:36:57Z</time>
      </trkpt>
      <trkpt lat="32.05335786695029" lon="118.80401598662252">
        <ele>8.21352206915617</ele>
        <time>2026-08-16T10:37:03Z</time>
      </trkpt>
      <trkpt lat="32.05332477583402" lon="118.80396789473475">
        <ele>8.424909703433514</ele>
        <time>2026-08-16T10:37:06Z</time>
      </trkpt>
      <trkpt lat="32.05303741897508" lon="118.80379958919036">
        <ele>7.164541356265545</ele>
        <time>2026-08-16T10:37:18Z</time>
      </trkpt>
      <trkpt lat="32.0527352158103" lon="118.80372146300087">
        <ele>8.00478183478117</ele>
        <time>2026-08-16T10:37:30Z</time>
      </trkpt>
      <trkpt lat="32.05245601957928" lon="118.80364433677067">
        <ele>5.18019687384367</ele>
        <time>2026-08-16T10:37:42Z</time>
      </trkpt>
      <trkpt lat="32.05225589494985" lon="118.80359826447103">
        <ele>7.687711827456951</ele>
        <time>2026-08-16T10:37:51Z</time>
      </trkpt>
      <trkpt lat="32.05209690123465" lon="118.80362232639486">
        <ele>8.00478183478117</ele>
        <time>2026-08-16T10:37:57Z</time>
      </trkpt>
      <trkpt lat="32.05199799922755" lon="118.80369147156046">
        <ele>8.601942174136639</ele>
        <time>2026-08-16T10:38:00Z</time>
      </trkpt>
      <trkpt lat="32.05193912363063" lon="118.80377063286599">
        <ele>7.973081700503826</ele>
        <time>2026-08-16T10:38:03Z</time>
      </trkpt>
      <trkpt lat="32.05190239601242" lon="118.80393195427084">
        <ele>-5.856584437191486</ele>
        <time>2026-08-16T10:38:09Z</time>
      </trkpt>
      <trkpt lat="32.0519176611589" lon="118.80408224955258">
        <ele>6.776128880679607</ele>
        <time>2026-08-16T10:38:16Z</time>
      </trkpt>
      <trkpt lat="32.052020036981084" lon="118.80428464026026">
        <ele>7.143407933413982</ele>
        <time>2026-08-16T10:38:25Z</time>
      </trkpt>
      <trkpt lat="32.05207716693078" lon="118.80435176786813">
        <ele>6.702146641910076</ele>
        <time>2026-08-16T10:38:28Z</time>
      </trkpt>
      <trkpt lat="32.05241240272823" lon="118.80444391961441">
        <ele>6.585882298648357</ele>
        <time>2026-08-16T10:38:46Z</time>
      </trkpt>
      <trkpt lat="32.052748686169956" lon="118.80456312504054">
        <ele>7.394422642886639</ele>
        <time>2026-08-16T10:39:01Z</time>
      </trkpt>
      <trkpt lat="32.05296489741891" lon="118.80465629002289">
        <ele>7.521246068179607</ele>
        <time>2026-08-16T10:39:10Z</time>
      </trkpt>
      <trkpt lat="32.05303894198264" lon="118.80467231503535">
        <ele>8.234663121402264</ele>
        <time>2026-08-16T10:39:13Z</time>
      </trkpt>
      <trkpt lat="32.053223893729104" lon="118.80462119664334">
        <ele>6.554174534976482</ele>
        <time>2026-08-16T10:39:22Z</time>
      </trkpt>
      <trkpt lat="32.053299828236796" lon="118.80457409625703">
        <ele>7.090559117496014</ele>
        <time>2026-08-16T10:39:25Z</time>
      </trkpt>
      <trkpt lat="32.05336172986168" lon="118.8045099634301">
        <ele>7.761694066226482</ele>
        <time>2026-08-16T10:39:28Z</time>
      </trkpt>
      <trkpt lat="32.05340460279065" lon="118.80443180462811">
        <ele>7.584661595523357</ele>
        <time>2026-08-16T10:39:31Z</time>
      </trkpt>
      <trkpt lat="32.05342926186637" lon="118.80423340968795">
        <ele>7.941373936831951</ele>
        <time>2026-08-16T10:39:37Z</time>
      </trkpt>
      <trkpt lat="32.053414087234884" lon="118.80413521696276">
        <ele>7.751127354800701</ele>
        <time>2026-08-16T10:39:40Z</time>
      </trkpt>
      <trkpt lat="32.05333581143753" lon="118.80398693129204">
        <ele>7.708852879703045</ele>
        <time>2026-08-16T10:39:46Z</time>
      </trkpt>
      <trkpt lat="32.053280692764936" lon="118.80392581575425">
        <ele>6.670438878238201</ele>
        <time>2026-08-16T10:39:49Z</time>
      </trkpt>
      <trkpt lat="32.05321159892067" lon="118.8038807331736">
        <ele>7.899091832339764</ele>
        <time>2026-08-16T10:39:52Z</time>
      </trkpt>
      <trkpt lat="32.052988472532626" lon="118.80383666675671">
        <ele>7.394422642886639</ele>
        <time>2026-08-16T10:40:01Z</time>
      </trkpt>
      <trkpt lat="32.05280229517915" lon="118.80375852985672">
        <ele>7.299299351871014</ele>
        <time>2026-08-16T10:40:10Z</time>
      </trkpt>
      <trkpt lat="32.05250408423159" lon="118.80367539349135">
        <ele>6.659864537417889</ele>
        <time>2026-08-16T10:40:22Z</time>
      </trkpt>
      <trkpt lat="32.05244702105264" lon="118.80364634154151">
        <ele>7.552953831851482</ele>
        <time>2026-08-16T10:40:25Z</time>
      </trkpt>
      <trkpt lat="32.05230295066161" lon="118.80362431140236">
        <ele>7.920232884585857</ele>
        <time>2026-08-16T10:40:31Z</time>
      </trkpt>
      <trkpt lat="32.052235878313674" lon="118.80359125251287">
        <ele>7.457838170230389</ele>
        <time>2026-08-16T10:40:34Z</time>
      </trkpt>
      <trkpt lat="32.05210192844806" lon="118.80363735550803">
        <ele>6.691572301089764</ele>
        <time>2026-08-16T10:40:40Z</time>
      </trkpt>
      <trkpt lat="32.0519820653004" lon="118.80373155194603">
        <ele>7.101125828921795</ele>
        <time>2026-08-16T10:40:46Z</time>
      </trkpt>
      <trkpt lat="32.05191820431675" lon="118.80381973153476">
        <ele>7.930799596011639</ele>
        <time>2026-08-16T10:40:49Z</time>
      </trkpt>
      <trkpt lat="32.051899517475995" lon="118.80400209294224">
        <ele>5.473486058413982</ele>
        <time>2026-08-16T10:40:55Z</time>
      </trkpt>
      <trkpt lat="32.0519066883956" lon="118.80409928420829">
        <ele>7.426130406558514</ele>
        <time>2026-08-16T10:40:58Z</time>
      </trkpt>
      <trkpt lat="32.051962961299374" lon="118.80424857414864">
        <ele>9.894010655581951</ele>
        <time>2026-08-16T10:41:04Z</time>
      </trkpt>
      <trkpt lat="32.05203011794418" lon="118.80432972855843">
        <ele>6.13405429571867</ele>
        <time>2026-08-16T10:41:07Z</time>
      </trkpt>
      <trkpt lat="32.05220530927748" lon="118.80441688505448">
        <ele>6.009870640933514</ele>
        <time>2026-08-16T10:41:16Z</time>
      </trkpt>
      <trkpt lat="32.05244747534898" lon="118.80448098984658">
        <ele>6.828970067203045</ele>
        <time>2026-08-16T10:41:28Z</time>
      </trkpt>
      <trkpt lat="32.05249554387707" lon="118.80451405096211">
        <ele>6.250318638980389</ele>
        <time>2026-08-16T10:41:31Z</time>
      </trkpt>
      <trkpt lat="32.052549541897385" lon="118.80450603011249">
        <ele>7.185682408511639</ele>
        <time>2026-08-16T10:41:34Z</time>
      </trkpt>
      <trkpt lat="32.05286678260991" lon="118.80460319367738">
        <ele>7.814542882144451</ele>
        <time>2026-08-16T10:41:49Z</time>
      </trkpt>
      <trkpt lat="32.05302489149073" lon="118.8046452626397">
        <ele>4.466779820621014</ele>
        <time>2026-08-16T10:41:55Z</time>
      </trkpt>
      <trkpt lat="32.053107917002414" lon="118.8046492629641">
        <ele>7.19624911993742</ele>
        <time>2026-08-16T10:41:58Z</time>
      </trkpt>
      <trkpt lat="32.05325484276056" lon="118.8045881282108">
        <ele>6.818403355777264</ele>
        <time>2026-08-16T10:42:04Z</time>
      </trkpt>
      <trkpt lat="32.05332577266978" lon="118.80453902433587">
        <ele>6.649297825992107</ele>
        <time>2026-08-16T10:42:07Z</time>
      </trkpt>
      <trkpt lat="32.05341754264633" lon="118.80439573199689">
        <ele>8.057630650699139</ele>
        <time>2026-08-16T10:42:13Z</time>
      </trkpt>
      <trkpt lat="32.05343344643429" lon="118.80433861746123">
        <ele>5.745641820132732</ele>
        <time>2026-08-16T10:42:16Z</time>
      </trkpt>
      <trkpt lat="32.05341703200114" lon="118.80410315333995">
        <ele>7.656004063785076</ele>
        <time>2026-08-16T10:42:22Z</time>
      </trkpt>
      <trkpt lat="32.05338291266824" lon="118.804039029821">
        <ele>4.067800633609295</ele>
        <time>2026-08-16T10:42:25Z</time>
      </trkpt>
      <trkpt lat="32.053074510868655" lon="118.80384768057742">
        <ele>6.073286168277264</ele>
        <time>2026-08-16T10:42:38Z</time>
      </trkpt>
      <trkpt lat="32.0527972801312" lon="118.80375051452748">
        <ele>0.05682193487882614</ele>
        <time>2026-08-16T10:42:50Z</time>
      </trkpt>
      <trkpt lat="32.0525180438443" lon="118.80365034290257">
        <ele>6.691572301089764</ele>
        <time>2026-08-16T10:43:02Z</time>
      </trkpt>
      <trkpt lat="32.052384927197615" lon="118.8036002565554">
        <ele>5.074506871402264</ele>
        <time>2026-08-16T10:43:08Z</time>
      </trkpt>
      <trkpt lat="32.05216686118425" lon="118.80359025688446">
        <ele>7.111700169742107</ele>
        <time>2026-08-16T10:43:17Z</time>
      </trkpt>
      <trkpt lat="32.052105892803986" lon="118.80361631373954">
        <ele>5.65315829962492</ele>
        <time>2026-08-16T10:43:20Z</time>
      </trkpt>
      <trkpt lat="32.05193914627682" lon="118.80378365852745">
        <ele>6.091779820621014</ele>
        <time>2026-08-16T10:43:29Z</time>
      </trkpt>
      <trkpt lat="32.051887457212764" lon="118.80396902879149">
        <ele>6.585882298648357</ele>
        <time>2026-08-16T10:43:35Z</time>
      </trkpt>
      <trkpt lat="32.05189465777355" lon="118.80408325364544">
        <ele>6.334867589175701</ele>
        <time>2026-08-16T10:43:38Z</time>
      </trkpt>
      <trkpt lat="32.05192685011441" lon="118.80418946056757">
        <ele>5.296453587710857</ele>
        <time>2026-08-16T10:43:41Z</time>
      </trkpt>
      <trkpt lat="32.05197602716482" lon="118.80428464430408">
        <ele>5.38893710821867</ele>
        <time>2026-08-16T10:43:44Z</time>
      </trkpt>
      <trkpt lat="32.052039168955346" lon="118.80435778326068">
        <ele>7.563528172671795</ele>
        <time>2026-08-16T10:43:47Z</time>
      </trkpt>
      <trkpt lat="32.05211425921192" lon="118.8043998596857">
        <ele>6.38771640509367</ele>
        <time>2026-08-16T10:43:50Z</time>
      </trkpt>
      <trkpt lat="32.052398429384375" lon="118.80446095464505">
        <ele>5.05336581915617</ele>
        <time>2026-08-16T10:44:02Z</time>
      </trkpt>
      <trkpt lat="32.05271969197835" lon="118.80457014161307">
        <ele>7.111700169742107</ele>
        <time>2026-08-16T10:44:17Z</time>
      </trkpt>
      <trkpt lat="32.053057919897164" lon="118.80465728346432">
        <ele>5.946455113589764</ele>
        <time>2026-08-16T10:44:32Z</time>
      </trkpt>
      <trkpt lat="32.053152944573306" lon="118.80465927871018">
        <ele>6.984869115054607</ele>
        <time>2026-08-16T10:44:35Z</time>
      </trkpt>
      <trkpt lat="32.05322391477819" lon="118.80463322049619">
        <ele>5.579176060855389</ele>
        <time>2026-08-16T10:44:38Z</time>
      </trkpt>
      <trkpt lat="32.05333872649093" lon="118.8045109675298">
        <ele>6.020437352359295</ele>
        <time>2026-08-16T10:44:44Z</time>
      </trkpt>
      <trkpt lat="32.05339551148499" lon="118.80438070425983">
        <ele>6.723280064761639</ele>
        <time>2026-08-16T10:44:50Z</time>
      </trkpt>
      <trkpt lat="32.0534020234201" lon="118.80410014878072">
        <ele>6.398283116519451</ele>
        <time>2026-08-16T10:44:59Z</time>
      </trkpt>
      <trkpt lat="32.053298722938784" lon="118.80394084374815">
        <ele>6.754987828433514</ele>
        <time>2026-08-16T10:45:08Z</time>
      </trkpt>
      <trkpt lat="32.05314954675372" lon="118.80385869541122">
        <ele>7.00600253790617</ele>
        <time>2026-08-16T10:45:14Z</time>
      </trkpt>
      <trkpt lat="32.05292938445415" lon="118.80379358727171">
        <ele>6.32430087774992</ele>
        <time>2026-08-16T10:45:23Z</time>
      </trkpt>
      <trkpt lat="32.05285336751621" lon="118.80379359425748">
        <ele>6.313726536929607</ele>
        <time>2026-08-16T10:45:26Z</time>
      </trkpt>
      <trkpt lat="32.0525761385799" lon="118.80369743026749">
        <ele>6.670438878238201</ele>
        <time>2026-08-16T10:45:38Z</time>
      </trkpt>
      <trkpt lat="32.05229891497668" lon="118.80360427234476">
        <ele>6.271452061831951</ele>
        <time>2026-08-16T10:45:50Z</time>
      </trkpt>
      <trkpt lat="32.05216487639235" lon="118.80359927480673">
        <ele>6.218610875308514</ele>
        <time>2026-08-16T10:45:56Z</time>
      </trkpt>
      <trkpt lat="32.052084902037315" lon="118.8036243314407">
        <ele>5.632024876773357</ele>
        <time>2026-08-16T10:45:59Z</time>
      </trkpt>
      <trkpt lat="32.051954059053465" lon="118.80373155451967">
        <ele>4.530195347964764</ele>
        <time>2026-08-16T10:46:06Z</time>
      </trkpt>
      <trkpt lat="32.0518964574761" lon="118.80396802598717">
        <ele>1.9777585193514824</ele>
        <time>2026-08-16T10:46:15Z</time>
      </trkpt>
      <trkpt lat="32.05191875221457" lon="118.80413435238874">
        <ele>6.59645663946867</ele>
        <time>2026-08-16T10:46:21Z</time>
      </trkpt>
      <trkpt lat="32.051944906574924" lon="118.80421951834165">
        <ele>3.2804013416171074</ele>
        <time>2026-08-16T10:46:24Z</time>
      </trkpt>
      <trkpt lat="32.05197699765212" lon="118.8042676105164">
        <ele>6.543607823550701</ele>
        <time>2026-08-16T10:46:27Z</time>
      </trkpt>
      <trkpt lat="32.05205709946994" lon="118.80431569831705">
        <ele>6.250318638980389</ele>
        <time>2026-08-16T10:46:30Z</time>
      </trkpt>
      <trkpt lat="32.05217614526269" lon="118.80432670919157">
        <ele>6.501333348453045</ele>
        <time>2026-08-16T10:46:36Z</time>
      </trkpt>
      <trkpt lat="32.05225225672798" lon="118.80438080930813">
        <ele>6.429990880191326</ele>
        <time>2026-08-16T10:46:39Z</time>
      </trkpt>
      <trkpt lat="32.0523743172007" lon="118.80439983579083">
        <ele>4.403364293277264</ele>
        <time>2026-08-16T10:46:45Z</time>
      </trkpt>
      <trkpt lat="32.05264658630524" lon="118.80451904701474">
        <ele>6.807836644351482</ele>
        <time>2026-08-16T10:46:57Z</time>
      </trkpt>
      <trkpt lat="32.052904815632864" lon="118.80461721800957">
        <ele>6.049505345523357</ele>
        <time>2026-08-16T10:47:09Z</time>
      </trkpt>
      <trkpt lat="32.053040912600125" lon="118.80465528105026">
        <ele>6.123487584292889</ele>
        <time>2026-08-16T10:47:15Z</time>
      </trkpt>
      <trkpt lat="32.05317892054091" lon="118.80464224252289">
        <ele>5.032224766910076</ele>
        <time>2026-08-16T10:47:21Z</time>
      </trkpt>
      <trkpt lat="32.05323688434752" lon="118.8046141815355">
        <ele>6.776128880679607</ele>
        <time>2026-08-16T10:47:24Z</time>
      </trkpt>
      <trkpt lat="32.053330712441976" lon="118.80450395436416">
        <ele>6.303159825503826</ele>
        <time>2026-08-16T10:47:30Z</time>
      </trkpt>
      <trkpt lat="32.05341145378493" lon="118.8043456333656">
        <ele>6.239744298160076</ele>
        <time>2026-08-16T10:47:36Z</time>
      </trkpt>
      <trkpt lat="32.05342031932107" lon="118.80426747789367">
        <ele>6.377142064273357</ele>
        <time>2026-08-16T10:47:39Z</time>
      </trkpt>
      <trkpt lat="32.05338401591753" lon="118.80409814647662">
        <ele>5.420644871890545</ele>
        <time>2026-08-16T10:47:45Z</time>
      </trkpt>
      <trkpt lat="32.05334286360907" lon="118.80401598800124">
        <ele>4.128568761050701</ele>
        <time>2026-08-16T10:47:48Z</time>
      </trkpt>
      <trkpt lat="32.053169556439336" lon="118.80386169949892">
        <ele>6.398283116519451</ele>
        <time>2026-08-16T10:47:58Z</time>
      </trkpt>
      <trkpt lat="32.052894340069855" lon="118.80377254903323">
        <ele>6.123487584292889</ele>
        <time>2026-08-16T10:48:10Z</time>
      </trkpt>
      <trkpt lat="32.052578123358686" lon="118.80368841233046">
        <ele>5.494627110660076</ele>
        <time>2026-08-16T10:48:25Z</time>
      </trkpt>
      <trkpt lat="32.05226286868241" lon="118.80358223229382">
        <ele>5.085073582828045</ele>
        <time>2026-08-16T10:48:40Z</time>
      </trkpt>
      <trkpt lat="32.0521228705027" lon="118.80360128260939">
        <ele>6.313726536929607</ele>
        <time>2026-08-16T10:48:46Z</time>
      </trkpt>
      <trkpt lat="32.05197508289444" lon="118.8037425742957">
        <ele>7.016576878726482</ele>
        <time>2026-08-16T10:48:55Z</time>
      </trkpt>
      <trkpt lat="32.05191733134436" lon="118.8038928758209">
        <ele>6.292593114078045</ele>
        <time>2026-08-16T10:49:01Z</time>
      </trkpt>
      <trkpt lat="32.05193268371699" lon="118.80409326994352">
        <ele>4.958242528140545</ele>
        <time>2026-08-16T10:49:10Z</time>
      </trkpt>
      <trkpt lat="32.051970852939604" lon="118.804185448601">
        <ele>0.9287778064608574</ele>
        <time>2026-08-16T10:49:13Z</time>
      </trkpt>
      <trkpt lat="32.05208406175437" lon="118.8042906462721">
        <ele>6.144621007144451</ele>
        <time>2026-08-16T10:49:20Z</time>
      </trkpt>
      <trkpt lat="32.05227919448541" lon="118.80434172947105">
        <ele>-10.678735621273518</ele>
        <time>2026-08-16T10:49:29Z</time>
      </trkpt>
      <trkpt lat="32.052438406774385" lon="118.80444291524014">
        <ele>6.733854405581951</ele>
        <time>2026-08-16T10:49:38Z</time>
      </trkpt>
      <trkpt lat="32.052566484362174" lon="118.80447095905697">
        <ele>6.292593114078045</ele>
        <time>2026-08-16T10:49:44Z</time>
      </trkpt>
      <trkpt lat="32.05274268483253" lon="118.80456312559195">
        <ele>6.292593114078045</ele>
        <time>2026-08-16T10:49:53Z</time>
      </trkpt>
      <trkpt lat="32.0528717626802" lon="118.80459116937081">
        <ele>6.176328770816326</ele>
        <time>2026-08-16T10:49:59Z</time>
      </trkpt>
      <trkpt lat="32.053059920342804" lon="118.80465728328052">
        <ele>6.807836644351482</ele>
        <time>2026-08-16T10:50:08Z</time>
      </trkpt>
      <trkpt lat="32.05319091795156" lon="118.80463923545622">
        <ele>6.345434300601482</ele>
        <time>2026-08-16T10:50:14Z</time>
      </trkpt>
      <trkpt lat="32.05337170054719" lon="118.80449192676781">
        <ele>-4.18930996209383</ele>
        <time>2026-08-16T10:50:23Z</time>
      </trkpt>
      <trkpt lat="32.05342056082377" lon="118.80440575156254">
        <ele>6.702146641910076</ele>
        <time>2026-08-16T10:50:26Z</time>
      </trkpt>
      <trkpt lat="32.0534383863049" lon="118.8043035476016">
        <ele>6.334867589175701</ele>
        <time>2026-08-16T10:50:29Z</time>
      </trkpt>
      <trkpt lat="32.05343422801165" lon="118.8042133696027">
        <ele>6.408849827945232</ele>
        <time>2026-08-16T10:50:32Z</time>
      </trkpt>
      <trkpt lat="32.05336091649703" lon="118.80404404173477">
        <ele>6.53304111212492</ele>
        <time>2026-08-16T10:50:38Z</time>
      </trkpt>
      <trkpt lat="32.053263657585255" lon="118.80390778174366">
        <ele>5.957021825015545</ele>
        <time>2026-08-16T10:50:44Z</time>
      </trkpt>
      <trkpt lat="32.05299842073882" lon="118.80380560462159">
        <ele>5.632024876773357</ele>
        <time>2026-08-16T10:50:56Z</time>
      </trkpt>
      <trkpt lat="32.05278629335462" lon="118.80375953330109">
        <ele>3.8669873401522636</ele>
        <time>2026-08-16T10:51:05Z</time>
      </trkpt>
      <trkpt lat="32.052733218846925" lon="118.80372346713085">
        <ele>6.932020299136639</ele>
        <time>2026-08-16T10:51:08Z</time>
      </trkpt>
      <trkpt lat="32.05255210015541" lon="118.80367839499617">
        <ele>5.18019687384367</ele>
        <time>2026-08-16T10:51:17Z</time>
      </trkpt>
      <trkpt lat="32.052426955698024" lon="118.80361127437712">
        <ele>6.46962558478117</ele>
        <time>2026-08-16T10:51:23Z</time>
      </trkpt>
      <trkpt lat="32.052181831486145" lon="118.80357121806236">
        <ele>3.919828526675701</ele>
        <time>2026-08-16T10:51:35Z</time>
      </trkpt>
      <trkpt lat="32.05211239433741" lon="118.80360358496603">
        <ele>5.703367345035076</ele>
        <time>2026-08-16T10:51:38Z</time>
      </trkpt>
      <trkpt lat="32.051987610201216" lon="118.80367668083174">
        <ele>5.410070531070232</ele>
        <time>2026-08-16T10:51:44Z</time>
      </trkpt>
      <trkpt lat="32.05200517686638" lon="118.80370914964952">
        <ele>5.978162877261639</ele>
        <time>2026-08-16T10:51:47Z</time>
      </trkpt>
      <trkpt lat="32.05191349616745" lon="118.80398806396992">
        <ele>6.282026402652264</ele>
        <time>2026-08-16T10:51:59Z</time>
      </trkpt>
      <trkpt lat="32.05191361661071" lon="118.80405720045125">
        <ele>5.79848300665617</ele>
        <time>2026-08-16T10:52:02Z</time>
      </trkpt>
      <trkpt lat="32.05197996684092" lon="118.80424957456792">
        <ele>5.314947240054607</ele>
        <time>2026-08-16T10:52:11Z</time>
      </trkpt>
      <trkpt lat="32.05204813245952" lon="118.80433573880225">
        <ele>6.155195347964764</ele>
        <time>2026-08-16T10:52:17Z</time>
      </trkpt>
      <trkpt lat="32.052329405238495" lon="118.80445595106114">
        <ele>6.020437352359295</ele>
        <time>2026-08-16T10:52:32Z</time>
      </trkpt>
      <trkpt lat="32.05262364252672" lon="118.80455411864851">
        <ele>5.86189853399992</ele>
        <time>2026-08-16T10:52:45Z</time>
      </trkpt>
      <trkpt lat="32.05293184796093" lon="118.80463224534361">
        <ele>5.98872958868742</ele>
        <time>2026-08-16T10:52:57Z</time>
      </trkpt>
      <trkpt lat="32.05303792596792" lon="118.80466329723187">
        <ele>6.292593114078045</ele>
        <time>2026-08-16T10:53:03Z</time>
      </trkpt>
      <trkpt lat="32.05314292129187" lon="118.80464725577141">
        <ele>5.703367345035076</ele>
        <time>2026-08-16T10:53:06Z</time>
      </trkpt>
      <trkpt lat="32.05333875979038" lon="118.8045300052647">
        <ele>6.031004063785076</ele>
        <time>2026-08-16T10:53:15Z</time>
      </trkpt>
      <trkpt lat="32.05339165944945" lon="118.80446587330968">
        <ele>6.176328770816326</ele>
        <time>2026-08-16T10:53:18Z</time>
      </trkpt>
      <trkpt lat="32.05341456298939" lon="118.80440775608245">
        <ele>5.79848300665617</ele>
        <time>2026-08-16T10:53:21Z</time>
      </trkpt>
      <trkpt lat="32.0534283648334" lon="118.80429252671333">
        <ele>6.218610875308514</ele>
        <time>2026-08-16T10:53:24Z</time>
      </trkpt>
      <trkpt lat="32.05341104813254" lon="118.8041131736856">
        <ele>4.696661107242107</ele>
        <time>2026-08-16T10:53:30Z</time>
      </trkpt>
      <trkpt lat="32.053378920506404" lon="118.8040440400803">
        <ele>5.840765111148357</ele>
        <time>2026-08-16T10:53:33Z</time>
      </trkpt>
      <trkpt lat="32.053254702670976" lon="118.80393483593268">
        <ele>5.484052769839764</ele>
        <time>2026-08-16T10:53:39Z</time>
      </trkpt>
      <trkpt lat="32.052949404592134" lon="118.8038026032023">
        <ele>5.914747349917889</ele>
        <time>2026-08-16T10:53:54Z</time>
      </trkpt>
      <trkpt lat="32.05265714097082" lon="118.80368840506884">
        <ele>5.682226292788982</ele>
        <time>2026-08-16T10:54:10Z</time>
      </trkpt>
      <trkpt lat="32.05236493665357" lon="118.80360827416258">
        <ele>5.011091344058514</ele>
        <time>2026-08-16T10:54:22Z</time>
      </trkpt>
      <trkpt lat="32.052158819399985" lon="118.80356721229447">
        <ele>5.148489110171795</ele>
        <time>2026-08-16T10:54:31Z</time>
      </trkpt>
      <trkpt lat="32.051936168256134" lon="118.80379668446746">
        <ele>5.032224766910076</ele>
        <time>2026-08-16T10:54:43Z</time>
      </trkpt>
      <trkpt lat="32.05190828574859" lon="118.80386782725662">
        <ele>5.05336581915617</ele>
        <time>2026-08-16T10:54:46Z</time>
      </trkpt>
      <trkpt lat="32.051913063844104" lon="118.80431370758579">
        <ele>4.855192296206951</ele>
        <time>2026-08-16T10:54:58Z</time>
      </trkpt>
      <trkpt lat="32.05212320344713" lon="118.80436679339222">
        <ele>5.106214635074139</ele>
        <time>2026-08-16T10:55:10Z</time>
      </trkpt>
      <trkpt lat="32.052197307493124" lon="118.8044168857897">
        <ele>6.712713353335857</ele>
        <time>2026-08-16T10:55:16Z</time>
      </trkpt>
      <trkpt lat="32.05246948551072" lon="118.80448399378099">
        <ele>5.32552158087492</ele>
        <time>2026-08-16T10:55:31Z</time>
      </trkpt>
      <trkpt lat="32.05259462729627" lon="118.80454911138102">
        <ele>5.296453587710857</ele>
        <time>2026-08-16T10:55:37Z</time>
      </trkpt>
      <trkpt lat="32.05278473452158" lon="118.80458616743067">
        <ele>5.296453587710857</ele>
        <time>2026-08-16T10:55:47Z</time>
      </trkpt>
      <trkpt lat="32.053074950004316" lon="118.80467231172693">
        <ele>5.410070531070232</ele>
        <time>2026-08-16T10:55:59Z</time>
      </trkpt>
      <trkpt lat="32.05322389723714" lon="118.80462320061865">
        <ele>5.703367345035076</ele>
        <time>2026-08-16T10:56:05Z</time>
      </trkpt>
      <trkpt lat="32.0533696352798" lon="118.80445485349563">
        <ele>5.819624058902264</ele>
        <time>2026-08-16T10:56:14Z</time>
      </trkpt>
      <trkpt lat="32.053416386653595" lon="118.80430655557142">
        <ele>4.612104527652264</ele>
        <time>2026-08-16T10:56:20Z</time>
      </trkpt>
      <trkpt lat="32.05341423229862" lon="118.80421838134674">
        <ele>5.032224766910076</ele>
        <time>2026-08-16T10:56:23Z</time>
      </trkpt>
      <trkpt lat="32.053395091738935" lon="118.80414022860857">
        <ele>5.032224766910076</ele>
        <time>2026-08-16T10:56:26Z</time>
      </trkpt>
      <trkpt lat="32.05320459910469" lon="118.80388173579273">
        <ele>5.610883824527264</ele>
        <time>2026-08-16T10:56:38Z</time>
      </trkpt>
      <trkpt lat="32.05303851679171" lon="118.80385569968814">
        <ele>4.65437900274992</ele>
        <time>2026-08-16T10:56:44Z</time>
      </trkpt>
      <trkpt lat="32.05275226139284" lon="118.80374550879634">
        <ele>5.410070531070232</ele>
        <time>2026-08-16T10:56:56Z</time>
      </trkpt>
      <trkpt lat="32.05248507477362" lon="118.80367238932105">
        <ele>5.883039586246014</ele>
        <time>2026-08-16T10:57:08Z</time>
      </trkpt>
      <trkpt lat="32.05234099915519" lon="118.80364735325676">
        <ele>5.505193822085857</ele>
        <time>2026-08-16T10:57:14Z</time>
      </trkpt>
      <trkpt lat="32.05222887675241" lon="118.80359125315631">
        <ele>5.621458165347576</ele>
        <time>2026-08-16T10:57:20Z</time>
      </trkpt>
      <trkpt lat="32.05208888553245" lon="118.8036143113596">
        <ele>5.283247105777264</ele>
        <time>2026-08-16T10:57:26Z</time>
      </trkpt>
      <trkpt lat="32.05196800646114" lon="118.80369949009881">
        <ele>5.275320164859295</ele>
        <time>2026-08-16T10:57:35Z</time>
      </trkpt>
      <trkpt lat="32.05190119529588" lon="118.80381672717337">
        <ele>5.367796055972576</ele>
        <time>2026-08-16T10:57:38Z</time>
      </trkpt>
      <trkpt lat="32.051891473808915" lon="118.80397804621853">
        <ele>5.703367345035076</ele>
        <time>2026-08-16T10:57:44Z</time>
      </trkpt>
      <trkpt lat="32.05190877619227" lon="118.80414938300679">
        <ele>4.98995029181242</ele>
        <time>2026-08-16T10:57:50Z</time>
      </trkpt>
      <trkpt lat="32.051939910704526" lon="118.80422252474482">
        <ele>-0.07792843133211136</ele>
        <time>2026-08-16T10:57:53Z</time>
      </trkpt>
      <trkpt lat="32.05198502217571" lon="118.8042806355481">
        <ele>4.855192296206951</ele>
        <time>2026-08-16T10:57:56Z</time>
      </trkpt>
      <trkpt lat="32.0521122009934" lon="118.80436679440315">
        <ele>2.7545834705233574</ele>
        <time>2026-08-16T10:58:02Z</time>
      </trkpt>
      <trkpt lat="32.052381450119576" lon="118.80447498400004">
        <ele>4.361089818179607</ele>
        <time>2026-08-16T10:58:14Z</time>
      </trkpt>
      <trkpt lat="32.05269071181482" lon="118.8045851740823">
        <ele>5.632024876773357</ele>
        <time>2026-08-16T10:58:29Z</time>
      </trkpt>
      <trkpt lat="32.05295788182345" lon="118.80464827476118">
        <ele>5.735075108706951</ele>
        <time>2026-08-16T10:58:41Z</time>
      </trkpt>
      <trkpt lat="32.053086947414045" lon="118.80466930465884">
        <ele>2.8814145252108574</ele>
        <time>2026-08-16T10:58:47Z</time>
      </trkpt>
      <trkpt lat="32.05320192741937" lon="118.80464324239713">
        <ele>5.536901585757732</ele>
        <time>2026-08-16T10:58:53Z</time>
      </trkpt>
      <trkpt lat="32.05330583658687" lon="118.80457810365333">
        <ele>5.314947240054607</ele>
        <time>2026-08-16T10:58:59Z</time>
      </trkpt>
      <trkpt lat="32.053372681496555" lon="118.80448090483534">
        <ele>5.621458165347576</ele>
        <time>2026-08-16T10:59:02Z</time>
      </trkpt>
      <trkpt lat="32.05341439845565" lon="118.804313569634">
        <ele>2.712308995425701</ele>
        <time>2026-08-16T10:59:08Z</time>
      </trkpt>
      <trkpt lat="32.05339712538446" lon="118.8041592660465">
        <ele>5.809057347476482</ele>
        <time>2026-08-16T10:59:14Z</time>
      </trkpt>
      <trkpt lat="32.053330881882594" lon="118.80402801284036">
        <ele>5.547468297183514</ele>
        <time>2026-08-16T10:59:20Z</time>
      </trkpt>
      <trkpt lat="32.053170567121825" lon="118.80386771125958">
        <ele>5.336088292300701</ele>
        <time>2026-08-16T10:59:29Z</time>
      </trkpt>
      <trkpt lat="32.0530445024409" lon="118.80384668135979">
        <ele>5.703367345035076</ele>
        <time>2026-08-16T10:59:38Z</time>
      </trkpt>
      <trkpt lat="32.05290636190655" lon="118.80378356964415">
        <ele>5.211904637515545</ele>
        <time>2026-08-16T10:59:44Z</time>
      </trkpt>
      <trkpt lat="32.05279030469701" lon="118.80376554477583">
        <ele>5.79848300665617</ele>
        <time>2026-08-16T10:59:47Z</time>
      </trkpt>
      <trkpt lat="32.05249605634147" lon="118.8036603646443">
        <ele>5.558042638003826</ele>
        <time>2026-08-16T11:00:02Z</time>
      </trkpt>
      <trkpt lat="32.052432035109724" lon="118.80365636263915">
        <ele>5.777349583804607</ele>
        <time>2026-08-16T11:00:05Z</time>
      </trkpt>
      <trkpt lat="32.05227187242885" lon="118.80358323343727">
        <ele>5.211904637515545</ele>
        <time>2026-08-16T11:00:14Z</time>
      </trkpt>
      <trkpt lat="32.05218684477484" lon="118.80357823139695">
        <ele>0.16251956671476364</ele>
        <time>2026-08-16T11:00:17Z</time>
      </trkpt>
      <trkpt lat="32.05199799574604" lon="118.80368946761541">
        <ele>5.431211583316326</ele>
        <time>2026-08-16T11:00:27Z</time>
      </trkpt>
      <trkpt lat="32.051931174109875" lon="118.80380069282428">
        <ele>5.275320164859295</ele>
        <time>2026-08-16T11:00:33Z</time>
      </trkpt>
      <trkpt lat="32.051909477825106" lon="118.80397804456413">
        <ele>1.7690182849764824</ele>
        <time>2026-08-16T11:00:39Z</time>
      </trkpt>
      <trkpt lat="32.0519107067553" lon="118.80410930363387">
        <ele>5.336088292300701</ele>
        <time>2026-08-16T11:00:45Z</time>
      </trkpt>
      <trkpt lat="32.05193687506993" lon="118.80420248539902">
        <ele>5.190763585269451</ele>
        <time>2026-08-16T11:00:48Z</time>
      </trkpt>
      <trkpt lat="32.05202610480271" lon="118.80432271504567">
        <ele>5.663732640445232</ele>
        <time>2026-08-16T11:00:54Z</time>
      </trkpt>
      <trkpt lat="32.052332407659236" lon="118.80445695277045">
        <ele>0.9287778064608574</ele>
        <time>2026-08-16T11:01:09Z</time>
      </trkpt>
      <trkpt lat="32.05251753125791" lon="118.80450402908181">
        <ele>5.632024876773357</ele>
        <time>2026-08-16T11:01:19Z</time>
      </trkpt>
      <trkpt lat="32.05263863535256" lon="118.80454810535089">
        <ele>4.90804111212492</ele>
        <time>2026-08-16T11:01:25Z</time>
      </trkpt>
      <trkpt lat="32.05271265886091" lon="118.80455210649615">
        <ele>5.724500767886639</ele>
        <time>2026-08-16T11:01:31Z</time>
      </trkpt>
      <trkpt lat="32.05296692242888" lon="118.80467031767532">
        <ele>5.357229344546795</ele>
        <time>2026-08-16T11:01:40Z</time>
      </trkpt>
      <trkpt lat="32.0530409634859" lon="118.80468433871404">
        <ele>5.671659581363201</ele>
        <time>2026-08-16T11:01:43Z</time>
      </trkpt>
      <trkpt lat="32.053172968329974" lon="118.80467029874377">
        <ele>4.65437900274992</ele>
        <time>2026-08-16T11:01:49Z</time>
      </trkpt>
      <trkpt lat="32.05334377492646" lon="118.80453802069525">
        <ele>5.787916295230389</ele>
        <time>2026-08-16T11:01:58Z</time>
      </trkpt>
      <trkpt lat="32.05338265394116" lon="118.80446387016651">
        <ele>5.05336581915617</ele>
        <time>2026-08-16T11:02:01Z</time>
      </trkpt>
      <trkpt lat="32.05340940259114" lon="118.80431657604184">
        <ele>2.36617099493742</ele>
        <time>2026-08-16T11:02:07Z</time>
      </trkpt>
      <trkpt lat="32.05338611943935" lon="118.80415726309707">
        <ele>5.357229344546795</ele>
        <time>2026-08-16T11:02:14Z</time>
      </trkpt>
      <trkpt lat="32.05331787374994" lon="118.804025008101">
        <ele>6.429990880191326</ele>
        <time>2026-08-16T11:02:20Z</time>
      </trkpt>
      <trkpt lat="32.053225708420854" lon="118.80394185243473">
        <ele>4.865766637027264</ele>
        <time>2026-08-16T11:02:26Z</time>
      </trkpt>
      <trkpt lat="32.05312858740282" lon="118.80388474870563">
        <ele>4.696661107242107</ele>
        <time>2026-08-16T11:02:32Z</time>
      </trkpt>
      <trkpt lat="32.053051554554415" lon="118.80387573800209">
        <ele>5.233038060367107</ele>
        <time>2026-08-16T11:02:38Z</time>
      </trkpt>
      <trkpt lat="32.05300749245307" lon="118.80384568278562">
        <ele>5.840765111148357</ele>
        <time>2026-08-16T11:02:41Z</time>
      </trkpt>
      <trkpt lat="32.052914478700195" lon="118.8038496992345">
        <ele>5.787916295230389</ele>
        <time>2026-08-16T11:02:44Z</time>
      </trkpt>
      <trkpt lat="32.05262421544422" lon="118.80373550082821">
        <ele>2.36617099493742</ele>
        <time>2026-08-16T11:02:56Z</time>
      </trkpt>
      <trkpt lat="32.05256720099501" lon="118.80373450409427">
        <ele>5.314947240054607</ele>
        <time>2026-08-16T11:02:59Z</time>
      </trkpt>
      <trkpt lat="32.05238495850987" lon="118.80361829203667">
        <ele>5.074506871402264</ele>
        <time>2026-08-16T11:03:08Z</time>
      </trkpt>
      <trkpt lat="32.05225990106027" lon="118.80360127001643">
        <ele>2.6594678089022636</ele>
        <time>2026-08-16T11:03:14Z</time>
      </trkpt>
      <trkpt lat="32.052068966331" lon="118.80366340980969">
        <ele>4.580396763980389</ele>
        <time>2026-08-16T11:03:24Z</time>
      </trkpt>
      <trkpt lat="32.052030095164724" lon="118.80374256924033">
        <ele>2.6277600452303886</ele>
        <time>2026-08-16T11:03:27Z</time>
      </trkpt>
      <trkpt lat="32.051959131576695" lon="118.80377263497542">
        <ele>5.462919346988201</ele>
        <time>2026-08-16T11:03:30Z</time>
      </trkpt>
      <trkpt lat="32.05192837390731" lon="118.80391592025913">
        <ele>3.016172520816326</ele>
        <time>2026-08-16T11:03:36Z</time>
      </trkpt>
      <trkpt lat="32.05193184948206" lon="118.80418845812736">
        <ele>4.738935582339764</ele>
        <time>2026-08-16T11:03:45Z</time>
      </trkpt>
      <trkpt lat="32.051949982883215" lon="118.80426260308822">
        <ele>-13.88645351678133</ele>
        <time>2026-08-16T11:03:48Z</time>
      </trkpt>
      <trkpt lat="32.052111224991954" lon="118.80451992364814">
        <ele>3.269827000796795</ele>
        <time>2026-08-16T11:03:57Z</time>
      </trkpt>
      <trkpt lat="32.05206804651518" lon="118.80449715536939">
        <ele>4.24483310431242</ele>
        <time>2026-08-16T11:04:00Z</time>
      </trkpt>
      <trkpt lat="32.052125976901074" lon="118.80460973852843">
        <ele>5.79848300665617</ele>
        <time>2026-08-16T11:04:06Z</time>
      </trkpt>
      <trkpt lat="32.05229482099093" lon="118.80452888405303">
        <ele>2.239347569644451</ele>
        <time>2026-08-16T11:04:09Z</time>
      </trkpt>
      <trkpt lat="32.05239551632138" lon="118.80451105419458">
        <ele>5.579176060855389</ele>
        <time>2026-08-16T11:04:12Z</time>
      </trkpt>
      <trkpt lat="32.05259767705464" lon="118.80457716673314">
        <ele>4.98995029181242</ele>
        <time>2026-08-16T11:04:21Z</time>
      </trkpt>
      <trkpt lat="32.05274870720933" lon="118.80457514888224">
        <ele>4.876333348453045</ele>
        <time>2026-08-16T11:04:27Z</time>
      </trkpt>
      <trkpt lat="32.052818750867615" lon="118.8045911742416">
        <ele>4.696661107242107</ele>
        <time>2026-08-16T11:04:30Z</time>
      </trkpt>
      <trkpt lat="32.05301793379377" lon="118.80467031298839">
        <ele>5.314947240054607</ele>
        <time>2026-08-16T11:04:39Z</time>
      </trkpt>
      <trkpt lat="32.05314698710424" lon="118.80468432897258">
        <ele>2.598692052066326</ele>
        <time>2026-08-16T11:04:45Z</time>
      </trkpt>
      <trkpt lat="32.05326090372583" lon="118.80462219523059">
        <ele>5.462919346988201</ele>
        <time>2026-08-16T11:04:52Z</time>
      </trkpt>
      <trkpt lat="32.05332781518799" lon="118.80456307182881">
        <ele>5.201330296695232</ele>
        <time>2026-08-16T11:04:55Z</time>
      </trkpt>
      <trkpt lat="32.05342250874575" lon="118.80437569185943">
        <ele>6.049505345523357</ele>
        <time>2026-08-16T11:05:04Z</time>
      </trkpt>
      <trkpt lat="32.053416253725274" lon="118.80423040493852">
        <ele>5.957021825015545</ele>
        <time>2026-08-16T11:05:07Z</time>
      </trkpt>
      <trkpt lat="32.053385059810616" lon="118.80412319587113">
        <ele>4.297674290835857</ele>
        <time>2026-08-16T11:05:10Z</time>
      </trkpt>
      <trkpt lat="32.05322770014462" lon="118.8039368423676">
        <ele>5.190763585269451</ele>
        <time>2026-08-16T11:05:19Z</time>
      </trkpt>
      <trkpt lat="32.05315958907904" lon="118.80388173992901">
        <ele>5.201330296695232</ele>
        <time>2026-08-16T11:05:22Z</time>
      </trkpt>
      <trkpt lat="32.05286036384965" lon="118.80379058769138">
        <ele>5.296453587710857</ele>
        <time>2026-08-16T11:05:34Z</time>
      </trkpt>
      <trkpt lat="32.052577114432296" lon="118.80368340256007">
        <ele>4.894827000796795</ele>
        <time>2026-08-16T11:05:49Z</time>
      </trkpt>
      <trkpt lat="32.05250507401161" lon="118.80366938156602">
        <ele>5.621458165347576</ele>
        <time>2026-08-16T11:05:52Z</time>
      </trkpt>
      <trkpt lat="32.052438994908655" lon="118.8036323146733">
        <ele>3.742796055972576</ele>
        <time>2026-08-16T11:05:58Z</time>
      </trkpt>
      <trkpt lat="32.05237899370883" lon="118.80363933398985">
        <ele>5.190763585269451</ele>
        <time>2026-08-16T11:06:01Z</time>
      </trkpt>
      <trkpt lat="32.0523099487432" lon="118.80362230681611">
        <ele>3.3411694690585136</ele>
        <time>2026-08-16T11:06:04Z</time>
      </trkpt>
      <trkpt lat="32.05209898346569" lon="118.80366941888491">
        <ele>4.937109105288982</ele>
        <time>2026-08-16T11:06:13Z</time>
      </trkpt>
      <trkpt lat="32.051997145280495" lon="118.80377563740439">
        <ele>4.633245579898357</ele>
        <time>2026-08-16T11:06:19Z</time>
      </trkpt>
      <trkpt lat="32.05192321588839" lon="118.80382574292345">
        <ele>5.484052769839764</ele>
        <time>2026-08-16T11:06:22Z</time>
      </trkpt>
      <trkpt lat="32.051893400981434" lon="118.8039359630042">
        <ele>5.314947240054607</ele>
        <time>2026-08-16T11:06:25Z</time>
      </trkpt>
      <trkpt lat="32.05188364134826" lon="118.80407523882513">
        <ele>5.095640294253826</ele>
        <time>2026-08-16T11:06:28Z</time>
      </trkpt>
      <trkpt lat="32.05189586941837" lon="118.80420449312903">
        <ele>4.791776768863201</ele>
        <time>2026-08-16T11:06:31Z</time>
      </trkpt>
      <trkpt lat="32.05192198188305" lon="118.80426561160729">
        <ele>5.314947240054607</ele>
        <time>2026-08-16T11:06:34Z</time>
      </trkpt>
      <trkpt lat="32.05205319483386" lon="118.80437080775982">
        <ele>4.18141757696867</ele>
        <time>2026-08-16T11:06:40Z</time>
      </trkpt>
      <trkpt lat="32.05215003234305" lon="118.8043899390838">
        <ele>3.814138524234295</ele>
        <time>2026-08-16T11:06:43Z</time>
      </trkpt>
      <trkpt lat="32.052250388979445" lon="118.80448145509658">
        <ele>5.032224766910076</ele>
        <time>2026-08-16T11:06:52Z</time>
      </trkpt>
      <trkpt lat="32.05232178407768" lon="118.80447139776638">
        <ele>4.812917821109295</ele>
        <time>2026-08-16T11:06:55Z</time>
      </trkpt>
      <trkpt lat="32.052600598834914" lon="118.80453207706167">
        <ele>5.148489110171795</ele>
        <time>2026-08-16T11:07:08Z</time>
      </trkpt>
      <trkpt lat="32.05289980925675" lon="118.80461421250644">
        <ele>5.190763585269451</ele>
        <time>2026-08-16T11:07:23Z</time>
      </trkpt>
      <trkpt lat="32.053028929226286" lon="118.80466630402397">
        <ele>5.148489110171795</ele>
        <time>2026-08-16T11:07:29Z</time>
      </trkpt>
      <trkpt lat="32.053167942651726" lon="118.804656271367">
        <ele>5.233038060367107</ele>
        <time>2026-08-16T11:07:35Z</time>
      </trkpt>
      <trkpt lat="32.05334077250537" lon="118.80453701898465">
        <ele>5.441778294742107</ele>
        <time>2026-08-16T11:07:41Z</time>
      </trkpt>
      <trkpt lat="32.05338563884366" lon="118.80445485202513">
        <ele>5.085073582828045</ele>
        <time>2026-08-16T11:07:44Z</time>
      </trkpt>
      <trkpt lat="32.05340647717472" lon="118.80435966159224">
        <ele>2.3238965198397636</ele>
        <time>2026-08-16T11:07:47Z</time>
      </trkpt>
      <trkpt lat="32.053392146989566" lon="118.80417229225061">
        <ele>5.148489110171795</ele>
        <time>2026-08-16T11:07:53Z</time>
      </trkpt>
      <trkpt lat="32.053259749141354" lon="118.80396088686982">
        <ele>5.000517003238201</ele>
        <time>2026-08-16T11:08:02Z</time>
      </trkpt>
      <trkpt lat="32.05320363549919" lon="118.80390277737818">
        <ele>4.90804111212492</ele>
        <time>2026-08-16T11:08:05Z</time>
      </trkpt>
      <trkpt lat="32.053000445579904" lon="118.8038196320817">
        <ele>4.84462558478117</ele>
        <time>2026-08-16T11:08:14Z</time>
      </trkpt>
      <trkpt lat="32.05272529891778" lon="118.80377056061963">
        <ele>5.79848300665617</ele>
        <time>2026-08-16T11:08:27Z</time>
      </trkpt>
      <trkpt lat="32.052492090258816" lon="118.80368040445602">
        <ele>5.536901585757732</ele>
        <time>2026-08-16T11:08:39Z</time>
      </trkpt>
      <trkpt lat="32.052252939510325" lon="118.80362431599832">
        <ele>3.4680005237460136</ele>
        <time>2026-08-16T11:08:48Z</time>
      </trkpt>
      <trkpt lat="32.052059966063645" lon="118.80366441260902">
        <ele>5.494627110660076</ele>
        <time>2026-08-16T11:08:57Z</time>
      </trkpt>
      <trkpt lat="32.0519750759285" lon="118.80373856640227">
        <ele>0.7728787586092949</ele>
        <time>2026-08-16T11:09:00Z</time>
      </trkpt>
      <trkpt lat="32.05191054785632" lon="118.8040181235758">
        <ele>5.558042638003826</ele>
        <time>2026-08-16T11:09:09Z</time>
      </trkpt>
      <trkpt lat="32.051931945639275" lon="118.80424356708963">
        <ele>2.775724522769451</ele>
        <time>2026-08-16T11:09:15Z</time>
      </trkpt>
      <trkpt lat="32.05198110526261" lon="118.80432873107875">
        <ele>4.09950839728117</ele>
        <time>2026-08-16T11:09:18Z</time>
      </trkpt>
      <trkpt lat="32.05203821249463" lon="118.80438283294305">
        <ele>-1.0423601940274239</ele>
        <time>2026-08-16T11:09:21Z</time>
      </trkpt>
      <trkpt lat="32.05234440332861" lon="118.8044529437277">
        <ele>4.24483310431242</ele>
        <time>2026-08-16T11:09:34Z</time>
      </trkpt>
      <trkpt lat="32.05257658472058" lon="118.80452706933644">
        <ele>6.009870640933514</ele>
        <time>2026-08-16T11:09:43Z</time>
      </trkpt>
      <trkpt lat="32.05268272055274" lon="118.80459118674015">
        <ele>7.101125828921795</ele>
        <time>2026-08-16T11:09:49Z</time>
      </trkpt>
      <trkpt lat="32.05299694139735" lon="118.8046773288376">
        <ele>5.367796055972576</ele>
        <time>2026-08-16T11:10:04Z</time>
      </trkpt>
      <trkpt lat="32.05310895758003" lon="118.8046723086023">
        <ele>4.886900059878826</ele>
        <time>2026-08-16T11:10:10Z</time>
      </trkpt>
      <trkpt lat="32.0532719009143" lon="118.80461918825677">
        <ele>5.18019687384367</ele>
        <time>2026-08-16T11:10:16Z</time>
      </trkpt>
      <trkpt lat="32.05336572724777" lon="118.80450795909076">
        <ele>4.487920872867107</ele>
        <time>2026-08-16T11:10:22Z</time>
      </trkpt>
      <trkpt lat="32.053403499262195" lon="118.80437268765456">
        <ele>0.3527585193514824</ele>
        <time>2026-08-16T11:10:28Z</time>
      </trkpt>
      <trkpt lat="32.05341331426389" lon="118.80426547457309">
        <ele>2.189138524234295</ele>
        <time>2026-08-16T11:10:31Z</time>
      </trkpt>
      <trkpt lat="32.05337908642789" lon="118.80413922809925">
        <ele>4.894827000796795</ele>
        <time>2026-08-16T11:10:37Z</time>
      </trkpt>
      <trkpt lat="32.053215655611645" lon="118.80391279603657">
        <ele>5.11678134649992</ele>
        <time>2026-08-16T11:10:49Z</time>
      </trkpt>
      <trkpt lat="32.05299750242609" lon="118.80385269753098">
        <ele>4.886900059878826</ele>
        <time>2026-08-16T11:11:04Z</time>
      </trkpt>
      <trkpt lat="32.05270227463053" lon="118.80375954102222">
        <ele>4.738935582339764</ele>
        <time>2026-08-16T11:11:19Z</time>
      </trkpt>
      <trkpt lat="32.05258714973679" lon="118.80370243911986">
        <ele>4.350523106753826</ele>
        <time>2026-08-16T11:11:22Z</time>
      </trkpt>
      <trkpt lat="32.052303930008215" lon="118.80361228765447">
        <ele>4.559263341128826</ele>
        <time>2026-08-16T11:11:34Z</time>
      </trkpt>
      <trkpt lat="32.05219688700884" lon="118.80360127580735">
        <ele>4.067800633609295</ele>
        <time>2026-08-16T11:11:40Z</time>
      </trkpt>
      <trkpt lat="32.05211689003879" lon="118.80361330681461">
        <ele>3.9621030017733574</ele>
        <time>2026-08-16T11:11:43Z</time>
      </trkpt>
      <trkpt lat="32.05206692760046" lon="118.80364136661188">
        <ele>4.361089818179607</ele>
        <time>2026-08-16T11:11:46Z</time>
      </trkpt>
      <trkpt lat="32.052022013285836" lon="118.80369647921736">
        <ele>2.934263341128826</ele>
        <time>2026-08-16T11:11:50Z</time>
      </trkpt>
      <trkpt lat="32.05201916760923" lon="118.80378565512243">
        <ele>7.447263829410076</ele>
        <time>2026-08-16T11:11:53Z</time>
      </trkpt>
      <trkpt lat="32.05196217754161" lon="118.80379868602627">
        <ele>3.605398289859295</ele>
        <time>2026-08-16T11:11:56Z</time>
      </trkpt>
      <trkpt lat="32.05191470985338" lon="118.80394176110035">
        <ele>4.456213109195232</ele>
        <time>2026-08-16T11:12:02Z</time>
      </trkpt>
      <trkpt lat="32.05186081597446" lon="118.80371174927353">
        <ele>4.09950839728117</ele>
        <time>2026-08-16T11:12:08Z</time>
      </trkpt>
      <trkpt lat="32.05198798611433" lon="118.80425959365024">
        <ele>3.4177991077303886</ele>
        <time>2026-08-16T11:12:17Z</time>
      </trkpt>
      <trkpt lat="32.052126211118214" lon="118.80437080105088">
        <ele>-0.25496090203523636</ele>
        <time>2026-08-16T11:12:29Z</time>
      </trkpt>
      <trkpt lat="32.052416449164724" lon="118.80446997085716">
        <ele>3.856412999331951</ele>
        <time>2026-08-16T11:12:47Z</time>
      </trkpt>
      <trkpt lat="32.05256759498324" lon="118.80453408406689">
        <ele>4.937109105288982</ele>
        <time>2026-08-16T11:12:56Z</time>
      </trkpt>
      <trkpt lat="32.05288381270663" lon="118.80461822192707">
        <ele>1.9249097034335136</ele>
        <time>2026-08-16T11:13:14Z</time>
      </trkpt>
      <trkpt lat="32.05308195682825" lon="118.80467531704903">
        <ele>-0.5720385387539864</ele>
        <time>2026-08-16T11:13:23Z</time>
      </trkpt>
      <trkpt lat="32.053240916811255" lon="118.80463221694602">
        <ele>3.9621030017733574</ele>
        <time>2026-08-16T11:13:29Z</time>
      </trkpt>
      <trkpt lat="32.053300865283" lon="118.80459513789347">
        <ele>4.548689000308514</ele>
        <time>2026-08-16T11:13:32Z</time>
      </trkpt>
      <trkpt lat="32.05334577011348" lon="118.80453501455253">
        <ele>3.4177991077303886</ele>
        <time>2026-08-16T11:13:35Z</time>
      </trkpt>
      <trkpt lat="32.05339852790954" lon="118.8043897218391">
        <ele>4.361089818179607</ele>
        <time>2026-08-16T11:13:41Z</time>
      </trkpt>
      <trkpt lat="32.05340023442545" lon="118.80422138857719">
        <ele>4.18141757696867</ele>
        <time>2026-08-16T11:13:47Z</time>
      </trkpt>
      <trkpt lat="32.05335294439677" lon="118.80406107610476">
        <ele>-6.025689966976643</ele>
        <time>2026-08-16T11:13:53Z</time>
      </trkpt>
      <trkpt lat="32.05331081982944" lon="118.80399494940997">
        <ele>4.170843236148357</ele>
        <time>2026-08-16T11:13:56Z</time>
      </trkpt>
      <trkpt lat="32.053063562458696" lon="118.80387874282599">
        <ele>4.612104527652264</ele>
        <time>2026-08-16T11:14:11Z</time>
      </trkpt>
      <trkpt lat="32.05277633467418" lon="118.80378458356758">
        <ele>4.98995029181242</ele>
        <time>2026-08-16T11:14:27Z</time>
      </trkpt>
      <trkpt lat="32.05261921432953" lon="118.8037355012878">
        <ele>5.296453587710857</ele>
        <time>2026-08-16T11:14:33Z</time>
      </trkpt>
      <trkpt lat="32.052503151900595" lon="118.80371447051503">
        <ele>5.042799107730389</ele>
        <time>2026-08-16T11:14:39Z</time>
      </trkpt>
      <trkpt lat="32.052299915199704" lon="118.80360427225284">
        <ele>4.958242528140545</ele>
        <time>2026-08-16T11:14:48Z</time>
      </trkpt>
      <trkpt lat="32.05223987746652" lon="118.80359025017432">
        <ele>4.823484532535076</ele>
        <time>2026-08-16T11:14:51Z</time>
      </trkpt>
      <trkpt lat="32.05210390453591" lon="118.80362332772283">
        <ele>3.005605809390545</ele>
        <time>2026-08-16T11:14:57Z</time>
      </trkpt>
      <trkpt lat="32.05194606771696" lon="118.80373756709453">
        <ele>3.814138524234295</ele>
        <time>2026-08-16T11:15:03Z</time>
      </trkpt>
      <trkpt lat="32.05188430305811" lon="118.80388085514481">
        <ele>3.7718640491366386</ele>
        <time>2026-08-16T11:15:09Z</time>
      </trkpt>
      <trkpt lat="32.05186742832462" lon="118.80395500295172">
        <ele>2.461294285953045</ele>
        <time>2026-08-16T11:15:12Z</time>
      </trkpt>
      <trkpt lat="32.051875662266454" lon="118.8040882652868">
        <ele>3.6899548694491386</ele>
        <time>2026-08-16T11:15:18Z</time>
      </trkpt>
      <trkpt lat="32.0519258866011" lon="118.80421050225782">
        <ele>2.0834485217928886</ele>
        <time>2026-08-16T11:15:21Z</time>
      </trkpt>
      <trkpt lat="32.05197499370785" lon="118.80426560673632">
        <ele>4.643812291324139</ele>
        <time>2026-08-16T11:15:27Z</time>
      </trkpt>
      <trkpt lat="32.052090162829934" lon="118.8043477587402">
        <ele>2.6594678089022636</ele>
        <time>2026-08-16T11:15:33Z</time>
      </trkpt>
      <trkpt lat="32.05225232851618" lon="118.80442189065708">
        <ele>3.7718640491366386</ele>
        <time>2026-08-16T11:15:39Z</time>
      </trkpt>
      <trkpt lat="32.05231735352028" lon="118.80442789659038">
        <ele>5.283247105777264</ele>
        <time>2026-08-16T11:15:42Z</time>
      </trkpt>
      <trkpt lat="32.05256862675872" lon="118.80455211972999">
        <ele>2.82857333868742</ele>
        <time>2026-08-16T11:15:54Z</time>
      </trkpt>
      <trkpt lat="32.05287584600576" lon="118.8046382624172">
        <ele>3.4177991077303886</ele>
        <time>2026-08-16T11:16:09Z</time>
      </trkpt>
      <trkpt lat="32.05305294510222" lon="118.80467231374874">
        <ele>-1.1903246715664864</ele>
        <time>2026-08-16T11:16:18Z</time>
      </trkpt>
      <trkpt lat="32.0532439052008" lon="118.80462520275597">
        <ele>4.664953343570232</ele>
        <time>2026-08-16T11:16:27Z</time>
      </trkpt>
      <trkpt lat="32.05329186152451" lon="118.80459413673339">
        <ele>4.92653476446867</ele>
        <time>2026-08-16T11:16:30Z</time>
      </trkpt>
      <trkpt lat="32.053374652159235" lon="118.80446387090177">
        <ele>4.24483310431242</ele>
        <time>2026-08-16T11:16:37Z</time>
      </trkpt>
      <trkpt lat="32.05340549970766" lon="118.80437268747075">
        <ele>3.6899548694491386</ele>
        <time>2026-08-16T11:16:40Z</time>
      </trkpt>
      <trkpt lat="32.05339412122126" lon="118.80415726236176">
        <ele>4.71779453009367</ele>
        <time>2026-08-16T11:16:49Z</time>
      </trkpt>
      <trkpt lat="32.053343909218626" lon="118.8040420393406">
        <ele>4.580396763980389</ele>
        <time>2026-08-16T11:16:55Z</time>
      </trkpt>
      <trkpt lat="32.05324869435728" lon="118.80393082857796">
        <ele>4.456213109195232</ele>
        <time>2026-08-16T11:17:01Z</time>
      </trkpt>
      <trkpt lat="32.053025477291904" lon="118.80383465940587">
        <ele>5.148489110171795</ele>
        <time>2026-08-16T11:17:13Z</time>
      </trkpt>
      <trkpt lat="32.05274627747169" lon="118.8037555290832">
        <ele>3.3121091052889824</ele>
        <time>2026-08-16T11:17:28Z</time>
      </trkpt>
      <trkpt lat="32.052592156074375" lon="118.80370544457854">
        <ele>5.000517003238201</ele>
        <time>2026-08-16T11:17:37Z</time>
      </trkpt>
      <trkpt lat="32.05245812967941" lon="118.80370746084122">
        <ele>4.559263341128826</ele>
        <time>2026-08-16T11:17:46Z</time>
      </trkpt>
      <trkpt lat="32.05230598264925" lon="118.80364234661506">
        <ele>4.675520054996014</ele>
        <time>2026-08-16T11:17:52Z</time>
      </trkpt>
      <trkpt lat="32.0521120420674" lon="118.80370148080817">
        <ele>4.98995029181242</ele>
        <time>2026-08-16T11:18:01Z</time>
      </trkpt>
      <trkpt lat="32.052003040384584" lon="118.8037145164737">
        <ele>4.435072056949139</ele>
        <time>2026-08-16T11:18:04Z</time>
      </trkpt>
      <trkpt lat="32.05192321763111" lon="118.80382674489822">
        <ele>-0.02508724480867386</ele>
        <time>2026-08-16T11:18:10Z</time>
      </trkpt>
      <trkpt lat="32.05189933953437" lon="118.80389989130678">
        <ele>5.314947240054607</ele>
        <time>2026-08-16T11:18:13Z</time>
      </trkpt>
      <trkpt lat="32.051890601002874" lon="118.80405119069414">
        <ele>4.234258763492107</ele>
        <time>2026-08-16T11:18:19Z</time>
      </trkpt>
      <trkpt lat="32.05190775150743" lon="118.80413535537954">
        <ele>4.466779820621014</ele>
        <time>2026-08-16T11:18:22Z</time>
      </trkpt>
      <trkpt lat="32.05198801409904" lon="118.8042756253617">
        <ele>5.000517003238201</ele>
        <time>2026-08-16T11:18:28Z</time>
      </trkpt>
      <trkpt lat="32.05208617418923" lon="118.80435477299103">
        <ele>4.318815343081951</ele>
        <time>2026-08-16T11:18:34Z</time>
      </trkpt>
      <trkpt lat="32.052335350529404" lon="118.80442388699807">
        <ele>4.580396763980389</ele>
        <time>2026-08-16T11:18:46Z</time>
      </trkpt>
      <trkpt lat="32.052624625219636" lon="118.80454409869175">
        <ele>4.865766637027264</ele>
        <time>2026-08-16T11:19:02Z</time>
      </trkpt>
      <trkpt lat="32.05291485820605" lon="118.8046402628089">
        <ele>4.382230870425701</ele>
        <time>2026-08-16T11:19:17Z</time>
      </trkpt>
      <trkpt lat="32.05307296710653" lon="118.80468233179599">
        <ele>3.940969578921795</ele>
        <time>2026-08-16T11:19:26Z</time>
      </trkpt>
      <trkpt lat="32.053271841287085" lon="118.80458512068715">
        <ele>4.57246982306242</ele>
        <time>2026-08-16T11:19:38Z</time>
      </trkpt>
      <trkpt lat="32.053352715590115" lon="118.80450295035648">
        <ele>4.382230870425701</ele>
        <time>2026-08-16T11:19:44Z</time>
      </trkpt>
      <trkpt lat="32.05343227652349" lon="118.80424142526431">
        <ele>3.478567235171795</ele>
        <time>2026-08-16T11:19:59Z</time>
      </trkpt>
      <trkpt lat="32.05342617728369" lon="118.80418531487292">
        <ele>3.541982762515545</ele>
        <time>2026-08-16T11:20:02Z</time>
      </trkpt>
      <trkpt lat="32.053345900935135" lon="118.80403702926529">
        <ele>3.4257260486483574</ele>
        <time>2026-08-16T11:20:08Z</time>
      </trkpt>
      <trkpt lat="32.05319065178596" lon="118.80391380031071">
        <ele>6.218610875308514</ele>
        <time>2026-08-16T11:20:17Z</time>
      </trkpt>
      <trkpt lat="32.05290438759408" lon="118.80379859944114">
        <ele>4.612104527652264</ele>
        <time>2026-08-16T11:20:32Z</time>
      </trkpt>
      <trkpt lat="32.05262218365532" lon="118.80371746549562">
        <ele>2.860281102359295</ele>
        <time>2026-08-16T11:20:44Z</time>
      </trkpt>
      <trkpt lat="32.05250114100829" lon="118.80370845886156">
        <ele>5.011091344058514</ele>
        <time>2026-08-16T11:20:50Z</time>
      </trkpt>
      <trkpt lat="32.05223294548863" lon="118.80363032966558">
        <ele>4.530195347964764</ele>
        <time>2026-08-16T11:21:02Z</time>
      </trkpt>
      <trkpt lat="32.052106920863686" lon="118.80363234519044">
        <ele>5.254179112613201</ele>
        <time>2026-08-16T11:21:08Z</time>
      </trkpt>
      <trkpt lat="32.051933099648224" lon="118.80375760775883">
        <ele>5.042799107730389</ele>
        <time>2026-08-16T11:21:17Z</time>
      </trkpt>
      <trkpt lat="32.05190419596525" lon="118.80381672689764">
        <ele>4.728368870913982</ele>
        <time>2026-08-16T11:21:20Z</time>
      </trkpt>
      <trkpt lat="32.05188060750162" lon="118.80405620150572">
        <ele>4.57246982306242</ele>
        <time>2026-08-16T11:21:30Z</time>
      </trkpt>
      <trkpt lat="32.05188975972174" lon="118.80414237089306">
        <ele>6.480192296206951</ele>
        <time>2026-08-16T11:21:33Z</time>
      </trkpt>
      <trkpt lat="32.051931940393224" lon="118.80424056114495">
        <ele>2.030607335269451</ele>
        <time>2026-08-16T11:21:36Z</time>
      </trkpt>
      <trkpt lat="32.05197503918706" lon="118.80429165827205">
        <ele>4.213125340640545</ele>
        <time>2026-08-16T11:21:39Z</time>
      </trkpt>
      <trkpt lat="32.05222928661385" lon="118.80440085110097">
        <ele>4.530195347964764</ele>
        <time>2026-08-16T11:21:51Z</time>
      </trkpt>
      <trkpt lat="32.05246945747905" lon="118.8044679620159">
        <ele>4.265966527163982</ele>
        <time>2026-08-16T11:22:03Z</time>
      </trkpt>
      <trkpt lat="32.05252762638293" lon="118.80455713343079">
        <ele>4.760076634585857</ele>
        <time>2026-08-16T11:22:06Z</time>
      </trkpt>
      <trkpt lat="32.05260159555236" lon="118.80453007299738">
        <ele>2.934263341128826</ele>
        <time>2026-08-16T11:22:09Z</time>
      </trkpt>
      <trkpt lat="32.052884833978084" lon="118.80463024568735">
        <ele>3.57369052618742</ele>
        <time>2026-08-16T11:22:21Z</time>
      </trkpt>
      <trkpt lat="32.05308797220366" lon="118.80468333240609">
        <ele>-1.8403261974453926</ele>
        <time>2026-08-16T11:22:31Z</time>
      </trkpt>
      <trkpt lat="32.053224888689925" lon="118.80461819058857">
        <ele>-4.945001490414143</ele>
        <time>2026-08-16T11:22:37Z</time>
      </trkpt>
      <trkpt lat="32.05333672254052" lon="118.80450896374185">
        <ele>4.643812291324139</ele>
        <time>2026-08-16T11:22:43Z</time>
      </trkpt>
      <trkpt lat="32.0533914773344" lon="118.80436166693787">
        <ele>4.915968053042889</ele>
        <time>2026-08-16T11:22:49Z</time>
      </trkpt>
      <trkpt lat="32.05340433849611" lon="118.80428050513153">
        <ele>4.538122288882732</ele>
        <time>2026-08-16T11:22:52Z</time>
      </trkpt>
      <trkpt lat="32.053399169522045" lon="118.80418431537389">
        <ele>4.160276524722576</ele>
        <time>2026-08-16T11:22:55Z</time>
      </trkpt>
      <trkpt lat="32.05329181385182" lon="118.8039939491788">
        <ele>2.6277600452303886</ele>
        <time>2026-08-16T11:23:04Z</time>
      </trkpt>
      <trkpt lat="32.053157595607665" lon="118.8038857480158">
        <ele>3.6265393421053886</ele>
        <time>2026-08-16T11:23:10Z</time>
      </trkpt>
      <trkpt lat="32.052974485099284" lon="118.80384568581889">
        <ele>3.90926181524992</ele>
        <time>2026-08-16T11:23:19Z</time>
      </trkpt>
      <trkpt lat="32.05273928636182" lon="118.80376154156865">
        <ele>4.865766637027264</ele>
        <time>2026-08-16T11:23:31Z</time>
      </trkpt>
      <trkpt lat="32.052618278548735" lon="118.80377257440259">
        <ele>4.738935582339764</ele>
        <time>2026-08-16T11:23:37Z</time>
      </trkpt>
      <trkpt lat="32.0523060418195" lon="118.80367641366354">
        <ele>4.191984288394451</ele>
        <time>2026-08-16T11:23:52Z</time>
      </trkpt>
      <trkpt lat="32.05210495695882" lon="118.80365338678071">
        <ele>4.170843236148357</ele>
        <time>2026-08-16T11:24:02Z</time>
      </trkpt>
      <trkpt lat="32.05198708034719" lon="118.80373956727261">
        <ele>3.206419102847576</ele>
        <time>2026-08-16T11:24:08Z</time>
      </trkpt>
      <trkpt lat="32.0519153954245" lon="118.803929949123">
        <ele>3.9304028674960136</ele>
        <time>2026-08-16T11:24:17Z</time>
      </trkpt>
      <trkpt lat="32.051907578608116" lon="118.80403615945667">
        <ele>2.524709813296795</ele>
        <time>2026-08-16T11:24:23Z</time>
      </trkpt>
      <trkpt lat="32.05198000007047" lon="118.80426861222267">
        <ele>5.240965001285076</ele>
        <time>2026-08-16T11:24:32Z</time>
      </trkpt>
      <trkpt lat="32.0520120841819" lon="118.80431269650458">
        <ele>4.50905429571867</ele>
        <time>2026-08-16T11:24:35Z</time>
      </trkpt>
      <trkpt lat="32.05230540338956" lon="118.80445795723683">
        <ele>2.6594678089022636</ele>
        <time>2026-08-16T11:24:47Z</time>
      </trkpt>
      <trkpt lat="32.052605656045245" lon="118.80456414016919">
        <ele>3.3226758167147636</ele>
        <time>2026-08-16T11:25:02Z</time>
      </trkpt>
      <trkpt lat="32.0529058719893" lon="118.80464928152809">
        <ele>6.041578404605389</ele>
        <time>2026-08-16T11:25:17Z</time>
      </trkpt>
      <trkpt lat="32.053085975267805" lon="118.80468533656716">
        <ele>2.902555577456951</ele>
        <time>2026-08-16T11:25:26Z</time>
      </trkpt>
      <trkpt lat="32.05314198072565" lon="118.80468132346624">
        <ele>4.09950839728117</ele>
        <time>2026-08-16T11:25:29Z</time>
      </trkpt>
      <trkpt lat="32.0533168513114" lon="118.80458511655151">
        <ele>3.856412999331951</ele>
        <time>2026-08-16T11:25:38Z</time>
      </trkpt>
      <trkpt lat="32.05335774474336" lon="118.80451898167128">
        <ele>3.951536290347576</ele>
        <time>2026-08-16T11:25:41Z</time>
      </trkpt>
      <trkpt lat="32.05340029737669" lon="118.80425745991272">
        <ele>4.107427708804607</ele>
        <time>2026-08-16T11:25:53Z</time>
      </trkpt>
      <trkpt lat="32.05338409977249" lon="118.80414624149954">
        <ele>4.213125340640545</ele>
        <time>2026-08-16T11:25:56Z</time>
      </trkpt>
      <trkpt lat="32.053306825919144" lon="118.80399895768804">
        <ele>4.149709813296795</ele>
        <time>2026-08-16T11:26:02Z</time>
      </trkpt>
      <trkpt lat="32.05320463920967" lon="118.80390478123843">
        <ele>3.51027499884367</ele>
        <time>2026-08-16T11:26:08Z</time>
      </trkpt>
      <trkpt lat="32.05299150108904" lon="118.80385269808248">
        <ele>4.382230870425701</ele>
        <time>2026-08-16T11:26:17Z</time>
      </trkpt>
      <trkpt lat="32.052720269934376" lon="118.80375452949947">
        <ele>3.2909680530428886</ele>
        <time>2026-08-16T11:26:29Z</time>
      </trkpt>
      <trkpt lat="32.05241205153409" lon="118.80366838814233">
        <ele>2.2816220447421074</ele>
        <time>2026-08-16T11:26:44Z</time>
      </trkpt>
      <trkpt lat="32.052212921890074" lon="118.80361930981816">
        <ele>4.65437900274992</ele>
        <time>2026-08-16T11:26:53Z</time>
      </trkpt>
      <trkpt lat="32.05208191702678" lon="118.80363334945997">
        <ele>3.51027499884367</ele>
        <time>2026-08-16T11:26:59Z</time>
      </trkpt>
      <trkpt lat="32.05195713635639" lon="118.80377564108099">
        <ele>3.111295811831951</ele>
        <time>2026-08-16T11:27:06Z</time>
      </trkpt>
      <trkpt lat="32.05189928025387" lon="118.80386582413298">
        <ele>3.0267392322421074</ele>
        <time>2026-08-16T11:27:09Z</time>
      </trkpt>
      <trkpt lat="32.051880429480725" lon="118.80395399977999">
        <ele>2.839140050113201</ele>
        <time>2026-08-16T11:27:12Z</time>
      </trkpt>
      <trkpt lat="32.05196493026994" lon="118.80423053829759">
        <ele>4.004385106265545</ele>
        <time>2026-08-16T11:27:21Z</time>
      </trkpt>
      <trkpt lat="32.05210922308118" lon="118.80437982046655">
        <ele>3.888120763003826</ele>
        <time>2026-08-16T11:27:30Z</time>
      </trkpt>
      <trkpt lat="32.05234232757437" lon="118.80440985857355">
        <ele>4.707227818667889</ele>
        <time>2026-08-16T11:27:42Z</time>
      </trkpt>
      <trkpt lat="32.05226404348551" lon="118.80436615576158">
        <ele>3.3940182849764824</ele>
        <time>2026-08-16T11:27:45Z</time>
      </trkpt>
      <trkpt lat="32.05216857651463" lon="118.80435748530635">
        <ele>3.97267734259367</ele>
        <time>2026-08-16T11:27:48Z</time>
      </trkpt>
      <trkpt lat="32.05258569366749" lon="118.80458818969315">
        <ele>2.440153233706951</ele>
        <time>2026-08-16T11:27:57Z</time>
      </trkpt>
      <trkpt lat="32.05286988501982" lon="118.80466130869459">
        <ele>3.6265393421053886</ele>
        <time>2026-08-16T11:28:09Z</time>
      </trkpt>
      <trkpt lat="32.05304498894694" lon="118.80469836618887">
        <ele>2.9553967639803886</ele>
        <time>2026-08-16T11:28:18Z</time>
      </trkpt>
      <trkpt lat="32.0531719558247" lon="118.80466328491714">
        <ele>3.5208493396639824</ele>
        <time>2026-08-16T11:28:24Z</time>
      </trkpt>
      <trkpt lat="32.053333744655184" lon="118.80452198983514">
        <ele>4.350523106753826</ele>
        <time>2026-08-16T11:28:34Z</time>
      </trkpt>
      <trkpt lat="32.0533856038128" lon="118.80443481232831">
        <ele>2.839140050113201</ele>
        <time>2026-08-16T11:28:37Z</time>
      </trkpt>
      <trkpt lat="32.0534143547177" lon="118.8042885200706">
        <ele>2.1468640491366386</ele>
        <time>2026-08-16T11:28:43Z</time>
      </trkpt>
      <trkpt lat="32.05339109259523" lon="118.80414123095618">
        <ele>4.318815343081951</ele>
        <time>2026-08-16T11:28:49Z</time>
      </trkpt>
      <trkpt lat="32.053330867918" lon="118.80401999701601">
        <ele>3.806211583316326</ele>
        <time>2026-08-16T11:28:55Z</time>
      </trkpt>
      <trkpt lat="32.05311753265129" lon="118.8038546904514">
        <ele>4.947675816714764</ele>
        <time>2026-08-16T11:29:07Z</time>
      </trkpt>
      <trkpt lat="32.05292645348732" lon="118.80383366653078">
        <ele>3.76393710821867</ele>
        <time>2026-08-16T11:29:16Z</time>
      </trkpt>
      <trkpt lat="32.05279331755897" lon="118.80377255831696">
        <ele>3.7216626331210136</ele>
        <time>2026-08-16T11:29:22Z</time>
      </trkpt>
      <trkpt lat="32.05246809361067" lon="118.80368541652412">
        <ele>3.5525571033358574</ele>
        <time>2026-08-16T11:29:37Z</time>
      </trkpt>
      <trkpt lat="32.05238000089198" lon="118.80364334178478">
        <ele>2.5458508655428886</ele>
        <time>2026-08-16T11:29:43Z</time>
      </trkpt>
      <trkpt lat="32.05226492652919" lon="118.8036152971531">
        <ele>2.9448300525546074</ele>
        <time>2026-08-16T11:29:49Z</time>
      </trkpt>
      <trkpt lat="32.05205698802051" lon="118.8036774385234">
        <ele>3.63710605353117</ele>
        <time>2026-08-16T11:29:58Z</time>
      </trkpt>
      <trkpt lat="32.05193619264973" lon="118.80381071210901">
        <ele>3.3121091052889824</ele>
        <time>2026-08-16T11:30:04Z</time>
      </trkpt>
      <trkpt lat="32.05189343412592" lon="118.80395500056204">
        <ele>2.775724522769451</ele>
        <time>2026-08-16T11:30:10Z</time>
      </trkpt>
      <trkpt lat="32.05191478452056" lon="118.80415339037569">
        <ele>2.4084530994296074</ele>
        <time>2026-08-16T11:30:19Z</time>
      </trkpt>
      <trkpt lat="32.051955999963205" lon="118.80427162037441">
        <ele>2.49300204962492</ele>
        <time>2026-08-16T11:30:25Z</time>
      </trkpt>
      <trkpt lat="32.05203817923442" lon="118.80436379525338">
        <ele>2.744016759097576</ele>
        <time>2026-08-16T11:30:31Z</time>
      </trkpt>
      <trkpt lat="32.05215330818601" lon="118.80442290173991">
        <ele>5.240965001285076</ele>
        <time>2026-08-16T11:30:37Z</time>
      </trkpt>
      <trkpt lat="32.05242051663883" lon="118.80450804593949">
        <ele>2.860281102359295</ele>
        <time>2026-08-16T11:30:49Z</time>
      </trkpt>
      <trkpt lat="32.052729766104314" lon="118.8046112221671">
        <ele>0.3844662830233574</ele>
        <time>2026-08-16T11:31:04Z</time>
      </trkpt>
      <trkpt lat="32.053032965213056" lon="118.80468634342654">
        <ele>2.9553967639803886</ele>
        <time>2026-08-16T11:31:17Z</time>
      </trkpt>
      <trkpt lat="32.05310297905565" lon="118.80468533500485">
        <ele>3.4362927600741386</ele>
        <time>2026-08-16T11:31:20Z</time>
      </trkpt>
      <trkpt lat="32.05329781551816" lon="118.80456708253296">
        <ele>3.51027499884367</ele>
        <time>2026-08-16T11:31:29Z</time>
      </trkpt>
      <trkpt lat="32.053374632890176" lon="118.80445284906614">
        <ele>0.5720654651522636</ele>
        <time>2026-08-16T11:31:35Z</time>
      </trkpt>
      <trkpt lat="32.053398394891914" lon="118.80431357110456">
        <ele>3.3411694690585136</ele>
        <time>2026-08-16T11:31:41Z</time>
      </trkpt>
      <trkpt lat="32.053357029117315" lon="118.80410917073105">
        <ele>3.856412999331951</ele>
        <time>2026-08-16T11:31:50Z</time>
      </trkpt>
      <trkpt lat="32.053322888828895" lon="118.80403302346642">
        <ele>3.1535702869296074</ele>
        <time>2026-08-16T11:31:53Z</time>
      </trkpt>
      <trkpt lat="32.053227668749145" lon="118.80391880679119">
        <ele>2.82857333868742</ele>
        <time>2026-08-16T11:31:59Z</time>
      </trkpt>
      <trkpt lat="32.0529314110353" lon="118.80380861670352">
        <ele>3.70052158087492</ele>
        <time>2026-08-16T11:32:14Z</time>
      </trkpt>
      <trkpt lat="32.05266324677812" lon="118.80374852289751">
        <ele>3.856412999331951</ele>
        <time>2026-08-16T11:32:26Z</time>
      </trkpt>
      <trkpt lat="32.05236096881574" lon="118.80362731198541">
        <ele>2.5775586292147636</ele>
        <time>2026-08-16T11:32:41Z</time>
      </trkpt>
      <trkpt lat="32.05218193759318" lon="118.80363233829654">
        <ele>2.617185704410076</ele>
        <time>2026-08-16T11:32:50Z</time>
      </trkpt>
      <trkpt lat="32.05200403364338" lon="118.80371050849023">
        <ele>4.09950839728117</ele>
        <time>2026-08-16T11:33:02Z</time>
      </trkpt>
      <trkpt lat="32.05197009222827" lon="118.8037485865959">
        <ele>2.9553967639803886</ele>
        <time>2026-08-16T11:33:05Z</time>
      </trkpt>
      <trkpt lat="32.05192034073234" lon="118.80389788542469">
        <ele>2.566984288394451</ele>
        <time>2026-08-16T11:33:14Z</time>
      </trkpt>
      <trkpt lat="32.05192245106417" lon="118.80396100975821">
        <ele>2.775724522769451</ele>
        <time>2026-08-16T11:33:17Z</time>
      </trkpt>
      <trkpt lat="32.05190555895951" lon="118.80402513788115">
        <ele>3.1958447620272636</ele>
        <time>2026-08-16T11:33:20Z</time>
      </trkpt>
      <trkpt lat="32.051916763998754" lon="118.80414136643162">
        <ele>2.4824353381991386</ele>
        <time>2026-08-16T11:33:26Z</time>
      </trkpt>
      <trkpt lat="32.05198506766045" lon="118.80430668709013">
        <ele>3.383451573550701</ele>
        <time>2026-08-16T11:33:35Z</time>
      </trkpt>
      <trkpt lat="32.05202614855272" lon="118.80434776462205">
        <ele>2.9131222888827324</ele>
        <time>2026-08-16T11:33:38Z</time>
      </trkpt>
      <trkpt lat="32.0521943138287" lon="118.804420894003">
        <ele>3.5208493396639824</ele>
        <time>2026-08-16T11:33:47Z</time>
      </trkpt>
      <trkpt lat="32.05237341154741" lon="118.80445394304748">
        <ele>0.7200375720858574</ele>
        <time>2026-08-16T11:33:59Z</time>
      </trkpt>
      <trkpt lat="32.05265368077225" lon="118.80457215165222">
        <ele>2.2921887561678886</ele>
        <time>2026-08-16T11:34:11Z</time>
      </trkpt>
      <trkpt lat="32.05296690488269" lon="118.80466029779198">
        <ele>1.9883252307772636</ele>
        <time>2026-08-16T11:34:26Z</time>
      </trkpt>
      <trkpt lat="32.05314295813669" lon="118.804668297524">
        <ele>0.9604855701327324</ele>
        <time>2026-08-16T11:34:35Z</time>
      </trkpt>
      <trkpt lat="32.053292812651094" lon="118.80456608100569">
        <ele>2.934263341128826</ele>
        <time>2026-08-16T11:34:41Z</time>
      </trkpt>
      <trkpt lat="32.05334772148592" lon="118.80450695875922">
        <ele>3.383451573550701</ele>
        <time>2026-08-16T11:34:44Z</time>
      </trkpt>
      <trkpt lat="32.05339449900811" lon="118.80437369046543">
        <ele>2.775724522769451</ele>
        <time>2026-08-16T11:34:50Z</time>
      </trkpt>
      <trkpt lat="32.053406221775205" lon="118.80421337217622">
        <ele>3.1958447620272636</ele>
        <time>2026-08-16T11:34:56Z</time>
      </trkpt>
      <trkpt lat="32.05336192894116" lon="118.80405105549185">
        <ele>3.1852780506014824</ele>
        <time>2026-08-16T11:35:02Z</time>
      </trkpt>
      <trkpt lat="32.05320462700299" lon="118.8038977674062">
        <ele>2.6092587634921074</ele>
        <time>2026-08-16T11:35:11Z</time>
      </trkpt>
      <trkpt lat="32.05292143320274" lon="118.80382264526732">
        <ele>1.0873089954257011</ele>
        <time>2026-08-16T11:35:23Z</time>
      </trkpt>
      <trkpt lat="32.05273827743015" lon="118.80375653179217">
        <ele>2.0411740466952324</ele>
        <time>2026-08-16T11:35:32Z</time>
      </trkpt>
    </trkseg>
  </trk>
</gpx>