<?xml version="1.0" encoding="UTF-8"?>
<gpx xmlns="http://www.topografix.com/GPX/1/1" xmlns:gpxtpx="http://www.garmin.com/xmlschemas/TrackPointExtension/v1" xmlns:xsi="http://www.w3.org/2001/XMLSchema-instance" xsi:schemaLocation="http://www.topografix.com/GPX/1/1 http://www.topografix.com/GPX/1/1/gpx.xsd" version="1.1" creator="gpx.py -- https://github.com/tkrajina/gpxpy">
  <trk>
    <name>gpx from keep</name>
    <type>Run</type>
    <trkseg>
      <trkpt lat="31.22996740858069" lon="121.40043892132785">
        <ele>19.895658960565925</ele>
        <time>2026-06-05T11:01:34Z</time>
      </trkpt>
      <trkpt lat="31.23001238448346" lon="121.4004119131323">
        <ele>19.28265236876905</ele>
        <time>2026-06-05T11:01:46Z</time>
      </trkpt>
      <trkpt lat="31.230203292797565" lon="121.40038589240206">
        <ele>9.738758554682136</ele>
        <time>2026-06-05T11:01:56Z</time>
      </trkpt>
      <trkpt lat="31.230382201560733" lon="121.40031486584148">
        <ele>14.54505585692823</ele>
        <time>2026-06-05T11:02:02Z</time>
      </trkpt>
      <trkpt lat="31.230552121712176" lon="121.40030584965002">
        <ele>23.143015375360847</ele>
        <time>2026-06-05T11:02:08Z</time>
      </trkpt>
      <trkpt lat="31.230884947324487" lon="121.40012279369118">
        <ele>17.17411850951612</ele>
        <time>2026-06-05T11:02:20Z</time>
      </trkpt>
      <trkpt lat="31.231126821187736" lon="121.39998575358645">
        <ele>23.914558878168464</ele>
        <time>2026-06-05T11:02:26Z</time>
      </trkpt>
      <trkpt lat="31.231190779838094" lon="121.39986473204097">
        <ele>16.537329187616706</ele>
        <time>2026-06-05T11:02:29Z</time>
      </trkpt>
      <trkpt lat="31.231222755113528" lon="121.39975671565021">
        <ele>24.18671273253858</ele>
        <time>2026-06-05T11:02:32Z</time>
      </trkpt>
      <trkpt lat="31.231221746099735" lon="121.3996477026316">
        <ele>12.711317529901862</ele>
        <time>2026-06-05T11:02:35Z</time>
      </trkpt>
      <trkpt lat="31.231199748937634" lon="121.39955869431107">
        <ele>22.297487726435065</ele>
        <time>2026-06-05T11:02:38Z</time>
      </trkpt>
      <trkpt lat="31.231116775631005" lon="121.39940668502219">
        <ele>24.865778436884284</ele>
        <time>2026-06-05T11:02:44Z</time>
      </trkpt>
      <trkpt lat="31.231050800709784" lon="121.39933068296814">
        <ele>22.725534906610847</ele>
        <time>2026-06-05T11:02:47Z</time>
      </trkpt>
      <trkpt lat="31.230977830710138" lon="121.39927568387085">
        <ele>24.239557733759284</ele>
        <time>2026-06-05T11:02:50Z</time>
      </trkpt>
      <trkpt lat="31.23077392393716" lon="121.39925669980732">
        <ele>24.593622675165534</ele>
        <time>2026-06-05T11:02:56Z</time>
      </trkpt>
      <trkpt lat="31.230499059790315" lon="121.39937673578628">
        <ele>16.92310189269483</ele>
        <time>2026-06-05T11:03:05Z</time>
      </trkpt>
      <trkpt lat="31.23021819409021" lon="121.39943076593315">
        <ele>22.297487726435065</ele>
        <time>2026-06-05T11:03:14Z</time>
      </trkpt>
      <trkpt lat="31.229995302680408" lon="121.39949779259503">
        <ele>21.755819788202643</ele>
        <time>2026-06-05T11:03:20Z</time>
      </trkpt>
      <trkpt lat="31.229850380818686" lon="121.3996318203819">
        <ele>23.005615701898932</ele>
        <time>2026-06-05T11:03:26Z</time>
      </trkpt>
      <trkpt lat="31.229786418605933" lon="121.39972583714804">
        <ele>22.45338105224073</ele>
        <time>2026-06-05T11:03:29Z</time>
      </trkpt>
      <trkpt lat="31.229751444431503" lon="121.39983185337022">
        <ele>-13.613658437505364</ele>
        <time>2026-06-05T11:03:32Z</time>
      </trkpt>
      <trkpt lat="31.229749468259648" lon="121.40006588470854">
        <ele>23.999111643061042</ele>
        <time>2026-06-05T11:03:41Z</time>
      </trkpt>
      <trkpt lat="31.229847444032984" lon="121.40026390478123">
        <ele>17.049931040033698</ele>
        <time>2026-06-05T11:03:48Z</time>
      </trkpt>
      <trkpt lat="31.229948407858" lon="121.40035791028288">
        <ele>21.525942316278815</ele>
        <time>2026-06-05T11:03:51Z</time>
      </trkpt>
      <trkpt lat="31.230038368885936" lon="121.40038190616359">
        <ele>22.16273163817823</ele>
        <time>2026-06-05T11:03:54Z</time>
      </trkpt>
      <trkpt lat="31.230215286762157" lon="121.40038189073164">
        <ele>22.297487726435065</ele>
        <time>2026-06-05T11:04:00Z</time>
      </trkpt>
      <trkpt lat="31.230357216020668" lon="121.400339871848">
        <ele>20.81517075560987</ele>
        <time>2026-06-05T11:04:06Z</time>
      </trkpt>
      <trkpt lat="31.230488156082327" lon="121.40034686150392">
        <ele>11.84465073607862</ele>
        <time>2026-06-05T11:04:12Z</time>
      </trkpt>
      <trkpt lat="31.230779005571993" lon="121.40020781522043">
        <ele>23.988543024286628</ele>
        <time>2026-06-05T11:04:27Z</time>
      </trkpt>
      <trkpt lat="31.231065856612815" lon="121.40005676863117">
        <ele>21.763746729120612</ele>
        <time>2026-06-05T11:04:36Z</time>
      </trkpt>
      <trkpt lat="31.231129821095763" lon="121.39999875508593">
        <ele>20.804602136835456</ele>
        <time>2026-06-05T11:04:39Z</time>
      </trkpt>
      <trkpt lat="31.23120877301591" lon="121.39988073253855">
        <ele>20.188951959833503</ele>
        <time>2026-06-05T11:04:45Z</time>
      </trkpt>
      <trkpt lat="31.23123475389788" lon="121.39980472057307">
        <ele>21.451960077509284</ele>
        <time>2026-06-05T11:04:48Z</time>
      </trkpt>
      <trkpt lat="31.231228741847694" lon="121.39963570061653">
        <ele>20.85744713805616</ele>
        <time>2026-06-05T11:04:54Z</time>
      </trkpt>
      <trkpt lat="31.231170756599752" lon="121.39948568875171">
        <ele>21.3066334631294</ele>
        <time>2026-06-05T11:05:00Z</time>
      </trkpt>
      <trkpt lat="31.23109978306105" lon="121.39940068587693">
        <ele>20.011919489130378</ele>
        <time>2026-06-05T11:05:06Z</time>
      </trkpt>
      <trkpt lat="31.230926855912223" lon="121.39929869058237">
        <ele>17.57045983336866</ele>
        <time>2026-06-05T11:05:15Z</time>
      </trkpt>
      <trkpt lat="31.230746936785746" lon="121.39926170264644">
        <ele>20.376553049311042</ele>
        <time>2026-06-05T11:05:21Z</time>
      </trkpt>
      <trkpt lat="31.230425093162697" lon="121.39936374090148">
        <ele>21.338341226801276</ele>
        <time>2026-06-05T11:05:37Z</time>
      </trkpt>
      <trkpt lat="31.230261168576597" lon="121.39935475427994">
        <ele>14.930826654657722</ele>
        <time>2026-06-05T11:05:43Z</time>
      </trkpt>
      <trkpt lat="31.23014822529746" lon="121.39941377024188">
        <ele>17.987938394770026</ele>
        <time>2026-06-05T11:05:49Z</time>
      </trkpt>
      <trkpt lat="31.229893357540284" lon="121.3995918120134">
        <ele>21.253788461908698</ele>
        <time>2026-06-05T11:06:04Z</time>
      </trkpt>
      <trkpt lat="31.22980341194937" lon="121.39973983737161">
        <ele>19.208668222650886</ele>
        <time>2026-06-05T11:06:13Z</time>
      </trkpt>
      <trkpt lat="31.229765448686596" lon="121.39994486683977">
        <ele>20.054195871576667</ele>
        <time>2026-06-05T11:06:22Z</time>
      </trkpt>
      <trkpt lat="31.229895423996414" lon="121.40028390360152">
        <ele>21.89057587645948</ele>
        <time>2026-06-05T11:06:34Z</time>
      </trkpt>
      <trkpt lat="31.230060357158894" lon="121.4003689022227">
        <ele>22.913135996088386</ele>
        <time>2026-06-05T11:06:37Z</time>
      </trkpt>
      <trkpt lat="31.230180301248176" lon="121.40036689144996">
        <ele>23.726957788690925</ele>
        <time>2026-06-05T11:06:40Z</time>
      </trkpt>
      <trkpt lat="31.230301239127044" lon="121.40031487290362">
        <ele>20.41882943175733</ele>
        <time>2026-06-05T11:06:43Z</time>
      </trkpt>
      <trkpt lat="31.230592096983553" lon="121.40025083788518">
        <ele>22.329193582758307</ele>
        <time>2026-06-05T11:06:52Z</time>
      </trkpt>
      <trkpt lat="31.230695045814848" lon="121.4002198243095">
        <ele>11.760097971186042</ele>
        <time>2026-06-05T11:06:55Z</time>
      </trkpt>
      <trkpt lat="31.23079599249732" lon="121.40015980675285">
        <ele>19.166391840204597</ele>
        <time>2026-06-05T11:06:58Z</time>
      </trkpt>
      <trkpt lat="31.231052863250188" lon="121.4000627705987">
        <ele>15.047087183222175</ele>
        <time>2026-06-05T11:07:04Z</time>
      </trkpt>
      <trkpt lat="31.231141813348096" lon="121.39997675106464">
        <ele>19.874521723017097</ele>
        <time>2026-06-05T11:07:07Z</time>
      </trkpt>
      <trkpt lat="31.231177788988006" lon="121.39989773745236">
        <ele>24.84463738463819</ele>
        <time>2026-06-05T11:07:10Z</time>
      </trkpt>
      <trkpt lat="31.231215756930407" lon="121.3997407142977">
        <ele>22.297487726435065</ele>
        <time>2026-06-05T11:07:13Z</time>
      </trkpt>
      <trkpt lat="31.231209750392622" lon="121.39963270192314">
        <ele>21.576145639643073</ele>
        <time>2026-06-05T11:07:16Z</time>
      </trkpt>
      <trkpt lat="31.231132772427877" lon="121.39946268957459">
        <ele>5.756852617487311</ele>
        <time>2026-06-05T11:07:22Z</time>
      </trkpt>
      <trkpt lat="31.231076791958685" lon="121.39937668539127">
        <ele>22.046472063288093</ele>
        <time>2026-06-05T11:07:25Z</time>
      </trkpt>
      <trkpt lat="31.23102181400024" lon="121.39932868529525">
        <ele>12.534286012873054</ele>
        <time>2026-06-05T11:07:28Z</time>
      </trkpt>
      <trkpt lat="31.230822901030667" lon="121.3992536952447">
        <ele>23.37289380095899</ele>
        <time>2026-06-05T11:07:34Z</time>
      </trkpt>
      <trkpt lat="31.23059500866147" lon="121.39928271795047">
        <ele>16.140988817438483</ele>
        <time>2026-06-05T11:07:46Z</time>
      </trkpt>
      <trkpt lat="31.230363122202387" lon="121.39936774671743">
        <ele>22.63041447661817</ele>
        <time>2026-06-05T11:07:58Z</time>
      </trkpt>
      <trkpt lat="31.230285161744" lon="121.3994137582973">
        <ele>4.361733904108405</ele>
        <time>2026-06-05T11:08:01Z</time>
      </trkpt>
      <trkpt lat="31.22998730639319" lon="121.39949779329251">
        <ele>17.54932259581983</ele>
        <time>2026-06-05T11:08:16Z</time>
      </trkpt>
      <trkpt lat="31.22991534208839" lon="121.39952680276767">
        <ele>17.884891977533698</ele>
        <time>2026-06-05T11:08:19Z</time>
      </trkpt>
      <trkpt lat="31.22978841610082" lon="121.39970783479572">
        <ele>22.955414285883307</ele>
        <time>2026-06-05T11:08:28Z</time>
      </trkpt>
      <trkpt lat="31.229735455320064" lon="121.3998688595014">
        <ele>22.19179772399366</ele>
        <time>2026-06-05T11:08:34Z</time>
      </trkpt>
      <trkpt lat="31.22974746500066" lon="121.4000248792147">
        <ele>22.923708429560065</ele>
        <time>2026-06-05T11:08:40Z</time>
      </trkpt>
      <trkpt lat="31.22984944032277" lon="121.40023890087993">
        <ele>22.067610254511237</ele>
        <time>2026-06-05T11:08:49Z</time>
      </trkpt>
      <trkpt lat="31.22999738418981" lon="121.40034990477503">
        <ele>21.48366784118116</ele>
        <time>2026-06-05T11:08:55Z</time>
      </trkpt>
      <trkpt lat="31.23007035147203" lon="121.40035989995567">
        <ele>24.310902109369636</ele>
        <time>2026-06-05T11:08:58Z</time>
      </trkpt>
      <trkpt lat="31.230165304045762" lon="121.4003308872064">
        <ele>20.794035425409675</ele>
        <time>2026-06-05T11:09:01Z</time>
      </trkpt>
      <trkpt lat="31.230284248040665" lon="121.40032387575967">
        <ele>22.014765253290534</ele>
        <time>2026-06-05T11:09:05Z</time>
      </trkpt>
      <trkpt lat="31.230475154133103" lon="121.40027685197921">
        <ele>-3.9059424493461847</ele>
        <time>2026-06-05T11:09:11Z</time>
      </trkpt>
      <trkpt lat="31.2307810059605" lon="121.40021981681132">
        <ele>12.523718347772956</ele>
        <time>2026-06-05T11:09:26Z</time>
      </trkpt>
      <trkpt lat="31.230918933693466" lon="121.40014279358371">
        <ele>18.34200524352491</ele>
        <time>2026-06-05T11:09:35Z</time>
      </trkpt>
      <trkpt lat="31.231151804594454" lon="121.39993474458376">
        <ele>22.25521325133741</ele>
        <time>2026-06-05T11:09:44Z</time>
      </trkpt>
      <trkpt lat="31.231187781038944" lon="121.39986273204511">
        <ele>22.93427704833448</ele>
        <time>2026-06-05T11:09:47Z</time>
      </trkpt>
      <trkpt lat="31.231208762221947" lon="121.39976371773383">
        <ele>21.96192025206983</ele>
        <time>2026-06-05T11:09:50Z</time>
      </trkpt>
      <trkpt lat="31.231199752857034" lon="121.39960669978144">
        <ele>22.109886636957526</ele>
        <time>2026-06-05T11:09:56Z</time>
      </trkpt>
      <trkpt lat="31.231129772223568" lon="121.3994416875866">
        <ele>22.067610254511237</ele>
        <time>2026-06-05T11:10:02Z</time>
      </trkpt>
      <trkpt lat="31.231070795319148" lon="121.3993846867414">
        <ele>22.088749399408698</ele>
        <time>2026-06-05T11:10:05Z</time>
      </trkpt>
      <trkpt lat="31.230795915164574" lon="121.3992776999351">
        <ele>-73.8099322412163</ele>
        <time>2026-06-05T11:10:17Z</time>
      </trkpt>
      <trkpt lat="31.23050605467369" lon="121.39935073251145">
        <ele>15.432865610346198</ele>
        <time>2026-06-05T11:10:29Z</time>
      </trkpt>
      <trkpt lat="31.230213195439312" lon="121.39941776499559">
        <ele>21.932857980951667</ele>
        <time>2026-06-05T11:10:38Z</time>
      </trkpt>
      <trkpt lat="31.229927336044184" lon="121.39952080105621">
        <ele>19.792616358026862</ele>
        <time>2026-06-05T11:10:50Z</time>
      </trkpt>
      <trkpt lat="31.22981639922267" lon="121.39966282698404">
        <ele>22.38997315429151</ele>
        <time>2026-06-05T11:10:56Z</time>
      </trkpt>
      <trkpt lat="31.229736456750935" lon="121.39988886200425">
        <ele>21.441395273432136</ele>
        <time>2026-06-05T11:11:05Z</time>
      </trkpt>
      <trkpt lat="31.22978445574747" lon="121.40010188670684">
        <ele>11.395470133051276</ele>
        <time>2026-06-05T11:11:14Z</time>
      </trkpt>
      <trkpt lat="31.229885424276283" lon="121.4002448986327">
        <ele>22.976557245478034</ele>
        <time>2026-06-05T11:11:20Z</time>
      </trkpt>
      <trkpt lat="31.2299673945495" lon="121.4003189026339">
        <ele>-11.108777532353997</ele>
        <time>2026-06-05T11:11:23Z</time>
      </trkpt>
      <trkpt lat="31.230133323636302" lon="121.40037189632413">
        <ele>11.70989846251905</ele>
        <time>2026-06-05T11:11:30Z</time>
      </trkpt>
      <trkpt lat="31.230254265874247" lon="121.40035788360395">
        <ele>20.075338831171393</ele>
        <time>2026-06-05T11:11:36Z</time>
      </trkpt>
      <trkpt lat="31.23057610551524" lon="121.40026084077331">
        <ele>20.273508539423347</ele>
        <time>2026-06-05T11:11:51Z</time>
      </trkpt>
      <trkpt lat="31.23089694250517" lon="121.40012979364245">
        <ele>1.2782006170600653</ele>
        <time>2026-06-05T11:12:09Z</time>
      </trkpt>
      <trkpt lat="31.23100588969453" lon="121.4001077810124">
        <ele>21.140173425897956</ele>
        <time>2026-06-05T11:12:12Z</time>
      </trkpt>
      <trkpt lat="31.231138815432057" lon="121.39998375227005">
        <ele>21.96192025206983</ele>
        <time>2026-06-05T11:12:18Z</time>
      </trkpt>
      <trkpt lat="31.231215766295946" lon="121.39984372716867">
        <ele>19.41741036437452</ele>
        <time>2026-06-05T11:12:24Z</time>
      </trkpt>
      <trkpt lat="31.23123074534955" lon="121.39968770658393">
        <ele>9.844452371820807</ele>
        <time>2026-06-05T11:12:30Z</time>
      </trkpt>
      <trkpt lat="31.231199746144004" lon="121.39952369039844">
        <ele>22.485090723261237</ele>
        <time>2026-06-05T11:12:36Z</time>
      </trkpt>
      <trkpt lat="31.231135767350846" lon="121.39941368410003">
        <ele>4.903398981317878</ele>
        <time>2026-06-05T11:12:42Z</time>
      </trkpt>
      <trkpt lat="31.230976832681755" lon="121.39929768612387">
        <ele>4.361732950434089</ele>
        <time>2026-06-05T11:12:51Z</time>
      </trkpt>
      <trkpt lat="31.23078491917668" lon="121.39926169933328">
        <ele>23.790371408686042</ele>
        <time>2026-06-05T11:13:00Z</time>
      </trkpt>
      <trkpt lat="31.23047706592743" lon="121.39931973190926">
        <ele>22.276348581537604</ele>
        <time>2026-06-05T11:13:16Z</time>
      </trkpt>
      <trkpt lat="31.230361127015723" lon="121.39942075240809">
        <ele>22.714966287836432</ele>
        <time>2026-06-05T11:13:22Z</time>
      </trkpt>
      <trkpt lat="31.23030515343561" lon="121.39942675792433">
        <ele>23.5499253179878</ele>
        <time>2026-06-05T11:13:25Z</time>
      </trkpt>
      <trkpt lat="31.230228186489455" lon="121.39939076086345">
        <ele>22.28691720031202</ele>
        <time>2026-06-05T11:13:28Z</time>
      </trkpt>
      <trkpt lat="31.229951325696042" lon="121.3995308000735">
        <ele>18.947082987055182</ele>
        <time>2026-06-05T11:13:40Z</time>
      </trkpt>
      <trkpt lat="31.2298863601346" lon="121.39958381170989">
        <ele>21.880007257685065</ele>
        <time>2026-06-05T11:13:43Z</time>
      </trkpt>
      <trkpt lat="31.229781421456064" lon="121.39973183831373">
        <ele>13.659893503412604</ele>
        <time>2026-06-05T11:13:49Z</time>
      </trkpt>
      <trkpt lat="31.229737464637864" lon="121.39997487329364">
        <ele>22.088747492060065</ele>
        <time>2026-06-05T11:13:58Z</time>
      </trkpt>
      <trkpt lat="31.229835439072975" lon="121.40016789169525">
        <ele>23.790371408686042</ele>
        <time>2026-06-05T11:14:10Z</time>
      </trkpt>
      <trkpt lat="31.22999738384309" lon="121.4003469043125">
        <ele>22.630413522943854</ele>
        <time>2026-06-05T11:14:16Z</time>
      </trkpt>
      <trkpt lat="31.230148316094326" lon="121.40036689423992">
        <ele>21.93285225890577</ele>
        <time>2026-06-05T11:14:22Z</time>
      </trkpt>
      <trkpt lat="31.23043617221656" lon="121.40027685537952">
        <ele>21.681837549433112</ele>
        <time>2026-06-05T11:14:34Z</time>
      </trkpt>
      <trkpt lat="31.230724031278335" lon="121.40020982030946">
        <ele>21.56557702086866</ele>
        <time>2026-06-05T11:14:47Z</time>
      </trkpt>
      <trkpt lat="31.230991894610526" lon="121.40009278011595">
        <ele>20.595861902460456</ele>
        <time>2026-06-05T11:14:56Z</time>
      </trkpt>
      <trkpt lat="31.231061858157585" lon="121.40005376856361">
        <ele>9.321279993280768</ele>
        <time>2026-06-05T11:14:59Z</time>
      </trkpt>
      <trkpt lat="31.231157802790793" lon="121.39994474538769">
        <ele>17.308874597772956</ele>
        <time>2026-06-05T11:15:02Z</time>
      </trkpt>
      <trkpt lat="31.23122475418757" lon="121.39975671547583">
        <ele>20.38712357543409</ele>
        <time>2026-06-05T11:15:08Z</time>
      </trkpt>
      <trkpt lat="31.231225745350443" lon="121.39966070381318">
        <ele>20.03305863402784</ele>
        <time>2026-06-05T11:15:11Z</time>
      </trkpt>
      <trkpt lat="31.231185752863468" lon="121.39952669195195">
        <ele>20.231228342279792</ele>
        <time>2026-06-05T11:15:17Z</time>
      </trkpt>
      <trkpt lat="31.231139768501134" lon="121.39945368799732">
        <ele>-14.041705617681146</ele>
        <time>2026-06-05T11:15:23Z</time>
      </trkpt>
      <trkpt lat="31.231017816985297" lon="121.39934468726108">
        <ele>16.21497200988233</ele>
        <time>2026-06-05T11:15:29Z</time>
      </trkpt>
      <trkpt lat="31.230904865896868" lon="121.39929569220355">
        <ele>12.021683206781745</ele>
        <time>2026-06-05T11:15:35Z</time>
      </trkpt>
      <trkpt lat="31.230763930882755" lon="121.39929070400322">
        <ele>18.70663689635694</ele>
        <time>2026-06-05T11:15:44Z</time>
      </trkpt>
      <trkpt lat="31.230650987171362" lon="121.39934671946241">
        <ele>18.06984948180616</ele>
        <time>2026-06-05T11:15:53Z</time>
      </trkpt>
      <trkpt lat="31.230454081236715" lon="121.39938474053672">
        <ele>18.801758280023932</ele>
        <time>2026-06-05T11:16:05Z</time>
      </trkpt>
      <trkpt lat="31.230398109633835" lon="121.39941774886599">
        <ele>17.736921777948737</ele>
        <time>2026-06-05T11:16:08Z</time>
      </trkpt>
      <trkpt lat="31.230344134305334" lon="121.3994127530482">
        <ele>18.67757081054151</ele>
        <time>2026-06-05T11:16:11Z</time>
      </trkpt>
      <trkpt lat="31.23006826997733" lon="121.39951278787893">
        <ele>14.711517801508307</ele>
        <time>2026-06-05T11:16:26Z</time>
      </trkpt>
      <trkpt lat="31.229923341901728" lon="121.39957080700621">
        <ele>17.68671845458448</ele>
        <time>2026-06-05T11:16:35Z</time>
      </trkpt>
      <trkpt lat="31.22982739505574" lon="121.39967382732797">
        <ele>18.759481897577643</ele>
        <time>2026-06-05T11:16:41Z</time>
      </trkpt>
      <trkpt lat="31.22978442174795" lon="121.39975084037556">
        <ele>20.365984430536628</ele>
        <time>2026-06-05T11:16:44Z</time>
      </trkpt>
      <trkpt lat="31.229747457729054" lon="121.39995186934117">
        <ele>18.342003336176276</ele>
        <time>2026-06-05T11:16:53Z</time>
      </trkpt>
      <trkpt lat="31.2297624622236" lon="121.40006588357512">
        <ele>18.70663689635694</ele>
        <time>2026-06-05T11:16:59Z</time>
      </trkpt>
      <trkpt lat="31.229838441799842" lon="121.40020589696975">
        <ele>18.122694483026862</ele>
        <time>2026-06-05T11:17:08Z</time>
      </trkpt>
      <trkpt lat="31.229935406219795" lon="121.4002909011709">
        <ele>18.854603281244636</ele>
        <time>2026-06-05T11:17:14Z</time>
      </trkpt>
      <trkpt lat="31.23009234103157" lon="121.40035789772811">
        <ele>18.39484833739698</ele>
        <time>2026-06-05T11:17:23Z</time>
      </trkpt>
      <trkpt lat="31.230227276087803" lon="121.40033788287492">
        <ele>18.968222131952643</ele>
        <time>2026-06-05T11:17:32Z</time>
      </trkpt>
      <trkpt lat="31.230364207069986" lon="121.40028986361686">
        <ele>20.231228342279792</ele>
        <time>2026-06-05T11:17:41Z</time>
      </trkpt>
      <trkpt lat="31.23045216581094" lon="121.40028585534043">
        <ele>20.408260812982917</ele>
        <time>2026-06-05T11:17:47Z</time>
      </trkpt>
      <trkpt lat="31.230562107793062" lon="121.400222836348">
        <ele>19.438545694574714</ele>
        <time>2026-06-05T11:17:57Z</time>
      </trkpt>
      <trkpt lat="31.230810987808095" lon="121.40018080848623">
        <ele>17.85318230651319</ele>
        <time>2026-06-05T11:18:12Z</time>
      </trkpt>
      <trkpt lat="31.230884947113434" lon="121.40012079340663">
        <ele>10.740181436762214</ele>
        <time>2026-06-05T11:18:15Z</time>
      </trkpt>
      <trkpt lat="31.23102187760787" lon="121.40006277330157">
        <ele>21.473097315058112</ele>
        <time>2026-06-05T11:18:21Z</time>
      </trkpt>
      <trkpt lat="31.231129818607734" lon="121.3999737517072">
        <ele>21.140171518549323</ele>
        <time>2026-06-05T11:18:27Z</time>
      </trkpt>
      <trkpt lat="31.23119577799429" lon="121.39986973224951">
        <ele>16.476557245478034</ele>
        <time>2026-06-05T11:18:33Z</time>
      </trkpt>
      <trkpt lat="31.23122574594727" lon="121.39966770464088">
        <ele>20.83630990050733</ele>
        <time>2026-06-05T11:18:39Z</time>
      </trkpt>
      <trkpt lat="31.231177754056624" lon="121.3994946891234">
        <ele>0.6017746832221746</ele>
        <time>2026-06-05T11:18:45Z</time>
      </trkpt>
      <trkpt lat="31.23113276792674" lon="121.39940268320862">
        <ele>8.134897699579597</ele>
        <time>2026-06-05T11:18:48Z</time>
      </trkpt>
      <trkpt lat="31.23094284644738" lon="121.39926868623867">
        <ele>18.77004956267774</ele>
        <time>2026-06-05T11:18:57Z</time>
      </trkpt>
      <trkpt lat="31.230877874679432" lon="121.39924068919642">
        <ele>22.598704805597663</ele>
        <time>2026-06-05T11:19:00Z</time>
      </trkpt>
      <trkpt lat="31.230639989456616" lon="121.39930671639978">
        <ele>22.432240953668952</ele>
        <time>2026-06-05T11:19:09Z</time>
      </trkpt>
      <trkpt lat="31.23052304418077" lon="121.3993137272985">
        <ele>21.576144685968757</ele>
        <time>2026-06-05T11:19:15Z</time>
      </trkpt>
      <trkpt lat="31.230346133749006" lon="121.39941775339973">
        <ele>22.389966478571296</ele>
        <time>2026-06-05T11:19:24Z</time>
      </trkpt>
      <trkpt lat="31.230194204327898" lon="121.39941876675748">
        <ele>7.96579216979444</ele>
        <time>2026-06-05T11:19:30Z</time>
      </trkpt>
      <trkpt lat="31.22995332500604" lon="121.39953380023309">
        <ele>18.34200238250196</ele>
        <time>2026-06-05T11:19:42Z</time>
      </trkpt>
      <trkpt lat="31.229833389130317" lon="121.39963682244738">
        <ele>13.503999223932624</ele>
        <time>2026-06-05T11:19:48Z</time>
      </trkpt>
      <trkpt lat="31.229765431552213" lon="121.39976184338586">
        <ele>-2.0035071466118097</ele>
        <time>2026-06-05T11:19:54Z</time>
      </trkpt>
      <trkpt lat="31.229747446474214" lon="121.39983385397312">
        <ele>21.618422022089362</ele>
        <time>2026-06-05T11:19:57Z</time>
      </trkpt>
      <trkpt lat="31.229751460726675" lon="121.40000087558899">
        <ele>20.741186609491706</ele>
        <time>2026-06-05T11:20:04Z</time>
      </trkpt>
      <trkpt lat="31.229784460394608" lon="121.4001458929713">
        <ele>22.55907296203077</ele>
        <time>2026-06-05T11:20:10Z</time>
      </trkpt>
      <trkpt lat="31.229843443440497" lon="121.40024190184853">
        <ele>21.148098459467292</ele>
        <time>2026-06-05T11:20:13Z</time>
      </trkpt>
      <trkpt lat="31.22991441835038" lon="121.40031190618762">
        <ele>19.937937250360847</ele>
        <time>2026-06-05T11:20:16Z</time>
      </trkpt>
      <trkpt lat="31.230152317044737" lon="121.40039089762996">
        <ele>21.338341226801276</ele>
        <time>2026-06-05T11:20:28Z</time>
      </trkpt>
      <trkpt lat="31.230226282714685" lon="121.40039089117818">
        <ele>17.121271600946784</ele>
        <time>2026-06-05T11:20:31Z</time>
      </trkpt>
      <trkpt lat="31.230247264631256" lon="121.4003188782218">
        <ele>18.968222131952643</ele>
        <time>2026-06-05T11:20:34Z</time>
      </trkpt>
      <trkpt lat="31.230363209688328" lon="121.40030886658448">
        <ele>5.64323472045362</ele>
        <time>2026-06-05T11:20:37Z</time>
      </trkpt>
      <trkpt lat="31.230442168312607" lon="121.40026685335484">
        <ele>23.50764893554151</ele>
        <time>2026-06-05T11:20:40Z</time>
      </trkpt>
      <trkpt lat="31.23057310457022" lon="121.40023983790536">
        <ele>-7.5681357476860285</ele>
        <time>2026-06-05T11:20:43Z</time>
      </trkpt>
      <trkpt lat="31.230737020481797" lon="121.4001658127635">
        <ele>22.191795816645026</ele>
        <time>2026-06-05T11:20:49Z</time>
      </trkpt>
      <trkpt lat="31.230867957320832" lon="121.40014279803033">
        <ele>21.346268167719245</ele>
        <time>2026-06-05T11:20:55Z</time>
      </trkpt>
      <trkpt lat="31.230994893742714" lon="121.40009778055877">
        <ele>6.14262436889112</ele>
        <time>2026-06-05T11:21:01Z</time>
      </trkpt>
      <trkpt lat="31.231150805252067" lon="121.39993674493594">
        <ele>21.264357080683112</ele>
        <time>2026-06-05T11:21:10Z</time>
      </trkpt>
      <trkpt lat="31.231157794272523" lon="121.39985573376144">
        <ele>22.191795816645026</ele>
        <time>2026-06-05T11:21:13Z</time>
      </trkpt>
      <trkpt lat="31.231193769975764" lon="121.399772720155">
        <ele>8.70827149413526</ele>
        <time>2026-06-05T11:21:17Z</time>
      </trkpt>
      <trkpt lat="31.23120275047862" lon="121.39959469814094">
        <ele>20.513952722772956</ele>
        <time>2026-06-05T11:21:23Z</time>
      </trkpt>
      <trkpt lat="31.23114576511664" lon="121.39944568661825">
        <ele>12.647902002558112</ele>
        <time>2026-06-05T11:21:29Z</time>
      </trkpt>
      <trkpt lat="31.230989827631205" lon="121.39931168638186">
        <ele>20.87858628295362</ele>
        <time>2026-06-05T11:21:38Z</time>
      </trkpt>
      <trkpt lat="31.230794915900965" lon="121.39928170041459">
        <ele>19.2192368414253</ele>
        <time>2026-06-05T11:21:47Z</time>
      </trkpt>
      <trkpt lat="31.230552034639828" lon="121.3993687303417">
        <ele>21.222080698236823</ele>
        <time>2026-06-05T11:21:56Z</time>
      </trkpt>
      <trkpt lat="31.230450082437155" lon="121.39937573995535">
        <ele>8.687134256586432</ele>
        <time>2026-06-05T11:22:02Z</time>
      </trkpt>
      <trkpt lat="31.230396109524644" lon="121.39940374757111">
        <ele>19.895658960565925</ele>
        <time>2026-06-05T11:22:05Z</time>
      </trkpt>
      <trkpt lat="31.230261172950428" lon="121.39941476049492">
        <ele>21.586714258417487</ele>
        <time>2026-06-05T11:22:11Z</time>
      </trkpt>
      <trkpt lat="31.22998930640291" lon="121.399509794436">
        <ele>9.519449701532722</ele>
        <time>2026-06-05T11:22:20Z</time>
      </trkpt>
      <trkpt lat="31.229920340720884" lon="121.39953880366785">
        <ele>17.85318230651319</ele>
        <time>2026-06-05T11:22:23Z</time>
      </trkpt>
      <trkpt lat="31.22982139784123" lon="121.39967382785109">
        <ele>18.738344660028815</ele>
        <time>2026-06-05T11:22:29Z</time>
      </trkpt>
      <trkpt lat="31.229762447844504" lon="121.39992186405694">
        <ele>17.736921777948737</ele>
        <time>2026-06-05T11:22:39Z</time>
      </trkpt>
      <trkpt lat="31.229769455394038" lon="121.4000308781206">
        <ele>17.018223276361823</ele>
        <time>2026-06-05T11:22:42Z</time>
      </trkpt>
      <trkpt lat="31.229803448500817" lon="121.4001168871745">
        <ele>21.763746729120612</ele>
        <time>2026-06-05T11:22:48Z</time>
      </trkpt>
      <trkpt lat="31.229822450981462" lon="121.40022190071839">
        <ele>21.399113168939948</ele>
        <time>2026-06-05T11:22:51Z</time>
      </trkpt>
      <trkpt lat="31.229955400347624" lon="121.40032090398549">
        <ele>-54.5054888818413</ele>
        <time>2026-06-05T11:22:57Z</time>
      </trkpt>
      <trkpt lat="31.230089342423597" lon="121.40035789798968">
        <ele>20.960491647943854</ele>
        <time>2026-06-05T11:23:03Z</time>
      </trkpt>
      <trkpt lat="31.230325228680986" lon="121.40032087172659">
        <ele>18.947079172357917</ele>
        <time>2026-06-05T11:23:15Z</time>
      </trkpt>
      <trkpt lat="31.230472153843067" lon="121.40026184999041">
        <ele>16.76720284484327</ele>
        <time>2026-06-05T11:23:24Z</time>
      </trkpt>
      <trkpt lat="31.230634070486037" lon="121.4001868247917">
        <ele>14.619034281000495</ele>
        <time>2026-06-05T11:23:36Z</time>
      </trkpt>
      <trkpt lat="31.23092892672958" lon="121.40012078957032">
        <ele>11.27127312682569</ele>
        <time>2026-06-05T11:23:45Z</time>
      </trkpt>
      <trkpt lat="31.23117978777536" lon="121.39989473688671">
        <ele>18.844030847772956</ele>
        <time>2026-06-05T11:24:01Z</time>
      </trkpt>
      <trkpt lat="31.231225759810794" lon="121.39982372375398">
        <ele>20.334272852167487</ele>
        <time>2026-06-05T11:24:04Z</time>
      </trkpt>
      <trkpt lat="31.23124374325931" lon="121.39973271088">
        <ele>19.95907067321241</ele>
        <time>2026-06-05T11:24:07Z</time>
      </trkpt>
      <trkpt lat="31.231212744702404" lon="121.39958069566984">
        <ele>19.0924057867378</ele>
        <time>2026-06-05T11:24:13Z</time>
      </trkpt>
      <trkpt lat="31.23112877051814" lon="121.39941268460528">
        <ele>21.50480126403272</ele>
        <time>2026-06-05T11:24:22Z</time>
      </trkpt>
      <trkpt lat="31.231015816217294" lon="121.39932068501487">
        <ele>8.552374353632331</ele>
        <time>2026-06-05T11:24:28Z</time>
      </trkpt>
      <trkpt lat="31.230902865657445" lon="121.3992786907039">
        <ele>-6.7278952691704035</ele>
        <time>2026-06-05T11:24:34Z</time>
      </trkpt>
      <trkpt lat="31.230808908732648" lon="121.39927169821473">
        <ele>22.704393854364753</ele>
        <time>2026-06-05T11:24:37Z</time>
      </trkpt>
      <trkpt lat="31.23049805888361" lon="121.39935773392284">
        <ele>21.50480126403272</ele>
        <time>2026-06-05T11:24:46Z</time>
      </trkpt>
      <trkpt lat="31.230302154379327" lon="121.39942075755212">
        <ele>21.6712632086128</ele>
        <time>2026-06-05T11:24:52Z</time>
      </trkpt>
      <trkpt lat="31.23002128952807" lon="121.39948378880021">
        <ele>20.910288324579597</ele>
        <time>2026-06-05T11:25:01Z</time>
      </trkpt>
      <trkpt lat="31.22993133569489" lon="121.39953980282048">
        <ele>19.824314584955573</ele>
        <time>2026-06-05T11:25:04Z</time>
      </trkpt>
      <trkpt lat="31.229834391121994" lon="121.39966582576945">
        <ele>20.63813447020948</ele>
        <time>2026-06-05T11:25:10Z</time>
      </trkpt>
      <trkpt lat="31.229771433117183" lon="121.39980984884446">
        <ele>18.593014230951667</ele>
        <time>2026-06-05T11:25:16Z</time>
      </trkpt>
      <trkpt lat="31.22975845144887" lon="121.39993986678587">
        <ele>19.866590967401862</ele>
        <time>2026-06-05T11:25:22Z</time>
      </trkpt>
      <trkpt lat="31.229815444302393" lon="121.40012988797879">
        <ele>21.29606102965772</ele>
        <time>2026-06-05T11:25:31Z</time>
      </trkpt>
      <trkpt lat="31.22991741401007" lon="121.40028590198513">
        <ele>16.8491139318794</ele>
        <time>2026-06-05T11:25:44Z</time>
      </trkpt>
      <trkpt lat="31.230015374912583" lon="121.40034190197332">
        <ele>16.18326043151319</ele>
        <time>2026-06-05T11:25:50Z</time>
      </trkpt>
      <trkpt lat="31.230541121852436" lon="121.40026184397448">
        <ele>20.16781090758741</ele>
        <time>2026-06-05T11:26:05Z</time>
      </trkpt>
      <trkpt lat="31.23080598947683" lon="121.40017480805089">
        <ele>-0.5872511956840754</ele>
        <time>2026-06-05T11:26:14Z</time>
      </trkpt>
      <trkpt lat="31.23100288972404" lon="121.40009477943848">
        <ele>21.515369882807136</ele>
        <time>2026-06-05T11:26:20Z</time>
      </trkpt>
      <trkpt lat="31.23108584368397" lon="121.40002076192272">
        <ele>-5.863872060552239</ele>
        <time>2026-06-05T11:26:23Z</time>
      </trkpt>
      <trkpt lat="31.23122875117777" lon="121.39974371353124">
        <ele>14.587328424677253</ele>
        <time>2026-06-05T11:26:35Z</time>
      </trkpt>
      <trkpt lat="31.23119574736509" lon="121.39951568986191">
        <ele>17.507040491327643</ele>
        <time>2026-06-05T11:26:47Z</time>
      </trkpt>
      <trkpt lat="31.231100780048905" lon="121.3993656821671">
        <ele>16.820049753412604</ele>
        <time>2026-06-05T11:26:56Z</time>
      </trkpt>
      <trkpt lat="31.23094284801775" lon="121.39929168849511">
        <ele>14.254400720819831</ele>
        <time>2026-06-05T11:27:05Z</time>
      </trkpt>
      <trkpt lat="31.230661978498347" lon="121.39929571339037">
        <ele>19.980207910761237</ele>
        <time>2026-06-05T11:27:18Z</time>
      </trkpt>
      <trkpt lat="31.23038511021004" lon="121.3993427422484">
        <ele>14.087938776239753</ele>
        <time>2026-06-05T11:27:30Z</time>
      </trkpt>
      <trkpt lat="31.230222190522923" lon="121.3994077631604">
        <ele>18.186104288324714</ele>
        <time>2026-06-05T11:27:39Z</time>
      </trkpt>
      <trkpt lat="31.23015622588592" lon="121.39947077562044">
        <ele>19.512526025995612</ele>
        <time>2026-06-05T11:27:42Z</time>
      </trkpt>
      <trkpt lat="31.229996302528246" lon="121.39950179294628">
        <ele>19.803177347406745</ele>
        <time>2026-06-05T11:27:51Z</time>
      </trkpt>
      <trkpt lat="31.229936332816955" lon="121.39953280160388">
        <ele>20.84687470458448</ele>
        <time>2026-06-05T11:27:54Z</time>
      </trkpt>
      <trkpt lat="31.22982539276025" lon="121.39963582302809">
        <ele>15.255823602899909</ele>
        <time>2026-06-05T11:28:00Z</time>
      </trkpt>
      <trkpt lat="31.22976743206253" lon="121.39977784519195">
        <ele>15.181839456781745</ele>
        <time>2026-06-05T11:28:06Z</time>
      </trkpt>
      <trkpt lat="31.22976343950962" lon="121.39983885321452">
        <ele>21.09789132140577</ele>
        <time>2026-06-05T11:28:09Z</time>
      </trkpt>
      <trkpt lat="31.229718472965747" lon="121.39996987427811">
        <ele>14.013954630121589</ele>
        <time>2026-06-05T11:28:12Z</time>
      </trkpt>
      <trkpt lat="31.22974447621034" lon="121.40011989274467">
        <ele>20.80459832213819</ele>
        <time>2026-06-05T11:28:25Z</time>
      </trkpt>
      <trkpt lat="31.229999381877143" lon="121.40033790275336">
        <ele>17.12126778624952</ele>
        <time>2026-06-05T11:28:31Z</time>
      </trkpt>
      <trkpt lat="31.230208288491426" lon="121.40036888931915">
        <ele>22.057035913690925</ele>
        <time>2026-06-05T11:28:37Z</time>
      </trkpt>
      <trkpt lat="31.230513132607783" lon="121.40024184343366">
        <ele>19.72919320128858</ele>
        <time>2026-06-05T11:28:49Z</time>
      </trkpt>
      <trkpt lat="31.230828977743215" lon="121.40016480459762">
        <ele>19.657850733026862</ele>
        <time>2026-06-05T11:29:01Z</time>
      </trkpt>
      <trkpt lat="31.231021878432582" lon="121.4000707744166">
        <ele>17.07899140380323</ele>
        <time>2026-06-05T11:29:10Z</time>
      </trkpt>
      <trkpt lat="31.23114780879315" lon="121.39995874812631">
        <ele>19.77146958373487</ele>
        <time>2026-06-05T11:29:16Z</time>
      </trkpt>
      <trkpt lat="31.231206768884746" lon="121.39982672579067">
        <ele>20.648704996332526</ele>
        <time>2026-06-05T11:29:22Z</time>
      </trkpt>
      <trkpt lat="31.231222744038657" lon="121.39962870032373">
        <ele>14.368019571527839</ele>
        <time>2026-06-05T11:29:31Z</time>
      </trkpt>
      <trkpt lat="31.231150763864036" lon="121.39945968768238">
        <ele>20.532444467768073</ele>
        <time>2026-06-05T11:29:40Z</time>
      </trkpt>
      <trkpt lat="31.23110078215713" lon="121.39939468516415">
        <ele>19.87451790831983</ele>
        <time>2026-06-05T11:29:43Z</time>
      </trkpt>
      <trkpt lat="31.230936851418043" lon="121.39930068990874">
        <ele>18.497892847284675</ele>
        <time>2026-06-05T11:29:52Z</time>
      </trkpt>
      <trkpt lat="31.230774925923" lon="121.39929270324156">
        <ele>19.35398911498487</ele>
        <time>2026-06-05T11:29:58Z</time>
      </trkpt>
      <trkpt lat="31.230460077945462" lon="121.39937773928979">
        <ele>17.068422785028815</ele>
        <time>2026-06-05T11:30:16Z</time>
      </trkpt>
      <trkpt lat="31.230176216607127" lon="121.3994707738767">
        <ele>-17.027478704228997</ele>
        <time>2026-06-05T11:30:34Z</time>
      </trkpt>
      <trkpt lat="31.229907350632047" lon="121.39958681022128">
        <ele>18.645861139521003</ele>
        <time>2026-06-05T11:30:50Z</time>
      </trkpt>
      <trkpt lat="31.229787420890442" lon="121.39975684085164">
        <ele>6.570668688043952</ele>
        <time>2026-06-05T11:31:02Z</time>
      </trkpt>
      <trkpt lat="31.229746461849473" lon="121.39998887439776">
        <ele>23.23549031279981</ele>
        <time>2026-06-05T11:31:05Z</time>
      </trkpt>
      <trkpt lat="31.229757468492878" lon="121.40010388934337">
        <ele>21.013337602838874</ele>
        <time>2026-06-05T11:31:08Z</time>
      </trkpt>
      <trkpt lat="31.229799459578203" lon="121.40020289993015">
        <ele>20.79402874968946</ele>
        <time>2026-06-05T11:31:11Z</time>
      </trkpt>
      <trkpt lat="31.22984944411275" lon="121.40027290595658">
        <ele>20.125533571466804</ele>
        <time>2026-06-05T11:31:14Z</time>
      </trkpt>
      <trkpt lat="31.22997939289075" lon="121.40035290680738">
        <ele>15.475131502375007</ele>
        <time>2026-06-05T11:31:20Z</time>
      </trkpt>
      <trkpt lat="31.230150314236685" lon="121.40035889282602">
        <ele>23.518212785944343</ele>
        <time>2026-06-05T11:31:29Z</time>
      </trkpt>
      <trkpt lat="31.230335223700205" lon="121.40031787039675">
        <ele>18.363135805353522</ele>
        <time>2026-06-05T11:31:38Z</time>
      </trkpt>
      <trkpt lat="31.230495138745106" lon="121.400221842042">
        <ele>15.744643678888679</ele>
        <time>2026-06-05T11:31:54Z</time>
      </trkpt>
      <trkpt lat="31.230729023545145" lon="121.40015981259447">
        <ele>17.85317753814161</ele>
        <time>2026-06-05T11:32:06Z</time>
      </trkpt>
      <trkpt lat="31.230973895254696" lon="121.40001777127726">
        <ele>20.25236271880567</ele>
        <time>2026-06-05T11:32:18Z</time>
      </trkpt>
      <trkpt lat="31.231135804459655" lon="121.39985573567961">
        <ele>19.314355364069343</ele>
        <time>2026-06-05T11:32:27Z</time>
      </trkpt>
      <trkpt lat="31.231177774347433" lon="121.39973871736652">
        <ele>20.868012895807624</ele>
        <time>2026-06-05T11:32:33Z</time>
      </trkpt>
      <trkpt lat="31.231183765906515" lon="121.39967370901435">
        <ele>12.14850758574903</ele>
        <time>2026-06-05T11:32:36Z</time>
      </trkpt>
      <trkpt lat="31.23116176913402" lon="121.39959070125776">
        <ele>8.821885576471686</ele>
        <time>2026-06-05T11:32:42Z</time>
      </trkpt>
      <trkpt lat="31.231075798138676" lon="121.39945369357747">
        <ele>18.196673860773444</ele>
        <time>2026-06-05T11:32:51Z</time>
      </trkpt>
      <trkpt lat="31.23091386402729" lon="121.39932869471167">
        <ele>18.299722185358405</ele>
        <time>2026-06-05T11:33:03Z</time>
      </trkpt>
      <trkpt lat="31.23084289586986" lon="121.39931369939826">
        <ele>18.999925127252936</ele>
        <time>2026-06-05T11:33:06Z</time>
      </trkpt>
      <trkpt lat="31.230576022579193" lon="121.39935572691795">
        <ele>17.237527361139655</ele>
        <time>2026-06-05T11:33:19Z</time>
      </trkpt>
      <trkpt lat="31.230516049752197" lon="121.39934673123278">
        <ele>17.93508862517774</ele>
        <time>2026-06-05T11:33:22Z</time>
      </trkpt>
      <trkpt lat="31.23036112341885" lon="121.39937174730298">
        <ele>11.939769258722663</ele>
        <time>2026-06-05T11:33:31Z</time>
      </trkpt>
      <trkpt lat="31.230234187419565" lon="121.39944076560073">
        <ele>18.26008748076856</ele>
        <time>2026-06-05T11:33:37Z</time>
      </trkpt>
      <trkpt lat="31.230018291928605" lon="121.39949679048027">
        <ele>19.102973451837897</ele>
        <time>2026-06-05T11:33:46Z</time>
      </trkpt>
      <trkpt lat="31.229947327473255" lon="121.39952980031103">
        <ele>18.040778627619147</ele>
        <time>2026-06-05T11:33:49Z</time>
      </trkpt>
      <trkpt lat="31.22981140761611" lon="121.39973283581998">
        <ele>18.46882771514356</ele>
        <time>2026-06-05T11:33:58Z</time>
      </trkpt>
    </trkseg>
  </trk>
</gpx>