<?xml version="1.0" encoding="UTF-8"?>
<gpx xmlns="http://www.topografix.com/GPX/1/1" xmlns:gpxtpx="http://www.garmin.com/xmlschemas/TrackPointExtension/v1" xmlns:xsi="http://www.w3.org/2001/XMLSchema-instance" xsi:schemaLocation="http://www.topografix.com/GPX/1/1 http://www.topografix.com/GPX/1/1/gpx.xsd" version="1.1" creator="gpx.py -- https://github.com/tkrajina/gpxpy">
  <trk>
    <name>gpx from keep</name>
    <type>Run</type>
    <trkseg>
      <trkpt lat="31.22970748581189" lon="121.40004688573259">
        <ele>20.93522052280605</ele>
        <time>2026-07-09T09:27:12Z</time>
      </trkpt>
      <trkpt lat="31.229796464264563" lon="121.40023290461117">
        <ele>23.79680041782558</ele>
        <time>2026-07-09T09:27:12Z</time>
      </trkpt>
      <trkpt lat="31.22986844004513" lon="121.40031491065517">
        <ele>27.09964923374355</ele>
        <time>2026-07-09T09:27:12Z</time>
      </trkpt>
      <trkpt lat="31.229943410526886" lon="121.40036091118307">
        <ele>25.160218996927142</ele>
        <time>2026-07-09T09:27:12Z</time>
      </trkpt>
      <trkpt lat="31.23010233953957" lon="121.40038490105174">
        <ele>24.079530520364642</ele>
        <time>2026-07-09T09:27:12Z</time>
      </trkpt>
      <trkpt lat="31.230258263786908" lon="121.40035588294593">
        <ele>13.129945559427142</ele>
        <time>2026-07-09T09:27:12Z</time>
      </trkpt>
      <trkpt lat="31.230525130501942" lon="121.40027284701858">
        <ele>-17.73710079677403</ele>
        <time>2026-07-09T09:27:12Z</time>
      </trkpt>
      <trkpt lat="31.230675057844934" lon="121.40024482975522">
        <ele>-9.744222836568952</ele>
        <time>2026-07-09T09:27:12Z</time>
      </trkpt>
      <trkpt lat="31.230902942493422" lon="121.40015579684703">
        <ele>22.758386416360736</ele>
        <time>2026-07-09T09:27:12Z</time>
      </trkpt>
      <trkpt lat="31.231046865412356" lon="121.40005677028778">
        <ele>20.316926760599017</ele>
        <time>2026-07-09T09:27:12Z</time>
      </trkpt>
      <trkpt lat="31.231139810930415" lon="121.39994274669127">
        <ele>14.543557925149798</ele>
        <time>2026-07-09T09:27:12Z</time>
      </trkpt>
      <trkpt lat="31.23119077573888" lon="121.39982072642601">
        <ele>22.98826770298183</ele>
        <time>2026-07-09T09:27:12Z</time>
      </trkpt>
      <trkpt lat="31.23117675790427" lon="121.39953769396115">
        <ele>22.539079470559955</ele>
        <time>2026-07-09T09:27:12Z</time>
      </trkpt>
      <trkpt lat="31.231148764409625" lon="121.39945468731985">
        <ele>21.27079181186855</ele>
        <time>2026-07-09T09:27:12Z</time>
      </trkpt>
      <trkpt lat="31.23104380409288" lon="121.39933268378007">
        <ele>21.857377810403705</ele>
        <time>2026-07-09T09:27:12Z</time>
      </trkpt>
      <trkpt lat="31.230855886346525" lon="121.39926269324005">
        <ele>24.67668323032558</ele>
        <time>2026-07-09T09:27:12Z</time>
      </trkpt>
      <trkpt lat="31.230690963211625" lon="121.39926870821023">
        <ele>22.99883441440761</ele>
        <time>2026-07-09T09:27:13Z</time>
      </trkpt>
      <trkpt lat="31.23046107639795" lon="121.39936273766027">
        <ele>23.38725451938808</ele>
        <time>2026-07-09T09:27:13Z</time>
      </trkpt>
      <trkpt lat="31.23012323921746" lon="121.39944477570492">
        <ele>21.49009875766933</ele>
        <time>2026-07-09T09:27:13Z</time>
      </trkpt>
      <trkpt lat="31.22987136685269" lon="121.39958081267584">
        <ele>17.310022158548236</ele>
        <time>2026-07-09T09:27:13Z</time>
      </trkpt>
      <trkpt lat="31.229820395333704" lon="121.3996388238145">
        <ele>22.3699739407748</ele>
        <time>2026-07-09T09:27:13Z</time>
      </trkpt>
      <trkpt lat="31.229741453669096" lon="121.39988086052979">
        <ele>18.83989886753261</ele>
        <time>2026-07-09T09:27:13Z</time>
      </trkpt>
      <trkpt lat="31.2297354646772" lon="121.39996587225926">
        <ele>21.302499575540423</ele>
        <time>2026-07-09T09:27:13Z</time>
      </trkpt>
      <trkpt lat="31.229751466097657" lon="121.40005388286605">
        <ele>21.302499575540423</ele>
        <time>2026-07-09T09:27:13Z</time>
      </trkpt>
      <trkpt lat="31.229832444803872" lon="121.40020789778633">
        <ele>7.153119845315814</ele>
        <time>2026-07-09T09:27:13Z</time>
      </trkpt>
      <trkpt lat="31.22994740451847" lon="121.40032490529433">
        <ele>21.56408099643886</ele>
        <time>2026-07-09T09:27:13Z</time>
      </trkpt>
      <trkpt lat="31.230151313772726" lon="121.40035889273884">
        <ele>20.80838946811855</ele>
        <time>2026-07-09T09:27:13Z</time>
      </trkpt>
      <trkpt lat="31.230310237243323" lon="121.40033487517779">
        <ele>21.019777102395892</ele>
        <time>2026-07-09T09:27:13Z</time>
      </trkpt>
      <trkpt lat="31.23061208704595" lon="121.40024483524806">
        <ele>21.521806521341205</ele>
        <time>2026-07-09T09:27:13Z</time>
      </trkpt>
      <trkpt lat="31.230950917913333" lon="121.40013378950545">
        <ele>11.885431094095111</ele>
        <time>2026-07-09T09:27:14Z</time>
      </trkpt>
      <trkpt lat="31.23103387505303" lon="121.40009177631329">
        <ele>17.6667268704623</ele>
        <time>2026-07-09T09:27:14Z</time>
      </trkpt>
      <trkpt lat="31.23114580834736" lon="121.39994474643396">
        <ele>19.11205462925136</ele>
        <time>2026-07-09T09:27:14Z</time>
      </trkpt>
      <trkpt lat="31.231202764910293" lon="121.39976271813354">
        <ele>18.316728396341205</ele>
        <time>2026-07-09T09:27:14Z</time>
      </trkpt>
      <trkpt lat="31.231202756339997" lon="121.39966470629119">
        <ele>23.199647707864642</ele>
        <time>2026-07-09T09:27:14Z</time>
      </trkpt>
      <trkpt lat="31.23118375764094" lon="121.39957469751613">
        <ele>22.454530520364642</ele>
        <time>2026-07-09T09:27:14Z</time>
      </trkpt>
      <trkpt lat="31.23114476848419" lon="121.39948369080098">
        <ele>22.401681704446673</ele>
        <time>2026-07-09T09:27:14Z</time>
      </trkpt>
      <trkpt lat="31.231030811534627" lon="121.39935268694117">
        <ele>21.196809573099017</ele>
        <time>2026-07-09T09:27:14Z</time>
      </trkpt>
      <trkpt lat="31.230967837961106" lon="121.39931368849965">
        <ele>17.225465578958392</ele>
        <time>2026-07-09T09:27:14Z</time>
      </trkpt>
      <trkpt lat="31.23081190781897" lon="121.39927869863807">
        <ele>24.8669221829623</ele>
        <time>2026-07-09T09:27:14Z</time>
      </trkpt>
      <trkpt lat="31.23051504978931" lon="121.39934073071137">
        <ele>24.016114993020892</ele>
        <time>2026-07-09T09:27:14Z</time>
      </trkpt>
      <trkpt lat="31.230224190485302" lon="121.39941976424726">
        <ele>15.246408266946673</ele>
        <time>2026-07-09T09:27:14Z</time>
      </trkpt>
      <trkpt lat="31.23014222994952" lon="121.39943877340896">
        <ele>22.874650759622455</ele>
        <time>2026-07-09T09:27:14Z</time>
      </trkpt>
      <trkpt lat="31.22991034664355" lon="121.39955480633296">
        <ele>21.051484866067767</ele>
        <time>2026-07-09T09:27:14Z</time>
      </trkpt>
      <trkpt lat="31.229784419007395" lon="121.39971983659454">
        <ele>23.92363147251308</ele>
        <time>2026-07-09T09:27:14Z</time>
      </trkpt>
      <trkpt lat="31.22974046593438" lon="121.40000187668394">
        <ele>20.766114993020892</ele>
        <time>2026-07-09T09:27:14Z</time>
      </trkpt>
      <trkpt lat="31.229788459498593" lon="121.40015489391645">
        <ele>23.17851428501308</ele>
        <time>2026-07-09T09:27:15Z</time>
      </trkpt>
      <trkpt lat="31.229825449368878" lon="121.40021990016189">
        <ele>20.525666994974017</ele>
        <time>2026-07-09T09:27:15Z</time>
      </trkpt>
      <trkpt lat="31.229878179211717" lon="121.40030312727743">
        <ele>1.252923769876361</ele>
        <time>2026-07-09T09:27:15Z</time>
      </trkpt>
      <trkpt lat="31.229994385350903" lon="121.40034790472818">
        <ele>24.05838946811855</ele>
        <time>2026-07-09T09:27:15Z</time>
      </trkpt>
      <trkpt lat="31.230206285829595" lon="121.40033788470583">
        <ele>22.655343813821673</ele>
        <time>2026-07-09T09:27:15Z</time>
      </trkpt>
      <trkpt lat="31.230498143581563" lon="121.40027785012435">
        <ele>20.578515810891986</ele>
        <time>2026-07-09T09:27:15Z</time>
      </trkpt>
      <trkpt lat="31.23069004388086" lon="121.400180819036">
        <ele>19.3736360501498</ele>
        <time>2026-07-09T09:27:15Z</time>
      </trkpt>
      <trkpt lat="31.230894944173983" lon="121.40013679481694">
        <ele>21.5429475735873</ele>
        <time>2026-07-09T09:27:15Z</time>
      </trkpt>
      <trkpt lat="31.23112082496338" lon="121.39999575546345">
        <ele>20.54680804722011</ele>
        <time>2026-07-09T09:27:15Z</time>
      </trkpt>
      <trkpt lat="31.231170796771327" lon="121.39994474425423">
        <ele>20.966928286477923</ele>
        <time>2026-07-09T09:27:15Z</time>
      </trkpt>
      <trkpt lat="31.231196777342657" lon="121.39986773190435">
        <ele>22.09781817905605</ele>
        <time>2026-07-09T09:27:15Z</time>
      </trkpt>
      <trkpt lat="31.231201755782788" lon="121.39965270496293">
        <ele>21.585222048684955</ele>
        <time>2026-07-09T09:27:15Z</time>
      </trkpt>
      <trkpt lat="31.23115176485702" lon="121.39947868964744">
        <ele>23.17851428501308</ele>
        <time>2026-07-09T09:27:15Z</time>
      </trkpt>
      <trkpt lat="31.23110478067201" lon="121.39939968533659">
        <ele>22.391114993020892</ele>
        <time>2026-07-09T09:27:15Z</time>
      </trkpt>
      <trkpt lat="31.23104280533527" lon="121.39934368497987">
        <ele>21.846803469583392</ele>
        <time>2026-07-09T09:27:15Z</time>
      </trkpt>
      <trkpt lat="31.230828899465678" lon="121.39927169647096">
        <ele>19.77262286655605</ele>
        <time>2026-07-09T09:27:15Z</time>
      </trkpt>
      <trkpt lat="31.230522046189762" lon="121.39933572959534">
        <ele>14.797220034524798</ele>
        <time>2026-07-09T09:27:16Z</time>
      </trkpt>
      <trkpt lat="31.23020720070055" lon="121.39945076902256">
        <ele>22.182374758645892</ele>
        <time>2026-07-09T09:27:16Z</time>
      </trkpt>
      <trkpt lat="31.22998230980857" lon="121.39951179526668">
        <ele>21.405542178079486</ele>
        <time>2026-07-09T09:27:16Z</time>
      </trkpt>
      <trkpt lat="31.229843380997103" lon="121.39959481671625">
        <ele>18.64965228550136</ele>
        <time>2026-07-09T09:27:16Z</time>
      </trkpt>
      <trkpt lat="31.229785413104665" lon="121.39965682897875">
        <ele>20.94578723423183</ele>
        <time>2026-07-09T09:27:16Z</time>
      </trkpt>
      <trkpt lat="31.22972145734458" lon="121.39982085459157">
        <ele>21.376481814309955</ele>
        <time>2026-07-09T09:27:16Z</time>
      </trkpt>
      <trkpt lat="31.229717474618777" lon="121.39998187598046">
        <ele>22.29863147251308</ele>
        <time>2026-07-09T09:27:16Z</time>
      </trkpt>
      <trkpt lat="31.22975747165473" lon="121.40013389360672">
        <ele>19.595590395852923</ele>
        <time>2026-07-09T09:27:16Z</time>
      </trkpt>
      <trkpt lat="31.229857443331777" lon="121.40029890918228">
        <ele>19.7092073392123</ele>
        <time>2026-07-09T09:27:16Z</time>
      </trkpt>
      <trkpt lat="31.230001387935268" lon="121.40039791189125">
        <ele>21.387048525735736</ele>
        <time>2026-07-09T09:27:16Z</time>
      </trkpt>
      <trkpt lat="31.23013732271477" lon="121.40037989722039">
        <ele>4.75657824985683</ele>
        <time>2026-07-09T09:27:16Z</time>
      </trkpt>
      <trkpt lat="31.230302239691806" lon="121.4003238741903">
        <ele>21.323632998391986</ele>
        <time>2026-07-09T09:27:16Z</time>
      </trkpt>
      <trkpt lat="31.230457164622766" lon="121.40029585641604">
        <ele>7.67629031650722</ele>
        <time>2026-07-09T09:27:16Z</time>
      </trkpt>
      <trkpt lat="31.230734027411117" lon="121.40021682046714">
        <ele>21.14396075718105</ele>
        <time>2026-07-09T09:27:17Z</time>
      </trkpt>
      <trkpt lat="31.231001892282684" lon="121.40011478235317">
        <ele>21.867944521829486</ele>
        <time>2026-07-09T09:27:17Z</time>
      </trkpt>
      <trkpt lat="31.2311178290672" lon="121.40002275940668">
        <ele>20.412050051614642</ele>
        <time>2026-07-09T09:27:17Z</time>
      </trkpt>
      <trkpt lat="31.23116480052856" lon="121.39995474610969">
        <ele>19.79375628940761</ele>
        <time>2026-07-09T09:27:17Z</time>
      </trkpt>
      <trkpt lat="31.23119677621459" lon="121.39985573036104">
        <ele>22.43338946811855</ele>
        <time>2026-07-09T09:27:17Z</time>
      </trkpt>
      <trkpt lat="31.231206762521367" lon="121.39975671704525">
        <ele>21.82567004673183</ele>
        <time>2026-07-09T09:27:17Z</time>
      </trkpt>
      <trkpt lat="31.23117775993206" lon="121.39956869735893">
        <ele>22.359407229349017</ele>
        <time>2026-07-09T09:27:17Z</time>
      </trkpt>
      <trkpt lat="31.23111677629762" lon="121.39941568596693">
        <ele>22.44395617954433</ele>
        <time>2026-07-09T09:27:17Z</time>
      </trkpt>
      <trkpt lat="31.231066795434852" lon="121.39936068461927">
        <ele>22.31713275425136</ele>
        <time>2026-07-09T09:27:17Z</time>
      </trkpt>
      <trkpt lat="31.23089786608124" lon="121.39925068841562">
        <ele>21.165101809427142</ele>
        <time>2026-07-09T09:27:17Z</time>
      </trkpt>
      <trkpt lat="31.23078891618275" lon="121.39924469734078">
        <ele>18.63115863315761</ele>
        <time>2026-07-09T09:27:17Z</time>
      </trkpt>
      <trkpt lat="31.23050505585347" lon="121.39936073361925">
        <ele>22.874650759622455</ele>
        <time>2026-07-09T09:27:17Z</time>
      </trkpt>
      <trkpt lat="31.230287160224314" lon="121.39940575728377">
        <ele>22.09781817905605</ele>
        <time>2026-07-09T09:27:17Z</time>
      </trkpt>
      <trkpt lat="31.230023289686123" lon="121.39949779015382">
        <ele>23.167939944192767</ele>
        <time>2026-07-09T09:27:17Z</time>
      </trkpt>
      <trkpt lat="31.22991034608172" lon="121.39954780554676">
        <ele>-1.9680082369595766</ele>
        <time>2026-07-09T09:27:17Z</time>
      </trkpt>
      <trkpt lat="31.229744438018667" lon="121.39972484068838">
        <ele>22.140100283548236</ele>
        <time>2026-07-09T09:27:18Z</time>
      </trkpt>
      <trkpt lat="31.229718463496948" lon="121.3998718613707">
        <ele>23.440095705911517</ele>
        <time>2026-07-09T09:27:18Z</time>
      </trkpt>
      <trkpt lat="31.22971947092641" lon="121.39995387204914">
        <ele>21.82567004673183</ele>
        <time>2026-07-09T09:27:18Z</time>
      </trkpt>
      <trkpt lat="31.229760458560037" lon="121.40002087753304">
        <ele>18.924447817727923</ele>
        <time>2026-07-09T09:27:18Z</time>
      </trkpt>
      <trkpt lat="31.229764464615148" lon="121.40009788788609">
        <ele>22.203515810891986</ele>
        <time>2026-07-09T09:27:18Z</time>
      </trkpt>
      <trkpt lat="31.229803455980885" lon="121.40018689724371">
        <ele>22.35148028843105</ele>
        <time>2026-07-09T09:27:18Z</time>
      </trkpt>
      <trkpt lat="31.22998139428687" lon="121.40037290973183">
        <ele>19.740915102884173</ele>
        <time>2026-07-09T09:27:18Z</time>
      </trkpt>
      <trkpt lat="31.230061359738404" lon="121.40039490618997">
        <ele>22.938066286966205</ele>
        <time>2026-07-09T09:27:18Z</time>
      </trkpt>
      <trkpt lat="31.230321231337733" lon="121.40032787314574">
        <ele>22.192941470071673</ele>
        <time>2026-07-09T09:27:18Z</time>
      </trkpt>
      <trkpt lat="31.23045616081521" lon="121.40025785078733">
        <ele>22.38054828159511</ele>
        <time>2026-07-09T09:27:18Z</time>
      </trkpt>
      <trkpt lat="31.23055111665835" lon="121.40025684235513">
        <ele>8.439908785745502</ele>
        <time>2026-07-09T09:27:18Z</time>
      </trkpt>
      <trkpt lat="31.23080299238154" lon="121.40018881034837">
        <ele>18.345796389505267</ele>
        <time>2026-07-09T09:27:18Z</time>
      </trkpt>
      <trkpt lat="31.231016881990804" lon="121.4000827765314">
        <ele>20.20067004673183</ele>
        <time>2026-07-09T09:27:18Z</time>
      </trkpt>
      <trkpt lat="31.2311348163914" lon="121.39997475140576">
        <ele>24.227494997903705</ele>
        <time>2026-07-09T09:27:18Z</time>
      </trkpt>
      <trkpt lat="31.231193774442062" lon="121.39982172629094">
        <ele>-15.197874264791608</ele>
        <time>2026-07-09T09:27:18Z</time>
      </trkpt>
      <trkpt lat="31.23120275464319" lon="121.39964470393632">
        <ele>24.46794299595058</ele>
        <time>2026-07-09T09:27:18Z</time>
      </trkpt>
      <trkpt lat="31.23116176130968" lon="121.39949269029985">
        <ele>24.53135852329433</ele>
        <time>2026-07-09T09:27:18Z</time>
      </trkpt>
      <trkpt lat="31.231051801808544" lon="121.39935268511019">
        <ele>12.680757327005267</ele>
        <time>2026-07-09T09:27:19Z</time>
      </trkpt>
      <trkpt lat="31.230977832841795" lon="121.39930668693002">
        <ele>19.1648958157748</ele>
        <time>2026-07-09T09:27:19Z</time>
      </trkpt>
      <trkpt lat="31.230844893488044" lon="121.39929269713835">
        <ele>24.5392854642123</ele>
        <time>2026-07-09T09:27:19Z</time>
      </trkpt>
      <trkpt lat="31.23050505400068" lon="121.39933473097653">
        <ele>23.743959231302142</ele>
        <time>2026-07-09T09:27:19Z</time>
      </trkpt>
      <trkpt lat="31.23018720824672" lon="121.39942776831818">
        <ele>25.01224688999355</ele>
        <time>2026-07-09T09:27:19Z</time>
      </trkpt>
      <trkpt lat="31.229921338277837" lon="121.39951380080561">
        <ele>23.25249652378261</ele>
        <time>2026-07-09T09:27:19Z</time>
      </trkpt>
      <trkpt lat="31.229784413314363" lon="121.39965382871263">
        <ele>24.771806521341205</ele>
        <time>2026-07-09T09:27:19Z</time>
      </trkpt>
      <trkpt lat="31.229746437706694" lon="121.39973184136521">
        <ele>22.03441028110683</ele>
        <time>2026-07-09T09:27:19Z</time>
      </trkpt>
      <trkpt lat="31.229733450852844" lon="121.3998108522834">
        <ele>24.446801943704486</ele>
        <time>2026-07-09T09:27:19Z</time>
      </trkpt>
      <trkpt lat="31.229748468827033" lon="121.40006688493507">
        <ele>18.660226626321673</ele>
        <time>2026-07-09T09:27:19Z</time>
      </trkpt>
      <trkpt lat="31.229856439854967" lon="121.40026390399656">
        <ele>23.104524416849017</ele>
        <time>2026-07-09T09:27:19Z</time>
      </trkpt>
      <trkpt lat="31.22993641540604" lon="121.40037491396623">
        <ele>23.39782123081386</ele>
        <time>2026-07-09T09:27:19Z</time>
      </trkpt>
      <trkpt lat="31.23017830427831" lon="121.40038489442559">
        <ele>7.047429842874408</ele>
        <time>2026-07-09T09:27:19Z</time>
      </trkpt>
      <trkpt lat="31.23035721315464" lon="121.40031486802116">
        <ele>23.952699465677142</ele>
        <time>2026-07-09T09:27:20Z</time>
      </trkpt>
      <trkpt lat="31.23066406007274" lon="121.40021882686494">
        <ele>10.083402438089252</ele>
        <time>2026-07-09T09:27:20Z</time>
      </trkpt>
      <trkpt lat="31.230919926507692" lon="121.40007878442827">
        <ele>20.27465228550136</ele>
        <time>2026-07-09T09:27:20Z</time>
      </trkpt>
      <trkpt lat="31.231080843887238" lon="121.39999975949405">
        <ele>24.74009875766933</ele>
        <time>2026-07-09T09:27:20Z</time>
      </trkpt>
      <trkpt lat="31.231161796109898" lon="121.39989473845613">
        <ele>10.857587618753314</ele>
        <time>2026-07-09T09:27:20Z</time>
      </trkpt>
      <trkpt lat="31.231215752812883" lon="121.39969370860959">
        <ele>22.800668520852923</ele>
        <time>2026-07-09T09:27:20Z</time>
      </trkpt>
      <trkpt lat="31.23118675303528" lon="121.39953469275467">
        <ele>15.727296633645892</ele>
        <time>2026-07-09T09:27:20Z</time>
      </trkpt>
      <trkpt lat="31.231154762776196" lon="121.3994696884114">
        <ele>14.733804507181048</ele>
        <time>2026-07-09T09:27:20Z</time>
      </trkpt>
      <trkpt lat="31.231015817769467" lon="121.39934268723258">
        <ele>22.84294299595058</ele>
        <time>2026-07-09T09:27:20Z</time>
      </trkpt>
      <trkpt lat="31.23084189522272" lon="121.39929769789438">
        <ele>21.175668520852923</ele>
        <time>2026-07-09T09:27:20Z</time>
      </trkpt>
      <trkpt lat="31.23052504388315" lon="121.39932272802501">
        <ele>21.06205157749355</ele>
        <time>2026-07-09T09:27:20Z</time>
      </trkpt>
      <trkpt lat="31.23036611966244" lon="121.39935174481951">
        <ele>17.27831439487636</ele>
        <time>2026-07-09T09:27:20Z</time>
      </trkpt>
      <trkpt lat="31.230072265475815" lon="121.39947878381051">
        <ele>-12.190965848043561</ele>
        <time>2026-07-09T09:27:21Z</time>
      </trkpt>
      <trkpt lat="31.229882360770862" lon="121.39956881035425">
        <ele>2.5185716580599546</ele>
        <time>2026-07-09T09:27:21Z</time>
      </trkpt>
      <trkpt lat="31.229733447578607" lon="121.39977484778389">
        <ele>21.712053103372455</ele>
        <time>2026-07-09T09:27:21Z</time>
      </trkpt>
      <trkpt lat="31.229707465977565" lon="121.39984385873454">
        <ele>24.835214419290423</ele>
        <time>2026-07-09T09:27:21Z</time>
      </trkpt>
      <trkpt lat="31.229743471767968" lon="121.4000728862082">
        <ele>13.967546267434955</ele>
        <time>2026-07-09T09:27:21Z</time>
      </trkpt>
      <trkpt lat="31.229783466788522" lon="121.40020090103216">
        <ele>18.36692981235683</ele>
        <time>2026-07-09T09:27:21Z</time>
      </trkpt>
      <trkpt lat="31.22986643813524" lon="121.40028990703556">
        <ele>23.7862337063998</ele>
        <time>2026-07-09T09:27:21Z</time>
      </trkpt>
      <trkpt lat="31.230013377806987" lon="121.40035890477051">
        <ele>20.9986360501498</ele>
        <time>2026-07-09T09:27:21Z</time>
      </trkpt>
      <trkpt lat="31.230203292328973" lon="121.40038189177788">
        <ele>22.684404177591205</ele>
        <time>2026-07-09T09:27:21Z</time>
      </trkpt>
      <trkpt lat="31.230324230980106" lon="121.40033687426423">
        <ele>13.098237795755267</ele>
        <time>2026-07-09T09:27:21Z</time>
      </trkpt>
      <trkpt lat="31.23039919004914" lon="121.40028285950889">
        <ele>18.43034533970058</ele>
        <time>2026-07-09T09:27:21Z</time>
      </trkpt>
      <trkpt lat="31.23069504713651" lon="121.40023182608235">
        <ele>23.775666994974017</ele>
        <time>2026-07-09T09:27:21Z</time>
      </trkpt>
      <trkpt lat="31.230998895255475" lon="121.40012978474918">
        <ele>14.239702029153705</ele>
        <time>2026-07-09T09:27:21Z</time>
      </trkpt>
      <trkpt lat="31.231107834610068" lon="121.40003176151431">
        <ele>23.963266177102923</ele>
        <time>2026-07-09T09:27:21Z</time>
      </trkpt>
      <trkpt lat="31.23119077546251" lon="121.39981772604689">
        <ele>22.726686282083392</ele>
        <time>2026-07-09T09:27:22Z</time>
      </trkpt>
      <trkpt lat="31.23120575325419" lon="121.39964470367475">
        <ele>23.910424990579486</ele>
        <time>2026-07-09T09:27:22Z</time>
      </trkpt>
      <trkpt lat="31.231173756688545" lon="121.39950469056829">
        <ele>23.32383899204433</ele>
        <time>2026-07-09T09:27:22Z</time>
      </trkpt>
      <trkpt lat="31.23106279858756" lon="121.39937868681837">
        <ele>21.323632998391986</ele>
        <time>2026-07-09T09:27:22Z</time>
      </trkpt>
      <trkpt lat="31.23099182768452" lon="121.3993256876092">
        <ele>17.384004397317767</ele>
        <time>2026-07-09T09:27:22Z</time>
      </trkpt>
      <trkpt lat="31.23085988688297" lon="121.39929769632498">
        <ele>18.871606631204486</ele>
        <time>2026-07-09T09:27:22Z</time>
      </trkpt>
      <trkpt lat="31.230659981866083" lon="121.39933071705897">
        <ele>23.231355471536517</ele>
        <time>2026-07-09T09:27:22Z</time>
      </trkpt>
      <trkpt lat="31.230527041146814" lon="121.39929672525969">
        <ele>22.359407229349017</ele>
        <time>2026-07-09T09:27:22Z</time>
      </trkpt>
      <trkpt lat="31.230240181583174" lon="121.3993997607544">
        <ele>21.302499575540423</ele>
        <time>2026-07-09T09:27:22Z</time>
      </trkpt>
      <trkpt lat="31.230107247551018" lon="121.39945677838442">
        <ele>23.429528994485736</ele>
        <time>2026-07-09T09:27:22Z</time>
      </trkpt>
      <trkpt lat="31.229903346397272" lon="121.39951080204415">
        <ele>20.4543245267123</ele>
        <time>2026-07-09T09:27:22Z</time>
      </trkpt>
      <trkpt lat="31.229836380352772" lon="121.39954681188638">
        <ele>17.00615863315761</ele>
        <time>2026-07-09T09:27:22Z</time>
      </trkpt>
      <trkpt lat="31.229743435086984" lon="121.39968583608021">
        <ele>21.804528994485736</ele>
        <time>2026-07-09T09:45:19Z</time>
      </trkpt>
      <trkpt lat="31.22970648042298" lon="121.39998887788516">
        <ele>20.966928286477923</ele>
        <time>2026-07-09T09:45:31Z</time>
      </trkpt>
      <trkpt lat="31.229743479431068" lon="121.4001458965459">
        <ele>22.005342287942767</ele>
        <time>2026-07-09T09:45:37Z</time>
      </trkpt>
      <trkpt lat="31.229875436225804" lon="121.40030990928345">
        <ele>21.313066286966205</ele>
        <time>2026-07-09T09:45:46Z</time>
      </trkpt>
      <trkpt lat="31.229956405074308" lon="121.40036591082449">
        <ele>22.77952746860683</ele>
        <time>2026-07-09T09:45:49Z</time>
      </trkpt>
      <trkpt lat="31.230078349973436" lon="121.40037890220856">
        <ele>22.17180804722011</ele>
        <time>2026-07-09T09:45:55Z</time>
      </trkpt>
      <trkpt lat="31.230411188226615" lon="121.40031586346551">
        <ele>21.511239809915423</ele>
        <time>2026-07-09T09:46:10Z</time>
      </trkpt>
      <trkpt lat="31.2307180336216" lon="121.40020582024545">
        <ele>20.956361575052142</ele>
        <time>2026-07-09T09:46:25Z</time>
      </trkpt>
      <trkpt lat="31.231008885384995" lon="121.4000797768085">
        <ele>22.38054828159511</ele>
        <time>2026-07-09T09:46:40Z</time>
      </trkpt>
      <trkpt lat="31.23111382562141" lon="121.39996975256469">
        <ele>20.988069338724017</ele>
        <time>2026-07-09T09:46:46Z</time>
      </trkpt>
      <trkpt lat="31.23118077572496" lon="121.39976972091688">
        <ele>22.412256045266986</ele>
        <time>2026-07-09T09:46:55Z</time>
      </trkpt>
      <trkpt lat="31.231189765024123" lon="121.39969571111621">
        <ele>21.910218996927142</ele>
        <time>2026-07-09T09:46:58Z</time>
      </trkpt>
      <trkpt lat="31.231123775001983" lon="121.39944168810973">
        <ele>20.27465228550136</ele>
        <time>2026-07-09T09:47:07Z</time>
      </trkpt>
      <trkpt lat="31.230924852639802" lon="121.39923668471481">
        <ele>20.589082522317767</ele>
        <time>2026-07-09T09:47:16Z</time>
      </trkpt>
      <trkpt lat="31.230823903424753" lon="121.39929569926585">
        <ele>17.801484866067767</ele>
        <time>2026-07-09T09:47:22Z</time>
      </trkpt>
      <trkpt lat="31.230491062920517" lon="121.39936873566016">
        <ele>22.96977405063808</ele>
        <time>2026-07-09T09:47:37Z</time>
      </trkpt>
      <trkpt lat="31.23020819798208" lon="121.39942076574769">
        <ele>12.984620852395892</ele>
        <time>2026-07-09T09:47:49Z</time>
      </trkpt>
      <trkpt lat="31.230038279644788" lon="121.39945778450767">
        <ele>22.150666994974017</ele>
        <time>2026-07-09T09:47:58Z</time>
      </trkpt>
      <trkpt lat="31.229802401850165" lon="121.39961682282464">
        <ele>22.076684756204486</ele>
        <time>2026-07-09T09:48:10Z</time>
      </trkpt>
      <trkpt lat="31.229766423547893" lon="121.39967583288386">
        <ele>22.309205813333392</ele>
        <time>2026-07-09T09:48:13Z</time>
      </trkpt>
      <trkpt lat="31.229734450388513" lon="121.39981085219621">
        <ele>22.140100283548236</ele>
        <time>2026-07-09T09:48:19Z</time>
      </trkpt>
      <trkpt lat="31.229738469787737" lon="121.40003088082334">
        <ele>12.387464327737689</ele>
        <time>2026-07-09T09:48:28Z</time>
      </trkpt>
      <trkpt lat="31.229792460546395" lon="121.40018189747497">
        <ele>21.730546755716205</ele>
        <time>2026-07-09T09:48:37Z</time>
      </trkpt>
      <trkpt lat="31.229887427597237" lon="121.40028290414826">
        <ele>22.066118044778705</ele>
        <time>2026-07-09T09:48:43Z</time>
      </trkpt>
      <trkpt lat="31.230172311547257" lon="121.40042290091844">
        <ele>22.98826770298183</ele>
        <time>2026-07-09T09:48:52Z</time>
      </trkpt>
      <trkpt lat="31.23026326637481" lon="121.40039788904848">
        <ele>15.404939455911517</ele>
        <time>2026-07-09T09:48:55Z</time>
      </trkpt>
      <trkpt lat="31.230529127415714" lon="121.40026184502074">
        <ele>24.111230654641986</ele>
        <time>2026-07-09T09:49:07Z</time>
      </trkpt>
      <trkpt lat="31.23089194748247" lon="121.40015479766207">
        <ele>23.05168323032558</ele>
        <time>2026-07-09T09:49:16Z</time>
      </trkpt>
      <trkpt lat="31.23096091222271" lon="121.40012378720718">
        <ele>14.659822268411517</ele>
        <time>2026-07-09T09:49:19Z</time>
      </trkpt>
      <trkpt lat="31.23108384592758" lon="121.40003376388204">
        <ele>21.751680178567767</ele>
        <time>2026-07-09T09:49:22Z</time>
      </trkpt>
      <trkpt lat="31.231186776396214" lon="121.39980772513528">
        <ele>24.436235232278705</ele>
        <time>2026-07-09T09:49:28Z</time>
      </trkpt>
      <trkpt lat="31.23120575580604" lon="121.39967470721493">
        <ele>14.786653323099017</ele>
        <time>2026-07-09T09:49:31Z</time>
      </trkpt>
      <trkpt lat="31.23118775530187" lon="121.39956869648704">
        <ele>20.840097231790423</ele>
        <time>2026-07-09T09:49:34Z</time>
      </trkpt>
      <trkpt lat="31.231096785262654" lon="121.39941168729031">
        <ele>22.475663943216205</ele>
        <time>2026-07-09T09:49:40Z</time>
      </trkpt>
      <trkpt lat="31.231059799831765" lon="121.3993766868735">
        <ele>21.56408099643886</ele>
        <time>2026-07-09T09:49:43Z</time>
      </trkpt>
      <trkpt lat="31.230901866805034" lon="121.39928869177398">
        <ele>16.85819415561855</ele>
        <time>2026-07-09T09:49:49Z</time>
      </trkpt>
      <trkpt lat="31.230807909945593" lon="121.39928269937936">
        <ele>20.4543245267123</ele>
        <time>2026-07-09T09:49:55Z</time>
      </trkpt>
      <trkpt lat="31.230726949552114" lon="121.39931270941231">
        <ele>20.087053103372455</ele>
        <time>2026-07-09T09:49:58Z</time>
      </trkpt>
      <trkpt lat="31.230679973872743" lon="121.39934871713724">
        <ele>6.828119082376361</ele>
        <time>2026-07-09T09:50:01Z</time>
      </trkpt>
      <trkpt lat="31.2303591262417" lon="121.39939775017052">
        <ele>18.723634524270892</ele>
        <time>2026-07-09T09:50:16Z</time>
      </trkpt>
      <trkpt lat="31.23025317966561" lon="121.39945476544057">
        <ele>19.154329104349017</ele>
        <time>2026-07-09T09:50:23Z</time>
      </trkpt>
      <trkpt lat="31.23007526300932" lon="121.39946478203493">
        <ele>15.529130740091205</ele>
        <time>2026-07-09T09:50:29Z</time>
      </trkpt>
      <trkpt lat="31.229909344005126" lon="121.39951580207264">
        <ele>18.0842073392123</ele>
        <time>2026-07-09T09:50:38Z</time>
      </trkpt>
      <trkpt lat="31.229872370438386" lon="121.39962981823084">
        <ele>-4.56272335536778</ele>
        <time>2026-07-09T09:50:41Z</time>
      </trkpt>
      <trkpt lat="31.22976442943736" lon="121.39973283991769">
        <ele>20.171602053567767</ele>
        <time>2026-07-09T09:50:47Z</time>
      </trkpt>
      <trkpt lat="31.22972244911557" lon="121.39973484382325">
        <ele>15.76957873813808</ele>
        <time>2026-07-09T09:50:50Z</time>
      </trkpt>
    </trkseg>
  </trk>
</gpx>