<?xml version="1.0" encoding="UTF-8"?>
<gpx xmlns="http://www.topografix.com/GPX/1/1" xmlns:gpxtpx="http://www.garmin.com/xmlschemas/TrackPointExtension/v1" xmlns:xsi="http://www.w3.org/2001/XMLSchema-instance" xsi:schemaLocation="http://www.topografix.com/GPX/1/1 http://www.topografix.com/GPX/1/1/gpx.xsd" version="1.1" creator="gpx.py -- https://github.com/tkrajina/gpxpy">
  <trk>
    <name>gpx from keep</name>
    <type>Run</type>
    <trkseg>
      <trkpt lat="32.051918371676145" lon="118.80391592117824">
        <ele>14.245296776294708</ele>
        <time>2026-08-18T10:28:17Z</time>
      </trkpt>
      <trkpt lat="32.05189349170502" lon="118.80398806580813">
        <ele>13.513386070728302</ele>
        <time>2026-08-18T10:28:23Z</time>
      </trkpt>
      <trkpt lat="32.05188069307455" lon="118.80410529847363">
        <ele>13.576801598072052</ele>
        <time>2026-08-18T10:28:29Z</time>
      </trkpt>
      <trkpt lat="32.05191186599582" lon="118.80420048373487">
        <ele>15.365623772144318</ele>
        <time>2026-08-18T10:28:32Z</time>
      </trkpt>
      <trkpt lat="32.05197404771107" lon="118.80429666827592">
        <ele>14.319282829761505</ele>
        <time>2026-08-18T10:28:35Z</time>
      </trkpt>
      <trkpt lat="32.05204717599104" lon="118.80436078847579">
        <ele>20.311958611011505</ele>
        <time>2026-08-18T10:28:38Z</time>
      </trkpt>
      <trkpt lat="32.052137274848114" lon="118.8044058694768">
        <ele>13.983711540699005</ele>
        <time>2026-08-18T10:28:41Z</time>
      </trkpt>
      <trkpt lat="32.05230724623717" lon="118.80436777846548">
        <ele>10.118065178394318</ele>
        <time>2026-08-18T10:28:44Z</time>
      </trkpt>
      <trkpt lat="32.05239145441438" lon="118.80439420567235">
        <ele>13.21216994524002</ele>
        <time>2026-08-18T10:28:47Z</time>
      </trkpt>
      <trkpt lat="32.052486094629366" lon="118.80464626220058">
        <ele>13.764404594898224</ele>
        <time>2026-08-18T10:28:53Z</time>
      </trkpt>
      <trkpt lat="32.05250846617492" lon="118.8044679584317">
        <ele>15.333916008472443</ele>
        <time>2026-08-18T10:28:59Z</time>
      </trkpt>
      <trkpt lat="32.052697674801514" lon="118.80456312972753">
        <ele>13.22009688615799</ele>
        <time>2026-08-18T10:29:05Z</time>
      </trkpt>
      <trkpt lat="32.052981883663044" lon="118.80464626857946">
        <ele>14.697124779224396</ele>
        <time>2026-08-18T10:29:20Z</time>
      </trkpt>
      <trkpt lat="32.053122927362246" lon="118.80465326953804">
        <ele>14.517452538013458</ele>
        <time>2026-08-18T10:29:26Z</time>
      </trkpt>
      <trkpt lat="32.05319989890657" lon="118.80462721077512">
        <ele>14.205662071704865</ele>
        <time>2026-08-18T10:29:29Z</time>
      </trkpt>
      <trkpt lat="32.053289815489315" lon="118.80456808525497">
        <ele>14.580868065357208</ele>
        <time>2026-08-18T10:29:32Z</time>
      </trkpt>
      <trkpt lat="32.05339855592364" lon="118.8044057535845">
        <ele>14.025989830493927</ele>
        <time>2026-08-18T10:29:38Z</time>
      </trkpt>
      <trkpt lat="32.05343427696894" lon="118.80424142508048">
        <ele>11.801193535327911</ele>
        <time>2026-08-18T10:29:41Z</time>
      </trkpt>
      <trkpt lat="32.053409100098996" lon="118.80414323326168">
        <ele>12.80261641740799</ele>
        <time>2026-08-18T10:29:45Z</time>
      </trkpt>
      <trkpt lat="32.05324165442814" lon="118.80390878574198">
        <ele>14.22415953874588</ele>
        <time>2026-08-18T10:29:54Z</time>
      </trkpt>
      <trkpt lat="32.053166557514196" lon="118.80386270175006">
        <ele>15.35505324602127</ele>
        <time>2026-08-18T10:29:57Z</time>
      </trkpt>
      <trkpt lat="32.052890356598596" lon="118.80378256914076">
        <ele>14.298141777515411</ele>
        <time>2026-08-18T10:30:06Z</time>
      </trkpt>
      <trkpt lat="32.052579134026246" lon="118.80369442407385">
        <ele>11.801193535327911</ele>
        <time>2026-08-18T10:30:18Z</time>
      </trkpt>
      <trkpt lat="32.0523029297852" lon="118.8036122877464">
        <ele>-7.904884040355682</ele>
        <time>2026-08-18T10:30:30Z</time>
      </trkpt>
      <trkpt lat="32.05223385525787" lon="118.80357822707671">
        <ele>14.707695305347443</ele>
        <time>2026-08-18T10:30:33Z</time>
      </trkpt>
      <trkpt lat="32.05205993995967" lon="118.80364938302951">
        <ele>14.099972069263458</ele>
        <time>2026-08-18T10:30:42Z</time>
      </trkpt>
      <trkpt lat="32.05194916244527" lon="118.80379167340136">
        <ele>15.846515953540802</ele>
        <time>2026-08-18T10:30:51Z</time>
      </trkpt>
      <trkpt lat="32.051910366403185" lon="118.80391391796108">
        <ele>13.597942650318146</ele>
        <time>2026-08-18T10:30:57Z</time>
      </trkpt>
      <trkpt lat="32.051901650603476" lon="118.8040782431074">
        <ele>13.66135436296463</ele>
        <time>2026-08-18T10:31:03Z</time>
      </trkpt>
      <trkpt lat="32.05194494853973" lon="118.80424356589485">
        <ele>15.00891524553299</ele>
        <time>2026-08-18T10:31:09Z</time>
      </trkpt>
      <trkpt lat="32.052011141706025" lon="118.80434576203413">
        <ele>12.792045891284943</ele>
        <time>2026-08-18T10:31:12Z</time>
      </trkpt>
      <trkpt lat="32.05222135137486" lon="118.80443892724402">
        <ele>14.393265068531036</ele>
        <time>2026-08-18T10:31:21Z</time>
      </trkpt>
      <trkpt lat="32.05245747933083" lon="118.80448199091296">
        <ele>14.612575829029083</ele>
        <time>2026-08-18T10:31:30Z</time>
      </trkpt>
      <trkpt lat="32.05273769774402" lon="118.80457114194566">
        <ele>14.602005302906036</ele>
        <time>2026-08-18T10:31:42Z</time>
      </trkpt>
      <trkpt lat="32.05303889285603" lon="118.80464425936506">
        <ele>14.92700606584549</ele>
        <time>2026-08-18T10:31:54Z</time>
      </trkpt>
      <trkpt lat="32.053120930425564" lon="118.80465527369817">
        <ele>15.312774956226349</ele>
        <time>2026-08-18T10:31:57Z</time>
      </trkpt>
      <trkpt lat="32.05322787006549" lon="118.80460716845029">
        <ele>14.580868065357208</ele>
        <time>2026-08-18T10:32:03Z</time>
      </trkpt>
      <trkpt lat="32.05330578223798" lon="118.8045470420652">
        <ele>14.340420067310333</ele>
        <time>2026-08-18T10:32:06Z</time>
      </trkpt>
      <trkpt lat="32.05339553949706" lon="118.80439673600293">
        <ele>12.73920089006424</ele>
        <time>2026-08-18T10:32:12Z</time>
      </trkpt>
      <trkpt lat="32.053423400460225" lon="118.80431356880682">
        <ele>14.612575829029083</ele>
        <time>2026-08-18T10:32:15Z</time>
      </trkpt>
      <trkpt lat="32.05342926011782" lon="118.80423240770652">
        <ele>14.475174248218536</ele>
        <time>2026-08-18T10:32:18Z</time>
      </trkpt>
      <trkpt lat="32.053379990575074" lon="118.80408411913633">
        <ele>14.456680595874786</ele>
        <time>2026-08-18T10:32:24Z</time>
      </trkpt>
      <trkpt lat="32.05327470014934" lon="118.80393082618814">
        <ele>15.051189720630646</ele>
        <time>2026-08-18T10:32:30Z</time>
      </trkpt>
      <trkpt lat="32.05319458815936" lon="118.80387672683355">
        <ele>15.365623772144318</ele>
        <time>2026-08-18T10:32:33Z</time>
      </trkpt>
      <trkpt lat="32.05291036105591" lon="118.80378256730239">
        <ele>10.189407646656036</ele>
        <time>2026-08-18T10:32:42Z</time>
      </trkpt>
      <trkpt lat="32.05261416620208" lon="118.80370844847477">
        <ele>11.016437828540802</ele>
        <time>2026-08-18T10:32:54Z</time>
      </trkpt>
      <trkpt lat="32.052310901998034" lon="118.80359525350254">
        <ele>13.555664360523224</ele>
        <time>2026-08-18T10:33:07Z</time>
      </trkpt>
      <trkpt lat="32.05223785788913" lon="118.80357922867971">
        <ele>14.057697594165802</ele>
        <time>2026-08-18T10:33:10Z</time>
      </trkpt>
      <trkpt lat="32.052160851149644" lon="118.80358524758189">
        <ele>14.52801924943924</ele>
        <time>2026-08-18T10:33:13Z</time>
      </trkpt>
      <trkpt lat="32.05197303020941" lon="118.80371251528538">
        <ele>13.50281935930252</ele>
        <time>2026-08-18T10:33:22Z</time>
      </trkpt>
      <trkpt lat="32.0519241481565" lon="118.80378666582845">
        <ele>12.459122002124786</ele>
        <time>2026-08-18T10:33:25Z</time>
      </trkpt>
      <trkpt lat="32.051882379340526" lon="118.80392494227392">
        <ele>14.538589775562286</ele>
        <time>2026-08-18T10:33:31Z</time>
      </trkpt>
      <trkpt lat="32.05189172522553" lon="118.80412233111372">
        <ele>14.22415953874588</ele>
        <time>2026-08-18T10:33:37Z</time>
      </trkpt>
      <trkpt lat="32.0519218787158" lon="118.80420649470139">
        <ele>14.633713066577911</ele>
        <time>2026-08-18T10:33:40Z</time>
      </trkpt>
      <trkpt lat="32.051968013135344" lon="118.80427763116403">
        <ele>11.653225243091583</ele>
        <time>2026-08-18T10:33:43Z</time>
      </trkpt>
      <trkpt lat="32.05203814247907" lon="118.80434275360312">
        <ele>10.419285118579865</ele>
        <time>2026-08-18T10:33:46Z</time>
      </trkpt>
      <trkpt lat="32.05232040673481" lon="118.8044579558583">
        <ele>13.08533889055252</ele>
        <time>2026-08-18T10:33:58Z</time>
      </trkpt>
      <trkpt lat="32.05248651383194" lon="118.80449802001647">
        <ele>15.019485771656036</ele>
        <time>2026-08-18T10:34:07Z</time>
      </trkpt>
      <trkpt lat="32.05283176779427" lon="118.80459918894465">
        <ele>14.697124779224396</ele>
        <time>2026-08-18T10:34:22Z</time>
      </trkpt>
      <trkpt lat="32.05305992385185" lon="118.80465928725698">
        <ele>14.853020012378693</ele>
        <time>2026-08-18T10:34:31Z</time>
      </trkpt>
      <trkpt lat="32.05321493206989" lon="118.80464424319041">
        <ele>14.393265068531036</ele>
        <time>2026-08-18T10:34:37Z</time>
      </trkpt>
      <trkpt lat="32.05332680970571" lon="118.80456006596063">
        <ele>14.559727013111115</ele>
        <time>2026-08-18T10:34:43Z</time>
      </trkpt>
      <trkpt lat="32.053402567320795" lon="118.80441176512247">
        <ele>14.110542595386505</ele>
        <time>2026-08-18T10:34:49Z</time>
      </trkpt>
      <trkpt lat="32.05342027385075" lon="118.80424142636724">
        <ele>11.893673241138458</ele>
        <time>2026-08-18T10:34:55Z</time>
      </trkpt>
      <trkpt lat="32.05341416936735" lon="118.80418231003394">
        <ele>14.44611006975174</ele>
        <time>2026-08-18T10:34:58Z</time>
      </trkpt>
      <trkpt lat="32.05337799536897" lon="118.80408712525731">
        <ele>14.673347771167755</ele>
        <time>2026-08-18T10:35:01Z</time>
      </trkpt>
      <trkpt lat="32.053276770375845" lon="118.80397090507817">
        <ele>14.192451775074005</ele>
        <time>2026-08-18T10:35:07Z</time>
      </trkpt>
      <trkpt lat="32.05301447309788" lon="118.80383365844203">
        <ele>14.192451775074005</ele>
        <time>2026-08-18T10:35:20Z</time>
      </trkpt>
      <trkpt lat="32.05288437965211" lon="118.80379659733087">
        <ele>14.192451775074005</ele>
        <time>2026-08-18T10:35:26Z</time>
      </trkpt>
      <trkpt lat="32.0528252950804" lon="118.80375552182166">
        <ele>14.192451775074005</ele>
        <time>2026-08-18T10:35:29Z</time>
      </trkpt>
      <trkpt lat="32.05270022193847" lon="118.80372948200299">
        <ele>14.07883483171463</ele>
        <time>2026-08-18T10:35:35Z</time>
      </trkpt>
      <trkpt lat="32.052566096314564" lon="118.80367438582009">
        <ele>14.234730064868927</ele>
        <time>2026-08-18T10:35:41Z</time>
      </trkpt>
      <trkpt lat="32.052361998618025" lon="118.8036443454111">
        <ele>13.880665123462677</ele>
        <time>2026-08-18T10:35:50Z</time>
      </trkpt>
      <trkpt lat="32.05222288585028" lon="118.8035972655334">
        <ele>13.838386833667755</ele>
        <time>2026-08-18T10:35:56Z</time>
      </trkpt>
      <trkpt lat="32.05206393737171" lon="118.8036473787182">
        <ele>14.340420067310333</ele>
        <time>2026-08-18T10:36:02Z</time>
      </trkpt>
      <trkpt lat="32.052000004896115" lon="118.80369447729431">
        <ele>14.665420830249786</ele>
        <time>2026-08-18T10:36:05Z</time>
      </trkpt>
      <trkpt lat="32.0519291963155" lon="118.80381371867603">
        <ele>12.887169182300568</ele>
        <time>2026-08-18T10:36:11Z</time>
      </trkpt>
      <trkpt lat="32.051897475147655" lon="118.80397804566707">
        <ele>14.004852592945099</ele>
        <time>2026-08-18T10:36:17Z</time>
      </trkpt>
      <trkpt lat="32.05193493931391" lon="118.80423955888773">
        <ele>14.43289977312088</ele>
        <time>2026-08-18T10:36:26Z</time>
      </trkpt>
      <trkpt lat="32.05205717997224" lon="118.80436178954022">
        <ele>13.743267357349396</ele>
        <time>2026-08-18T10:36:32Z</time>
      </trkpt>
      <trkpt lat="32.05215928150639" lon="118.80440686943913">
        <ele>13.378631889820099</ele>
        <time>2026-08-18T10:36:35Z</time>
      </trkpt>
      <trkpt lat="32.05222429775549" lon="118.80440786544965">
        <ele>14.234730064868927</ele>
        <time>2026-08-18T10:36:38Z</time>
      </trkpt>
      <trkpt lat="32.052572566302544" lon="118.8045170498435">
        <ele>14.110542595386505</ele>
        <time>2026-08-18T10:36:54Z</time>
      </trkpt>
      <trkpt lat="32.05276869413441" lon="118.80456512717596">
        <ele>13.597942650318146</ele>
        <time>2026-08-18T10:37:03Z</time>
      </trkpt>
      <trkpt lat="32.05303491828118" lon="118.8046592895545">
        <ele>14.047127068042755</ele>
        <time>2026-08-18T10:37:15Z</time>
      </trkpt>
      <trkpt lat="32.053171954070116" lon="118.80466228292885">
        <ele>13.66135436296463</ele>
        <time>2026-08-18T10:37:21Z</time>
      </trkpt>
      <trkpt lat="32.053292884545634" lon="118.80460716247661">
        <ele>5.435955345630646</ele>
        <time>2026-08-18T10:37:27Z</time>
      </trkpt>
      <trkpt lat="32.053350779991426" lon="118.8045400240246">
        <ele>12.427414238452911</ele>
        <time>2026-08-18T10:37:30Z</time>
      </trkpt>
      <trkpt lat="32.053441463967104" lon="118.80434763457487">
        <ele>13.29407912492752</ele>
        <time>2026-08-18T10:37:36Z</time>
      </trkpt>
      <trkpt lat="32.05345429366449" lon="118.80424843711371">
        <ele>14.319282829761505</ele>
        <time>2026-08-18T10:37:39Z</time>
      </trkpt>
      <trkpt lat="32.0534371325462" lon="118.80415826038976">
        <ele>14.49631530046463</ele>
        <time>2026-08-18T10:37:42Z</time>
      </trkpt>
      <trkpt lat="32.05328673247663" lon="118.80394785868832">
        <ele>10.702007591724396</ele>
        <time>2026-08-18T10:37:51Z</time>
      </trkpt>
      <trkpt lat="32.05317157606142" lon="118.80387272104527">
        <ele>11.621521294116974</ele>
        <time>2026-08-18T10:37:57Z</time>
      </trkpt>
      <trkpt lat="32.053079498038926" lon="118.80383966431717">
        <ele>12.699566185474396</ele>
        <time>2026-08-18T10:38:00Z</time>
      </trkpt>
      <trkpt lat="32.05295546169296" lon="118.80383466584009">
        <ele>14.121109306812286</ele>
        <time>2026-08-18T10:38:06Z</time>
      </trkpt>
      <trkpt lat="32.05289136553211" lon="118.8037875789194">
        <ele>13.243877708911896</ele>
        <time>2026-08-18T10:38:09Z</time>
      </trkpt>
      <trkpt lat="32.05259116281543" lon="118.80370945256173">
        <ele>15.156883537769318</ele>
        <time>2026-08-18T10:38:25Z</time>
      </trkpt>
      <trkpt lat="32.052314925503076" lon="118.80360827875857">
        <ele>12.950584709644318</ele>
        <time>2026-08-18T10:38:37Z</time>
      </trkpt>
      <trkpt lat="32.05216988446543" lon="118.8036032822313">
        <ele>13.56623488664627</ele>
        <time>2026-08-18T10:38:43Z</time>
      </trkpt>
      <trkpt lat="32.05205495624654" lon="118.80365940320836">
        <ele>12.625583946704865</ele>
        <time>2026-08-18T10:38:49Z</time>
      </trkpt>
      <trkpt lat="32.051946132160204" lon="118.80377464011812">
        <ele>13.785541832447052</ele>
        <time>2026-08-18T10:38:55Z</time>
      </trkpt>
      <trkpt lat="32.05187739566713" lon="118.80393496249822">
        <ele>12.72070723772049</ele>
        <time>2026-08-18T10:39:01Z</time>
      </trkpt>
      <trkpt lat="32.051888712327646" lon="118.80411531753255">
        <ele>13.922939598560333</ele>
        <time>2026-08-18T10:39:07Z</time>
      </trkpt>
      <trkpt lat="32.05198305671692" lon="118.80430067537866">
        <ele>14.393265068531036</ele>
        <time>2026-08-18T10:39:13Z</time>
      </trkpt>
      <trkpt lat="32.05210524319746" lon="118.80439184464059">
        <ele>11.653225243091583</ele>
        <time>2026-08-18T10:39:19Z</time>
      </trkpt>
      <trkpt lat="32.05237241657948" lon="118.80445694909434">
        <ele>13.315216362476349</ele>
        <time>2026-08-18T10:39:31Z</time>
      </trkpt>
      <trkpt lat="32.05270867900679" lon="118.80456413070334">
        <ele>13.304649651050568</ele>
        <time>2026-08-18T10:39:46Z</time>
      </trkpt>
      <trkpt lat="32.052969889760845" lon="118.80465127962263">
        <ele>12.186966240406036</ele>
        <time>2026-08-18T10:39:58Z</time>
      </trkpt>
      <trkpt lat="32.05309494919656" lon="118.80466930392363">
        <ele>12.813186943531036</ele>
        <time>2026-08-18T10:40:04Z</time>
      </trkpt>
      <trkpt lat="32.05315695072817" lon="118.80466228430737">
        <ele>12.992859184741974</ele>
        <time>2026-08-18T10:40:08Z</time>
      </trkpt>
      <trkpt lat="32.05330284643928" lon="118.80458411585109">
        <ele>13.859524071216583</ele>
        <time>2026-08-18T10:40:14Z</time>
      </trkpt>
      <trkpt lat="32.053384659642134" lon="118.8044668759382">
        <ele>13.682491600513458</ele>
        <time>2026-08-18T10:40:20Z</time>
      </trkpt>
      <trkpt lat="32.05341737637901" lon="118.80430054358405">
        <ele>11.769485771656036</ele>
        <time>2026-08-18T10:40:26Z</time>
      </trkpt>
      <trkpt lat="32.05340509920806" lon="118.80414323362933">
        <ele>13.534527122974396</ele>
        <time>2026-08-18T10:40:32Z</time>
      </trkpt>
      <trkpt lat="32.05337294710558" lon="118.80406007228783">
        <ele>13.629646599292755</ele>
        <time>2026-08-18T10:40:35Z</time>
      </trkpt>
      <trkpt lat="32.05321462051223" lon="118.80389275660737">
        <ele>2.3656352162361145</ele>
        <time>2026-08-18T10:40:44Z</time>
      </trkpt>
      <trkpt lat="32.05293642608982" lon="118.80381663204047">
        <ele>11.748348534107208</ele>
        <time>2026-08-18T10:40:59Z</time>
      </trkpt>
      <trkpt lat="32.05278636303662" lon="118.80379961226177">
        <ele>13.106476128101349</ele>
        <time>2026-08-18T10:41:05Z</time>
      </trkpt>
      <trkpt lat="32.052729428751206" lon="118.8038447063634">
        <ele>14.152817070484161</ele>
        <time>2026-08-18T10:41:08Z</time>
      </trkpt>
      <trkpt lat="32.05248709610651" lon="118.80368441280521">
        <ele>13.983711540699005</ele>
        <time>2026-08-18T10:41:20Z</time>
      </trkpt>
      <trkpt lat="32.052421992857795" lon="118.80363331820752">
        <ele>12.052212059497833</ele>
        <time>2026-08-18T10:41:23Z</time>
      </trkpt>
      <trkpt lat="32.052221880409114" lon="118.80359425971247">
        <ele>8.873554527759552</ele>
        <time>2026-08-18T10:41:32Z</time>
      </trkpt>
      <trkpt lat="32.052068928046616" lon="118.80364136642805">
        <ele>12.123550713062286</ele>
        <time>2026-08-18T10:41:38Z</time>
      </trkpt>
      <trkpt lat="32.05198202873521" lon="118.80371051051239">
        <ele>10.022945702075958</ele>
        <time>2026-08-18T10:41:41Z</time>
      </trkpt>
      <trkpt lat="32.05190823519819" lon="118.80383876997543">
        <ele>13.399769127368927</ele>
        <time>2026-08-18T10:41:47Z</time>
      </trkpt>
      <trkpt lat="32.05188536082512" lon="118.80391392025888">
        <ele>9.227619469165802</ele>
        <time>2026-08-18T10:41:50Z</time>
      </trkpt>
      <trkpt lat="32.05190183929272" lon="118.8041864569232">
        <ele>3.1477473378181458</ele>
        <time>2026-08-18T10:41:59Z</time>
      </trkpt>
      <trkpt lat="32.051924942328775" lon="118.8042425657514">
        <ele>13.064201653003693</ele>
        <time>2026-08-18T10:42:03Z</time>
      </trkpt>
      <trkpt lat="32.052005126366716" lon="118.80433774672026">
        <ele>13.336357414722443</ele>
        <time>2026-08-18T10:42:06Z</time>
      </trkpt>
      <trkpt lat="32.05213526039447" lon="118.80439785378758">
        <ele>12.918876945972443</ele>
        <time>2026-08-18T10:42:12Z</time>
      </trkpt>
      <trkpt lat="32.052457481082904" lon="118.80448299289839">
        <ele>13.23066359758377</ele>
        <time>2026-08-18T10:42:27Z</time>
      </trkpt>
      <trkpt lat="32.052780737137056" lon="118.80458817177245">
        <ele>11.999363243579865</ele>
        <time>2026-08-18T10:42:42Z</time>
      </trkpt>
      <trkpt lat="32.05296092284649" lon="118.80467132021515">
        <ele>9.991237938404083</ele>
        <time>2026-08-18T10:42:51Z</time>
      </trkpt>
      <trkpt lat="32.05306796774729" lon="118.8046833342441">
        <ele>13.523956596851349</ele>
        <time>2026-08-18T10:42:54Z</time>
      </trkpt>
      <trkpt lat="32.053182935466914" lon="118.80465025805958">
        <ele>13.640217125415802</ele>
        <time>2026-08-18T10:43:00Z</time>
      </trkpt>
      <trkpt lat="32.05331582829426" lon="118.80457209081281">
        <ele>13.555664360523224</ele>
        <time>2026-08-18T10:43:03Z</time>
      </trkpt>
      <trkpt lat="32.05341355751366" lon="118.80440475022168">
        <ele>13.378631889820099</ele>
        <time>2026-08-18T10:43:09Z</time>
      </trkpt>
      <trkpt lat="32.053432285267036" lon="118.80424643517239">
        <ele>13.442047417163849</ele>
        <time>2026-08-18T10:43:12Z</time>
      </trkpt>
      <trkpt lat="32.05340209679258" lon="118.8041422319251">
        <ele>12.03107100725174</ele>
        <time>2026-08-18T10:43:15Z</time>
      </trkpt>
      <trkpt lat="32.053206636167545" lon="118.80390277710244">
        <ele>12.406277000904083</ele>
        <time>2026-08-18T10:43:28Z</time>
      </trkpt>
      <trkpt lat="32.05314955721315" lon="118.8038647072635">
        <ele>12.541031181812286</ele>
        <time>2026-08-18T10:43:31Z</time>
      </trkpt>
      <trkpt lat="32.05305453255937" lon="118.80386271204482">
        <ele>12.17639571428299</ele>
        <time>2026-08-18T10:43:34Z</time>
      </trkpt>
      <trkpt lat="32.05298643200461" lon="118.80381362152075">
        <ele>12.604446709156036</ele>
        <time>2026-08-18T10:43:37Z</time>
      </trkpt>
      <trkpt lat="32.0526802105149" lon="118.80372547594875">
        <ele>11.161762535572052</ele>
        <time>2026-08-18T10:43:52Z</time>
      </trkpt>
      <trkpt lat="32.05231193875093" lon="118.80361629480419">
        <ele>12.699566185474396</ele>
        <time>2026-08-18T10:44:07Z</time>
      </trkpt>
      <trkpt lat="32.05212888575718" lon="118.80360929782674">
        <ele>12.636154472827911</ele>
        <time>2026-08-18T10:44:16Z</time>
      </trkpt>
      <trkpt lat="32.051931127071555" lon="118.80377363952293">
        <ele>8.968677818775177</ele>
        <time>2026-08-18T10:44:25Z</time>
      </trkpt>
      <trkpt lat="32.05189522706895" lon="118.80383576524545">
        <ele>13.043064415454865</ele>
        <time>2026-08-18T10:44:28Z</time>
      </trkpt>
      <trkpt lat="32.05187160898557" lon="118.80405820629">
        <ele>12.72070723772049</ele>
        <time>2026-08-18T10:44:38Z</time>
      </trkpt>
      <trkpt lat="32.05192087849269" lon="118.8042064947933">
        <ele>12.844890892505646</ele>
        <time>2026-08-18T10:44:44Z</time>
      </trkpt>
      <trkpt lat="32.052047111237364" lon="118.80432371509853">
        <ele>11.861965477466583</ele>
        <time>2026-08-18T10:44:50Z</time>
      </trkpt>
      <trkpt lat="32.05230436813481" lon="118.80443791763139">
        <ele>12.73920089006424</ele>
        <time>2026-08-18T10:45:02Z</time>
      </trkpt>
      <trkpt lat="32.052573584051736" lon="118.80452706961215">
        <ele>13.523956596851349</ele>
        <time>2026-08-18T10:45:14Z</time>
      </trkpt>
      <trkpt lat="32.052889847371695" lon="118.8046372591427">
        <ele>12.009933769702911</ele>
        <time>2026-08-18T10:45:29Z</time>
      </trkpt>
      <trkpt lat="32.05313293134476" lon="118.80465427060719">
        <ele>13.08533889055252</ele>
        <time>2026-08-18T10:45:38Z</time>
      </trkpt>
      <trkpt lat="32.05326284629628" lon="118.8045891294627">
        <ele>11.079853355884552</ele>
        <time>2026-08-18T10:45:44Z</time>
      </trkpt>
      <trkpt lat="32.05342257352652" lon="118.80441276526864">
        <ele>12.844890892505646</ele>
        <time>2026-08-18T10:45:53Z</time>
      </trkpt>
      <trkpt lat="32.0534311801452" lon="118.80418631639405">
        <ele>4.820305168628693</ele>
        <time>2026-08-18T10:46:02Z</time>
      </trkpt>
      <trkpt lat="32.053355856032304" lon="118.80400997493916">
        <ele>13.043064415454865</ele>
        <time>2026-08-18T10:46:12Z</time>
      </trkpt>
      <trkpt lat="32.05328172787387" lon="118.80394585519434">
        <ele>12.72070723772049</ele>
        <time>2026-08-18T10:46:15Z</time>
      </trkpt>
      <trkpt lat="32.053006495716275" lon="118.80384768682781">
        <ele>12.197536766529083</ele>
        <time>2026-08-18T10:46:27Z</time>
      </trkpt>
      <trkpt lat="32.05272427605115" lon="118.80375753505268">
        <ele>11.069282829761505</ele>
        <time>2026-08-18T10:46:39Z</time>
      </trkpt>
      <trkpt lat="32.05241502087764" lon="118.80365035237027">
        <ele>9.605465233325958</ele>
        <time>2026-08-18T10:46:51Z</time>
      </trkpt>
      <trkpt lat="32.05222687456703" lon="118.80359025136929">
        <ele>11.027008354663849</ele>
        <time>2026-08-18T10:47:00Z</time>
      </trkpt>
      <trkpt lat="32.05203396722506" lon="118.8036684228874">
        <ele>13.410339653491974</ele>
        <time>2026-08-18T10:47:06Z</time>
      </trkpt>
      <trkpt lat="32.0519460799074" lon="118.80374458090806">
        <ele>12.781479179859161</ele>
        <time>2026-08-18T10:47:09Z</time>
      </trkpt>
      <trkpt lat="32.0519132206282" lon="118.80382975174174">
        <ele>13.576801598072052</ele>
        <time>2026-08-18T10:47:12Z</time>
      </trkpt>
      <trkpt lat="32.05188844696744" lon="118.80396301683719">
        <ele>12.72070723772049</ele>
        <time>2026-08-18T10:47:15Z</time>
      </trkpt>
      <trkpt lat="32.05189059052735" lon="118.8040451788237">
        <ele>12.625583946704865</ele>
        <time>2026-08-18T10:47:18Z</time>
      </trkpt>
      <trkpt lat="32.051923812741556" lon="118.80416841925211">
        <ele>3.086975395679474</ele>
        <time>2026-08-18T10:47:21Z</time>
      </trkpt>
      <trkpt lat="32.05201406363292" lon="118.80430067252962">
        <ele>10.535545647144318</ele>
        <time>2026-08-18T10:47:24Z</time>
      </trkpt>
      <trkpt lat="32.05208117307385" lon="118.80435477345054">
        <ele>12.437980949878693</ele>
        <time>2026-08-18T10:47:27Z</time>
      </trkpt>
      <trkpt lat="32.052309351736156" lon="118.80442789732561">
        <ele>11.883106529712677</ele>
        <time>2026-08-18T10:47:39Z</time>
      </trkpt>
      <trkpt lat="32.05238851651289" lon="118.80451205682377">
        <ele>12.03107100725174</ele>
        <time>2026-08-18T10:47:43Z</time>
      </trkpt>
      <trkpt lat="32.052524517047864" lon="118.80449501056724">
        <ele>12.918876945972443</ele>
        <time>2026-08-18T10:47:49Z</time>
      </trkpt>
      <trkpt lat="32.052647602301974" lon="118.80452806479754">
        <ele>12.395706474781036</ele>
        <time>2026-08-18T10:47:55Z</time>
      </trkpt>
      <trkpt lat="32.052946847795454" lon="118.80463023998949">
        <ele>12.459122002124786</ele>
        <time>2026-08-18T10:48:10Z</time>
      </trkpt>
      <trkpt lat="32.053158916084996" lon="118.80464224436092">
        <ele>12.66785842180252</ele>
        <time>2026-08-18T10:48:19Z</time>
      </trkpt>
      <trkpt lat="32.05328684638209" lon="118.8045861212957">
        <ele>10.744285881519318</ele>
        <time>2026-08-18T10:48:25Z</time>
      </trkpt>
      <trkpt lat="32.053337778848565" lon="118.80454102720573">
        <ele>12.208103477954865</ele>
        <time>2026-08-18T10:48:28Z</time>
      </trkpt>
      <trkpt lat="32.05340755792825" lon="118.80440575275735">
        <ele>11.66379576921463</ele>
        <time>2026-08-18T10:48:34Z</time>
      </trkpt>
      <trkpt lat="32.053422449234496" lon="118.80434162442171">
        <ele>12.311153709888458</ele>
        <time>2026-08-18T10:48:37Z</time>
      </trkpt>
      <trkpt lat="32.05341817550185" lon="118.80418531560822">
        <ele>9.563186943531036</ele>
        <time>2026-08-18T10:48:43Z</time>
      </trkpt>
      <trkpt lat="32.05338803776913" lon="118.80411016986118">
        <ele>12.490829765796661</ele>
        <time>2026-08-18T10:48:46Z</time>
      </trkpt>
      <trkpt lat="32.05324569543319" lon="118.80393183083025">
        <ele>12.950584709644318</ele>
        <time>2026-08-18T10:48:55Z</time>
      </trkpt>
      <trkpt lat="32.05312256514416" lon="118.80387272554923">
        <ele>12.781479179859161</ele>
        <time>2026-08-18T10:49:01Z</time>
      </trkpt>
      <trkpt lat="32.05280734506815" lon="118.80378658466637">
        <ele>12.38513594865799</ele>
        <time>2026-08-18T10:49:13Z</time>
      </trkpt>
      <trkpt lat="32.052489089589905" lon="118.80368040473176">
        <ele>13.254444420337677</ele>
        <time>2026-08-18T10:49:28Z</time>
      </trkpt>
      <trkpt lat="32.05235701142412" lon="118.80365236164533">
        <ele>11.235748589038849</ele>
        <time>2026-08-18T10:49:34Z</time>
      </trkpt>
      <trkpt lat="32.05229093232786" lon="118.80361529476319">
        <ele>12.583309471607208</ele>
        <time>2026-08-18T10:49:37Z</time>
      </trkpt>
      <trkpt lat="32.05211988027048" lon="118.8036072947117">
        <ele>13.410339653491974</ele>
        <time>2026-08-18T10:49:47Z</time>
      </trkpt>
      <trkpt lat="32.0520519172942" lon="118.80363736010395">
        <ele>13.191028892993927</ele>
        <time>2026-08-18T10:49:50Z</time>
      </trkpt>
      <trkpt lat="32.051972087449734" lon="118.80374558049168">
        <ele>13.043064415454865</ele>
        <time>2026-08-18T10:49:53Z</time>
      </trkpt>
      <trkpt lat="32.05192925034135" lon="118.80384477989539">
        <ele>13.180462181568146</ele>
        <time>2026-08-18T10:49:56Z</time>
      </trkpt>
      <trkpt lat="32.05190958778328" lon="118.80404116916412">
        <ele>13.180462181568146</ele>
        <time>2026-08-18T10:50:02Z</time>
      </trkpt>
      <trkpt lat="32.05192775422262" lon="118.80413435156157">
        <ele>12.908306419849396</ele>
        <time>2026-08-18T10:50:05Z</time>
      </trkpt>
      <trkpt lat="32.05203012844397" lon="118.80433574045651">
        <ele>12.950584709644318</ele>
        <time>2026-08-18T10:50:11Z</time>
      </trkpt>
      <trkpt lat="32.05210126331578" lon="118.80440386881695">
        <ele>12.271519005298615</ele>
        <time>2026-08-18T10:50:14Z</time>
      </trkpt>
      <trkpt lat="32.05242247678267" lon="118.80448500008586">
        <ele>12.197536766529083</ele>
        <time>2026-08-18T10:50:29Z</time>
      </trkpt>
      <trkpt lat="32.052743742918565" lon="118.80459619107017">
        <ele>11.695503532886505</ele>
        <time>2026-08-18T10:50:44Z</time>
      </trkpt>
      <trkpt lat="32.05301392588379" lon="118.80466630540248">
        <ele>13.410339653491974</ele>
        <time>2026-08-18T10:50:56Z</time>
      </trkpt>
      <trkpt lat="32.05310297905565" lon="118.80468533500485">
        <ele>12.271519005298615</ele>
        <time>2026-08-18T10:50:59Z</time>
      </trkpt>
      <trkpt lat="32.05324393326758" lon="118.8046412345613">
        <ele>12.855461418628693</ele>
        <time>2026-08-18T10:51:05Z</time>
      </trkpt>
      <trkpt lat="32.05335477036542" lon="118.80453401173912">
        <ele>11.550178825855255</ele>
        <time>2026-08-18T10:51:11Z</time>
      </trkpt>
      <trkpt lat="32.05342354923534" lon="118.80439873739769">
        <ele>12.844890892505646</ele>
        <time>2026-08-18T10:51:18Z</time>
      </trkpt>
      <trkpt lat="32.05343729162697" lon="118.80424944065788">
        <ele>12.218674004077911</ele>
        <time>2026-08-18T10:51:24Z</time>
      </trkpt>
      <trkpt lat="32.05341915824652" lon="118.80417529571044">
        <ele>12.218674004077911</ele>
        <time>2026-08-18T10:51:27Z</time>
      </trkpt>
      <trkpt lat="32.05328877130423" lon="118.80396990199802">
        <ele>12.282089531421661</ele>
        <time>2026-08-18T10:51:36Z</time>
      </trkpt>
      <trkpt lat="32.05317963363992" lon="118.80390478353634">
        <ele>10.818268120288849</ele>
        <time>2026-08-18T10:51:42Z</time>
      </trkpt>
      <trkpt lat="32.053111606282734" lon="118.80389777595445">
        <ele>12.887169182300568</ele>
        <time>2026-08-18T10:51:45Z</time>
      </trkpt>
      <trkpt lat="32.053016478772115" lon="118.80383666418302">
        <ele>13.315216362476349</ele>
        <time>2026-08-18T10:51:48Z</time>
      </trkpt>
      <trkpt lat="32.052716277751344" lon="118.80375953973537">
        <ele>11.914810478687286</ele>
        <time>2026-08-18T10:52:03Z</time>
      </trkpt>
      <trkpt lat="32.052426021590364" lon="118.80364934938729">
        <ele>12.72070723772049</ele>
        <time>2026-08-18T10:52:18Z</time>
      </trkpt>
      <trkpt lat="32.05228192510174" lon="118.8036122896767">
        <ele>12.636154472827911</ele>
        <time>2026-08-18T10:52:25Z</time>
      </trkpt>
      <trkpt lat="32.05212491965925" lon="118.8036293376213">
        <ele>13.272941887378693</ele>
        <time>2026-08-18T10:52:31Z</time>
      </trkpt>
      <trkpt lat="32.05202000413563" lon="118.80369146953828">
        <ele>12.23981124162674</ele>
        <time>2026-08-18T10:52:37Z</time>
      </trkpt>
      <trkpt lat="32.05194016914858" lon="118.8037966840998">
        <ele>12.070705711841583</ele>
        <time>2026-08-18T10:52:43Z</time>
      </trkpt>
      <trkpt lat="32.05188837893514" lon="118.80392393974607">
        <ele>6.281482994556427</ele>
        <time>2026-08-18T10:52:49Z</time>
      </trkpt>
      <trkpt lat="32.051915793480966" lon="118.80415840018458">
        <ele>12.929443657398224</ele>
        <time>2026-08-18T10:52:58Z</time>
      </trkpt>
      <trkpt lat="32.051938435690644" lon="118.80425563617975">
        <ele>13.336357414722443</ele>
        <time>2026-08-18T10:53:01Z</time>
      </trkpt>
      <trkpt lat="32.052006168594744" lon="118.80436179422729">
        <ele>12.052212059497833</ele>
        <time>2026-08-18T10:53:07Z</time>
      </trkpt>
      <trkpt lat="32.05232841727772" lon="118.80446296504842">
        <ele>13.460541069507599</ele>
        <time>2026-08-18T10:53:19Z</time>
      </trkpt>
      <trkpt lat="32.052518496436235" lon="118.80448398927777">
        <ele>12.813186943531036</ele>
        <time>2026-08-18T10:53:28Z</time>
      </trkpt>
      <trkpt lat="32.05279076040957" lon="118.80460019469989">
        <ele>12.490829765796661</ele>
        <time>2026-08-18T10:53:40Z</time>
      </trkpt>
      <trkpt lat="32.052930849492235" lon="118.80463324742333">
        <ele>13.138183891773224</ele>
        <time>2026-08-18T10:53:46Z</time>
      </trkpt>
      <trkpt lat="32.053124936580296" lon="118.80465827929517">
        <ele>2.5320971608161926</ele>
        <time>2026-08-18T10:53:55Z</time>
      </trkpt>
      <trkpt lat="32.05324788329027" lon="118.80461217654954">
        <ele>12.427414238452911</ele>
        <time>2026-08-18T10:54:01Z</time>
      </trkpt>
      <trkpt lat="32.05334376265687" lon="118.80453100679136">
        <ele>12.646721184253693</ele>
        <time>2026-08-18T10:54:07Z</time>
      </trkpt>
      <trkpt lat="32.05338656375701" lon="118.80441176659298">
        <ele>12.562168419361115</ele>
        <time>2026-08-18T10:54:13Z</time>
      </trkpt>
      <trkpt lat="32.05339742791593" lon="118.80433260887139">
        <ele>11.758919060230255</ele>
        <time>2026-08-18T10:54:16Z</time>
      </trkpt>
      <trkpt lat="32.05338028242878" lon="118.80425144986022">
        <ele>12.490829765796661</ele>
        <time>2026-08-18T10:54:19Z</time>
      </trkpt>
      <trkpt lat="32.053383139741904" lon="118.80416928713653">
        <ele>12.321724236011505</ele>
        <time>2026-08-18T10:54:22Z</time>
      </trkpt>
      <trkpt lat="32.05335496055779" lon="118.80407009372944">
        <ele>12.480259239673615</ele>
        <time>2026-08-18T10:54:25Z</time>
      </trkpt>
      <trkpt lat="32.05323272742498" lon="118.80395187155912">
        <ele>13.14875441789627</ele>
        <time>2026-08-18T10:54:32Z</time>
      </trkpt>
      <trkpt lat="32.05310057418997" lon="118.8038807433764">
        <ele>12.229244530200958</ele>
        <time>2026-08-18T10:54:38Z</time>
      </trkpt>
      <trkpt lat="32.052804313043104" lon="118.8037685494104">
        <ele>12.416843712329865</ele>
        <time>2026-08-18T10:54:53Z</time>
      </trkpt>
      <trkpt lat="32.05251110842055" lon="118.80368841848903">
        <ele>10.910747826099396</ele>
        <time>2026-08-18T10:55:08Z</time>
      </trkpt>
      <trkpt lat="32.05229297626991" lon="118.80364034386658">
        <ele>6.992256462574005</ele>
        <time>2026-08-18T10:55:17Z</time>
      </trkpt>
      <trkpt lat="32.052162929875394" lon="118.8036303360999">
        <ele>12.72070723772049</ele>
        <time>2026-08-18T10:55:20Z</time>
      </trkpt>
      <trkpt lat="32.05202598110484" lon="118.80367744137283">
        <ele>13.93351012468338</ele>
        <time>2026-08-18T10:55:23Z</time>
      </trkpt>
      <trkpt lat="32.05192424748279" lon="118.80384377837989">
        <ele>11.267456352710724</ele>
        <time>2026-08-18T10:55:29Z</time>
      </trkpt>
      <trkpt lat="32.05189054339389" lon="118.80401812541399">
        <ele>11.016437828540802</ele>
        <time>2026-08-18T10:55:35Z</time>
      </trkpt>
      <trkpt lat="32.05190371218076" lon="118.80411331219496">
        <ele>11.674366295337677</ele>
        <time>2026-08-18T10:55:38Z</time>
      </trkpt>
      <trkpt lat="32.051993058947915" lon="118.80430067445961">
        <ele>12.292656242847443</ele>
        <time>2026-08-18T10:55:44Z</time>
      </trkpt>
      <trkpt lat="32.05207319754496" lon="118.80436980393814">
        <ele>9.771927177906036</ele>
        <time>2026-08-18T10:55:48Z</time>
      </trkpt>
      <trkpt lat="32.05236342858661" lon="118.80446496580208">
        <ele>11.748348534107208</ele>
        <time>2026-08-18T10:56:03Z</time>
      </trkpt>
      <trkpt lat="32.052628655913246" lon="118.80456113209534">
        <ele>10.461563408374786</ele>
        <time>2026-08-18T10:56:15Z</time>
      </trkpt>
      <trkpt lat="32.052932878006516" lon="118.80464927904677">
        <ele>11.674366295337677</ele>
        <time>2026-08-18T10:56:30Z</time>
      </trkpt>
      <trkpt lat="32.053058960477344" lon="118.80468032910541">
        <ele>12.292656242847443</ele>
        <time>2026-08-18T10:56:36Z</time>
      </trkpt>
      <trkpt lat="32.0531889403125" lon="118.8046522614844">
        <ele>13.159324944019318</ele>
        <time>2026-08-18T10:56:42Z</time>
      </trkpt>
      <trkpt lat="32.053299828236796" lon="118.80457409625703">
        <ele>12.541031181812286</ele>
        <time>2026-08-18T10:56:48Z</time>
      </trkpt>
      <trkpt lat="32.05338950489671" lon="118.80437769885991">
        <ele>11.589813530445099</ele>
        <time>2026-08-18T10:56:57Z</time>
      </trkpt>
      <trkpt lat="32.05340125562989" lon="118.80423341226147">
        <ele>11.51847106218338</ele>
        <time>2026-08-18T10:57:03Z</time>
      </trkpt>
      <trkpt lat="32.053372001018545" lon="118.80409113372522">
        <ele>12.480259239673615</ele>
        <time>2026-08-18T10:57:09Z</time>
      </trkpt>
      <trkpt lat="32.05333587426838" lon="118.80402300249045">
        <ele>12.17639571428299</ele>
        <time>2026-08-18T10:57:12Z</time>
      </trkpt>
      <trkpt lat="32.05323369450412" lon="118.8039328339098">
        <ele>12.59387618303299</ele>
        <time>2026-08-18T10:57:18Z</time>
      </trkpt>
      <trkpt lat="32.053031478628895" lon="118.80383465885436">
        <ele>12.66785842180252</ele>
        <time>2026-08-18T10:57:27Z</time>
      </trkpt>
      <trkpt lat="32.05276328648621" lon="118.80375853344154">
        <ele>11.904243767261505</ele>
        <time>2026-08-18T10:57:39Z</time>
      </trkpt>
      <trkpt lat="32.0524400142715" lon="118.80364333626962">
        <ele>3.232300102710724</ele>
        <time>2026-08-18T10:57:54Z</time>
      </trkpt>
      <trkpt lat="32.05223385351876" lon="118.80357722510607">
        <ele>12.38513594865799</ele>
        <time>2026-08-18T10:58:03Z</time>
      </trkpt>
      <trkpt lat="32.052124867469956" lon="118.8035992784835">
        <ele>11.925381004810333</ele>
        <time>2026-08-18T10:58:10Z</time>
      </trkpt>
      <trkpt lat="32.052033925458865" lon="118.80364437556038">
        <ele>12.218674004077911</ele>
        <time>2026-08-18T10:58:13Z</time>
      </trkpt>
      <trkpt lat="32.051933125775825" lon="118.80377263736521">
        <ele>11.914810478687286</ele>
        <time>2026-08-18T10:58:19Z</time>
      </trkpt>
      <trkpt lat="32.05188735255159" lon="118.80390891019421">
        <ele>11.412781059741974</ele>
        <time>2026-08-18T10:58:25Z</time>
      </trkpt>
      <trkpt lat="32.05188662804763" lon="118.80406722271917">
        <ele>11.550178825855255</ele>
        <time>2026-08-18T10:58:31Z</time>
      </trkpt>
      <trkpt lat="32.05190584542895" lon="118.8041894624976">
        <ele>12.332290947437286</ele>
        <time>2026-08-18T10:58:37Z</time>
      </trkpt>
      <trkpt lat="32.052012073684054" lon="118.80430668460872">
        <ele>13.304649651050568</ele>
        <time>2026-08-18T10:58:43Z</time>
      </trkpt>
      <trkpt lat="32.05212223823579" lon="118.8043868331586">
        <ele>10.94245558977127</ele>
        <time>2026-08-18T10:58:49Z</time>
      </trkpt>
      <trkpt lat="32.05241244652087" lon="118.80446896923955">
        <ele>12.229244530200958</ele>
        <time>2026-08-18T10:59:04Z</time>
      </trkpt>
      <trkpt lat="32.052659689123224" lon="118.80457615904835">
        <ele>12.583309471607208</ele>
        <time>2026-08-18T10:59:16Z</time>
      </trkpt>
      <trkpt lat="32.05292885957182" lon="118.80463925953437">
        <ele>11.182903587818146</ele>
        <time>2026-08-18T10:59:28Z</time>
      </trkpt>
      <trkpt lat="32.0531700290842" lon="118.80470536862376">
        <ele>10.910747826099396</ele>
        <time>2026-08-18T10:59:37Z</time>
      </trkpt>
      <trkpt lat="32.05337661231681" lon="118.80444082506385">
        <ele>11.674366295337677</ele>
        <time>2026-08-18T10:59:52Z</time>
      </trkpt>
      <trkpt lat="32.053414375710815" lon="118.80430054385978">
        <ele>12.165829002857208</ele>
        <time>2026-08-18T10:59:58Z</time>
      </trkpt>
      <trkpt lat="32.05341626596524" lon="118.80423741880871">
        <ele>12.03107100725174</ele>
        <time>2026-08-18T11:00:01Z</time>
      </trkpt>
      <trkpt lat="32.05337095713689" lon="118.80406608434375">
        <ele>10.839405357837677</ele>
        <time>2026-08-18T11:00:08Z</time>
      </trkpt>
      <trkpt lat="32.053285756678015" lon="118.80396188645702">
        <ele>11.758919060230255</ele>
        <time>2026-08-18T11:00:14Z</time>
      </trkpt>
      <trkpt lat="32.053106538916246" lon="118.80385970133901">
        <ele>12.060139000415802</ele>
        <time>2026-08-18T11:00:23Z</time>
      </trkpt>
      <trkpt lat="32.05278834257536" lon="118.80378758838695">
        <ele>11.642658531665802</ele>
        <time>2026-08-18T11:00:38Z</time>
      </trkpt>
      <trkpt lat="32.05248410588185" lon="118.80369042491587">
        <ele>11.769485771656036</ele>
        <time>2026-08-18T11:00:53Z</time>
      </trkpt>
      <trkpt lat="32.05222491412853" lon="118.80361329688735">
        <ele>11.391643822193146</ele>
        <time>2026-08-18T11:01:05Z</time>
      </trkpt>
      <trkpt lat="32.052156890263305" lon="118.80360829328184">
        <ele>11.60038024187088</ele>
        <time>2026-08-18T11:01:08Z</time>
      </trkpt>
      <trkpt lat="32.05202897655248" lon="118.80367443518023">
        <ele>9.145710289478302</ele>
        <time>2026-08-18T11:01:14Z</time>
      </trkpt>
      <trkpt lat="32.051965068473166" lon="118.80373556140155">
        <ele>7.013393700122833</ele>
        <time>2026-08-18T11:01:17Z</time>
      </trkpt>
      <trkpt lat="32.051925184968034" lon="118.8038077071966">
        <ele>11.60038024187088</ele>
        <time>2026-08-18T11:01:20Z</time>
      </trkpt>
      <trkpt lat="32.051895361312376" lon="118.80391291736356">
        <ele>11.161762535572052</ele>
        <time>2026-08-18T11:01:23Z</time>
      </trkpt>
      <trkpt lat="32.0519157078709" lon="118.80410930317433">
        <ele>3.554657280445099</ele>
        <time>2026-08-18T11:01:29Z</time>
      </trkpt>
      <trkpt lat="32.05194286766817" lon="118.80419747494322">
        <ele>9.67944747209549</ele>
        <time>2026-08-18T11:01:32Z</time>
      </trkpt>
      <trkpt lat="32.05203311336374" lon="118.80432672233388">
        <ele>11.08778029680252</ele>
        <time>2026-08-18T11:01:38Z</time>
      </trkpt>
      <trkpt lat="32.05221433229968" lon="118.80442890804093">
        <ele>11.579243004322052</ele>
        <time>2026-08-18T11:01:47Z</time>
      </trkpt>
      <trkpt lat="32.05252856350285" lon="118.80452106183122">
        <ele>12.102413475513458</ele>
        <time>2026-08-18T11:02:03Z</time>
      </trkpt>
      <trkpt lat="32.052568654809214" lon="118.80456815151653">
        <ele>11.037578880786896</ele>
        <time>2026-08-18T11:02:06Z</time>
      </trkpt>
      <trkpt lat="32.05283977133102" lon="118.80460019019672">
        <ele>11.278023064136505</ele>
        <time>2026-08-18T11:02:18Z</time>
      </trkpt>
      <trkpt lat="32.05298481767613" lon="118.80460819276993">
        <ele>11.93595153093338</ele>
        <time>2026-08-18T11:02:24Z</time>
      </trkpt>
      <trkpt lat="32.05316691962168" lon="118.8046432456137">
        <ele>11.861965477466583</ele>
        <time>2026-08-18T11:02:30Z</time>
      </trkpt>
      <trkpt lat="32.05324288919203" lon="118.80461618495917">
        <ele>10.680870354175568</ele>
        <time>2026-08-18T11:02:33Z</time>
      </trkpt>
      <trkpt lat="32.05335073091641" lon="118.80451196841284">
        <ele>10.001804649829865</ele>
        <time>2026-08-18T11:02:39Z</time>
      </trkpt>
      <trkpt lat="32.053413347497724" lon="118.8042845122333">
        <ele>11.433918297290802</ele>
        <time>2026-08-18T11:02:45Z</time>
      </trkpt>
      <trkpt lat="32.053415166094446" lon="118.80418030598082">
        <ele>11.550178825855255</ele>
        <time>2026-08-18T11:02:48Z</time>
      </trkpt>
      <trkpt lat="32.053391033196995" lon="118.80410716364717">
        <ele>12.060139000415802</ele>
        <time>2026-08-18T11:02:51Z</time>
      </trkpt>
      <trkpt lat="32.053335863795276" lon="118.80401699062257">
        <ele>11.027008354663849</ele>
        <time>2026-08-18T11:02:54Z</time>
      </trkpt>
      <trkpt lat="32.05327875162931" lon="118.8039598831464">
        <ele>11.66379576921463</ele>
        <time>2026-08-18T11:02:57Z</time>
      </trkpt>
      <trkpt lat="32.05312757497537" lon="118.80387773496764">
        <ele>12.688999474048615</ele>
        <time>2026-08-18T11:03:03Z</time>
      </trkpt>
      <trkpt lat="32.052981476201424" lon="118.8038396733251">
        <ele>11.706074059009552</ele>
        <time>2026-08-18T11:03:09Z</time>
      </trkpt>
      <trkpt lat="32.05283633585306" lon="118.80377756423421">
        <ele>11.72721129655838</ele>
        <time>2026-08-18T11:03:18Z</time>
      </trkpt>
      <trkpt lat="32.05267025704678" lon="118.80375353212179">
        <ele>9.31217223405838</ele>
        <time>2026-08-18T11:03:24Z</time>
      </trkpt>
      <trkpt lat="32.05254710426244" lon="118.80368140137284">
        <ele>11.621521294116974</ele>
        <time>2026-08-18T11:03:30Z</time>
      </trkpt>
      <trkpt lat="32.05243000856154" lon="118.80364133324535">
        <ele>11.016437828540802</ele>
        <time>2026-08-18T11:03:36Z</time>
      </trkpt>
      <trkpt lat="32.05217389927396" lon="118.80361129763278">
        <ele>10.921318352222443</ele>
        <time>2026-08-18T11:03:48Z</time>
      </trkpt>
      <trkpt lat="32.05204795642526" lon="118.8036604058238">
        <ele>8.622539818286896</ele>
        <time>2026-08-18T11:03:54Z</time>
      </trkpt>
      <trkpt lat="32.051989052931745" lon="118.80372353551752">
        <ele>10.51440840959549</ele>
        <time>2026-08-18T11:03:57Z</time>
      </trkpt>
      <trkpt lat="32.0519172895" lon="118.80386882840487">
        <ele>10.472130119800568</ele>
        <time>2026-08-18T11:04:04Z</time>
      </trkpt>
      <trkpt lat="32.051888515021645" lon="118.80400209395324">
        <ele>9.867050468921661</ele>
        <time>2026-08-18T11:04:10Z</time>
      </trkpt>
      <trkpt lat="32.05188966713672" lon="118.80408926597914">
        <ele>11.016437828540802</ele>
        <time>2026-08-18T11:04:13Z</time>
      </trkpt>
      <trkpt lat="32.051990018043576" lon="118.80427762914212">
        <ele>11.801193535327911</ele>
        <time>2026-08-18T11:04:19Z</time>
      </trkpt>
      <trkpt lat="32.052046154764646" lon="118.80434876476724">
        <ele>12.102413475513458</ele>
        <time>2026-08-18T11:04:22Z</time>
      </trkpt>
      <trkpt lat="32.05210823861434" lon="118.80438883841306">
        <ele>11.957088768482208</ele>
        <time>2026-08-18T11:04:25Z</time>
      </trkpt>
      <trkpt lat="32.052440480796406" lon="118.80448499843162">
        <ele>10.818268120288849</ele>
        <time>2026-08-18T11:04:43Z</time>
      </trkpt>
      <trkpt lat="32.052750762016174" lon="118.80460621030001">
        <ele>10.73371535539627</ele>
        <time>2026-08-18T11:04:58Z</time>
      </trkpt>
      <trkpt lat="32.053092969808034" lon="118.80468132796936">
        <ele>11.861965477466583</ele>
        <time>2026-08-18T11:05:13Z</time>
      </trkpt>
      <trkpt lat="32.053227938474734" lon="118.80464624597172">
        <ele>10.826195061206818</ele>
        <time>2026-08-18T11:05:19Z</time>
      </trkpt>
      <trkpt lat="32.05333581697001" lon="118.80456307109358">
        <ele>11.037578880786896</ele>
        <time>2026-08-18T11:05:25Z</time>
      </trkpt>
      <trkpt lat="32.05338659352738" lon="118.80442880032861">
        <ele>11.267456352710724</ele>
        <time>2026-08-18T11:05:31Z</time>
      </trkpt>
      <trkpt lat="32.05342032631735" lon="118.80427148582179">
        <ele>8.987171471118927</ele>
        <time>2026-08-18T11:05:37Z</time>
      </trkpt>
      <trkpt lat="32.05340612214662" lon="118.80415625927861">
        <ele>9.396724998950958</ele>
        <time>2026-08-18T11:05:43Z</time>
      </trkpt>
      <trkpt lat="32.053322838209525" lon="118.80400396610577">
        <ele>9.396724998950958</ele>
        <time>2026-08-18T11:05:49Z</time>
      </trkpt>
      <trkpt lat="32.05327171517974" lon="118.80393984425322">
        <ele>10.17883712053299</ele>
        <time>2026-08-18T11:05:52Z</time>
      </trkpt>
      <trkpt lat="32.052978447648016" lon="118.80382364200275">
        <ele>10.702007591724396</ele>
        <time>2026-08-18T11:06:07Z</time>
      </trkpt>
      <trkpt lat="32.05267623226088" lon="118.80373850196838">
        <ele>9.114002525806427</ele>
        <time>2026-08-18T11:06:23Z</time>
      </trkpt>
      <trkpt lat="32.052544178453836" lon="118.80372448647655">
        <ele>11.079853355884552</ele>
        <time>2026-08-18T11:06:29Z</time>
      </trkpt>
      <trkpt lat="32.05228692621685" lon="118.80361228921711">
        <ele>10.79713088274002</ele>
        <time>2026-08-18T11:06:41Z</time>
      </trkpt>
      <trkpt lat="32.05213689450007" lon="118.80361330497624">
        <ele>10.107498466968536</ele>
        <time>2026-08-18T11:06:47Z</time>
      </trkpt>
      <trkpt lat="32.052003974456234" lon="118.80367644142271">
        <ele>11.486763298511505</ele>
        <time>2026-08-18T11:06:53Z</time>
      </trkpt>
      <trkpt lat="32.05195707017116" lon="118.80373756608346">
        <ele>9.449570000171661</ele>
        <time>2026-08-18T11:06:56Z</time>
      </trkpt>
      <trkpt lat="32.05190326545726" lon="118.80385680598721">
        <ele>9.959530174732208</ele>
        <time>2026-08-18T11:07:02Z</time>
      </trkpt>
      <trkpt lat="32.05189150347455" lon="118.80399507983434">
        <ele>11.529041588306427</ele>
        <time>2026-08-18T11:07:05Z</time>
      </trkpt>
      <trkpt lat="32.05192276708471" lon="118.80414236786011">
        <ele>11.108917534351349</ele>
        <time>2026-08-18T11:07:08Z</time>
      </trkpt>
      <trkpt lat="32.051970980572676" lon="118.8042585932308">
        <ele>11.079853355884552</ele>
        <time>2026-08-18T11:07:11Z</time>
      </trkpt>
      <trkpt lat="32.05211421544355" lon="118.80437481008836">
        <ele>11.15119582414627</ele>
        <time>2026-08-18T11:07:17Z</time>
      </trkpt>
      <trkpt lat="32.05236143339614" lon="118.80446797194138">
        <ele>9.771927177906036</ele>
        <time>2026-08-18T11:07:29Z</time>
      </trkpt>
      <trkpt lat="32.05256255881544" lon="118.80451404480468">
        <ele>11.00587111711502</ele>
        <time>2026-08-18T11:07:35Z</time>
      </trkpt>
      <trkpt lat="32.05287683394926" lon="118.80463124841036">
        <ele>10.36908370256424</ele>
        <time>2026-08-18T11:07:48Z</time>
      </trkpt>
      <trkpt lat="32.05309593011879" lon="118.8046582819603">
        <ele>10.702007591724396</ele>
        <time>2026-08-18T11:07:54Z</time>
      </trkpt>
      <trkpt lat="32.05324887825146" lon="118.80460917049521">
        <ele>10.221115410327911</ele>
        <time>2026-08-18T11:08:00Z</time>
      </trkpt>
      <trkpt lat="32.05328683235439" lon="118.8045781053995">
        <ele>10.044082939624786</ele>
        <time>2026-08-18T11:08:03Z</time>
      </trkpt>
      <trkpt lat="32.053393533799046" lon="118.8043937302346">
        <ele>9.793064415454865</ele>
        <time>2026-08-18T11:08:09Z</time>
      </trkpt>
      <trkpt lat="32.05341237176636" lon="118.80429854007858">
        <ele>10.118065178394318</ele>
        <time>2026-08-18T11:08:12Z</time>
      </trkpt>
      <trkpt lat="32.05340405006713" lon="118.80411517828801">
        <ele>10.210544884204865</ele>
        <time>2026-08-18T11:08:18Z</time>
      </trkpt>
      <trkpt lat="32.05338295631746" lon="118.80406407928335">
        <ele>12.197536766529083</ele>
        <time>2026-08-18T11:08:21Z</time>
      </trkpt>
      <trkpt lat="32.053312790609354" lon="118.80397791560983">
        <ele>11.486763298511505</ele>
        <time>2026-08-18T11:08:24Z</time>
      </trkpt>
      <trkpt lat="32.05318161664763" lon="118.80389476359244">
        <ele>10.075790703296661</ele>
        <time>2026-08-18T11:08:30Z</time>
      </trkpt>
      <trkpt lat="32.052863366260496" lon="118.80379158938985">
        <ele>10.107498466968536</ele>
        <time>2026-08-18T11:08:45Z</time>
      </trkpt>
      <trkpt lat="32.052624229375965" lon="118.80374351661501">
        <ele>10.38757735490799</ele>
        <time>2026-08-18T11:08:57Z</time>
      </trkpt>
      <trkpt lat="32.05254611100209" lon="118.80368540935444">
        <ele>9.468067467212677</ele>
        <time>2026-08-18T11:09:00Z</time>
      </trkpt>
      <trkpt lat="32.052213875146116" lon="118.803592256506">
        <ele>9.301601707935333</ele>
        <time>2026-08-18T11:09:18Z</time>
      </trkpt>
      <trkpt lat="32.052061964769436" lon="118.80366341045311">
        <ele>9.867050468921661</ele>
        <time>2026-08-18T11:09:27Z</time>
      </trkpt>
      <trkpt lat="32.05192028842601" lon="118.80386782615368">
        <ele>10.826195061206818</ele>
        <time>2026-08-18T11:09:36Z</time>
      </trkpt>
      <trkpt lat="32.051899554129626" lon="118.8040231344766">
        <ele>9.771927177906036</ele>
        <time>2026-08-18T11:09:42Z</time>
      </trkpt>
      <trkpt lat="32.05193282873114" lon="118.80417643426837">
        <ele>10.31623488664627</ele>
        <time>2026-08-18T11:09:48Z</time>
      </trkpt>
      <trkpt lat="32.05203408034165" lon="118.80430768456942">
        <ele>10.482700645923615</ele>
        <time>2026-08-18T11:09:54Z</time>
      </trkpt>
      <trkpt lat="32.05221930364449" lon="118.80441187384619">
        <ele>10.128635704517365</ele>
        <time>2026-08-18T11:10:03Z</time>
      </trkpt>
      <trkpt lat="32.05253954492509" lon="118.80450903698899">
        <ele>10.147129356861115</ele>
        <time>2026-08-18T11:10:18Z</time>
      </trkpt>
      <trkpt lat="32.052658690653686" lon="118.80457716112718">
        <ele>9.927822411060333</ele>
        <time>2026-08-18T11:10:24Z</time>
      </trkpt>
      <trkpt lat="32.05294185545202" lon="118.80463525038809">
        <ele>2.6985591053962708</ele>
        <time>2026-08-18T11:10:40Z</time>
      </trkpt>
      <trkpt lat="32.05304196019899" lon="118.8046823346449">
        <ele>9.771927177906036</ele>
        <time>2026-08-18T11:10:46Z</time>
      </trkpt>
      <trkpt lat="32.0531280004205" lon="118.80469435060586">
        <ele>9.740219414234161</ele>
        <time>2026-08-18T11:10:49Z</time>
      </trkpt>
      <trkpt lat="32.05324692341045" lon="118.80463522235813">
        <ele>10.347942650318146</ele>
        <time>2026-08-18T11:10:55Z</time>
      </trkpt>
      <trkpt lat="32.05339067148993" lon="118.80447288729822">
        <ele>10.400787651538849</ele>
        <time>2026-08-18T11:11:04Z</time>
      </trkpt>
      <trkpt lat="32.05343632463376" lon="118.8042684784051">
        <ele>9.605465233325958</ele>
        <time>2026-08-18T11:11:10Z</time>
      </trkpt>
      <trkpt lat="32.053404046573405" lon="118.80411317432899">
        <ele>7.430874168872833</ele>
        <time>2026-08-18T11:11:16Z</time>
      </trkpt>
      <trkpt lat="32.05331378559743" lon="118.80397490958612">
        <ele>6.418880760669708</ele>
        <time>2026-08-18T11:11:22Z</time>
      </trkpt>
      <trkpt lat="32.05313357456874" lon="118.80387673244051">
        <ele>9.280464470386505</ele>
        <time>2026-08-18T11:11:28Z</time>
      </trkpt>
      <trkpt lat="32.052963507051494" lon="118.80385971448317">
        <ele>10.086357414722443</ele>
        <time>2026-08-18T11:11:37Z</time>
      </trkpt>
      <trkpt lat="32.05267226271771" lon="118.80375653785877">
        <ele>8.487781822681427</ele>
        <time>2026-08-18T11:11:53Z</time>
      </trkpt>
      <trkpt lat="32.05236000339232" lon="118.80364735151029">
        <ele>10.585747063159943</ele>
        <time>2026-08-18T11:12:08Z</time>
      </trkpt>
      <trkpt lat="32.05229191341553" lon="118.8036042729882">
        <ele>11.30973082780838</ele>
        <time>2026-08-18T11:12:11Z</time>
      </trkpt>
      <trkpt lat="32.05222488455696" lon="118.8035962633786">
        <ele>11.161762535572052</ele>
        <time>2026-08-18T11:12:14Z</time>
      </trkpt>
      <trkpt lat="32.05207694897255" lon="118.80365238738251">
        <ele>10.847332298755646</ele>
        <time>2026-08-18T11:12:20Z</time>
      </trkpt>
      <trkpt lat="32.051981108615664" lon="118.80375660137325">
        <ele>8.738800346851349</ele>
        <time>2026-08-18T11:12:26Z</time>
      </trkpt>
      <trkpt lat="32.05190950051021" lon="118.80399107026992">
        <ele>11.642658531665802</ele>
        <time>2026-08-18T11:12:35Z</time>
      </trkpt>
      <trkpt lat="32.05198997781604" lon="118.80425458355745">
        <ele>11.684933006763458</ele>
        <time>2026-08-18T11:12:44Z</time>
      </trkpt>
      <trkpt lat="32.052043113844725" lon="118.80432571943193">
        <ele>10.765423119068146</ele>
        <time>2026-08-18T11:12:47Z</time>
      </trkpt>
      <trkpt lat="32.05224934711136" lon="118.8044329127627">
        <ele>10.818268120288849</ele>
        <time>2026-08-18T11:12:56Z</time>
      </trkpt>
      <trkpt lat="32.05232037695748" lon="118.80444092211515">
        <ele>10.609527885913849</ele>
        <time>2026-08-18T11:12:59Z</time>
      </trkpt>
      <trkpt lat="32.05261664797856" lon="118.80455812723821">
        <ele>9.552620232105255</ele>
        <time>2026-08-18T11:13:11Z</time>
      </trkpt>
      <trkpt lat="32.05299393195508" lon="118.80467231917088">
        <ele>9.31217223405838</ele>
        <time>2026-08-18T11:13:29Z</time>
      </trkpt>
      <trkpt lat="32.0530789561598" lon="118.80467531732472">
        <ele>10.337375938892365</ele>
        <time>2026-08-18T11:13:33Z</time>
      </trkpt>
      <trkpt lat="32.05324690411507" lon="118.80462420049257">
        <ele>8.831280052661896</ele>
        <time>2026-08-18T11:13:39Z</time>
      </trkpt>
      <trkpt lat="32.05335178196706" lon="118.80454102591906">
        <ele>10.168270409107208</ele>
        <time>2026-08-18T11:13:45Z</time>
      </trkpt>
      <trkpt lat="32.05340260234518" lon="118.80443180481193">
        <ele>9.906685173511505</ele>
        <time>2026-08-18T11:13:48Z</time>
      </trkpt>
      <trkpt lat="32.05342642912534" lon="118.80432960025696">
        <ele>8.728229820728302</ele>
        <time>2026-08-18T11:13:51Z</time>
      </trkpt>
      <trkpt lat="32.053398097648916" lon="118.80414323427273">
        <ele>9.700588524341583</ele>
        <time>2026-08-18T11:13:57Z</time>
      </trkpt>
      <trkpt lat="32.05332579176028" lon="118.80397691243765">
        <ele>10.839405357837677</ele>
        <time>2026-08-18T11:14:03Z</time>
      </trkpt>
      <trkpt lat="32.05326271143045" lon="118.80393884310381">
        <ele>10.347942650318146</ele>
        <time>2026-08-18T11:14:06Z</time>
      </trkpt>
      <trkpt lat="32.05315664595495" lon="118.80391480541213">
        <ele>9.72965270280838</ele>
        <time>2026-08-18T11:14:09Z</time>
      </trkpt>
      <trkpt lat="32.05300947024087" lon="118.80383265692672">
        <ele>10.199978172779083</ele>
        <time>2026-08-18T11:14:15Z</time>
      </trkpt>
      <trkpt lat="32.05287237175084" lon="118.80379359251104">
        <ele>7.306686699390411</ele>
        <time>2026-08-18T11:14:21Z</time>
      </trkpt>
      <trkpt lat="32.05261121428744" lon="118.80373650399643">
        <ele>11.058716118335724</ele>
        <time>2026-08-18T11:14:30Z</time>
      </trkpt>
      <trkpt lat="32.052495054378184" lon="118.80365936276421">
        <ele>9.626602470874786</ele>
        <time>2026-08-18T11:14:36Z</time>
      </trkpt>
      <trkpt lat="32.05226690783989" lon="118.80360427528619">
        <ele>9.269897758960724</ele>
        <time>2026-08-18T11:14:48Z</time>
      </trkpt>
      <trkpt lat="32.05220589249519" lon="118.8036032789222">
        <ele>9.542049705982208</ele>
        <time>2026-08-18T11:14:51Z</time>
      </trkpt>
    </trkseg>
  </trk>
</gpx>