<?xml version="1.0" encoding="UTF-8"?>
<gpx xmlns="http://www.topografix.com/GPX/1/1" xmlns:gpxtpx="http://www.garmin.com/xmlschemas/TrackPointExtension/v1" xmlns:xsi="http://www.w3.org/2001/XMLSchema-instance" xsi:schemaLocation="http://www.topografix.com/GPX/1/1 http://www.topografix.com/GPX/1/1/gpx.xsd" version="1.1" creator="gpx.py -- https://github.com/tkrajina/gpxpy">
  <trk>
    <name>gpx from keep</name>
    <type>Run</type>
    <trkseg>
      <trkpt lat="32.05188094875408" lon="118.80367745470079">
        <ele>12.77358787227422</ele>
        <time>2026-10-05T10:29:16Z</time>
      </trkpt>
      <trkpt lat="32.051907140879216" lon="118.8037846634428">
        <ele>11.13009421993047</ele>
        <time>2026-10-05T10:29:28Z</time>
      </trkpt>
      <trkpt lat="32.051862643647894" lon="118.80407924867075">
        <ele>12.567491223104298</ele>
        <time>2026-10-05T10:29:40Z</time>
      </trkpt>
      <trkpt lat="32.051870832375826" lon="118.80418645977231">
        <ele>12.630906750448048</ele>
        <time>2026-10-05T10:29:43Z</time>
      </trkpt>
      <trkpt lat="32.05196404722948" lon="118.80429767117741">
        <ele>12.910985638387501</ele>
        <time>2026-10-05T10:29:46Z</time>
      </trkpt>
      <trkpt lat="32.052041172902186" lon="118.80435978704374">
        <ele>10.633344342000782</ele>
        <time>2026-10-05T10:29:49Z</time>
      </trkpt>
      <trkpt lat="32.052347425018525" lon="118.80446496727252">
        <ele>11.90692298579961</ele>
        <time>2026-10-05T10:30:01Z</time>
      </trkpt>
      <trkpt lat="32.05267166725238" lon="118.80456213013026">
        <ele>12.64147346187383</ele>
        <time>2026-10-05T10:30:13Z</time>
      </trkpt>
      <trkpt lat="32.052995921872714" lon="118.80466630705669">
        <ele>13.06423728633672</ele>
        <time>2026-10-05T10:30:25Z</time>
      </trkpt>
      <trkpt lat="32.053096979473665" lon="118.80468633754491">
        <ele>10.104890515096486</ele>
        <time>2026-10-05T10:30:28Z</time>
      </trkpt>
      <trkpt lat="32.053206954849564" lon="118.80465827175925">
        <ele>12.435376812703907</ele>
        <time>2026-10-05T10:30:31Z</time>
      </trkpt>
      <trkpt lat="32.05334673528292" lon="118.80451497473827">
        <ele>11.885781933553517</ele>
        <time>2026-10-05T10:30:37Z</time>
      </trkpt>
      <trkpt lat="32.05339943186136" lon="118.80433461265369">
        <ele>12.319116284139454</ele>
        <time>2026-10-05T10:30:43Z</time>
      </trkpt>
      <trkpt lat="32.05340229782216" lon="118.8042574597289">
        <ele>11.431314160116017</ele>
        <time>2026-10-05T10:30:46Z</time>
      </trkpt>
      <trkpt lat="32.05337612944465" lon="118.80416427787809">
        <ele>12.736596752889454</ele>
        <time>2026-10-05T10:30:49Z</time>
      </trkpt>
      <trkpt lat="32.05332794755871" lon="118.80406608829605">
        <ele>11.542287518270314</ele>
        <time>2026-10-05T10:30:52Z</time>
      </trkpt>
      <trkpt lat="32.053154648997385" lon="118.8039168095485">
        <ele>10.115461041219532</ele>
        <time>2026-10-05T10:31:01Z</time>
      </trkpt>
      <trkpt lat="32.05286640874668" lon="118.80381563650008">
        <ele>12.815866162069142</ele>
        <time>2026-10-05T10:31:13Z</time>
      </trkpt>
      <trkpt lat="32.052522145690574" lon="118.80370845693128">
        <ele>12.519929577596486</ele>
        <time>2026-10-05T10:31:22Z</time>
      </trkpt>
      <trkpt lat="32.05225694040246" lon="118.80362431563066">
        <ele>12.556920696981251</ele>
        <time>2026-10-05T10:31:31Z</time>
      </trkpt>
      <trkpt lat="32.052170912522065" lon="118.80361931367875">
        <ele>12.229280163533986</ele>
        <time>2026-10-05T10:31:34Z</time>
      </trkpt>
      <trkpt lat="32.05201800368945" lon="118.80369146972211">
        <ele>12.435376812703907</ele>
        <time>2026-10-05T10:31:40Z</time>
      </trkpt>
      <trkpt lat="32.05194111710929" lon="118.80376662478689">
        <ele>12.784158398397267</ele>
        <time>2026-10-05T10:31:43Z</time>
      </trkpt>
      <trkpt lat="32.0518762820953" lon="118.8038698341488">
        <ele>11.315053631551564</ele>
        <time>2026-10-05T10:31:46Z</time>
      </trkpt>
      <trkpt lat="32.05185542564704" lon="118.80395500405466">
        <ele>11.35732810664922</ele>
        <time>2026-10-05T10:31:49Z</time>
      </trkpt>
      <trkpt lat="32.05190474384952" lon="118.8041313477361">
        <ele>12.41423957515508</ele>
        <time>2026-10-05T10:31:55Z</time>
      </trkpt>
      <trkpt lat="32.05200804305058" lon="118.80428965127453">
        <ele>12.028466870076954</ele>
        <time>2026-10-05T10:32:01Z</time>
      </trkpt>
      <trkpt lat="32.05213224922024" lon="118.8043918421592">
        <ele>11.811799694783986</ele>
        <time>2026-10-05T10:32:07Z</time>
      </trkpt>
      <trkpt lat="32.05246452820251" lon="118.80450904388165">
        <ele>12.757733990438282</ele>
        <time>2026-10-05T10:32:22Z</time>
      </trkpt>
      <trkpt lat="32.05274474664881" lon="118.80459819495277">
        <ele>12.297979046590626</ele>
        <time>2026-10-05T10:32:34Z</time>
      </trkpt>
      <trkpt lat="32.0530179566059" lon="118.80468333883911">
        <ele>12.630906750448048</ele>
        <time>2026-10-05T10:32:46Z</time>
      </trkpt>
      <trkpt lat="32.0531559803352" lon="118.80467931820247">
        <ele>12.921556164510548</ele>
        <time>2026-10-05T10:32:52Z</time>
      </trkpt>
      <trkpt lat="32.053319808146426" lon="118.80456006660395">
        <ele>12.599198986776173</ele>
        <time>2026-10-05T10:33:01Z</time>
      </trkpt>
      <trkpt lat="32.053392617632134" lon="118.80444182557812">
        <ele>13.011392285116017</ele>
        <time>2026-10-05T10:33:07Z</time>
      </trkpt>
      <trkpt lat="32.05341449646073" lon="118.80436968069257">
        <ele>11.76952521968633</ele>
        <time>2026-10-05T10:33:10Z</time>
      </trkpt>
      <trkpt lat="32.053387189572625" lon="118.80419734222667">
        <ele>10.36383216548711</ele>
        <time>2026-10-05T10:33:16Z</time>
      </trkpt>
      <trkpt lat="32.05332395016006" lon="118.80406809262121">
        <ele>12.715459515340626</ele>
        <time>2026-10-05T10:33:22Z</time>
      </trkpt>
      <trkpt lat="32.053180646070096" lon="118.80391179727745">
        <ele>12.83700339961797</ele>
        <time>2026-10-05T10:33:31Z</time>
      </trkpt>
      <trkpt lat="32.0531115400303" lon="118.80385970087943">
        <ele>13.095945050008595</ele>
        <time>2026-10-05T10:33:37Z</time>
      </trkpt>
      <trkpt lat="32.05280531326599" lon="118.80376854931849">
        <ele>13.074807812459767</ele>
        <time>2026-10-05T10:33:49Z</time>
      </trkpt>
      <trkpt lat="32.05249006892663" lon="118.80366838097264">
        <ele>12.498792340047657</ele>
        <time>2026-10-05T10:34:04Z</time>
      </trkpt>
      <trkpt lat="32.05237598433997" lon="118.8036343244074">
        <ele>12.456514050252736</ele>
        <time>2026-10-05T10:34:10Z</time>
      </trkpt>
      <trkpt lat="32.052264957845395" lon="118.80363333263885">
        <ele>11.182939221151173</ele>
        <time>2026-10-05T10:34:16Z</time>
      </trkpt>
      <trkpt lat="32.052064041805586" lon="118.80370749705673">
        <ele>13.19106834102422</ele>
        <time>2026-10-05T10:34:25Z</time>
      </trkpt>
      <trkpt lat="32.051955155072974" lon="118.80378666297909">
        <ele>12.83700339961797</ele>
        <time>2026-10-05T10:34:28Z</time>
      </trkpt>
      <trkpt lat="32.05189936743687" lon="118.80391592292457">
        <ele>12.102449108846486</ele>
        <time>2026-10-05T10:34:34Z</time>
      </trkpt>
      <trkpt lat="32.05190164885713" lon="118.80407724112851">
        <ele>12.456514050252736</ele>
        <time>2026-10-05T10:34:40Z</time>
      </trkpt>
      <trkpt lat="32.05192380749871" lon="118.80416541331111">
        <ele>11.790662457235157</ele>
        <time>2026-10-05T10:34:43Z</time>
      </trkpt>
      <trkpt lat="32.05203709675799" lon="118.80431670213788">
        <ele>12.757733990438282</ele>
        <time>2026-10-05T10:34:50Z</time>
      </trkpt>
      <trkpt lat="32.052157277558294" lon="118.80440486565455">
        <ele>12.48822181392461</ele>
        <time>2026-10-05T10:34:56Z</time>
      </trkpt>
      <trkpt lat="32.05243947531717" lon="118.8044819925672">
        <ele>12.747163464315236</ele>
        <time>2026-10-05T10:35:08Z</time>
      </trkpt>
      <trkpt lat="32.05275075149363" lon="118.80460019837594">
        <ele>12.794725109823048</ele>
        <time>2026-10-05T10:35:23Z</time>
      </trkpt>
      <trkpt lat="32.053021953987525" lon="118.8046813344943">
        <ele>12.879277874715626</ele>
        <time>2026-10-05T10:35:35Z</time>
      </trkpt>
      <trkpt lat="32.05310098387478" lon="118.80468834115469">
        <ele>12.42480628658086</ele>
        <time>2026-10-05T10:35:38Z</time>
      </trkpt>
      <trkpt lat="32.05323190954383" lon="118.80462921180975">
        <ele>12.329686810262501</ele>
        <time>2026-10-05T10:35:44Z</time>
      </trkpt>
      <trkpt lat="32.05328084679903" lon="118.80458712383421">
        <ele>12.340253521688282</ele>
        <time>2026-10-05T10:35:47Z</time>
      </trkpt>
      <trkpt lat="32.053397527686805" lon="118.804389721931">
        <ele>12.266271282918751</ele>
        <time>2026-10-05T10:35:56Z</time>
      </trkpt>
      <trkpt lat="32.05339124990544" lon="118.80423140921772">
        <ele>12.673181225545704</ele>
        <time>2026-10-05T10:36:02Z</time>
      </trkpt>
      <trkpt lat="32.05333399604722" lon="118.80409314117624">
        <ele>11.494725872762501</ele>
        <time>2026-10-05T10:36:09Z</time>
      </trkpt>
      <trkpt lat="32.05313757956191" lon="118.80386066965042">
        <ele>12.297979046590626</ele>
        <time>2026-10-05T10:36:21Z</time>
      </trkpt>
      <trkpt lat="32.05281633139537" lon="118.80377756607257">
        <ele>12.805295635946095</ele>
        <time>2026-10-05T10:36:33Z</time>
      </trkpt>
      <trkpt lat="32.05251712194377" lon="118.80369543174544">
        <ele>12.42480628658086</ele>
        <time>2026-10-05T10:36:48Z</time>
      </trkpt>
      <trkpt lat="32.05233599455992" lon="118.80364534977276">
        <ele>9.51830451656133</ele>
        <time>2026-10-05T10:36:57Z</time>
      </trkpt>
      <trkpt lat="32.05228598340906" lon="118.80364535436871">
        <ele>12.921556164510548</ele>
        <time>2026-10-05T10:37:00Z</time>
      </trkpt>
      <trkpt lat="32.051915106082774" lon="118.80376362125541">
        <ele>12.435376812703907</ele>
        <time>2026-10-05T10:37:12Z</time>
      </trkpt>
      <trkpt lat="32.05185836003267" lon="118.80391692866921">
        <ele>9.930501629598439</ele>
        <time>2026-10-05T10:37:18Z</time>
      </trkpt>
      <trkpt lat="32.05186150550668" lon="118.80400009247955">
        <ele>12.76830451656133</ele>
        <time>2026-10-05T10:37:21Z</time>
      </trkpt>
      <trkpt lat="32.051925792217176" lon="118.80415639530513">
        <ele>13.180497814901173</ele>
        <time>2026-10-05T10:37:27Z</time>
      </trkpt>
      <trkpt lat="32.05199499816985" lon="118.80426560489822">
        <ele>11.801232983358204</ele>
        <time>2026-10-05T10:37:30Z</time>
      </trkpt>
      <trkpt lat="32.05210821235459" lon="118.80437380865611">
        <ele>12.28740852046758</ele>
        <time>2026-10-05T10:37:37Z</time>
      </trkpt>
      <trkpt lat="32.052408492934816" lon="118.80449602321353">
        <ele>12.620336224325001</ele>
        <time>2026-10-05T10:37:52Z</time>
      </trkpt>
      <trkpt lat="32.052636640165716" lon="118.80455111149416">
        <ele>12.165864636190236</ele>
        <time>2026-10-05T10:38:01Z</time>
      </trkpt>
      <trkpt lat="32.05292285823467" lon="118.80463926008578">
        <ele>12.19757239986211</ele>
        <time>2026-10-05T10:38:13Z</time>
      </trkpt>
      <trkpt lat="32.053059957190534" lon="118.80467832503639">
        <ele>12.57805793453008</ele>
        <time>2026-10-05T10:38:19Z</time>
      </trkpt>
      <trkpt lat="32.05312797409673" lon="118.8046793207757">
        <ele>12.974401165731251</ele>
        <time>2026-10-05T10:38:22Z</time>
      </trkpt>
      <trkpt lat="32.05324189423113" lon="118.80461919101383">
        <ele>10.860582043416798</ele>
        <time>2026-10-05T10:38:28Z</time>
      </trkpt>
      <trkpt lat="32.0533397530023" lon="118.80452599722811">
        <ele>12.039037396200001</ele>
        <time>2026-10-05T10:38:34Z</time>
      </trkpt>
      <trkpt lat="32.053400517850655" lon="118.8043837097518">
        <ele>10.797166516073048</ele>
        <time>2026-10-05T10:38:40Z</time>
      </trkpt>
      <trkpt lat="32.05339723200887" lon="118.80422038687168">
        <ele>12.297979046590626</ele>
        <time>2026-10-05T10:38:46Z</time>
      </trkpt>
      <trkpt lat="32.05333297486674" lon="118.80408111751927">
        <ele>12.509359051473439</ele>
        <time>2026-10-05T10:38:52Z</time>
      </trkpt>
      <trkpt lat="32.053190704112176" lon="118.80394385960523">
        <ele>11.563424755819142</ele>
        <time>2026-10-05T10:39:01Z</time>
      </trkpt>
      <trkpt lat="32.05290439630589" lon="118.80380360931302">
        <ele>12.609765698201954</ele>
        <time>2026-10-05T10:39:16Z</time>
      </trkpt>
      <trkpt lat="32.052600168304025" lon="118.8037114556802">
        <ele>12.609765698201954</ele>
        <time>2026-10-05T10:39:31Z</time>
      </trkpt>
      <trkpt lat="32.05233098474456" lon="118.80364034037366">
        <ele>10.675622631795704</ele>
        <time>2026-10-05T10:39:46Z</time>
      </trkpt>
      <trkpt lat="32.05227397203245" lon="118.80364034561305">
        <ele>12.509359051473439</ele>
        <time>2026-10-05T10:39:49Z</time>
      </trkpt>
      <trkpt lat="32.05189417805132" lon="118.80380771004593">
        <ele>12.361394573934376</ele>
        <time>2026-10-05T10:39:58Z</time>
      </trkpt>
      <trkpt lat="32.05186733065055" lon="118.803898892272">
        <ele>9.090257336385548</ele>
        <time>2026-10-05T10:40:02Z</time>
      </trkpt>
      <trkpt lat="32.05188262715512" lon="118.8040672230868">
        <ele>12.049604107625782</ele>
        <time>2026-10-05T10:40:08Z</time>
      </trkpt>
      <trkpt lat="32.051906760020316" lon="118.80414036537077">
        <ele>12.039037396200001</ele>
        <time>2026-10-05T10:40:11Z</time>
      </trkpt>
      <trkpt lat="32.05208617768981" lon="118.8043567769578">
        <ele>12.13415687251836</ele>
        <time>2026-10-05T10:40:20Z</time>
      </trkpt>
      <trkpt lat="32.05238246786294" lon="118.80448500376194">
        <ele>11.494725872762501</ele>
        <time>2026-10-05T10:40:35Z</time>
      </trkpt>
      <trkpt lat="32.05270271624334" lon="118.80458617496657">
        <ele>12.19757239986211</ele>
        <time>2026-10-05T10:40:50Z</time>
      </trkpt>
      <trkpt lat="32.052928945547144" lon="118.80468835696152">
        <ele>12.06017463374883</ele>
        <time>2026-10-05T10:41:02Z</time>
      </trkpt>
      <trkpt lat="32.05308402220945" lon="118.80471239045033">
        <ele>11.272775341756642</ele>
        <time>2026-10-05T10:41:08Z</time>
      </trkpt>
      <trkpt lat="32.05314701518415" lon="118.80470036079281">
        <ele>11.399606396444142</ele>
        <time>2026-10-05T10:41:11Z</time>
      </trkpt>
      <trkpt lat="32.053339796823664" lon="118.80455104688644">
        <ele>12.19757239986211</ele>
        <time>2026-10-05T10:41:20Z</time>
      </trkpt>
      <trkpt lat="32.0533796725437" lon="118.8044748922798">
        <ele>11.172368695028126</ele>
        <time>2026-10-05T10:41:23Z</time>
      </trkpt>
      <trkpt lat="32.05340736715376" lon="118.80429653657316">
        <ele>12.113019634969532</ele>
        <time>2026-10-05T10:41:29Z</time>
      </trkpt>
      <trkpt lat="32.053380079661856" lon="118.8041352200878">
        <ele>12.28740852046758</ele>
        <time>2026-10-05T10:41:35Z</time>
      </trkpt>
      <trkpt lat="32.053213615058446" lon="118.80388975077167">
        <ele>11.658548046834767</ele>
        <time>2026-10-05T10:41:47Z</time>
      </trkpt>
      <trkpt lat="32.052924418187835" lon="118.80381362721965">
        <ele>12.76830451656133</ele>
        <time>2026-10-05T10:42:02Z</time>
      </trkpt>
      <trkpt lat="32.05261820539973" lon="118.8037304915135">
        <ele>11.721963574178517</ele>
        <time>2026-10-05T10:42:17Z</time>
      </trkpt>
      <trkpt lat="32.052370009102646" lon="118.80364935453477">
        <ele>12.26098792720586</ele>
        <time>2026-10-05T10:42:32Z</time>
      </trkpt>
      <trkpt lat="32.05209790667706" lon="118.8036253322172">
        <ele>11.045541455037892</ele>
        <time>2026-10-05T10:42:39Z</time>
      </trkpt>
      <trkpt lat="32.05197104020992" lon="118.80371852730686">
        <ele>12.556920696981251</ele>
        <time>2026-10-05T10:42:45Z</time>
      </trkpt>
      <trkpt lat="32.05186831343664" lon="118.80388887242128">
        <ele>11.949197460897267</ele>
        <time>2026-10-05T10:42:51Z</time>
      </trkpt>
      <trkpt lat="32.05188857611455" lon="118.80403716318118">
        <ele>12.361394573934376</ele>
        <time>2026-10-05T10:42:57Z</time>
      </trkpt>
      <trkpt lat="32.05193079508022" lon="118.80415739682576">
        <ele>11.721963574178517</ele>
        <time>2026-10-05T10:43:00Z</time>
      </trkpt>
      <trkpt lat="32.05202705603628" lon="118.80429465944016">
        <ele>12.049604107625782</ele>
        <time>2026-10-05T10:43:06Z</time>
      </trkpt>
      <trkpt lat="32.05214321491027" lon="118.80437079948852">
        <ele>9.380906750448048</ele>
        <time>2026-10-05T10:43:12Z</time>
      </trkpt>
      <trkpt lat="32.052405460727435" lon="118.80447798775036">
        <ele>11.949197460897267</ele>
        <time>2026-10-05T10:43:24Z</time>
      </trkpt>
      <trkpt lat="32.05261168543606" lon="118.80458017140738">
        <ele>13.06423728633672</ele>
        <time>2026-10-05T10:43:33Z</time>
      </trkpt>
      <trkpt lat="32.0527697732666" lon="118.8046102165036">
        <ele>12.266271282918751</ele>
        <time>2026-10-05T10:43:39Z</time>
      </trkpt>
      <trkpt lat="32.05305398042215" lon="118.80469235342892">
        <ele>11.90692298579961</ele>
        <time>2026-10-05T10:43:51Z</time>
      </trkpt>
      <trkpt lat="32.05317896440273" lon="118.8046672922272">
        <ele>10.902856518514454</ele>
        <time>2026-10-05T10:43:57Z</time>
      </trkpt>
      <trkpt lat="32.0532588839869" lon="118.80461117355112">
        <ele>12.049604107625782</ele>
        <time>2026-10-05T10:44:03Z</time>
      </trkpt>
      <trkpt lat="32.053320889029095" lon="118.80460615791593">
        <ele>11.764238049276173</ele>
        <time>2026-10-05T10:44:06Z</time>
      </trkpt>
      <trkpt lat="32.05335877651484" lon="118.80453701733038">
        <ele>11.61627357173711</ele>
        <time>2026-10-05T10:44:12Z</time>
      </trkpt>
      <trkpt lat="32.053395483476535" lon="118.80436467252083">
        <ele>12.382531811483204</ele>
        <time>2026-10-05T10:44:15Z</time>
      </trkpt>
      <trkpt lat="32.05339534873643" lon="118.80428751983456">
        <ele>11.494725872762501</ele>
        <time>2026-10-05T10:44:18Z</time>
      </trkpt>
      <trkpt lat="32.05336409881232" lon="118.80414824729789">
        <ele>12.456514050252736</ele>
        <time>2026-10-05T10:44:24Z</time>
      </trkpt>
      <trkpt lat="32.05323677891378" lon="118.80398092852735">
        <ele>12.498792340047657</ele>
        <time>2026-10-05T10:44:34Z</time>
      </trkpt>
      <trkpt lat="32.05314363608263" lon="118.80391079870216">
        <ele>12.556920696981251</ele>
        <time>2026-10-05T10:44:40Z</time>
      </trkpt>
      <trkpt lat="32.0528253630178" lon="118.80379459880544">
        <ele>12.403669049032032</ele>
        <time>2026-10-05T10:44:49Z</time>
      </trkpt>
      <trkpt lat="32.05255414934325" lon="118.80370645004426">
        <ele>12.06017463374883</ele>
        <time>2026-10-05T10:44:58Z</time>
      </trkpt>
      <trkpt lat="32.052251894057726" lon="118.80359826483871">
        <ele>11.315053631551564</ele>
        <time>2026-10-05T10:45:13Z</time>
      </trkpt>
      <trkpt lat="32.05218735541282" lon="118.80359662365363">
        <ele>12.218709637410939</ele>
        <time>2026-10-05T10:45:16Z</time>
      </trkpt>
      <trkpt lat="32.05212593032175" lon="118.80363534935874">
        <ele>11.399606396444142</ele>
        <time>2026-10-05T10:45:19Z</time>
      </trkpt>
      <trkpt lat="32.0520670268064" lon="118.80369847902638">
        <ele>12.319116284139454</ele>
        <time>2026-10-05T10:45:22Z</time>
      </trkpt>
      <trkpt lat="32.05199504730552" lon="118.80371952707385">
        <ele>11.563424755819142</ele>
        <time>2026-10-05T10:45:25Z</time>
      </trkpt>
      <trkpt lat="32.05193019828116" lon="118.80381472055868">
        <ele>11.790662457235157</ele>
        <time>2026-10-05T10:45:28Z</time>
      </trkpt>
      <trkpt lat="32.05190330904099" lon="118.80388185537416">
        <ele>11.336190869100392</ele>
        <time>2026-10-05T10:45:31Z</time>
      </trkpt>
      <trkpt lat="32.051903560258864" lon="118.80402614004302">
        <ele>8.086194683797657</ele>
        <time>2026-10-05T10:45:37Z</time>
      </trkpt>
      <trkpt lat="32.05195787276286" lon="118.80419847554546">
        <ele>12.266271282918751</ele>
        <time>2026-10-05T10:45:43Z</time>
      </trkpt>
      <trkpt lat="32.05205212110214" lon="118.80432872455357">
        <ele>10.115461041219532</ele>
        <time>2026-10-05T10:45:49Z</time>
      </trkpt>
      <trkpt lat="32.05210821410514" lon="118.80437481063979">
        <ele>11.732530285604298</ele>
        <time>2026-10-05T10:45:52Z</time>
      </trkpt>
      <trkpt lat="32.05237945843359" lon="118.80447999411055">
        <ele>11.76952521968633</ele>
        <time>2026-10-05T10:46:08Z</time>
      </trkpt>
      <trkpt lat="32.05248557319486" lon="118.80453208763036">
        <ele>11.584565808065236</ele>
        <time>2026-10-05T10:46:14Z</time>
      </trkpt>
      <trkpt lat="32.052775760573596" lon="118.80460220005303">
        <ele>12.229280163533986</ele>
        <time>2026-10-05T10:46:23Z</time>
      </trkpt>
      <trkpt lat="32.053016961647735" lon="118.80468634489694">
        <ele>10.686193157918751</ele>
        <time>2026-10-05T10:46:32Z</time>
      </trkpt>
      <trkpt lat="32.05316797072541" lon="118.80467230318014">
        <ele>12.519929577596486</ele>
        <time>2026-10-05T10:46:38Z</time>
      </trkpt>
      <trkpt lat="32.05333779988425" lon="118.80455305104336">
        <ele>11.90692298579961</ele>
        <time>2026-10-05T10:46:47Z</time>
      </trkpt>
      <trkpt lat="32.05337970408133" lon="118.80449292801816">
        <ele>11.71139304805547</ele>
        <time>2026-10-05T10:46:50Z</time>
      </trkpt>
      <trkpt lat="32.05341543192514" lon="118.80433260721703">
        <ele>12.023183514364064</ele>
        <time>2026-10-05T10:46:56Z</time>
      </trkpt>
      <trkpt lat="32.053394184139705" lon="118.80419333365997">
        <ele>9.734971691854298</ele>
        <time>2026-10-05T10:47:02Z</time>
      </trkpt>
      <trkpt lat="32.0533089049139" lon="118.80404404651432">
        <ele>10.511800457723439</ele>
        <time>2026-10-05T10:47:08Z</time>
      </trkpt>
      <trkpt lat="32.05314159901732" lon="118.80388975738971">
        <ele>11.78009193111211</ele>
        <time>2026-10-05T10:47:17Z</time>
      </trkpt>
      <trkpt lat="32.052841329999495" lon="118.8037735558788">
        <ele>12.155294110067189</ele>
        <time>2026-10-05T10:47:32Z</time>
      </trkpt>
      <trkpt lat="32.05248111565772" lon="118.80369643702713">
        <ele>11.584565808065236</ele>
        <time>2026-10-05T10:47:47Z</time>
      </trkpt>
      <trkpt lat="32.052214903200166" lon="118.80360828795052">
        <ele>10.458955456502736</ele>
        <time>2026-10-05T10:48:00Z</time>
      </trkpt>
      <trkpt lat="32.05215290850707" lon="118.8036193153333">
        <ele>11.700826336629689</ele>
        <time>2026-10-05T10:48:03Z</time>
      </trkpt>
      <trkpt lat="32.05198110513226" lon="118.80375459742605">
        <ele>11.690255810506642</ele>
        <time>2026-10-05T10:48:12Z</time>
      </trkpt>
      <trkpt lat="32.051896338865006" lon="118.80389989158252">
        <ele>11.119523693807423</ele>
        <time>2026-10-05T10:48:18Z</time>
      </trkpt>
      <trkpt lat="32.05188145412923" lon="118.80396802736584">
        <ele>10.115461041219532</ele>
        <time>2026-10-05T10:48:21Z</time>
      </trkpt>
      <trkpt lat="32.05190671110327" lon="118.80411230993978">
        <ele>11.35732810664922</ele>
        <time>2026-10-05T10:48:27Z</time>
      </trkpt>
      <trkpt lat="32.05197698890707" lon="118.80426260060678">
        <ele>10.966272045858204</ele>
        <time>2026-10-05T10:48:33Z</time>
      </trkpt>
      <trkpt lat="32.0521462593464" lon="118.80439584880857">
        <ele>11.61627357173711</ele>
        <time>2026-10-05T10:48:45Z</time>
      </trkpt>
      <trkpt lat="32.05242547745163" lon="118.80448499981016">
        <ele>10.945134808309376</ele>
        <time>2026-10-05T10:49:03Z</time>
      </trkpt>
      <trkpt lat="32.05272973278334" lon="118.80459218440798">
        <ele>10.633344342000782</ele>
        <time>2026-10-05T10:49:15Z</time>
      </trkpt>
      <trkpt lat="32.05306496532396" lon="118.80468233253119">
        <ele>11.48415916133672</ele>
        <time>2026-10-05T10:49:31Z</time>
      </trkpt>
      <trkpt lat="32.05313699891573" lon="118.80469234580119">
        <ele>11.214646984823048</ele>
        <time>2026-10-05T10:49:34Z</time>
      </trkpt>
      <trkpt lat="32.053205970418034" lon="118.80466728974585">
        <ele>10.70733039546758</ele>
        <time>2026-10-05T10:49:37Z</time>
      </trkpt>
      <trkpt lat="32.05326190044058" lon="118.80462019116342">
        <ele>11.97033851314336</ele>
        <time>2026-10-05T10:49:40Z</time>
      </trkpt>
      <trkpt lat="32.0533776248003" lon="118.80444783886577">
        <ele>12.028466870076954</ele>
        <time>2026-10-05T10:49:49Z</time>
      </trkpt>
      <trkpt lat="32.053411389039155" lon="118.80430855999624">
        <ele>11.584565808065236</ele>
        <time>2026-10-05T10:49:55Z</time>
      </trkpt>
      <trkpt lat="32.05340723423622" lon="118.80422038595258">
        <ele>11.42074363399297</ele>
        <time>2026-10-05T10:49:58Z</time>
      </trkpt>
      <trkpt lat="32.05336704182579" lon="118.8041151816888">
        <ele>10.686193157918751</ele>
        <time>2026-10-05T10:50:01Z</time>
      </trkpt>
      <trkpt lat="32.053239730728976" lon="118.80395287289258">
        <ele>11.896352459676564</ele>
        <time>2026-10-05T10:50:10Z</time>
      </trkpt>
      <trkpt lat="32.05318263779605" lon="118.8039067872128">
        <ele>9.983346630819142</ele>
        <time>2026-10-05T10:50:13Z</time>
      </trkpt>
      <trkpt lat="32.05292440424795" lon="118.80380561142351">
        <ele>11.811799694783986</ele>
        <time>2026-10-05T10:50:25Z</time>
      </trkpt>
      <trkpt lat="32.05260319334913" lon="118.80372548302648">
        <ele>8.789037396200001</ele>
        <time>2026-10-05T10:50:43Z</time>
      </trkpt>
      <trkpt lat="32.05230596524945" lon="118.80363232689858">
        <ele>9.42318504024297</ele>
        <time>2026-10-05T10:50:58Z</time>
      </trkpt>
      <trkpt lat="32.05224098033323" lon="118.80364936639229">
        <ele>11.801232983358204</ele>
        <time>2026-10-05T10:51:04Z</time>
      </trkpt>
      <trkpt lat="32.05208513704206" lon="118.80375959773497">
        <ele>10.828874279744923</ele>
        <time>2026-10-05T10:51:10Z</time>
      </trkpt>
      <trkpt lat="32.05193318152564" lon="118.80380470053798">
        <ele>11.214646984823048</ele>
        <time>2026-10-05T10:51:13Z</time>
      </trkpt>
      <trkpt lat="32.05188339875019" lon="118.80393596392331">
        <ele>11.182939221151173</ele>
        <time>2026-10-05T10:51:20Z</time>
      </trkpt>
      <trkpt lat="32.05188565227261" lon="118.8040812505147">
        <ele>9.983346630819142</ele>
        <time>2026-10-05T10:51:26Z</time>
      </trkpt>
      <trkpt lat="32.051965972461595" lon="118.80425458576318">
        <ele>9.338632275350392</ele>
        <time>2026-10-05T10:51:32Z</time>
      </trkpt>
      <trkpt lat="32.052017108044424" lon="118.80432572182143">
        <ele>12.165864636190236</ele>
        <time>2026-10-05T10:51:35Z</time>
      </trkpt>
      <trkpt lat="32.052068187677314" lon="118.8043647944798">
        <ele>11.26220863033086</ele>
        <time>2026-10-05T10:51:38Z</time>
      </trkpt>
      <trkpt lat="32.05236438852135" lon="118.80444192005618">
        <ele>11.584565808065236</ele>
        <time>2026-10-05T10:51:53Z</time>
      </trkpt>
      <trkpt lat="32.052639691678266" lon="118.80458016883416">
        <ele>10.548791577108204</ele>
        <time>2026-10-05T10:52:05Z</time>
      </trkpt>
      <trkpt lat="32.05295191382214" lon="118.80466731308866">
        <ele>11.087815930135548</ele>
        <time>2026-10-05T10:52:20Z</time>
      </trkpt>
      <trkpt lat="32.05307300045129" lon="118.80470136958232">
        <ele>10.591069866903126</ele>
        <time>2026-10-05T10:52:26Z</time>
      </trkpt>
      <trkpt lat="32.053136005713014" lon="118.80469635384827">
        <ele>11.151231457479298</ele>
        <time>2026-10-05T10:52:29Z</time>
      </trkpt>
      <trkpt lat="32.05334475762144" lon="118.80452800074089">
        <ele>10.437818218953907</ele>
        <time>2026-10-05T10:52:42Z</time>
      </trkpt>
      <trkpt lat="32.05338366642691" lon="118.80447088397102">
        <ele>11.626840283162892</ele>
        <time>2026-10-05T10:52:45Z</time>
      </trkpt>
      <trkpt lat="32.05339437125613" lon="118.80430054569797">
        <ele>11.721963574178517</ele>
        <time>2026-10-05T10:52:51Z</time>
      </trkpt>
      <trkpt lat="32.05337111085587" lon="118.80415425853519">
        <ele>11.626840283162892</ele>
        <time>2026-10-05T10:52:57Z</time>
      </trkpt>
      <trkpt lat="32.05326673325479" lon="118.80395086645711">
        <ele>10.20001380611211</ele>
        <time>2026-10-05T10:53:06Z</time>
      </trkpt>
      <trkpt lat="32.05321662967641" lon="118.8038977663032">
        <ele>11.182939221151173</ele>
        <time>2026-10-05T10:53:09Z</time>
      </trkpt>
      <trkpt lat="32.05301040947393" lon="118.8037975877235">
        <ele>10.189443279989064</ele>
        <time>2026-10-05T10:53:18Z</time>
      </trkpt>
      <trkpt lat="32.05272926323232" lon="118.80374951880441">
        <ele>11.61627357173711</ele>
        <time>2026-10-05T10:53:30Z</time>
      </trkpt>
      <trkpt lat="32.05259413737044" lon="118.80369442269507">
        <ele>11.182939221151173</ele>
        <time>2026-10-05T10:53:36Z</time>
      </trkpt>
      <trkpt lat="32.05244905630376" lon="118.80366638079701">
        <ele>9.032128979451954</ele>
        <time>2026-10-05T10:53:42Z</time>
      </trkpt>
      <trkpt lat="32.052268899588654" lon="118.8035992652471">
        <ele>10.374402691610157</ele>
        <time>2026-10-05T10:53:51Z</time>
      </trkpt>
      <trkpt lat="32.052139061421215" lon="118.80364538782477">
        <ele>11.26220863033086</ele>
        <time>2026-10-05T10:53:57Z</time>
      </trkpt>
      <trkpt lat="32.05208494727679" lon="118.80365038270342">
        <ele>11.172368695028126</ele>
        <time>2026-10-05T10:54:00Z</time>
      </trkpt>
      <trkpt lat="32.051884275163715" lon="118.80386482353626">
        <ele>9.185380627401173</ele>
        <time>2026-10-05T10:54:12Z</time>
      </trkpt>
      <trkpt lat="32.05186752604388" lon="118.80401111368292">
        <ele>10.569932629354298</ele>
        <time>2026-10-05T10:54:18Z</time>
      </trkpt>
      <trkpt lat="32.05189878794044" lon="118.8041573997668">
        <ele>8.789037396200001</ele>
        <time>2026-10-05T10:54:24Z</time>
      </trkpt>
      <trkpt lat="32.05193393384492" lon="118.80423655303517">
        <ele>9.22765510249883</ele>
        <time>2026-10-05T10:54:27Z</time>
      </trkpt>
      <trkpt lat="32.05202015246477" lon="118.80435077112332">
        <ele>10.559362103231251</ele>
        <time>2026-10-05T10:54:34Z</time>
      </trkpt>
      <trkpt lat="32.05208626172067" lon="118.80440487217965">
        <ele>11.605703045614064</ele>
        <time>2026-10-05T10:54:37Z</time>
      </trkpt>
      <trkpt lat="32.05245552794816" lon="118.80451004669462">
        <ele>10.321557690389454</ele>
        <time>2026-10-05T10:54:55Z</time>
      </trkpt>
      <trkpt lat="32.05275877958414" lon="118.804615227452">
        <ele>11.283345867879689</ele>
        <time>2026-10-05T10:55:10Z</time>
      </trkpt>
      <trkpt lat="32.05306002739364" lon="118.80471840459069">
        <ele>8.93700568843633</ele>
        <time>2026-10-05T10:55:22Z</time>
      </trkpt>
      <trkpt lat="32.05312402761141" lon="118.80471038279622">
        <ele>11.605703045614064</ele>
        <time>2026-10-05T10:55:25Z</time>
      </trkpt>
      <trkpt lat="32.05329785233955" lon="118.80458812425896">
        <ele>11.204076458700001</ele>
        <time>2026-10-05T10:55:34Z</time>
      </trkpt>
      <trkpt lat="32.05338760250689" lon="118.80443381015984">
        <ele>10.052045513875782</ele>
        <time>2026-10-05T10:55:40Z</time>
      </trkpt>
      <trkpt lat="32.053393318554456" lon="118.80427048632131">
        <ele>11.500013043172657</ele>
        <time>2026-10-05T10:55:46Z</time>
      </trkpt>
      <trkpt lat="32.05335902781602" lon="118.80410816856781">
        <ele>11.024404217489064</ele>
        <time>2026-10-05T10:55:52Z</time>
      </trkpt>
      <trkpt lat="32.05324866819536" lon="118.80391579893207">
        <ele>10.987409283407032</ele>
        <time>2026-10-05T10:56:01Z</time>
      </trkpt>
      <trkpt lat="32.05317546350972" lon="118.80383234048061">
        <ele>11.246354748494923</ele>
        <time>2026-10-05T10:56:07Z</time>
      </trkpt>
      <trkpt lat="32.05308250393621" lon="118.80384266996654">
        <ele>10.945134808309376</ele>
        <time>2026-10-05T10:56:10Z</time>
      </trkpt>
      <trkpt lat="32.05280829477475" lon="118.80375752733154">
        <ele>10.902856518514454</ele>
        <time>2026-10-05T10:56:22Z</time>
      </trkpt>
      <trkpt lat="32.052529072401086" lon="118.80366537147135">
        <ele>10.87114875484258</ele>
        <time>2026-10-05T10:56:34Z</time>
      </trkpt>
      <trkpt lat="32.052217876038284" lon="118.80359225613832">
        <ele>11.077249218709767</ele>
        <time>2026-10-05T10:56:50Z</time>
      </trkpt>
      <trkpt lat="32.052157855698184" lon="118.80358825377006">
        <ele>11.06667869258672</ele>
        <time>2026-10-05T10:56:53Z</time>
      </trkpt>
      <trkpt lat="32.05198803877923" lon="118.80371551982537">
        <ele>11.272775341756642</ele>
        <time>2026-10-05T10:57:02Z</time>
      </trkpt>
      <trkpt lat="32.051941151949435" lon="118.8037866642659">
        <ele>11.272775341756642</ele>
        <time>2026-10-05T10:57:05Z</time>
      </trkpt>
      <trkpt lat="32.051893425403186" lon="118.80394999067782">
        <ele>9.06912009883672</ele>
        <time>2026-10-05T10:57:11Z</time>
      </trkpt>
      <trkpt lat="32.0519007709126" lon="118.80414737978197">
        <ele>9.608144451864064</ele>
        <time>2026-10-05T10:57:20Z</time>
      </trkpt>
      <trkpt lat="32.0519239001412" lon="118.80421851829048">
        <ele>9.433755566366017</ele>
        <time>2026-10-05T10:57:23Z</time>
      </trkpt>
      <trkpt lat="32.05197703963327" lon="118.80429165808825">
        <ele>10.818303753621876</ele>
        <time>2026-10-05T10:57:26Z</time>
      </trkpt>
      <trkpt lat="32.05209620967775" lon="118.80437380975894">
        <ele>10.913427044637501</ele>
        <time>2026-10-05T10:57:32Z</time>
      </trkpt>
      <trkpt lat="32.05237643674117" lon="118.80446797056285">
        <ele>9.058549572713673</ele>
        <time>2026-10-05T10:57:44Z</time>
      </trkpt>
      <trkpt lat="32.0525656208308" lon="118.80454911404617">
        <ele>10.437818218953907</ele>
        <time>2026-10-05T10:57:53Z</time>
      </trkpt>
      <trkpt lat="32.052840817155186" lon="118.80462624178001">
        <ele>11.441880871541798</ele>
        <time>2026-10-05T10:58:05Z</time>
      </trkpt>
      <trkpt lat="32.05306197342995" lon="118.8046873427501">
        <ele>9.13253562618047</ele>
        <time>2026-10-05T10:58:14Z</time>
      </trkpt>
      <trkpt lat="32.053136981366485" lon="118.80468232591434">
        <ele>9.476030041463673</ele>
        <time>2026-10-05T10:58:17Z</time>
      </trkpt>
      <trkpt lat="32.053303794063616" lon="118.80455405615466">
        <ele>9.972776104696095</ele>
        <time>2026-10-05T10:58:26Z</time>
      </trkpt>
      <trkpt lat="32.05337957445573" lon="118.80441878112691">
        <ele>11.13009421993047</ele>
        <time>2026-10-05T10:58:33Z</time>
      </trkpt>
      <trkpt lat="32.053398456139895" lon="118.80434864051023">
        <ele>9.00042121578008</ele>
        <time>2026-10-05T10:58:36Z</time>
      </trkpt>
      <trkpt lat="32.05335903829695" lon="118.80411418044459">
        <ele>11.140660931356251</ele>
        <time>2026-10-05T10:58:45Z</time>
      </trkpt>
      <trkpt lat="32.05328377716971" lon="118.80397391036637">
        <ele>9.77196662593633</ele>
        <time>2026-10-05T10:58:51Z</time>
      </trkpt>
      <trkpt lat="32.05321361157119" lon="118.80388774682004">
        <ele>10.332128216512501</ele>
        <time>2026-10-05T10:58:54Z</time>
      </trkpt>
      <trkpt lat="32.0529133739195" lon="118.80378958084553">
        <ele>9.269933392293751</ele>
        <time>2026-10-05T10:59:09Z</time>
      </trkpt>
      <trkpt lat="32.05274223478344" lon="118.8037314820888">
        <ele>10.987409283407032</ele>
        <time>2026-10-05T10:59:18Z</time>
      </trkpt>
      <trkpt lat="32.05265619819975" lon="118.80372147026246">
        <ele>10.495946575887501</ele>
        <time>2026-10-05T10:59:21Z</time>
      </trkpt>
      <trkpt lat="32.05261413660691" lon="118.80369141493897">
        <ele>10.675622631795704</ele>
        <time>2026-10-05T10:59:24Z</time>
      </trkpt>
      <trkpt lat="32.052284927510435" lon="118.80361329137219">
        <ele>10.406110455282032</ele>
        <time>2026-10-05T10:59:42Z</time>
      </trkpt>
      <trkpt lat="32.05222588478001" lon="118.80359626328668">
        <ele>10.807737042196095</ele>
        <time>2026-10-05T10:59:45Z</time>
      </trkpt>
      <trkpt lat="32.052027026587545" lon="118.80370349256656">
        <ele>10.83944480586797</ele>
        <time>2026-10-05T10:59:54Z</time>
      </trkpt>
      <trkpt lat="32.05193628153615" lon="118.80386181283065">
        <ele>10.99797980953008</ele>
        <time>2026-10-05T11:00:00Z</time>
      </trkpt>
      <trkpt lat="32.051904550008615" lon="118.80402012808312">
        <ele>11.008550335653126</ele>
        <time>2026-10-05T11:00:06Z</time>
      </trkpt>
      <trkpt lat="32.0519428397012" lon="118.80418144325198">
        <ele>9.412614514119923</ele>
        <time>2026-10-05T11:00:13Z</time>
      </trkpt>
      <trkpt lat="32.052039100703674" lon="118.80431870591961">
        <ele>10.923997570760548</ele>
        <time>2026-10-05T11:00:19Z</time>
      </trkpt>
      <trkpt lat="32.052131245495616" lon="118.80438983828321">
        <ele>5.2853829162195325</ele>
        <time>2026-10-05T11:00:25Z</time>
      </trkpt>
      <trkpt lat="32.05239247710144" lon="118.80448901078489">
        <ele>9.951638867147267</ele>
        <time>2026-10-05T11:00:37Z</time>
      </trkpt>
      <trkpt lat="32.05270071755103" lon="118.80458717713745">
        <ele>8.678064038045704</ele>
        <time>2026-10-05T11:00:52Z</time>
      </trkpt>
      <trkpt lat="32.052774784904464" lon="118.80461622796913">
        <ele>7.901235272176564</ele>
        <time>2026-10-05T11:00:55Z</time>
      </trkpt>
      <trkpt lat="32.053071942317096" lon="118.80466830404896">
        <ele>11.235784222371876</ele>
        <time>2026-10-05T11:01:04Z</time>
      </trkpt>
      <trkpt lat="32.05314994565945" lon="118.80466028097413">
        <ele>11.595132519491017</ele>
        <time>2026-10-05T11:01:07Z</time>
      </trkpt>
      <trkpt lat="32.053217897654484" lon="118.80462420315774">
        <ele>9.00042121578008</ele>
        <time>2026-10-05T11:01:10Z</time>
      </trkpt>
      <trkpt lat="32.05327380140571" lon="118.8045620748049">
        <ele>10.923997570760548</ele>
        <time>2026-10-05T11:01:13Z</time>
      </trkpt>
      <trkpt lat="32.05334457716697" lon="118.80442479625049">
        <ele>11.346761395223439</ele>
        <time>2026-10-05T11:01:19Z</time>
      </trkpt>
      <trkpt lat="32.05338027368488" lon="118.80424643995174">
        <ele>11.098386456258595</ele>
        <time>2026-10-05T11:01:25Z</time>
      </trkpt>
      <trkpt lat="32.053379112637806" lon="118.8041542577999">
        <ele>10.87114875484258</ele>
        <time>2026-10-05T11:01:28Z</time>
      </trkpt>
      <trkpt lat="32.053274710615014" lon="118.80393683804755">
        <ele>10.221151043660939</ele>
        <time>2026-10-05T11:01:37Z</time>
      </trkpt>
      <trkpt lat="32.05321658783034" lon="118.80387371888456">
        <ele>10.87114875484258</ele>
        <time>2026-10-05T11:01:40Z</time>
      </trkpt>
      <trkpt lat="32.053076453801985" lon="118.80381461522272">
        <ele>10.511800457723439</ele>
        <time>2026-10-05T11:01:46Z</time>
      </trkpt>
      <trkpt lat="32.05282436802178" lon="118.80379760482025">
        <ele>10.126027752645314</ele>
        <time>2026-10-05T11:01:55Z</time>
      </trkpt>
    </trkseg>
  </trk>
</gpx>