<?xml version="1.0" encoding="UTF-8"?>
<gpx xmlns="http://www.topografix.com/GPX/1/1" xmlns:gpxtpx="http://www.garmin.com/xmlschemas/TrackPointExtension/v1" xmlns:xsi="http://www.w3.org/2001/XMLSchema-instance" xsi:schemaLocation="http://www.topografix.com/GPX/1/1 http://www.topografix.com/GPX/1/1/gpx.xsd" version="1.1" creator="gpx.py -- https://github.com/tkrajina/gpxpy">
  <trk>
    <name>gpx from keep</name>
    <type>Run</type>
    <trkseg>
      <trkpt lat="31.220366186290118" lon="121.40578936498925">
        <ele>22.210964982397854</ele>
        <time>2026-06-14T09:56:21Z</time>
      </trkpt>
      <trkpt lat="31.2202912278485" lon="121.40580637905279">
        <ele>21.885968034155667</ele>
        <time>2026-06-14T09:56:36Z</time>
      </trkpt>
      <trkpt lat="31.219931422643814" lon="121.4058744406892">
        <ele>22.18982393015176</ele>
        <time>2026-06-14T09:56:45Z</time>
      </trkpt>
      <trkpt lat="31.219562612895615" lon="121.4059174921096">
        <ele>21.415638749487698</ele>
        <time>2026-06-14T09:56:54Z</time>
      </trkpt>
      <trkpt lat="31.219292745849888" lon="121.40593152193098">
        <ele>21.801411454565823</ele>
        <time>2026-06-14T09:57:03Z</time>
      </trkpt>
      <trkpt lat="31.219217786855836" lon="121.40594653522128">
        <ele>22.38799745310098</ele>
        <time>2026-06-14T09:57:48Z</time>
      </trkpt>
      <trkpt lat="31.219035875277804" lon="121.40595255378578">
        <ele>22.765843217261136</ele>
        <time>2026-06-14T09:58:33Z</time>
      </trkpt>
      <trkpt lat="31.218822020579186" lon="121.4060716264849">
        <ele>22.903240983374417</ele>
        <time>2026-06-14T09:58:39Z</time>
      </trkpt>
      <trkpt lat="31.218685106773133" lon="121.40612866458034">
        <ele>22.472546403296292</ele>
        <time>2026-06-14T09:58:42Z</time>
      </trkpt>
      <trkpt lat="31.218577156865713" lon="121.40612567261002">
        <ele>21.603237931616604</ele>
        <time>2026-06-14T09:58:45Z</time>
      </trkpt>
      <trkpt lat="31.217496748388108" lon="121.40633286321894">
        <ele>21.037792985327542</ele>
        <time>2026-06-14T09:59:00Z</time>
      </trkpt>
      <trkpt lat="31.217201935297663" lon="121.40645394634049">
        <ele>21.90710145700723</ele>
        <time>2026-06-14T09:59:06Z</time>
      </trkpt>
      <trkpt lat="31.21690611987321" lon="121.40656602597396">
        <ele>21.76177674997598</ele>
        <time>2026-06-14T09:59:12Z</time>
      </trkpt>
      <trkpt lat="31.216584317863738" lon="121.4066791090312">
        <ele>22.295513932593167</ele>
        <time>2026-06-14T09:59:18Z</time>
      </trkpt>
      <trkpt lat="31.21646538769463" lon="121.40671213559037">
        <ele>23.143688981421292</ele>
        <time>2026-06-14T09:59:21Z</time>
      </trkpt>
      <trkpt lat="31.215423074849276" lon="121.40717545975353">
        <ele>22.58881074655801</ele>
        <time>2026-06-14T09:59:36Z</time>
      </trkpt>
      <trkpt lat="31.214947447322434" lon="121.40751467929181">
        <ele>21.740643327124417</ele>
        <time>2026-06-14T09:59:45Z</time>
      </trkpt>
      <trkpt lat="31.214773572499336" lon="121.40761074599197">
        <ele>21.457913224585354</ele>
        <time>2026-06-14T09:59:48Z</time>
      </trkpt>
      <trkpt lat="31.21444277624456" lon="121.40771383067477">
        <ele>23.281086747534573</ele>
        <time>2026-06-14T09:59:54Z</time>
      </trkpt>
      <trkpt lat="31.21431886543967" lon="121.40778087810904">
        <ele>21.730068986304104</ele>
        <time>2026-06-14T09:59:57Z</time>
      </trkpt>
      <trkpt lat="31.213667260042914" lon="121.40796403618323">
        <ele>20.32702333200723</ele>
        <time>2026-06-14T10:00:06Z</time>
      </trkpt>
      <trkpt lat="31.213267458827364" lon="121.40798007996756">
        <ele>20.440640275366604</ele>
        <time>2026-06-14T10:00:12Z</time>
      </trkpt>
      <trkpt lat="31.213130521695792" lon="121.40797408854769">
        <ele>21.320515458472073</ele>
        <time>2026-06-14T10:00:15Z</time>
      </trkpt>
      <trkpt lat="31.212046932575223" lon="121.40773304984558">
        <ele>22.694500748999417</ele>
        <time>2026-06-14T10:00:30Z</time>
      </trkpt>
      <trkpt lat="31.211596048982624" lon="121.40750596657475">
        <ele>24.274578873999417</ele>
        <time>2026-06-14T10:00:39Z</time>
      </trkpt>
      <trkpt lat="31.2115180751289" lon="121.40747995950751">
        <ele>21.730068986304104</ele>
        <time>2026-06-14T10:00:42Z</time>
      </trkpt>
      <trkpt lat="31.211167194946576" lon="121.40736693025698">
        <ele>20.955883805640042</ele>
        <time>2026-06-14T10:02:33Z</time>
      </trkpt>
      <trkpt lat="31.210901303113886" lon="121.40732092926906">
        <ele>21.719502274878323</ele>
        <time>2026-06-14T10:02:39Z</time>
      </trkpt>
      <trkpt lat="31.210752328435152" lon="121.40721188545453">
        <ele>19.803852860815823</ele>
        <time>2026-06-14T10:02:42Z</time>
      </trkpt>
      <trkpt lat="31.21047040871213" lon="121.4070798420905">
        <ele>21.267674271948636</ele>
        <time>2026-06-14T10:02:48Z</time>
      </trkpt>
      <trkpt lat="31.21031845487916" lon="121.40701482222308">
        <ele>20.786778275854886</ele>
        <time>2026-06-14T10:02:51Z</time>
      </trkpt>
      <trkpt lat="31.210038569475547" lon="121.40696582180371">
        <ele>20.48291475046426</ele>
        <time>2026-06-14T10:02:57Z</time>
      </trkpt>
      <trkpt lat="31.209667735475016" lon="121.40693483849026">
        <ele>20.316456620581448</ele>
        <time>2026-06-14T10:03:03Z</time>
      </trkpt>
      <trkpt lat="31.209506808976865" lon="121.40692484748322">
        <ele>20.903042619116604</ele>
        <time>2026-06-14T10:03:06Z</time>
      </trkpt>
      <trkpt lat="31.209413843582972" lon="121.40689984303042">
        <ele>19.917469804175198</ele>
        <time>2026-06-14T10:03:09Z</time>
      </trkpt>
      <trkpt lat="31.209285905713084" lon="121.40690085468107">
        <ele>21.341656510718167</ele>
        <time>2026-06-14T10:03:12Z</time>
      </trkpt>
      <trkpt lat="31.208523310468834" lon="121.40698996598596">
        <ele>20.398365800268948</ele>
        <time>2026-06-14T10:03:24Z</time>
      </trkpt>
      <trkpt lat="31.208246467444987" lon="121.40704601854713">
        <ele>20.850193803198636</ele>
        <time>2026-06-14T10:03:30Z</time>
      </trkpt>
      <trkpt lat="31.208175500089144" lon="121.40704202269454">
        <ele>21.01665956247598</ele>
        <time>2026-06-14T10:03:36Z</time>
      </trkpt>
      <trkpt lat="31.2078097103403" lon="121.40712209546646">
        <ele>20.157917802222073</ele>
        <time>2026-06-14T10:05:42Z</time>
      </trkpt>
      <trkpt lat="31.20767379540883" lon="121.40716813098041">
        <ele>20.630886857397854</ele>
        <time>2026-06-14T10:05:45Z</time>
      </trkpt>
      <trkpt lat="31.207479877484545" lon="121.4071401334565">
        <ele>19.896336381323636</ele>
        <time>2026-06-14T10:05:48Z</time>
      </trkpt>
      <trkpt lat="31.207073116197957" lon="121.4072392200785">
        <ele>19.814419572241604</ele>
        <time>2026-06-14T10:05:54Z</time>
      </trkpt>
      <trkpt lat="31.20654239421106" lon="121.40728829184712">
        <ele>19.54226762522012</ele>
        <time>2026-06-14T10:06:03Z</time>
      </trkpt>
      <trkpt lat="31.20611862968186" lon="121.40735836545635">
        <ele>19.581902329809964</ele>
        <time>2026-06-14T10:06:09Z</time>
      </trkpt>
      <trkpt lat="31.20576282129959" lon="121.40740241965173">
        <ele>20.168484513647854</ele>
        <time>2026-06-14T10:06:15Z</time>
      </trkpt>
      <trkpt lat="31.205110200895582" lon="121.40754655314176">
        <ele>20.179058854468167</ele>
        <time>2026-06-14T10:06:24Z</time>
      </trkpt>
      <trkpt lat="31.204954270562194" lon="121.40753255922925">
        <ele>19.92803651560098</ele>
        <time>2026-06-14T10:06:27Z</time>
      </trkpt>
      <trkpt lat="31.20459346179179" lon="121.40756860996845">
        <ele>17.542065446265042</ele>
        <time>2026-06-14T10:06:33Z</time>
      </trkpt>
      <trkpt lat="31.204268648905618" lon="121.40763467383634">
        <ele>23.249378983862698</ele>
        <time>2026-06-14T10:06:39Z</time>
      </trkpt>
      <trkpt lat="31.20390486731011" lon="121.4077277560443">
        <ele>21.98108369577676</ele>
        <time>2026-06-14T10:06:45Z</time>
      </trkpt>
      <trkpt lat="31.20353209870734" lon="121.40783884941607">
        <ele>18.997959916479886</ele>
        <time>2026-06-14T10:06:51Z</time>
      </trkpt>
      <trkpt lat="31.203189323454286" lon="121.40796594975896">
        <ele>20.398365800268948</ele>
        <time>2026-06-14T10:06:57Z</time>
      </trkpt>
      <trkpt lat="31.202807587967914" lon="121.40813607870722">
        <ele>22.977223222143948</ele>
        <time>2026-06-14T10:07:03Z</time>
      </trkpt>
      <trkpt lat="31.202459837785938" lon="121.4083072068145">
        <ele>20.974377457983792</ele>
        <time>2026-06-14T10:07:10Z</time>
      </trkpt>
      <trkpt lat="31.202283958734032" lon="121.4083812649488">
        <ele>20.461781327612698</ele>
        <time>2026-06-14T10:07:13Z</time>
      </trkpt>
      <trkpt lat="31.202043105953273" lon="121.40844332202582">
        <ele>20.210766618140042</ele>
        <time>2026-06-14T10:07:19Z</time>
      </trkpt>
      <trkpt lat="31.20198815485391" lon="121.40848935372583">
        <ele>19.832920853979886</ele>
        <time>2026-06-14T10:07:22Z</time>
      </trkpt>
      <trkpt lat="31.201751334886445" lon="121.40862245280574">
        <ele>21.257107560522854</ele>
        <time>2026-06-14T10:07:28Z</time>
      </trkpt>
      <trkpt lat="31.201483570435553" lon="121.40883560373813">
        <ele>20.80791932810098</ele>
        <time>2026-06-14T10:07:34Z</time>
      </trkpt>
      <trkpt lat="31.20132768350968" lon="121.40890966221798">
        <ele>21.006085221655667</ele>
        <time>2026-06-14T10:07:37Z</time>
      </trkpt>
      <trkpt lat="31.201007940736474" lon="121.40910981288769">
        <ele>20.94531709421426</ele>
        <time>2026-06-14T10:07:43Z</time>
      </trkpt>
      <trkpt lat="31.200680221897212" lon="121.40934498847683">
        <ele>21.21747285593301</ele>
        <time>2026-06-14T10:07:49Z</time>
      </trkpt>
      <trkpt lat="31.20050636441181" lon="121.40945507346358">
        <ele>20.157917802222073</ele>
        <time>2026-06-14T10:07:52Z</time>
      </trkpt>
      <trkpt lat="31.200163684024105" lon="121.40974128793118">
        <ele>18.5989769147709</ele>
        <time>2026-06-14T10:07:58Z</time>
      </trkpt>
      <trkpt lat="31.19959918252953" lon="121.41014760669168">
        <ele>19.38373262155801</ele>
        <time>2026-06-14T10:08:07Z</time>
      </trkpt>
      <trkpt lat="31.199463307183166" lon="121.41025168900224">
        <ele>18.754872147925198</ele>
        <time>2026-06-14T10:08:10Z</time>
      </trkpt>
      <trkpt lat="31.199317427094844" lon="121.41033776042305">
        <ele>20.115643327124417</ele>
        <time>2026-06-14T10:08:13Z</time>
      </trkpt>
      <trkpt lat="31.199022708396637" lon="121.41057795203967">
        <ele>20.210766618140042</ele>
        <time>2026-06-14T10:08:19Z</time>
      </trkpt>
      <trkpt lat="31.198716981402878" lon="121.41079012781553">
        <ele>21.069500748999417</ele>
        <time>2026-06-14T10:08:25Z</time>
      </trkpt>
      <trkpt lat="31.198479199994306" lon="121.4109632720161">
        <ele>21.57153779733926</ele>
        <time>2026-06-14T10:08:40Z</time>
      </trkpt>
      <trkpt lat="31.198343308940025" lon="121.41103433499553">
        <ele>20.829052750952542</ele>
        <time>2026-06-14T10:08:46Z</time>
      </trkpt>
      <trkpt lat="31.198295345626313" lon="121.41105635507496">
        <ele>20.493489091284573</ele>
        <time>2026-06-14T10:09:25Z</time>
      </trkpt>
      <trkpt lat="31.19818146687687" lon="121.41116544416327">
        <ele>21.645520036108792</ele>
        <time>2026-06-14T10:09:31Z</time>
      </trkpt>
      <trkpt lat="31.19793468440836" lon="121.41132458228147">
        <ele>19.917469804175198</ele>
        <time>2026-06-14T10:09:37Z</time>
      </trkpt>
      <trkpt lat="31.197670947867923" lon="121.4115427673491">
        <ele>23.164822404272854</ele>
        <time>2026-06-14T10:09:43Z</time>
      </trkpt>
      <trkpt lat="31.197384224847646" lon="121.41176095695833">
        <ele>18.934544389136136</ele>
        <time>2026-06-14T10:09:49Z</time>
      </trkpt>
      <trkpt lat="31.197068538102833" lon="121.41201017560896">
        <ele>18.5989769147709</ele>
        <time>2026-06-14T10:09:55Z</time>
      </trkpt>
      <trkpt lat="31.196755838465265" lon="121.41223737999633">
        <ele>12.653858964331448</ele>
        <time>2026-06-14T10:10:01Z</time>
      </trkpt>
      <trkpt lat="31.196453144878" lon="121.41247759665188">
        <ele>17.291050736792386</ele>
        <time>2026-06-14T10:10:07Z</time>
      </trkpt>
      <trkpt lat="31.19628431170772" lon="121.41260371249139">
        <ele>19.824993913061917</ele>
        <time>2026-06-14T10:10:10Z</time>
      </trkpt>
      <trkpt lat="31.196113500423465" lon="121.41275985375869">
        <ele>21.08007508981973</ele>
        <time>2026-06-14T10:10:13Z</time>
      </trkpt>
      <trkpt lat="31.19580879723801" lon="121.41297605744272">
        <ele>19.027024094946682</ele>
        <time>2026-06-14T10:10:19Z</time>
      </trkpt>
      <trkpt lat="31.19551208951304" lon="121.41318825957214">
        <ele>18.284546677954495</ele>
        <time>2026-06-14T10:10:25Z</time>
      </trkpt>
      <trkpt lat="31.195353256961514" lon="121.41331638100574">
        <ele>20.168484513647854</ele>
        <time>2026-06-14T10:10:28Z</time>
      </trkpt>
      <trkpt lat="31.19501257433278" lon="121.41352859081098">
        <ele>20.369297807104886</ele>
        <time>2026-06-14T10:10:34Z</time>
      </trkpt>
      <trkpt lat="31.194842734277895" lon="121.41363569743032">
        <ele>12.622151200659573</ele>
        <time>2026-06-14T10:10:37Z</time>
      </trkpt>
      <trkpt lat="31.19471188121986" lon="121.41375080820269">
        <ele>20.69165498483926</ele>
        <time>2026-06-14T10:10:40Z</time>
      </trkpt>
      <trkpt lat="31.19441417074737" lon="121.4139480060033">
        <ele>20.147351090796292</ele>
        <time>2026-06-14T10:10:46Z</time>
      </trkpt>
      <trkpt lat="31.194125467200095" lon="121.41415821664161">
        <ele>19.40486985910684</ele>
        <time>2026-06-14T10:10:52Z</time>
      </trkpt>
      <trkpt lat="31.193812820129043" lon="121.4144254831115">
        <ele>22.136982743628323</ele>
        <time>2026-06-14T10:11:01Z</time>
      </trkpt>
      <trkpt lat="31.193471183873495" lon="121.4146837476502">
        <ele>19.67702562082559</ele>
        <time>2026-06-14T10:11:10Z</time>
      </trkpt>
      <trkpt lat="31.19324443526214" lon="121.41486593515592">
        <ele>20.369297807104886</ele>
        <time>2026-06-14T10:11:16Z</time>
      </trkpt>
      <trkpt lat="31.193133564149825" lon="121.41496203401083">
        <ele>20.839627091772854</ele>
        <time>2026-06-14T10:11:19Z</time>
      </trkpt>
      <trkpt lat="31.1929307553755" lon="121.41507916104518">
        <ele>20.05486757028848</ele>
        <time>2026-06-14T10:11:25Z</time>
      </trkpt>
      <trkpt lat="31.192627099417486" lon="121.41532642078641">
        <ele>21.122349564917386</ele>
        <time>2026-06-14T10:11:34Z</time>
      </trkpt>
      <trkpt lat="31.19229143101984" lon="121.4155346489939">
        <ele>19.005886857397854</ele>
        <time>2026-06-14T10:11:43Z</time>
      </trkpt>
      <trkpt lat="31.192015734058245" lon="121.41574187331052">
        <ele>20.26360780466348</ele>
        <time>2026-06-14T10:11:49Z</time>
      </trkpt>
      <trkpt lat="31.191768015384536" lon="121.41593708566413">
        <ele>20.955883805640042</ele>
        <time>2026-06-14T10:11:55Z</time>
      </trkpt>
      <trkpt lat="31.19145035634777" lon="121.41616033397884">
        <ele>20.387799088843167</ele>
        <time>2026-06-14T10:12:04Z</time>
      </trkpt>
      <trkpt lat="31.19137144687737" lon="121.41622240266784">
        <ele>19.885762040503323</ele>
        <time>2026-06-14T10:12:07Z</time>
      </trkpt>
      <trkpt lat="31.191033804929994" lon="121.41645066115278">
        <ele>19.489422623999417</ele>
        <time>2026-06-14T10:14:19Z</time>
      </trkpt>
      <trkpt lat="31.190807065261232" lon="121.41662585860357">
        <ele>21.352223222143948</ele>
        <time>2026-06-14T10:14:25Z</time>
      </trkpt>
      <trkpt lat="31.190558341371595" lon="121.41680506371185">
        <ele>20.179058854468167</ele>
        <time>2026-06-14T10:14:31Z</time>
      </trkpt>
      <trkpt lat="31.190290620666243" lon="121.41697526282304">
        <ele>20.74450380075723</ele>
        <time>2026-06-14T10:14:37Z</time>
      </trkpt>
      <trkpt lat="31.18998492980848" lon="121.4171564782996">
        <ele>20.797344987280667</ele>
        <time>2026-06-14T10:14:43Z</time>
      </trkpt>
      <trkpt lat="31.189716225566507" lon="121.4173416965273">
        <ele>21.479054276831448</ele>
        <time>2026-06-14T10:14:49Z</time>
      </trkpt>
      <trkpt lat="31.18960190539569" lon="121.41728827481651">
        <ele>20.504055802710354</ele>
        <time>2026-06-14T10:14:52Z</time>
      </trkpt>
      <trkpt lat="31.189311544674787" lon="121.41747487293841">
        <ele>19.906903092749417</ele>
        <time>2026-06-14T10:14:58Z</time>
      </trkpt>
      <trkpt lat="31.189231175692786" lon="121.41768490159113">
        <ele>20.097142045386136</ele>
        <time>2026-06-14T10:15:01Z</time>
      </trkpt>
      <trkpt lat="31.189125884117182" lon="121.41775218618233">
        <ele>19.729870622046292</ele>
        <time>2026-06-14T10:15:04Z</time>
      </trkpt>
      <trkpt lat="31.188867118554633" lon="121.41786933540247">
        <ele>21.479054276831448</ele>
        <time>2026-06-14T10:15:10Z</time>
      </trkpt>
      <trkpt lat="31.18874124287139" lon="121.41793742032851">
        <ele>20.461781327612698</ele>
        <time>2026-06-14T10:15:13Z</time>
      </trkpt>
      <trkpt lat="31.188489572510647" lon="121.41816168763697">
        <ele>20.348164384253323</ele>
        <time>2026-06-14T10:15:19Z</time>
      </trkpt>
      <trkpt lat="31.188198942430763" lon="121.41840598326755">
        <ele>20.556904618628323</ele>
        <time>2026-06-14T10:15:25Z</time>
      </trkpt>
      <trkpt lat="31.18790730339983" lon="121.41863726748286">
        <ele>21.02722627390176</ele>
        <time>2026-06-14T10:15:31Z</time>
      </trkpt>
      <trkpt lat="31.187606650503298" lon="121.41884653025969">
        <ele>20.221333329565823</ele>
        <time>2026-06-14T10:15:37Z</time>
      </trkpt>
      <trkpt lat="31.18735495030399" lon="121.41902976123573">
        <ele>20.221333329565823</ele>
        <time>2026-06-14T10:15:43Z</time>
      </trkpt>
      <trkpt lat="31.187079283864332" lon="121.4192340203727">
        <ele>20.044300858862698</ele>
        <time>2026-06-14T10:15:49Z</time>
      </trkpt>
      <trkpt lat="31.186942452796007" lon="121.41933815300433">
        <ele>21.196331803686917</ele>
        <time>2026-06-14T10:15:52Z</time>
      </trkpt>
      <trkpt lat="31.18664677095827" lon="121.41951338316109">
        <ele>20.860760514624417</ele>
        <time>2026-06-14T10:15:58Z</time>
      </trkpt>
      <trkpt lat="31.18638111290757" lon="121.41972665727657">
        <ele>20.829052750952542</ele>
        <time>2026-06-14T10:16:04Z</time>
      </trkpt>
      <trkpt lat="31.186107435106116" lon="121.41991390341938">
        <ele>20.398365800268948</ele>
        <time>2026-06-14T10:16:10Z</time>
      </trkpt>
      <trkpt lat="31.185845739887572" lon="121.42008813471608">
        <ele>19.309746568091214</ele>
        <time>2026-06-14T10:16:16Z</time>
      </trkpt>
      <trkpt lat="31.185595098101775" lon="121.42031943582626">
        <ele>19.78271180856973</ele>
        <time>2026-06-14T10:16:22Z</time>
      </trkpt>
      <trkpt lat="31.185365420639613" lon="121.4205237047988">
        <ele>19.761578385718167</ele>
        <time>2026-06-14T10:16:28Z</time>
      </trkpt>
      <trkpt lat="31.185097812551227" lon="121.42077503743695">
        <ele>19.719300095923245</ele>
        <time>2026-06-14T10:16:34Z</time>
      </trkpt>
      <trkpt lat="31.184852279782394" lon="121.42110647181461">
        <ele>21.613812272436917</ele>
        <time>2026-06-14T10:16:40Z</time>
      </trkpt>
      <trkpt lat="31.18467963900432" lon="121.42136581401792">
        <ele>20.913609330542386</ele>
        <time>2026-06-14T10:16:46Z</time>
      </trkpt>
      <trkpt lat="31.184595789265757" lon="121.42146795112886">
        <ele>19.949177567847073</ele>
        <time>2026-06-14T10:16:49Z</time>
      </trkpt>
      <trkpt lat="31.184484032013387" lon="121.42164318484616">
        <ele>20.26360780466348</ele>
        <time>2026-06-14T10:17:34Z</time>
      </trkpt>
      <trkpt lat="31.18438910328697" lon="121.42166522137302">
        <ele>20.839627091772854</ele>
        <time>2026-06-14T10:17:37Z</time>
      </trkpt>
      <trkpt lat="31.184373049316203" lon="121.4216071482842">
        <ele>21.15405732858926</ele>
        <time>2026-06-14T10:17:40Z</time>
      </trkpt>
      <trkpt lat="31.18404219728002" lon="121.42153328829859">
        <ele>20.451206986792386</ele>
        <time>2026-06-14T10:17:46Z</time>
      </trkpt>
      <trkpt lat="31.183633298879393" lon="121.42149206543631">
        <ele>21.949375932104886</ele>
        <time>2026-06-14T10:17:52Z</time>
      </trkpt>
      <trkpt lat="31.183570189614684" lon="121.42135890158987">
        <ele>23.048565690405667</ele>
        <time>2026-06-14T10:17:55Z</time>
      </trkpt>
      <trkpt lat="31.183452195145374" lon="121.42130784716231">
        <ele>20.48291475046426</ele>
        <time>2026-06-14T10:17:58Z</time>
      </trkpt>
      <trkpt lat="31.18335714926589" lon="121.42121874286852">
        <ele>21.76177674997598</ele>
        <time>2026-06-14T10:18:01Z</time>
      </trkpt>
      <trkpt lat="31.183101086594604" lon="121.42103553499905">
        <ele>22.755276505835354</ele>
        <time>2026-06-14T10:18:07Z</time>
      </trkpt>
      <trkpt lat="31.182998011587507" lon="121.42091339151547">
        <ele>22.200398270972073</ele>
        <time>2026-06-14T10:18:10Z</time>
      </trkpt>
      <trkpt lat="31.18288497222595" lon="121.4208202856603">
        <ele>23.257305924780667</ele>
        <time>2026-06-14T10:18:13Z</time>
      </trkpt>
      <trkpt lat="31.1825909617635" lon="121.42066612066087">
        <ele>21.677227799780667</ele>
        <time>2026-06-14T10:18:19Z</time>
      </trkpt>
      <trkpt lat="31.182232939870143" lon="121.4204679086125">
        <ele>22.744702165015042</ele>
        <time>2026-06-14T10:18:25Z</time>
      </trkpt>
      <trkpt lat="31.18183193847959" lon="121.42026669872605">
        <ele>21.479054276831448</ele>
        <time>2026-06-14T10:18:31Z</time>
      </trkpt>
      <trkpt lat="31.181483939260033" lon="121.42009251882574">
        <ele>22.409138505347073</ele>
        <time>2026-06-14T10:18:37Z</time>
      </trkpt>
      <trkpt lat="31.181235912840055" lon="121.41994035810933">
        <ele>19.99145204294473</ele>
        <time>2026-06-14T10:18:43Z</time>
      </trkpt>
      <trkpt lat="31.181085919108973" lon="121.41987028761497">
        <ele>20.316456620581448</ele>
        <time>2026-06-14T10:18:46Z</time>
      </trkpt>
      <trkpt lat="31.18091995346269" lon="121.4198202425352">
        <ele>19.99145204294473</ele>
        <time>2026-06-14T10:18:49Z</time>
      </trkpt>
      <trkpt lat="31.180608952971458" lon="121.41966008002817">
        <ele>20.984951798804104</ele>
        <time>2026-06-14T10:18:55Z</time>
      </trkpt>
      <trkpt lat="31.180284916455175" lon="121.41945486731692">
        <ele>20.641453568823636</ele>
        <time>2026-06-14T10:19:01Z</time>
      </trkpt>
      <trkpt lat="31.180120904296185" lon="121.41935676720583">
        <ele>18.284546677954495</ele>
        <time>2026-06-14T10:19:04Z</time>
      </trkpt>
      <trkpt lat="31.179867862569836" lon="121.41918058507768">
        <ele>20.850193803198636</ele>
        <time>2026-06-14T10:19:10Z</time>
      </trkpt>
      <trkpt lat="31.179715875242778" lon="121.41911352101461">
        <ele>21.228039567358792</ele>
        <time>2026-06-14T10:19:16Z</time>
      </trkpt>
      <trkpt lat="31.179602865528445" lon="121.41904345035516">
        <ele>20.493489091284573</ele>
        <time>2026-06-14T10:19:19Z</time>
      </trkpt>
      <trkpt lat="31.179358748111795" lon="121.41878918170603">
        <ele>20.242474381811917</ele>
        <time>2026-06-14T10:19:25Z</time>
      </trkpt>
      <trkpt lat="31.17916264100377" lon="121.41856895044049">
        <ele>20.221333329565823</ele>
        <time>2026-06-14T10:19:31Z</time>
      </trkpt>
      <trkpt lat="31.17893952761713" lon="121.41832469742823">
        <ele>19.362591569311917</ele>
        <time>2026-06-14T10:19:37Z</time>
      </trkpt>
      <trkpt lat="31.17868941876717" lon="121.41806743565708">
        <ele>19.645317857153714</ele>
        <time>2026-06-14T10:19:43Z</time>
      </trkpt>
      <trkpt lat="31.17846426160989" lon="121.41776712870349">
        <ele>20.379872147925198</ele>
        <time>2026-06-14T10:19:49Z</time>
      </trkpt>
      <trkpt lat="31.178249092837664" lon="121.41745481287973">
        <ele>18.419300858862698</ele>
        <time>2026-06-14T10:19:55Z</time>
      </trkpt>
      <trkpt lat="31.178049938605913" lon="121.41716352283332">
        <ele>21.811978165991604</ele>
        <time>2026-06-14T10:20:01Z</time>
      </trkpt>
      <trkpt lat="31.177977890919635" lon="121.41706642764227">
        <ele>20.451206986792386</ele>
        <time>2026-06-14T10:20:04Z</time>
      </trkpt>
      <trkpt lat="31.17794387270147" lon="121.41702538786713">
        <ele>20.94531709421426</ele>
        <time>2026-06-14T10:20:25Z</time>
      </trkpt>
      <trkpt lat="31.177911744382804" lon="121.41685721648895">
        <ele>21.185765092261136</ele>
        <time>2026-06-14T10:20:34Z</time>
      </trkpt>
      <trkpt lat="31.177709589383987" lon="121.41655392372853">
        <ele>20.076008622534573</ele>
        <time>2026-06-14T10:20:43Z</time>
      </trkpt>
      <trkpt lat="31.1775763711797" lon="121.41621159088814">
        <ele>18.871128861792386</ele>
        <time>2026-06-14T10:20:49Z</time>
      </trkpt>
      <trkpt lat="31.17740813949577" lon="121.41582422327473">
        <ele>21.63494569528848</ele>
        <time>2026-06-14T10:20:55Z</time>
      </trkpt>
      <trkpt lat="31.177334008682465" lon="121.41561502660365">
        <ele>21.320515458472073</ele>
        <time>2026-06-14T10:20:58Z</time>
      </trkpt>
      <trkpt lat="31.177199720833155" lon="121.41516460884012">
        <ele>20.903042619116604</ele>
        <time>2026-06-14T10:21:04Z</time>
      </trkpt>
      <trkpt lat="31.177125389576247" lon="121.41468517003777">
        <ele>22.712994401343167</ele>
        <time>2026-06-14T10:21:10Z</time>
      </trkpt>
      <trkpt lat="31.17698209559276" lon="121.41419473966455">
        <ele>21.069500748999417</ele>
        <time>2026-06-14T10:21:16Z</time>
      </trkpt>
      <trkpt lat="31.17692095531357" lon="121.4139605380232">
        <ele>21.415638749487698</ele>
        <time>2026-06-14T10:21:19Z</time>
      </trkpt>
      <trkpt lat="31.176831669621155" lon="121.41349814575595">
        <ele>21.383930985815823</ele>
        <time>2026-06-14T10:21:25Z</time>
      </trkpt>
      <trkpt lat="31.17673041061676" lon="121.41305177919368">
        <ele>22.839825456030667</ele>
        <time>2026-06-14T10:21:31Z</time>
      </trkpt>
      <trkpt lat="31.176602172981106" lon="121.41260342399045">
        <ele>21.331089799292386</ele>
        <time>2026-06-14T10:21:37Z</time>
      </trkpt>
      <trkpt lat="31.17652092567024" lon="121.41216308167809">
        <ele>19.824993913061917</ele>
        <time>2026-06-14T10:21:44Z</time>
      </trkpt>
      <trkpt lat="31.176462805292903" lon="121.41192890514168">
        <ele>20.966450517065823</ele>
        <time>2026-06-14T10:21:50Z</time>
      </trkpt>
      <trkpt lat="31.176482701606176" lon="121.41178079006721">
        <ele>21.288807694800198</ele>
        <time>2026-06-14T10:21:56Z</time>
      </trkpt>
      <trkpt lat="31.176446673526527" lon="121.41170673696955">
        <ele>20.81848603952676</ele>
        <time>2026-06-14T10:22:50Z</time>
      </trkpt>
      <trkpt lat="31.176137746718947" lon="121.41157166201808">
        <ele>21.249180619604886</ele>
        <time>2026-06-14T10:22:59Z</time>
      </trkpt>
      <trkpt lat="31.176038798950813" lon="121.4115746728802">
        <ele>19.24633485544473</ele>
        <time>2026-06-14T10:23:02Z</time>
      </trkpt>
      <trkpt lat="31.1756760658517" lon="121.41170680402188">
        <ele>20.924176041968167</ele>
        <time>2026-06-14T10:23:08Z</time>
      </trkpt>
      <trkpt lat="31.17533931597609" lon="121.41183192847954">
        <ele>21.885968034155667</ele>
        <time>2026-06-14T10:23:14Z</time>
      </trkpt>
      <trkpt lat="31.1751035135107" lon="121.41195404267462">
        <ele>21.457913224585354</ele>
        <time>2026-06-14T10:23:20Z</time>
      </trkpt>
      <trkpt lat="31.17479872385596" lon="121.41204013570673">
        <ele>21.48962098825723</ele>
        <time>2026-06-14T10:23:26Z</time>
      </trkpt>
      <trkpt lat="31.174499952823705" lon="121.41215925438884">
        <ele>20.097142045386136</ele>
        <time>2026-06-14T10:23:32Z</time>
      </trkpt>
      <trkpt lat="31.174161207465033" lon="121.41228538282499">
        <ele>20.829052750952542</ele>
        <time>2026-06-14T10:23:38Z</time>
      </trkpt>
      <trkpt lat="31.173817455611626" lon="121.41239650061715">
        <ele>21.101208512671292</ele>
        <time>2026-06-14T10:23:44Z</time>
      </trkpt>
      <trkpt lat="31.17342574347949" lon="121.41252964086641">
        <ele>22.023365800268948</ele>
        <time>2026-06-14T10:23:53Z</time>
      </trkpt>
      <trkpt lat="31.1731589436809" lon="121.4126257412987">
        <ele>22.023365800268948</ele>
        <time>2026-06-14T10:23:59Z</time>
      </trkpt>
      <trkpt lat="31.172890145373213" lon="121.41272184239656">
        <ele>20.430073563940823</ele>
        <time>2026-06-14T10:24:05Z</time>
      </trkpt>
      <trkpt lat="31.172635345102705" lon="121.41282494849011">
        <ele>19.164421861059964</ele>
        <time>2026-06-14T10:24:11Z</time>
      </trkpt>
      <trkpt lat="31.17249343598714" lon="121.4128519829293">
        <ele>21.037792985327542</ele>
        <time>2026-06-14T10:24:17Z</time>
      </trkpt>
      <trkpt lat="31.17241448926617" lon="121.41287100536809">
        <ele>21.09064180124551</ele>
        <time>2026-06-14T10:24:38Z</time>
      </trkpt>
      <trkpt lat="31.172356439291452" lon="121.41275291402583">
        <ele>14.841664140112698</ele>
        <time>2026-06-14T10:24:44Z</time>
      </trkpt>
      <trkpt lat="31.172295215000556" lon="121.41236761002459">
        <ele>20.033734147436917</ele>
        <time>2026-06-14T10:24:53Z</time>
      </trkpt>
      <trkpt lat="31.1722140434066" lon="121.41203835902739">
        <ele>22.327221696265042</ele>
        <time>2026-06-14T10:24:59Z</time>
      </trkpt>
      <trkpt lat="31.172144849324454" lon="121.41167508703177">
        <ele>20.54633027780801</ele>
        <time>2026-06-14T10:25:05Z</time>
      </trkpt>
      <trkpt lat="31.172060640370653" lon="121.41126478881618">
        <ele>21.885968034155667</ele>
        <time>2026-06-14T10:25:11Z</time>
      </trkpt>
      <trkpt lat="31.17201253228064" lon="121.41104363203452">
        <ele>21.132916276343167</ele>
        <time>2026-06-14T10:25:14Z</time>
      </trkpt>
      <trkpt lat="31.171890396686702" lon="121.41070640223076">
        <ele>21.457913224585354</ele>
        <time>2026-06-14T10:25:20Z</time>
      </trkpt>
      <trkpt lat="31.171833221094353" lon="121.4103481584442">
        <ele>20.641453568823636</ele>
        <time>2026-06-14T10:25:26Z</time>
      </trkpt>
      <trkpt lat="31.17178217539516" lon="121.41022007560598">
        <ele>20.430073563940823</ele>
        <time>2026-06-14T10:25:29Z</time>
      </trkpt>
      <trkpt lat="31.171738985871954" lon="121.40983482212287">
        <ele>21.801411454565823</ele>
        <time>2026-06-14T10:25:41Z</time>
      </trkpt>
      <trkpt lat="31.17168794420932" lon="121.40970874409719">
        <ele>21.101208512671292</ele>
        <time>2026-06-14T10:25:44Z</time>
      </trkpt>
      <trkpt lat="31.171662841435396" lon="121.40949060560521">
        <ele>21.267674271948636</ele>
        <time>2026-06-14T10:25:47Z</time>
      </trkpt>
      <trkpt lat="31.171578673402447" lon="121.40908135585389">
        <ele>21.101208512671292</ele>
        <time>2026-06-14T10:25:53Z</time>
      </trkpt>
      <trkpt lat="31.17156761603914" lon="121.4089562800318">
        <ele>20.398365800268948</ele>
        <time>2026-06-14T10:25:56Z</time>
      </trkpt>
      <trkpt lat="31.171639442471484" lon="121.40895574808397">
        <ele>20.69165498483926</ele>
        <time>2026-06-14T10:26:02Z</time>
      </trkpt>
      <trkpt lat="31.17167550882351" lon="121.40888341532693">
        <ele>21.666653458960354</ele>
        <time>2026-06-14T10:26:08Z</time>
      </trkpt>
      <trkpt lat="31.171713424908603" lon="121.40886720675609">
        <ele>21.164624040015042</ele>
        <time>2026-06-14T10:26:11Z</time>
      </trkpt>
      <trkpt lat="31.171718497265253" lon="121.40887321637938">
        <ele>21.352223222143948</ele>
        <time>2026-06-14T10:26:17Z</time>
      </trkpt>
      <trkpt lat="31.171707464237006" lon="121.4087951701951">
        <ele>20.797344987280667</ele>
        <time>2026-06-14T10:27:02Z</time>
      </trkpt>
      <trkpt lat="31.171597457722157" lon="121.40866710310704">
        <ele>21.09064180124551</ele>
        <time>2026-06-14T10:27:08Z</time>
      </trkpt>
      <trkpt lat="31.171538436937205" lon="121.40856204601104">
        <ele>20.504055802710354</ele>
        <time>2026-06-14T10:27:11Z</time>
      </trkpt>
      <trkpt lat="31.171465317736782" lon="121.4082328611954">
        <ele>21.457913224585354</ele>
        <time>2026-06-14T10:27:17Z</time>
      </trkpt>
      <trkpt lat="31.171402200566835" lon="121.40790868406633">
        <ele>20.430073563940823</ele>
        <time>2026-06-14T10:27:23Z</time>
      </trkpt>
      <trkpt lat="31.171358167615228" lon="121.40778562003787">
        <ele>18.31625444162637</ele>
        <time>2026-06-14T10:27:26Z</time>
      </trkpt>
      <trkpt lat="31.171288991648606" lon="121.40730236739694">
        <ele>22.136982743628323</ele>
        <time>2026-06-14T10:27:35Z</time>
      </trkpt>
      <trkpt lat="31.171224891464064" lon="121.40698520998109">
        <ele>21.782917802222073</ele>
        <time>2026-06-14T10:27:42Z</time>
      </trkpt>
      <trkpt lat="31.171175788121086" lon="121.40666805662235">
        <ele>20.955883805640042</ele>
        <time>2026-06-14T10:27:48Z</time>
      </trkpt>
      <trkpt lat="31.171131672189144" lon="121.40631289029604">
        <ele>21.29938203562051</ele>
        <time>2026-06-14T10:27:54Z</time>
      </trkpt>
      <trkpt lat="31.171165595703968" lon="121.40615681469208">
        <ele>19.854054276831448</ele>
        <time>2026-06-14T10:27:57Z</time>
      </trkpt>
      <trkpt lat="31.171271504842508" lon="121.40605876049835">
        <ele>19.698162858374417</ele>
        <time>2026-06-14T10:28:00Z</time>
      </trkpt>
      <trkpt lat="31.171537336122693" lon="121.40597069741247">
        <ele>18.90283662546426</ele>
        <time>2026-06-14T10:28:06Z</time>
      </trkpt>
      <trkpt lat="31.17180617353147" lon="121.40590264342704">
        <ele>20.147351090796292</ele>
        <time>2026-06-14T10:28:12Z</time>
      </trkpt>
      <trkpt lat="31.172083997235035" lon="121.40580857736914">
        <ele>21.57153779733926</ele>
        <time>2026-06-14T10:28:18Z</time>
      </trkpt>
      <trkpt lat="31.17237981111896" lon="121.40571150890202">
        <ele>20.076008622534573</ele>
        <time>2026-06-14T10:28:24Z</time>
      </trkpt>
      <trkpt lat="31.172681635781814" lon="121.40565245689298">
        <ele>21.164624040015042</ele>
        <time>2026-06-14T10:28:30Z</time>
      </trkpt>
      <trkpt lat="31.17300143995072" lon="121.40556038929138">
        <ele>20.504055802710354</ele>
        <time>2026-06-14T10:28:36Z</time>
      </trkpt>
      <trkpt lat="31.17331224917416" lon="121.4054683229229">
        <ele>20.369297807104886</ele>
        <time>2026-06-14T10:28:42Z</time>
      </trkpt>
      <trkpt lat="31.173625046971374" lon="121.40534424341834">
        <ele>19.970318620093167</ele>
        <time>2026-06-14T10:28:48Z</time>
      </trkpt>
      <trkpt lat="31.173929856284843" lon="121.40524017367197">
        <ele>20.044300858862698</ele>
        <time>2026-06-14T10:28:54Z</time>
      </trkpt>
      <trkpt lat="31.174199685987567" lon="121.40514210998982">
        <ele>20.012593095190823</ele>
        <time>2026-06-14T10:29:00Z</time>
      </trkpt>
      <trkpt lat="31.17448051186646" lon="121.40504804747111">
        <ele>20.086575333960354</ele>
        <time>2026-06-14T10:29:06Z</time>
      </trkpt>
      <trkpt lat="31.174747346944493" lon="121.4049589886284">
        <ele>20.47234803903848</ele>
        <time>2026-06-14T10:29:12Z</time>
      </trkpt>
      <trkpt lat="31.17483330117519" lon="121.40495297876076">
        <ele>20.504055802710354</ele>
        <time>2026-06-14T10:29:15Z</time>
      </trkpt>
      <trkpt lat="31.17491228575657" lon="121.40503000265137">
        <ele>19.92803651560098</ele>
        <time>2026-06-14T10:29:18Z</time>
      </trkpt>
      <trkpt lat="31.17497339661898" lon="121.40545517281984">
        <ele>19.38373262155801</ele>
        <time>2026-06-14T10:29:27Z</time>
      </trkpt>
      <trkpt lat="31.175012490772218" lon="121.40578031010288">
        <ele>21.592671220190823</ele>
        <time>2026-06-14T10:29:33Z</time>
      </trkpt>
      <trkpt lat="31.175096645256907" lon="121.40631354568622">
        <ele>19.824993913061917</ele>
        <time>2026-06-14T10:29:42Z</time>
      </trkpt>
      <trkpt lat="31.175121699691882" lon="121.40648762608284">
        <ele>20.913609330542386</ele>
        <time>2026-06-14T10:29:45Z</time>
      </trkpt>
      <trkpt lat="31.17521078872722" lon="121.40682578335247">
        <ele>18.76543885935098</ele>
        <time>2026-06-14T10:29:51Z</time>
      </trkpt>
      <trkpt lat="31.17525789004105" lon="121.40712993288298">
        <ele>20.33759004343301</ele>
        <time>2026-06-14T10:29:57Z</time>
      </trkpt>
      <trkpt lat="31.175346022052757" lon="121.4075431418294">
        <ele>19.40486985910684</ele>
        <time>2026-06-14T10:30:03Z</time>
      </trkpt>
      <trkpt lat="31.175358070092315" lon="121.40766620705377">
        <ele>19.38373262155801</ele>
        <time>2026-06-14T10:30:06Z</time>
      </trkpt>
      <trkpt lat="31.17534210267737" lon="121.40772123833908">
        <ele>19.62417680490762</ele>
        <time>2026-06-14T10:30:09Z</time>
      </trkpt>
      <trkpt lat="31.1752861312042" lon="121.40772124321045">
        <ele>19.740437333472073</ele>
        <time>2026-06-14T10:30:15Z</time>
      </trkpt>
      <trkpt lat="31.175384183120535" lon="121.40794735921635">
        <ele>18.82885438669473</ele>
        <time>2026-06-14T10:31:54Z</time>
      </trkpt>
      <trkpt lat="31.175452328690888" lon="121.40833557345955">
        <ele>19.949177567847073</ele>
        <time>2026-06-14T10:32:03Z</time>
      </trkpt>
      <trkpt lat="31.175523474130575" lon="121.40871278890423">
        <ele>20.54633027780801</ele>
        <time>2026-06-14T10:32:09Z</time>
      </trkpt>
      <trkpt lat="31.175588627011326" lon="121.40908600999406">
        <ele>18.715237443335354</ele>
        <time>2026-06-14T10:32:15Z</time>
      </trkpt>
      <trkpt lat="31.17565168744263" lon="121.40926711722224">
        <ele>18.31625444162637</ele>
        <time>2026-06-14T10:32:18Z</time>
      </trkpt>
      <trkpt lat="31.17575493977624" lon="121.40984447924862">
        <ele>20.504055802710354</ele>
        <time>2026-06-14T10:32:27Z</time>
      </trkpt>
      <trkpt lat="31.175812102393543" lon="121.4101937073206">
        <ele>19.708729569800198</ele>
        <time>2026-06-14T10:32:33Z</time>
      </trkpt>
      <trkpt lat="31.175854241582975" lon="121.41047889879412">
        <ele>18.001820390112698</ele>
        <time>2026-06-14T10:32:39Z</time>
      </trkpt>
      <trkpt lat="31.175930427390387" lon="121.41086716481017">
        <ele>18.001820390112698</ele>
        <time>2026-06-14T10:32:45Z</time>
      </trkpt>
      <trkpt lat="31.175984586555927" lon="121.41118138663622">
        <ele>20.53576356638223</ele>
        <time>2026-06-14T10:32:51Z</time>
      </trkpt>
      <trkpt lat="31.17601568405007" lon="121.41136852134781">
        <ele>19.54226762522012</ele>
        <time>2026-06-14T10:32:57Z</time>
      </trkpt>
      <trkpt lat="31.176041698924266" lon="121.41141455317388">
        <ele>21.23596650827676</ele>
        <time>2026-06-14T10:33:18Z</time>
      </trkpt>
      <trkpt lat="31.176301660810665" lon="121.4115676447529">
        <ele>20.221333329565823</ele>
        <time>2026-06-14T10:33:54Z</time>
      </trkpt>
      <trkpt lat="31.17646660354525" lon="121.41161066272113">
        <ele>20.514622514136136</ele>
        <time>2026-06-14T10:33:57Z</time>
      </trkpt>
      <trkpt lat="31.176658494749873" lon="121.4115926324822">
        <ele>20.076008622534573</ele>
        <time>2026-06-14T10:34:00Z</time>
      </trkpt>
      <trkpt lat="31.17703821524695" lon="121.41145249470789">
        <ele>18.379666154272854</ele>
        <time>2026-06-14T10:34:06Z</time>
      </trkpt>
      <trkpt lat="31.17758280813067" lon="121.4112382892511">
        <ele>22.200398270972073</ele>
        <time>2026-06-14T10:34:15Z</time>
      </trkpt>
      <trkpt lat="31.17792456776561" lon="121.41112717848668">
        <ele>19.270115678198636</ele>
        <time>2026-06-14T10:34:21Z</time>
      </trkpt>
      <trkpt lat="31.178189375421923" lon="121.41103008517668">
        <ele>18.913407151587307</ele>
        <time>2026-06-14T10:34:27Z</time>
      </trkpt>
      <trkpt lat="31.17856510252547" lon="121.41089095266575">
        <ele>19.61361009348184</ele>
        <time>2026-06-14T10:34:33Z</time>
      </trkpt>
      <trkpt lat="31.178894875486208" lon="121.4107888513793">
        <ele>18.923977677710354</ele>
        <time>2026-06-14T10:34:39Z</time>
      </trkpt>
      <trkpt lat="31.17917766817136" lon="121.41067874911097">
        <ele>20.649380509741604</ele>
        <time>2026-06-14T10:34:45Z</time>
      </trkpt>
      <trkpt lat="31.179558398664334" lon="121.41054562294484">
        <ele>16.715035264380276</ele>
        <time>2026-06-14T10:34:51Z</time>
      </trkpt>
      <trkpt lat="31.179892154411824" lon="121.4104135025006">
        <ele>19.005886857397854</ele>
        <time>2026-06-14T10:34:57Z</time>
      </trkpt>
      <trkpt lat="31.180174945802865" lon="121.41029739833867">
        <ele>19.270115678198636</ele>
        <time>2026-06-14T10:35:03Z</time>
      </trkpt>
      <trkpt lat="31.18059165845492" lon="121.41016026904539">
        <ele>19.38373262155801</ele>
        <time>2026-06-14T10:35:09Z</time>
      </trkpt>
      <trkpt lat="31.18095142398873" lon="121.41006517381528">
        <ele>18.609543626196682</ele>
        <time>2026-06-14T10:35:15Z</time>
      </trkpt>
      <trkpt lat="31.18124824759113" lon="121.41001711586854">
        <ele>20.860760514624417</ele>
        <time>2026-06-14T10:35:21Z</time>
      </trkpt>
      <trkpt lat="31.18153709621569" lon="121.4100070840527">
        <ele>20.305882279761136</ele>
        <time>2026-06-14T10:35:27Z</time>
      </trkpt>
      <trkpt lat="31.181588068831985" lon="121.41000407761473">
        <ele>14.590645615942776</ele>
        <time>2026-06-14T10:35:33Z</time>
      </trkpt>
      <trkpt lat="31.181674011738103" lon="121.40997905347551">
        <ele>20.733937089331448</ele>
        <time>2026-06-14T10:36:31Z</time>
      </trkpt>
      <trkpt lat="31.181947858203806" lon="121.40995101102138">
        <ele>18.096943681128323</ele>
        <time>2026-06-14T10:36:40Z</time>
      </trkpt>
      <trkpt lat="31.182235686817865" lon="121.40990295414875">
        <ele>18.221131150610745</ele>
        <time>2026-06-14T10:36:46Z</time>
      </trkpt>
      <trkpt lat="31.18239058913315" lon="121.40986691688185">
        <ele>20.53576356638223</ele>
        <time>2026-06-14T10:36:49Z</time>
      </trkpt>
      <trkpt lat="31.18272139582416" lon="121.40981785582596">
        <ele>20.924176041968167</ele>
        <time>2026-06-14T10:36:55Z</time>
      </trkpt>
      <trkpt lat="31.183085192011013" lon="121.40977979922856">
        <ele>18.723164384253323</ele>
        <time>2026-06-14T10:37:01Z</time>
      </trkpt>
      <trkpt lat="31.183465973910817" lon="121.40973073404925">
        <ele>19.40486985910684</ele>
        <time>2026-06-14T10:37:07Z</time>
      </trkpt>
      <trkpt lat="31.183832758802254" lon="121.40967366501928">
        <ele>22.147549455054104</ele>
        <time>2026-06-14T10:37:13Z</time>
      </trkpt>
      <trkpt lat="31.184198548696454" lon="121.40962460142141">
        <ele>22.57824403513223</ele>
        <time>2026-06-14T10:37:19Z</time>
      </trkpt>
      <trkpt lat="31.184577326454814" lon="121.40956452973823">
        <ele>19.309746568091214</ele>
        <time>2026-06-14T10:37:25Z</time>
      </trkpt>
      <trkpt lat="31.18680105927063" lon="121.40927415176009">
        <ele>20.54633027780801</ele>
        <time>2026-06-14T10:37:55Z</time>
      </trkpt>
      <trkpt lat="31.187193829691175" lon="121.4092100774776">
        <ele>20.913609330542386</ele>
        <time>2026-06-14T10:38:01Z</time>
      </trkpt>
      <trkpt lat="31.187574621219632" lon="121.4091750224944">
        <ele>19.824993913061917</ele>
        <time>2026-06-14T10:38:07Z</time>
      </trkpt>
      <trkpt lat="31.187921429398155" lon="121.40913896991397">
        <ele>18.70202333200723</ele>
        <time>2026-06-14T10:38:13Z</time>
      </trkpt>
      <trkpt lat="31.188252246736933" lon="121.40910492003258">
        <ele>21.006085221655667</ele>
        <time>2026-06-14T10:38:19Z</time>
      </trkpt>
      <trkpt lat="31.18842514917809" lon="121.40908289137239">
        <ele>19.436577622778714</ele>
        <time>2026-06-14T10:38:25Z</time>
      </trkpt>
      <trkpt lat="31.18847911866815" lon="121.40907588234963">
        <ele>19.25954515207559</ele>
        <time>2026-06-14T10:38:58Z</time>
      </trkpt>
      <trkpt lat="31.188664026313607" lon="121.40907586625003">
        <ele>19.027024094946682</ele>
        <time>2026-06-14T10:39:28Z</time>
      </trkpt>
      <trkpt lat="31.188927854184186" lon="121.40899579405026">
        <ele>19.10101014841348</ele>
        <time>2026-06-14T10:39:34Z</time>
      </trkpt>
      <trkpt lat="31.189063762745864" lon="121.40894875345442">
        <ele>21.666653458960354</ele>
        <time>2026-06-14T10:39:37Z</time>
      </trkpt>
      <trkpt lat="31.189221670933954" lon="121.40892272384488">
        <ele>20.13677674997598</ele>
        <time>2026-06-14T10:39:40Z</time>
      </trkpt>
      <trkpt lat="31.18961046452104" lon="121.40889767477563">
        <ele>21.57153779733926</ele>
        <time>2026-06-14T10:39:46Z</time>
      </trkpt>
      <trkpt lat="31.19009022338993" lon="121.40889363056989">
        <ele>20.168484513647854</ele>
        <time>2026-06-14T10:39:55Z</time>
      </trkpt>
      <trkpt lat="31.190257135251287" lon="121.40888360996108">
        <ele>20.776211564429104</ele>
        <time>2026-06-14T10:40:01Z</time>
      </trkpt>
      <trkpt lat="31.190608976503267" lon="121.40891659939246">
        <ele>18.429871384985745</ele>
        <time>2026-06-14T10:40:10Z</time>
      </trkpt>
      <trkpt lat="31.19089983673169" lon="121.40892658015822">
        <ele>15.605278794653714</ele>
        <time>2026-06-14T10:40:16Z</time>
      </trkpt>
      <trkpt lat="31.191379599585936" lon="121.40892954021064">
        <ele>18.577839677222073</ele>
        <time>2026-06-14T10:40:25Z</time>
      </trkpt>
      <trkpt lat="31.191720422664506" lon="121.40891450139269">
        <ele>15.676621262915432</ele>
        <time>2026-06-14T10:40:31Z</time>
      </trkpt>
      <trkpt lat="31.192054250318503" lon="121.4089014644118">
        <ele>18.210560624487698</ele>
        <time>2026-06-14T10:40:37Z</time>
      </trkpt>
      <trkpt lat="31.192374097483988" lon="121.40891344386164">
        <ele>18.839424912817776</ele>
        <time>2026-06-14T10:40:43Z</time>
      </trkpt>
      <trkpt lat="31.19269393774461" lon="121.40891141479177">
        <ele>18.55669862497598</ele>
        <time>2026-06-14T10:40:49Z</time>
      </trkpt>
      <trkpt lat="31.19302876815727" lon="121.40890438137384">
        <ele>19.62417680490762</ele>
        <time>2026-06-14T10:40:55Z</time>
      </trkpt>
      <trkpt lat="31.193366591196316" lon="121.40888534040533">
        <ele>18.66239244211465</ele>
        <time>2026-06-14T10:41:01Z</time>
      </trkpt>
      <trkpt lat="31.193719408905544" lon="121.40887030057571">
        <ele>19.40486985910684</ele>
        <time>2026-06-14T10:41:07Z</time>
      </trkpt>
      <trkpt lat="31.194067231683125" lon="121.40886026422213">
        <ele>18.736374680884182</ele>
        <time>2026-06-14T10:41:13Z</time>
      </trkpt>
      <trkpt lat="31.19440606149645" lon="121.4088552316848">
        <ele>17.090237443335354</ele>
        <time>2026-06-14T10:41:19Z</time>
      </trkpt>
      <trkpt lat="31.194756877534694" lon="121.40883418842341">
        <ele>19.55019456613809</ele>
        <time>2026-06-14T10:41:25Z</time>
      </trkpt>
      <trkpt lat="31.19503374065034" lon="121.40883416431149">
        <ele>17.362393205054104</ele>
        <time>2026-06-14T10:41:31Z</time>
      </trkpt>
      <trkpt lat="31.19532360931853" lon="121.40885815359356">
        <ele>17.3095482038334</ele>
        <time>2026-06-14T10:41:37Z</time>
      </trkpt>
      <trkpt lat="31.195728417839376" lon="121.4088751286467">
        <ele>18.273976151831448</ele>
        <time>2026-06-14T10:41:43Z</time>
      </trkpt>
      <trkpt lat="31.19608524320654" lon="121.40887809939058">
        <ele>17.42580491770059</ele>
        <time>2026-06-14T10:41:49Z</time>
      </trkpt>
      <trkpt lat="31.196434071127392" lon="121.40887806900982">
        <ele>18.567269151099026</ele>
        <time>2026-06-14T10:41:55Z</time>
      </trkpt>
      <trkpt lat="31.19695781195239" lon="121.40887602218059">
        <ele>17.269913499243557</ele>
        <time>2026-06-14T10:42:04Z</time>
      </trkpt>
      <trkpt lat="31.19731463916946" lon="121.40888199474452">
        <ele>19.436577622778714</ele>
        <time>2026-06-14T10:42:10Z</time>
      </trkpt>
      <trkpt lat="31.197596500399676" lon="121.40888197019508">
        <ele>15.930279557593167</ele>
        <time>2026-06-14T10:42:16Z</time>
      </trkpt>
      <trkpt lat="31.197937330194165" lon="121.40887693747382">
        <ele>18.934544389136136</ele>
        <time>2026-06-14T10:42:22Z</time>
      </trkpt>
      <trkpt lat="31.197993310628657" lon="121.40889294231617">
        <ele>16.012188737280667</ele>
        <time>2026-06-14T10:42:25Z</time>
      </trkpt>
      <trkpt lat="31.198075321888503" lon="121.40899599806157">
        <ele>18.32682115305215</ele>
        <time>2026-06-14T10:42:28Z</time>
      </trkpt>
      <trkpt lat="31.19808138267868" lon="121.40912207523657">
        <ele>15.96991426218301</ele>
        <time>2026-06-14T10:42:31Z</time>
      </trkpt>
      <trkpt lat="31.198042575325033" lon="121.409458289974">
        <ele>16.736172501929104</ele>
        <time>2026-06-14T10:42:37Z</time>
      </trkpt>
      <trkpt lat="31.19801277889127" lon="121.40981352243648">
        <ele>17.77194291818887</ele>
        <time>2026-06-14T10:42:43Z</time>
      </trkpt>
      <trkpt lat="31.197973032644583" lon="121.4102398106346">
        <ele>17.301621262915432</ele>
        <time>2026-06-14T10:42:49Z</time>
      </trkpt>
      <trkpt lat="31.19793523542307" lon="121.4105650376811">
        <ele>18.8077171491459</ele>
        <time>2026-06-14T10:42:55Z</time>
      </trkpt>
      <trkpt lat="31.1978924967928" lon="121.41097733317422">
        <ele>18.429871384985745</ele>
        <time>2026-06-14T10:43:01Z</time>
      </trkpt>
      <trkpt lat="31.197910603709975" lon="121.41117147212809">
        <ele>17.948975388891995</ele>
        <time>2026-06-14T10:43:22Z</time>
      </trkpt>
      <trkpt lat="31.197931652510423" lon="121.41126954204992">
        <ele>17.74023896921426</ele>
        <time>2026-06-14T10:43:43Z</time>
      </trkpt>
      <trkpt lat="31.197973691419225" lon="121.41136761065741">
        <ele>17.874993150122464</ele>
        <time>2026-06-14T10:43:46Z</time>
      </trkpt>
      <trkpt lat="31.198052704589504" lon="121.4114526668743">
        <ele>17.362393205054104</ele>
        <time>2026-06-14T10:43:49Z</time>
      </trkpt>
      <trkpt lat="31.198161686068826" lon="121.41150969991276">
        <ele>18.231701676733792</ele>
        <time>2026-06-14T10:43:52Z</time>
      </trkpt>
      <trkpt lat="31.19829062390245" lon="121.41151169017974">
        <ele>18.55669862497598</ele>
        <time>2026-06-14T10:43:55Z</time>
      </trkpt>
      <trkpt lat="31.198544415688374" lon="121.41137556687796">
        <ele>18.76543885935098</ele>
        <time>2026-06-14T10:44:01Z</time>
      </trkpt>
      <trkpt lat="31.19879118284953" lon="121.41119141004357">
        <ele>17.499790971167386</ele>
        <time>2026-06-14T10:44:07Z</time>
      </trkpt>
      <trkpt lat="31.198919062421485" lon="121.41109532901093">
        <ele>18.797146623022854</ele>
        <time>2026-06-14T10:44:10Z</time>
      </trkpt>
      <trkpt lat="31.199162859431926" lon="121.41095520673052">
        <ele>16.60934526193887</ele>
        <time>2026-06-14T10:44:16Z</time>
      </trkpt>
      <trkpt lat="31.19941861122817" lon="121.41074603555613">
        <ele>17.28048021066934</ele>
        <time>2026-06-14T10:44:22Z</time>
      </trkpt>
      <trkpt lat="31.199742354648706" lon="121.41057688866505">
        <ele>16.902638261206448</ele>
        <time>2026-06-14T10:44:28Z</time>
      </trkpt>
      <trkpt lat="31.200045094449372" lon="121.41038072655205">
        <ele>16.807514970190823</ele>
        <time>2026-06-14T10:44:34Z</time>
      </trkpt>
      <trkpt lat="31.20034084616993" lon="121.4101965752273">
        <ele>17.927838151343167</ele>
        <time>2026-06-14T10:44:40Z</time>
      </trkpt>
      <trkpt lat="31.20078043365214" lon="121.40983729716167">
        <ele>17.927838151343167</ele>
        <time>2026-06-14T10:44:49Z</time>
      </trkpt>
      <trkpt lat="31.201047230400416" lon="121.40970218553875">
        <ele>18.5989769147709</ele>
        <time>2026-06-14T10:44:55Z</time>
      </trkpt>
      <trkpt lat="31.201219084007228" lon="121.40958509475819">
        <ele>17.69796067941934</ele>
        <time>2026-06-14T10:44:58Z</time>
      </trkpt>
      <trkpt lat="31.201329016467188" lon="121.40955906843486">
        <ele>19.362591569311917</ele>
        <time>2026-06-14T10:45:01Z</time>
      </trkpt>
      <trkpt lat="31.201635797572422" lon="121.40942795787988">
        <ele>16.11788255441934</ele>
        <time>2026-06-14T10:45:07Z</time>
      </trkpt>
      <trkpt lat="31.20192557905717" lon="121.40927983902995">
        <ele>18.609543626196682</ele>
        <time>2026-06-14T10:45:16Z</time>
      </trkpt>
      <trkpt lat="31.20223535132714" lon="121.40913071898844">
        <ele>16.902638261206448</ele>
        <time>2026-06-14T10:45:22Z</time>
      </trkpt>
      <trkpt lat="31.20248703321176" lon="121.40874045911026">
        <ele>18.231701676733792</ele>
        <time>2026-06-14T10:45:28Z</time>
      </trkpt>
      <trkpt lat="31.202774797725453" lon="121.40854531811368">
        <ele>21.21747285593301</ele>
        <time>2026-06-14T10:45:34Z</time>
      </trkpt>
      <trkpt lat="31.203063611154185" lon="121.40845023721158">
        <ele>18.429871384985745</ele>
        <time>2026-06-14T10:45:40Z</time>
      </trkpt>
      <trkpt lat="31.203369413932247" lon="121.40834915183734">
        <ele>18.18942338693887</ele>
        <time>2026-06-14T10:45:46Z</time>
      </trkpt>
      <trkpt lat="31.203689200584666" lon="121.40822705375932">
        <ele>18.53556138742715</ele>
        <time>2026-06-14T10:45:52Z</time>
      </trkpt>
      <trkpt lat="31.204056973899974" lon="121.40812496362159">
        <ele>16.326618974097073</ele>
        <time>2026-06-14T10:45:58Z</time>
      </trkpt>
      <trkpt lat="31.20444975542561" lon="121.40806589604989">
        <ele>17.571133439429104</ele>
        <time>2026-06-14T10:46:04Z</time>
      </trkpt>
      <trkpt lat="31.204814546262856" lon="121.40799682549938">
        <ele>17.164219682104886</ele>
        <time>2026-06-14T10:46:10Z</time>
      </trkpt>
      <trkpt lat="31.20515935442471" lon="121.40794376585173">
        <ele>18.075806443579495</ele>
        <time>2026-06-14T10:46:16Z</time>
      </trkpt>
      <trkpt lat="31.20550110700387" lon="121.40788745668921">
        <ele>17.008328263647854</ele>
        <time>2026-06-14T10:46:25Z</time>
      </trkpt>
      <trkpt lat="31.205815995108452" lon="121.40785465926184">
        <ele>19.079869096167386</ele>
        <time>2026-06-14T10:46:37Z</time>
      </trkpt>
      <trkpt lat="31.205918934313615" lon="121.40783063704976">
        <ele>18.001820390112698</ele>
        <time>2026-06-14T10:46:40Z</time>
      </trkpt>
      <trkpt lat="31.207435107098405" lon="121.40762339199688">
        <ele>18.221131150610745</ele>
        <time>2026-06-14T10:47:01Z</time>
      </trkpt>
      <trkpt lat="31.2077309401659" lon="121.40756933713149">
        <ele>17.782513444311917</ele>
        <time>2026-06-14T10:47:07Z</time>
      </trkpt>
      <trkpt lat="31.20805376257162" lon="121.40752028274198">
        <ele>17.74023896921426</ele>
        <time>2026-06-14T10:47:13Z</time>
      </trkpt>
      <trkpt lat="31.208558475616215" lon="121.40742118609775">
        <ele>20.40893251169473</ele>
        <time>2026-06-14T10:47:23Z</time>
      </trkpt>
      <trkpt lat="31.208746370617" lon="121.40738815228607">
        <ele>16.70446473825723</ele>
        <time>2026-06-14T10:47:26Z</time>
      </trkpt>
      <trkpt lat="31.20911519556963" lon="121.40739512384036">
        <ele>19.027024094946682</ele>
        <time>2026-06-14T10:47:32Z</time>
      </trkpt>
      <trkpt lat="31.209666944957153" lon="121.40743109479955">
        <ele>16.220928971655667</ele>
        <time>2026-06-14T10:47:41Z</time>
      </trkpt>
      <trkpt lat="31.210002815208046" lon="121.40750510488617">
        <ele>17.499790971167386</ele>
        <time>2026-06-14T10:47:47Z</time>
      </trkpt>
      <trkpt lat="31.210331698844705" lon="121.40760112771771">
        <ele>20.147351090796292</ele>
        <time>2026-06-14T10:47:53Z</time>
      </trkpt>
      <trkpt lat="31.210626598012734" lon="121.40769415237109">
        <ele>15.951416795141995</ele>
        <time>2026-06-14T10:47:59Z</time>
      </trkpt>
      <trkpt lat="31.210806537723652" lon="121.40775316887377">
        <ele>18.337391679175198</ele>
        <time>2026-06-14T10:48:05Z</time>
      </trkpt>
      <trkpt lat="31.210854538395683" lon="121.40780619376001">
        <ele>17.655686204321682</ele>
        <time>2026-06-14T10:48:08Z</time>
      </trkpt>
      <trkpt lat="31.210866556056704" lon="121.4078582213794">
        <ele>17.864422623999417</ele>
        <time>2026-06-14T10:49:53Z</time>
      </trkpt>
      <trkpt lat="31.211010505829254" lon="121.40790023209416">
        <ele>17.061173264868557</ele>
        <time>2026-06-14T10:49:59Z</time>
      </trkpt>
      <trkpt lat="31.211220411238557" lon="121.40791422157582">
        <ele>17.74023896921426</ele>
        <time>2026-06-14T10:50:05Z</time>
      </trkpt>
      <trkpt lat="31.211320385497327" lon="121.40796324015518">
        <ele>14.913002793677151</ele>
        <time>2026-06-14T10:50:08Z</time>
      </trkpt>
      <trkpt lat="31.211529362418172" lon="121.40813131648947">
        <ele>18.04409867990762</ele>
        <time>2026-06-14T10:50:14Z</time>
      </trkpt>
      <trkpt lat="31.21182727532914" lon="121.40825135898378">
        <ele>17.98068315256387</ele>
        <time>2026-06-14T10:50:20Z</time>
      </trkpt>
      <trkpt lat="31.21195521012993" lon="121.40824334324697">
        <ele>17.520928208716214</ele>
        <time>2026-06-14T10:50:23Z</time>
      </trkpt>
      <trkpt lat="31.21222513007479" lon="121.40834838021013">
        <ele>17.436375443823636</ele>
        <time>2026-06-14T10:50:29Z</time>
      </trkpt>
      <trkpt lat="31.212389081351034" lon="121.4084114024967">
        <ele>16.60934526193887</ele>
        <time>2026-06-14T10:50:32Z</time>
      </trkpt>
      <trkpt lat="31.212573064648993" lon="121.4085604738089">
        <ele>18.221131150610745</ele>
        <time>2026-06-14T10:50:35Z</time>
      </trkpt>
      <trkpt lat="31.212759999720333" lon="121.40861148768758">
        <ele>17.478653733618557</ele>
        <time>2026-06-14T10:50:38Z</time>
      </trkpt>
      <trkpt lat="31.21294790671488" lon="121.40860546775528">
        <ele>18.221131150610745</ele>
        <time>2026-06-14T10:50:41Z</time>
      </trkpt>
      <trkpt lat="31.21330268835613" lon="121.40850537784311">
        <ele>19.793286149390042</ele>
        <time>2026-06-14T10:50:47Z</time>
      </trkpt>
      <trkpt lat="31.213484571969463" lon="121.40844432626842">
        <ele>17.571133439429104</ele>
        <time>2026-06-14T10:50:53Z</time>
      </trkpt>
      <trkpt lat="31.213610508317522" lon="121.40843731120624">
        <ele>16.40060502756387</ele>
        <time>2026-06-14T10:50:59Z</time>
      </trkpt>
      <trkpt lat="31.214021269821576" lon="121.40834922425518">
        <ele>11.721138780005276</ele>
        <time>2026-06-14T10:51:08Z</time>
      </trkpt>
      <trkpt lat="31.214182188577766" lon="121.4083402050224">
        <ele>17.079666917212307</ele>
        <time>2026-06-14T10:51:11Z</time>
      </trkpt>
      <trkpt lat="31.214230174162008" lon="121.40835821126096">
        <ele>17.61340791452676</ele>
        <time>2026-06-14T10:51:14Z</time>
      </trkpt>
      <trkpt lat="31.21432109757259" lon="121.40828816290903">
        <ele>17.351822678931057</ele>
        <time>2026-06-14T10:53:08Z</time>
      </trkpt>
      <trkpt lat="31.214668883006933" lon="121.40818507358749">
        <ele>18.482716386206448</ele>
        <time>2026-06-14T10:53:17Z</time>
      </trkpt>
      <trkpt lat="31.214958663573224" lon="121.40800994937074">
        <ele>15.563004319556057</ele>
        <time>2026-06-14T10:53:23Z</time>
      </trkpt>
      <trkpt lat="31.215236452671174" lon="121.40783782948954">
        <ele>17.938408677466214</ele>
        <time>2026-06-14T10:53:32Z</time>
      </trkpt>
      <trkpt lat="31.21557521407913" lon="121.40766570587388">
        <ele>18.033528153784573</ele>
        <time>2026-06-14T10:53:41Z</time>
      </trkpt>
      <trkpt lat="31.215673136441865" lon="121.40759565949917">
        <ele>18.170925919897854</ele>
        <time>2026-06-14T10:53:44Z</time>
      </trkpt>
      <trkpt lat="31.215781063012233" lon="121.40754562322395">
        <ele>19.38373262155801</ele>
        <time>2026-06-14T10:53:47Z</time>
      </trkpt>
      <trkpt lat="31.216155848139863" lon="121.40746254625017">
        <ele>17.77194291818887</ele>
        <time>2026-06-14T10:53:57Z</time>
      </trkpt>
      <trkpt lat="31.21656260472251" lon="121.40734745001491">
        <ele>17.3095482038334</ele>
        <time>2026-06-14T10:54:06Z</time>
      </trkpt>
      <trkpt lat="31.216848446809284" lon="121.4072963983703">
        <ele>16.556500260718167</ele>
        <time>2026-06-14T10:54:12Z</time>
      </trkpt>
      <trkpt lat="31.21723423729766" lon="121.40723533295446">
        <ele>19.761578385718167</ele>
        <time>2026-06-14T10:54:21Z</time>
      </trkpt>
      <trkpt lat="31.217616019472654" lon="121.4071492551972">
        <ele>18.284546677954495</ele>
        <time>2026-06-14T10:54:30Z</time>
      </trkpt>
      <trkpt lat="31.21782990440973" lon="121.40711722010371">
        <ele>16.715035264380276</ele>
        <time>2026-06-14T10:54:36Z</time>
      </trkpt>
      <trkpt lat="31.218186703252698" lon="121.40704115015356">
        <ele>17.111374680884182</ele>
        <time>2026-06-14T10:54:45Z</time>
      </trkpt>
      <trkpt lat="31.2186052845903" lon="121.40649484363949">
        <ele>17.845928971655667</ele>
        <time>2026-06-14T10:54:54Z</time>
      </trkpt>
      <trkpt lat="31.218739211304868" lon="121.40646981998138">
        <ele>17.069100205786526</ele>
        <time>2026-06-14T10:55:54Z</time>
      </trkpt>
      <trkpt lat="31.218806188507152" lon="121.40649282516559">
        <ele>17.61340791452676</ele>
        <time>2026-06-14T10:56:00Z</time>
      </trkpt>
      <trkpt lat="31.21893113160013" lon="121.40649881715366">
        <ele>18.086376969702542</ele>
        <time>2026-06-14T10:56:03Z</time>
      </trkpt>
      <trkpt lat="31.219330888617446" lon="121.40636071654443">
        <ele>16.11788255441934</ele>
        <time>2026-06-14T10:56:12Z</time>
      </trkpt>
      <trkpt lat="31.219681702130167" lon="121.40630766097526">
        <ele>18.997959916479886</ele>
        <time>2026-06-14T10:56:18Z</time>
      </trkpt>
      <trkpt lat="31.21998154303878" lon="121.40626261373845">
        <ele>19.027024094946682</ele>
        <time>2026-06-14T10:56:24Z</time>
      </trkpt>
      <trkpt lat="31.22042233528074" lon="121.40626457624465">
        <ele>18.651821915991604</ele>
        <time>2026-06-14T10:56:30Z</time>
      </trkpt>
      <trkpt lat="31.221187950398285" lon="121.40620348106354">
        <ele>17.864422623999417</ele>
        <time>2026-06-14T10:56:42Z</time>
      </trkpt>
      <trkpt lat="31.2215437805492" lon="121.4061984477185">
        <ele>18.723164384253323</ele>
        <time>2026-06-14T10:56:48Z</time>
      </trkpt>
      <trkpt lat="31.222056557620434" lon="121.4062484262878">
        <ele>19.362591569311917</ele>
        <time>2026-06-14T10:56:57Z</time>
      </trkpt>
      <trkpt lat="31.222460392464118" lon="121.40631442200788">
        <ele>18.022961442358792</ele>
        <time>2026-06-14T10:57:03Z</time>
      </trkpt>
      <trkpt lat="31.22272527078251" lon="121.4063224026782">
        <ele>20.87133485544473</ele>
        <time>2026-06-14T10:57:09Z</time>
      </trkpt>
      <trkpt lat="31.223047140023645" lon="121.40637640011657">
        <ele>22.09734803903848</ele>
        <time>2026-06-14T10:57:18Z</time>
      </trkpt>
      <trkpt lat="31.223334017424566" lon="121.40640839028934">
        <ele>24.29571992624551</ele>
        <time>2026-06-14T10:57:27Z</time>
      </trkpt>
      <trkpt lat="31.223643881424263" lon="121.40643337517375">
        <ele>24.002423112280667</ele>
        <time>2026-06-14T10:57:36Z</time>
      </trkpt>
      <trkpt lat="31.223958736586624" lon="121.40644135153637">
        <ele>26.486164872534573</ele>
        <time>2026-06-14T10:57:45Z</time>
      </trkpt>
      <trkpt lat="31.224316584115464" lon="121.40648133946408">
        <ele>26.568074052222073</ele>
        <time>2026-06-14T10:57:54Z</time>
      </trkpt>
      <trkpt lat="31.224732403853693" lon="121.40651932145917">
        <ele>26.507298295386136</ele>
        <time>2026-06-14T10:58:03Z</time>
      </trkpt>
      <trkpt lat="31.225027273036634" lon="121.40653830490295">
        <ele>24.779255692847073</ele>
        <time>2026-06-14T10:58:09Z</time>
      </trkpt>
      <trkpt lat="31.225687974123034" lon="121.40656526033476">
        <ele>25.645924394018948</ele>
        <time>2026-06-14T10:58:18Z</time>
      </trkpt>
      <trkpt lat="31.22583190753153" lon="121.4065672487517">
        <ele>23.761982743628323</ele>
        <time>2026-06-14T10:58:21Z</time>
      </trkpt>
      <trkpt lat="31.22756611374314" lon="121.40660911789796">
        <ele>18.054669206030667</ele>
        <time>2026-06-14T10:58:45Z</time>
      </trkpt>
      <trkpt lat="31.22798387840445" lon="121.40650603167589">
        <ele>16.598774735815823</ele>
        <time>2026-06-14T10:58:51Z</time>
      </trkpt>
      <trkpt lat="31.228317680491788" lon="121.40639695049114">
        <ele>17.687390153296292</ele>
        <time>2026-06-14T10:58:57Z</time>
      </trkpt>
      <trkpt lat="31.228595517287253" lon="121.40630888468172">
        <ele>16.043896500952542</ele>
        <time>2026-06-14T10:59:03Z</time>
      </trkpt>
      <trkpt lat="31.228991286793132" lon="121.40618679320534">
        <ele>17.069100205786526</ele>
        <time>2026-06-14T10:59:09Z</time>
      </trkpt>
      <trkpt lat="31.229486993256938" lon="121.40601767237956">
        <ele>16.242066209204495</ele>
        <time>2026-06-14T10:59:18Z</time>
      </trkpt>
      <trkpt lat="31.229793815098194" lon="121.405920601772">
        <ele>15.898571793921292</ele>
        <time>2026-06-14T10:59:24Z</time>
      </trkpt>
      <trkpt lat="31.229825767606687" lon="121.40583055874956">
        <ele>17.238205735571682</ele>
        <time>2026-06-14T10:59:27Z</time>
      </trkpt>
      <trkpt lat="31.229847706997646" lon="121.4056894946683">
        <ele>18.075806443579495</ele>
        <time>2026-06-14T10:59:33Z</time>
      </trkpt>
      <trkpt lat="31.22978670046758" lon="121.40559045697245">
        <ele>17.55263597238809</ele>
        <time>2026-06-14T10:59:36Z</time>
      </trkpt>
      <trkpt lat="31.229721722963696" lon="121.40556845315116">
        <ele>17.217068498022854</ele>
        <time>2026-06-14T10:59:39Z</time>
      </trkpt>
      <trkpt lat="31.229446871702965" lon="121.40562850305997">
        <ele>18.10751420725137</ele>
        <time>2026-06-14T10:59:45Z</time>
      </trkpt>
      <trkpt lat="31.229173025170738" lon="121.40570255919717">
        <ele>17.948975388891995</ele>
        <time>2026-06-14T10:59:51Z</time>
      </trkpt>
      <trkpt lat="31.228896188238096" lon="121.40579862561879">
        <ele>17.42580491770059</ele>
        <time>2026-06-14T10:59:57Z</time>
      </trkpt>
      <trkpt lat="31.228472435144127" lon="121.40593572375954">
        <ele>18.170925919897854</ele>
        <time>2026-06-14T11:00:06Z</time>
      </trkpt>
      <trkpt lat="31.22817361296702" lon="121.40604079739042">
        <ele>17.320114915259182</ele>
        <time>2026-06-14T11:00:15Z</time>
      </trkpt>
      <trkpt lat="31.22811762649501" lon="121.40600678680462">
        <ele>18.128651444800198</ele>
        <time>2026-06-14T11:00:18Z</time>
      </trkpt>
      <trkpt lat="31.228073579587367" lon="121.40582170756049">
        <ele>18.34795839060098</ele>
        <time>2026-06-14T11:00:27Z</time>
      </trkpt>
      <trkpt lat="31.228042480726312" lon="121.4055005704374">
        <ele>17.67682344187051</ele>
        <time>2026-06-14T11:00:36Z</time>
      </trkpt>
      <trkpt lat="31.22803843055468" lon="121.40534850649142">
        <ele>17.729668443091214</ele>
        <time>2026-06-14T11:00:39Z</time>
      </trkpt>
      <trkpt lat="31.227938330454993" lon="121.40490233365641">
        <ele>17.592270676977932</ele>
        <time>2026-06-14T11:00:48Z</time>
      </trkpt>
      <trkpt lat="31.22780427526647" lon="121.40452319938012">
        <ele>16.075604264624417</ele>
        <time>2026-06-14T11:00:57Z</time>
      </trkpt>
      <trkpt lat="31.22768019670016" lon="121.40405504049815">
        <ele>18.157715623266995</ele>
        <time>2026-06-14T11:01:03Z</time>
      </trkpt>
      <trkpt lat="31.227531145351882" lon="121.4036089026029">
        <ele>18.25283891428262</ele>
        <time>2026-06-14T11:01:12Z</time>
      </trkpt>
      <trkpt lat="31.227440102406987" lon="121.40327180353113">
        <ele>17.238205735571682</ele>
        <time>2026-06-14T11:01:18Z</time>
      </trkpt>
      <trkpt lat="31.227388071305143" lon="121.40304173849326">
        <ele>17.708531205542386</ele>
        <time>2026-06-14T11:01:24Z</time>
      </trkpt>
      <trkpt lat="31.2273250670107" lon="121.40289670156668">
        <ele>17.83535844553262</ele>
        <time>2026-06-14T11:01:30Z</time>
      </trkpt>
      <trkpt lat="31.227252041721453" lon="121.40263063301083">
        <ele>17.53149873483926</ele>
        <time>2026-06-14T11:01:36Z</time>
      </trkpt>
      <trkpt lat="31.227184047288606" lon="121.40250860583063">
        <ele>17.542065446265042</ele>
        <time>2026-06-14T11:01:39Z</time>
      </trkpt>
      <trkpt lat="31.226991135883804" lon="121.40250162077943">
        <ele>17.82479173410684</ele>
        <time>2026-06-14T11:01:45Z</time>
      </trkpt>
      <trkpt lat="31.22685920856277" lon="121.40255364628223">
        <ele>18.754872147925198</ele>
        <time>2026-06-14T11:01:48Z</time>
      </trkpt>
      <trkpt lat="31.226729274627054" lon="121.40257866439447">
        <ele>19.270115678198636</ele>
        <time>2026-06-14T11:01:51Z</time>
      </trkpt>
      <trkpt lat="31.226418445801208" lon="121.40269772423031">
        <ele>17.83535844553262</ele>
        <time>2026-06-14T11:02:00Z</time>
      </trkpt>
      <trkpt lat="31.226271527796104" lon="121.40275775382902">
        <ele>17.948975388891995</ele>
        <time>2026-06-14T11:02:06Z</time>
      </trkpt>
      <trkpt lat="31.225997673880183" lon="121.40283780038972">
        <ele>17.77194291818887</ele>
        <time>2026-06-14T11:02:21Z</time>
      </trkpt>
      <trkpt lat="31.225893682057595" lon="121.40265575835902">
        <ele>17.584343736059964</ele>
        <time>2026-06-14T11:02:27Z</time>
      </trkpt>
      <trkpt lat="31.225818664383596" lon="121.40240769809468">
        <ele>18.157715623266995</ele>
        <time>2026-06-14T11:02:33Z</time>
      </trkpt>
      <trkpt lat="31.225772666422575" lon="121.4023126773774">
        <ele>20.115643327124417</ele>
        <time>2026-06-14T11:02:36Z</time>
      </trkpt>
      <trkpt lat="31.22572564696946" lon="121.40210362875555">
        <ele>17.478653733618557</ele>
        <time>2026-06-14T11:02:42Z</time>
      </trkpt>
      <trkpt lat="31.22570762498109" lon="121.40194359152683">
        <ele>18.136578385718167</ele>
        <time>2026-06-14T11:02:45Z</time>
      </trkpt>
      <trkpt lat="31.22562464485066" lon="121.40184057450186">
        <ele>18.379666154272854</ele>
        <time>2026-06-14T11:02:48Z</time>
      </trkpt>
      <trkpt lat="31.22535573287275" lon="121.4016265493383">
        <ele>18.5989769147709</ele>
        <time>2026-06-14T11:02:57Z</time>
      </trkpt>
      <trkpt lat="31.225158798128014" lon="121.40146653174524">
        <ele>18.46157914865762</ele>
        <time>2026-06-14T11:03:03Z</time>
      </trkpt>
      <trkpt lat="31.22511279825211" lon="121.40133450809088">
        <ele>18.11808091867715</ele>
        <time>2026-06-14T11:03:09Z</time>
      </trkpt>
      <trkpt lat="31.225091772760766" lon="121.40110546410911">
        <ele>18.136578385718167</ele>
        <time>2026-06-14T11:03:15Z</time>
      </trkpt>
      <trkpt lat="31.225125717625083" lon="121.40083140996387">
        <ele>19.058731858618557</ele>
        <time>2026-06-14T11:03:21Z</time>
      </trkpt>
      <trkpt lat="31.225226661771444" lon="121.40076838995107">
        <ele>17.510357682593167</ele>
        <time>2026-06-14T11:03:24Z</time>
      </trkpt>
      <trkpt lat="31.225534517687677" lon="121.40076936327888">
        <ele>18.012390916235745</ele>
        <time>2026-06-14T11:03:33Z</time>
      </trkpt>
      <trkpt lat="31.22563646607134" lon="121.40074034929661">
        <ele>18.04409867990762</ele>
        <time>2026-06-14T11:03:36Z</time>
      </trkpt>
      <trkpt lat="31.225627448071638" lon="121.40056832079763">
        <ele>18.818283860571682</ele>
        <time>2026-06-14T11:03:48Z</time>
      </trkpt>
      <trkpt lat="31.22564839091415" lon="121.4001612558744">
        <ele>18.31625444162637</ele>
        <time>2026-06-14T11:03:57Z</time>
      </trkpt>
      <trkpt lat="31.22563438268214" lon="121.40001923713164">
        <ele>18.31625444162637</ele>
        <time>2026-06-14T11:04:00Z</time>
      </trkpt>
      <trkpt lat="31.225604388884868" lon="121.39994022909922">
        <ele>17.571133439429104</ele>
        <time>2026-06-14T11:04:03Z</time>
      </trkpt>
      <trkpt lat="31.225541415180885" lon="121.39990723024036">
        <ele>18.31625444162637</ele>
        <time>2026-06-14T11:04:09Z</time>
      </trkpt>
      <trkpt lat="31.225486442179303" lon="121.39992023674186">
        <ele>18.871128861792386</ele>
        <time>2026-06-14T11:04:12Z</time>
      </trkpt>
      <trkpt lat="31.225461456409256" lon="121.39994624236189">
        <ele>12.727845017798245</ele>
        <time>2026-06-14T11:04:30Z</time>
      </trkpt>
    </trkseg>
  </trk>
</gpx>