<?xml version="1.0" encoding="UTF-8"?>
<gpx xmlns="http://www.topografix.com/GPX/1/1" xmlns:gpxtpx="http://www.garmin.com/xmlschemas/TrackPointExtension/v1" xmlns:xsi="http://www.w3.org/2001/XMLSchema-instance" xsi:schemaLocation="http://www.topografix.com/GPX/1/1 http://www.topografix.com/GPX/1/1/gpx.xsd" version="1.1" creator="gpx.py -- https://github.com/tkrajina/gpxpy">
  <trk>
    <name>gpx from keep</name>
    <type>Run</type>
    <trkseg>
      <trkpt lat="31.229708458198157" lon="121.39976384860223">
        <ele>12.496900845319033</ele>
        <time>2026-05-07T09:28:14Z</time>
      </trkpt>
      <trkpt lat="31.22971747741719" lon="121.4000098797786">
        <ele>12.737347889691591</ele>
        <time>2026-05-07T09:28:23Z</time>
      </trkpt>
      <trkpt lat="31.229740474716266" lon="121.4000878885711">
        <ele>11.852186489850283</ele>
        <time>2026-05-07T09:28:26Z</time>
      </trkpt>
      <trkpt lat="31.229878433923695" lon="121.40030190780635">
        <ele>11.413568783551455</ele>
        <time>2026-05-07T09:28:32Z</time>
      </trkpt>
      <trkpt lat="31.230060358794002" lon="121.40038290440145">
        <ele>11.73592596128583</ele>
        <time>2026-05-07T09:28:38Z</time>
      </trkpt>
      <trkpt lat="31.23022528025597" lon="121.40036588737145">
        <ele>12.549745846539736</ele>
        <time>2026-05-07T09:28:44Z</time>
      </trkpt>
      <trkpt lat="31.2304931453381" lon="121.40027284980859">
        <ele>12.309299755841494</ele>
        <time>2026-05-07T09:28:53Z</time>
      </trkpt>
      <trkpt lat="31.230566106709865" lon="121.40022983703358">
        <ele>12.46783571317792</ele>
        <time>2026-05-07T09:28:56Z</time>
      </trkpt>
      <trkpt lat="31.230842972333093" lon="121.40017480482491">
        <ele>13.675354290753603</ele>
        <time>2026-05-07T09:29:05Z</time>
      </trkpt>
      <trkpt lat="31.230938922519414" lon="121.40012478926774">
        <ele>17.419456768780947</ele>
        <time>2026-05-07T09:29:08Z</time>
      </trkpt>
      <trkpt lat="31.231154802913796" lon="121.3999317439251">
        <ele>11.831047344952822</ele>
        <time>2026-05-07T09:29:14Z</time>
      </trkpt>
      <trkpt lat="31.231221761201667" lon="121.39981872347033">
        <ele>12.829827595502138</ele>
        <time>2026-05-07T09:29:17Z</time>
      </trkpt>
      <trkpt lat="31.231225750624255" lon="121.39972171111239">
        <ele>12.153405476361513</ele>
        <time>2026-05-07T09:29:20Z</time>
      </trkpt>
      <trkpt lat="31.23120574471614" lon="121.3995406917677">
        <ele>14.269867230206728</ele>
        <time>2026-05-07T09:29:23Z</time>
      </trkpt>
      <trkpt lat="31.23114776336168" lon="121.39943468527247">
        <ele>12.414990711957216</ele>
        <time>2026-05-07T09:29:26Z</time>
      </trkpt>
      <trkpt lat="31.231076791307594" lon="121.39936768446493">
        <ele>11.371292401105165</ele>
        <time>2026-05-07T09:29:29Z</time>
      </trkpt>
      <trkpt lat="31.230981832386792" lon="121.39932668858161">
        <ele>11.725357342511415</ele>
        <time>2026-05-07T09:29:32Z</time>
      </trkpt>
      <trkpt lat="31.23077792508489" lon="121.39930070377177">
        <ele>12.663363743573427</ele>
        <time>2026-05-07T09:29:38Z</time>
      </trkpt>
      <trkpt lat="31.230637991922208" lon="121.39932871877572">
        <ele>13.257875729352236</ele>
        <time>2026-05-07T09:29:41Z</time>
      </trkpt>
      <trkpt lat="31.23041310364836" lon="121.39943074893168">
        <ele>12.93551855161786</ele>
        <time>2026-05-07T09:29:50Z</time>
      </trkpt>
      <trkpt lat="31.23013723547032" lon="121.39948077836053">
        <ele>12.634298611432314</ele>
        <time>2026-05-07T09:29:59Z</time>
      </trkpt>
      <trkpt lat="31.22987636226515" lon="121.39955280907236">
        <ele>13.18653516843915</ele>
        <time>2026-05-07T09:30:08Z</time>
      </trkpt>
      <trkpt lat="31.229800402612476" lon="121.39961482276762">
        <ele>12.642225552350283</ele>
        <time>2026-05-07T09:30:11Z</time>
      </trkpt>
      <trkpt lat="31.229758427348123" lon="121.39967683370023">
        <ele>12.330437947064638</ele>
        <time>2026-05-07T09:30:14Z</time>
      </trkpt>
      <trkpt lat="31.229717459017664" lon="121.39981885468751">
        <ele>0.9871552474796772</ele>
        <time>2026-05-07T09:30:17Z</time>
      </trkpt>
      <trkpt lat="31.22972846990867" lon="121.39998587556148">
        <ele>12.454623509198427</ele>
        <time>2026-05-07T09:30:20Z</time>
      </trkpt>
      <trkpt lat="31.229762467852698" lon="121.40011989117534">
        <ele>14.061126042157412</ele>
        <time>2026-05-07T09:30:23Z</time>
      </trkpt>
      <trkpt lat="31.229837447559287" lon="121.40025390415836">
        <ele>14.581654835492373</ele>
        <time>2026-05-07T09:30:26Z</time>
      </trkpt>
      <trkpt lat="31.229940409145023" lon="121.40033690774371">
        <ele>11.495477963238955</ele>
        <time>2026-05-07T09:30:29Z</time>
      </trkpt>
      <trkpt lat="31.230023374328855" lon="121.40036890544857">
        <ele>12.37271337583661</ele>
        <time>2026-05-07T09:30:32Z</time>
      </trkpt>
      <trkpt lat="31.230166308792594" lon="121.40037589406907">
        <ele>13.205029774457216</ele>
        <time>2026-05-07T09:30:35Z</time>
      </trkpt>
      <trkpt lat="31.230496148015963" lon="121.4003088549886">
        <ele>11.183689404278994</ele>
        <time>2026-05-07T09:30:47Z</time>
      </trkpt>
      <trkpt lat="31.230543125543672" lon="121.40030284997913">
        <ele>11.820477772504091</ele>
        <time>2026-05-07T09:30:50Z</time>
      </trkpt>
      <trkpt lat="31.230680052327735" lon="121.40021582502806">
        <ele>13.059705067425966</ele>
        <time>2026-05-07T09:30:56Z</time>
      </trkpt>
      <trkpt lat="31.230824983492923" lon="121.40020081018352">
        <ele>10.007877636700869</ele>
        <time>2026-05-07T09:31:02Z</time>
      </trkpt>
      <trkpt lat="31.23095391876066" lon="121.40015479225636">
        <ele>10.184910107403994</ele>
        <time>2026-05-07T09:31:08Z</time>
      </trkpt>
      <trkpt lat="31.23112682088944" lon="121.39998275318132">
        <ele>12.298729229718447</ele>
        <time>2026-05-07T09:31:14Z</time>
      </trkpt>
      <trkpt lat="31.23118378592328" lon="121.39989473653795">
        <ele>12.96722536161542</ele>
        <time>2026-05-07T09:31:17Z</time>
      </trkpt>
      <trkpt lat="31.231233743271638" lon="121.39967970536824">
        <ele>5.5371506698429585</ele>
        <time>2026-05-07T09:31:23Z</time>
      </trkpt>
      <trkpt lat="31.231227740141644" lon="121.39960969768605">
        <ele>13.300151158124208</ele>
        <time>2026-05-07T09:31:26Z</time>
      </trkpt>
      <trkpt lat="31.231182750580082" lon="121.3994796870531">
        <ele>12.319867420941591</ele>
        <time>2026-05-07T09:31:29Z</time>
      </trkpt>
      <trkpt lat="31.23098782539957" lon="121.3992656820229">
        <ele>10.589178372174501</ele>
        <time>2026-05-07T09:31:38Z</time>
      </trkpt>
      <trkpt lat="31.230874875604687" lon="121.39923368878702">
        <ele>11.339583683758974</ele>
        <time>2026-05-07T09:31:44Z</time>
      </trkpt>
      <trkpt lat="31.230731942396698" lon="121.39924170202202">
        <ele>12.330436993390322</ele>
        <time>2026-05-07T09:31:50Z</time>
      </trkpt>
      <trkpt lat="31.23068096941669" lon="121.39929171133853">
        <ele>10.610316563397646</ele>
        <time>2026-05-07T09:31:53Z</time>
      </trkpt>
      <trkpt lat="31.230543036737274" lon="121.39933972816887">
        <ele>10.351373005658388</ele>
        <time>2026-05-07T09:31:59Z</time>
      </trkpt>
      <trkpt lat="31.23048306815544" lon="121.39938973852685">
        <ele>10.089788723737001</ele>
        <time>2026-05-07T09:32:02Z</time>
      </trkpt>
      <trkpt lat="31.230415100935318" lon="121.39940674622854">
        <ele>11.204827595502138</ele>
        <time>2026-05-07T09:32:05Z</time>
      </trkpt>
      <trkpt lat="31.23033113893394" lon="121.39939375219511">
        <ele>12.16397314146161</ele>
        <time>2026-05-07T09:32:08Z</time>
      </trkpt>
      <trkpt lat="31.23024617902083" lon="121.39940276054463">
        <ele>11.654014874249697</ele>
        <time>2026-05-07T09:32:11Z</time>
      </trkpt>
      <trkpt lat="31.22996131861601" lon="121.39949979577845">
        <ele>9.27861051633954</ele>
        <time>2026-05-07T09:32:23Z</time>
      </trkpt>
      <trkpt lat="31.229882357961706" lon="121.39953380642328">
        <ele>12.436127949506044</ele>
        <time>2026-05-07T09:32:26Z</time>
      </trkpt>
      <trkpt lat="31.22981339591388" lon="121.39960682071073">
        <ele>6.38267831876874</ele>
        <time>2026-05-07T09:32:29Z</time>
      </trkpt>
      <trkpt lat="31.229733443390273" lon="121.39972784201191">
        <ele>11.321088124066591</ele>
        <time>2026-05-07T09:32:32Z</time>
      </trkpt>
      <trkpt lat="31.22972346089208" lon="121.39986886054761">
        <ele>13.799540806561708</ele>
        <time>2026-05-07T09:32:35Z</time>
      </trkpt>
      <trkpt lat="31.22975346516903" lon="121.40005388269167">
        <ele>3.809103298932314</ele>
        <time>2026-05-07T09:32:41Z</time>
      </trkpt>
      <trkpt lat="31.22978745996288" lon="121.40015489400363">
        <ele>11.831046391278505</ele>
        <time>2026-05-07T09:32:44Z</time>
      </trkpt>
      <trkpt lat="31.229963399276464" lon="121.40034390681474">
        <ele>12.40442018583417</ele>
        <time>2026-05-07T09:32:53Z</time>
      </trkpt>
      <trkpt lat="31.23018230183719" lon="121.400379893297">
        <ele>11.445274639874697</ele>
        <time>2026-05-07T09:33:02Z</time>
      </trkpt>
      <trkpt lat="31.23047515843636" lon="121.40031485773308">
        <ele>12.071493435651064</ele>
        <time>2026-05-07T09:33:14Z</time>
      </trkpt>
      <trkpt lat="31.23075301794854" lon="121.40021081792793">
        <ele>8.308895397931337</ele>
        <time>2026-05-07T09:33:29Z</time>
      </trkpt>
      <trkpt lat="31.23087595921019" lon="121.40019480485931">
        <ele>11.714786816388369</ele>
        <time>2026-05-07T09:33:35Z</time>
      </trkpt>
      <trkpt lat="31.23111383284915" lon="121.40004176236918">
        <ele>11.466412831097841</ele>
        <time>2026-05-07T09:33:47Z</time>
      </trkpt>
      <trkpt lat="31.231219768207758" lon="121.39988373196852">
        <ele>11.746493626385927</ele>
        <time>2026-05-07T09:33:53Z</time>
      </trkpt>
      <trkpt lat="31.23121775025013" lon="121.39967470616865">
        <ele>12.21681909635663</ele>
        <time>2026-05-07T09:33:59Z</time>
      </trkpt>
      <trkpt lat="31.231073797105218" lon="121.39942769098235">
        <ele>10.924746800214052</ele>
        <time>2026-05-07T09:34:08Z</time>
      </trkpt>
      <trkpt lat="31.230998826714053" lon="121.39935769024142">
        <ele>10.97495012357831</ele>
        <time>2026-05-07T09:34:11Z</time>
      </trkpt>
      <trkpt lat="31.23085488961464" lon="121.399303697356">
        <ele>11.912957478314638</ele>
        <time>2026-05-07T09:34:17Z</time>
      </trkpt>
      <trkpt lat="31.230765930507303" lon="121.39929870461977">
        <ele>10.340804386883974</ele>
        <time>2026-05-07T09:34:20Z</time>
      </trkpt>
      <trkpt lat="31.230395109620243" lon="121.39939874713606">
        <ele>12.01864843443036</ele>
        <time>2026-05-07T09:34:29Z</time>
      </trkpt>
      <trkpt lat="31.230098255664654" lon="121.39950778471254">
        <ele>10.893039990216494</ele>
        <time>2026-05-07T09:34:41Z</time>
      </trkpt>
      <trkpt lat="31.230024292612423" lon="121.39954079482393">
        <ele>5.161947537213564</ele>
        <time>2026-05-07T09:34:44Z</time>
      </trkpt>
      <trkpt lat="31.22994832868439" lon="121.39955080257032">
        <ele>9.048732090741396</ele>
        <time>2026-05-07T09:34:47Z</time>
      </trkpt>
      <trkpt lat="31.229876365349554" lon="121.39959081338115">
        <ele>12.737346936017275</ele>
        <time>2026-05-07T09:34:50Z</time>
      </trkpt>
      <trkpt lat="31.229811401203534" lon="121.39965882694773">
        <ele>12.092631626874208</ele>
        <time>2026-05-07T09:34:53Z</time>
      </trkpt>
      <trkpt lat="31.22976643010523" lon="121.3997508419449">
        <ele>10.163771916180849</ele>
        <time>2026-05-07T09:34:56Z</time>
      </trkpt>
      <trkpt lat="31.229747448338404" lon="121.39985385652642">
        <ele>12.71620874479413</ele>
        <time>2026-05-07T09:34:59Z</time>
      </trkpt>
      <trkpt lat="31.229759461054233" lon="121.40004088036996">
        <ele>11.371291447430849</ele>
        <time>2026-05-07T09:35:05Z</time>
      </trkpt>
      <trkpt lat="31.2298224499936" lon="121.4002128993928">
        <ele>12.642224598675966</ele>
        <time>2026-05-07T09:35:11Z</time>
      </trkpt>
      <trkpt lat="31.22988642986979" lon="121.4002989066539">
        <ele>13.363564778119326</ele>
        <time>2026-05-07T09:35:14Z</time>
      </trkpt>
      <trkpt lat="31.230071352754248" lon="121.40037490219616">
        <ele>10.309096623212099</ele>
        <time>2026-05-07T09:35:20Z</time>
      </trkpt>
      <trkpt lat="31.230231280395262" lon="121.40039089074224">
        <ele>12.56031446531415</ele>
        <time>2026-05-07T09:35:26Z</time>
      </trkpt>
      <trkpt lat="31.23050714246103" lon="121.40030485342155">
        <ele>10.663161564618349</ele>
        <time>2026-05-07T09:35:38Z</time>
      </trkpt>
      <trkpt lat="31.230822984310606" lon="121.40019981021149">
        <ele>11.548323918133974</ele>
        <time>2026-05-07T09:35:54Z</time>
      </trkpt>
      <trkpt lat="31.230889950665606" lon="121.40017580087212">
        <ele>11.841615963727236</ele>
        <time>2026-05-07T09:35:57Z</time>
      </trkpt>
      <trkpt lat="31.23097091260345" lon="121.40017079308494">
        <ele>11.7068598754704</ele>
        <time>2026-05-07T09:36:00Z</time>
      </trkpt>
      <trkpt lat="31.23108185282267" lon="121.4000917721282">
        <ele>10.808487225323915</ele>
        <time>2026-05-07T09:36:06Z</time>
      </trkpt>
      <trkpt lat="31.23117479836523" lon="121.39997974859156">
        <ele>10.861332226544619</ele>
        <time>2026-05-07T09:36:12Z</time>
      </trkpt>
      <trkpt lat="31.231176791854878" lon="121.39992274081847">
        <ele>11.17312078550458</ele>
        <time>2026-05-07T09:36:15Z</time>
      </trkpt>
      <trkpt lat="31.231269733354353" lon="121.39975671155229">
        <ele>11.50868921354413</ele>
        <time>2026-05-07T09:36:21Z</time>
      </trkpt>
      <trkpt lat="31.23124073108789" lon="121.39957269231932">
        <ele>11.466412831097841</ele>
        <time>2026-05-07T09:36:27Z</time>
      </trkpt>
      <trkpt lat="31.231106779745833" lon="121.39939968516221">
        <ele>10.42271452024579</ele>
        <time>2026-05-07T09:36:36Z</time>
      </trkpt>
      <trkpt lat="31.23104980273482" lon="121.39935268528457">
        <ele>6.17393808439374</ele>
        <time>2026-05-07T09:36:39Z</time>
      </trkpt>
      <trkpt lat="31.230928855539897" lon="121.39930669120228">
        <ele>8.443651486188173</ele>
        <time>2026-05-07T09:36:45Z</time>
      </trkpt>
      <trkpt lat="31.23078992028802" lon="121.39931170381965">
        <ele>8.174140263348818</ele>
        <time>2026-05-07T09:36:51Z</time>
      </trkpt>
      <trkpt lat="31.2306989605939" lon="121.39928470907948">
        <ele>10.383080769330263</ele>
        <time>2026-05-07T09:36:54Z</time>
      </trkpt>
      <trkpt lat="31.230577022474254" lon="121.39936072734173">
        <ele>10.861332226544619</ele>
        <time>2026-05-07T09:37:00Z</time>
      </trkpt>
      <trkpt lat="31.230353129539694" lon="121.39940475142477">
        <ele>11.455844212323427</ele>
        <time>2026-05-07T09:37:09Z</time>
      </trkpt>
      <trkpt lat="31.23004028234343" lon="121.39950478943948">
        <ele>10.517836857587099</ele>
        <time>2026-05-07T09:37:21Z</time>
      </trkpt>
      <trkpt lat="31.229895354250967" lon="121.39956280854238">
        <ele>10.383080769330263</ele>
        <time>2026-05-07T09:37:27Z</time>
      </trkpt>
      <trkpt lat="31.229733444627634" lon="121.39974184371908">
        <ele>9.912756253033876</ele>
        <time>2026-05-07T09:37:36Z</time>
      </trkpt>
      <trkpt lat="31.229712461800467" lon="121.39982385575584">
        <ele>10.599746990948915</ele>
        <time>2026-05-07T09:37:39Z</time>
      </trkpt>
      <trkpt lat="31.229800456507835" lon="121.40017889634147">
        <ele>10.391007710248232</ele>
        <time>2026-05-07T09:37:51Z</time>
      </trkpt>
      <trkpt lat="31.229848442118783" lon="121.40025090275195">
        <ele>9.799138356000185</ele>
        <time>2026-05-07T09:37:54Z</time>
      </trkpt>
      <trkpt lat="31.229966395242236" lon="121.40032090302644">
        <ele>9.445073414593935</ele>
        <time>2026-05-07T09:38:00Z</time>
      </trkpt>
      <trkpt lat="31.23028924174167" lon="121.4002888700048">
        <ele>9.28653745725751</ele>
        <time>2026-05-07T09:38:12Z</time>
      </trkpt>
      <trkpt lat="31.230337220383802" lon="121.40029686702992">
        <ele>11.944664288312197</ele>
        <time>2026-05-07T09:38:15Z</time>
      </trkpt>
      <trkpt lat="31.230627076564307" lon="121.40021282920763">
        <ele>8.974748898297548</ele>
        <time>2026-05-07T09:38:27Z</time>
      </trkpt>
      <trkpt lat="31.230962908565246" lon="121.40009778334881">
        <ele>10.507267285138369</ele>
        <time>2026-05-07T09:38:42Z</time>
      </trkpt>
      <trkpt lat="31.23109683428567" lon="121.39997775512283">
        <ele>10.46499090269208</ele>
        <time>2026-05-07T09:38:48Z</time>
      </trkpt>
      <trkpt lat="31.231225753011156" lon="121.39974871440553">
        <ele>10.797917652875185</ele>
        <time>2026-05-07T09:38:57Z</time>
      </trkpt>
      <trkpt lat="31.231176755926516" lon="121.3995126911874">
        <ele>10.589178372174501</ele>
        <time>2026-05-07T09:39:03Z</time>
      </trkpt>
      <trkpt lat="31.23113576967163" lon="121.39944468738341">
        <ele>10.914178181439638</ele>
        <time>2026-05-07T09:39:06Z</time>
      </trkpt>
      <trkpt lat="31.231020816094777" lon="121.39935168771119">
        <ele>9.059301663190126</ele>
        <time>2026-05-07T09:39:12Z</time>
      </trkpt>
      <trkpt lat="31.230901867148848" lon="121.39929369226738">
        <ele>10.528405476361513</ele>
        <time>2026-05-07T09:39:18Z</time>
      </trkpt>
      <trkpt lat="31.2307539348999" lon="121.39928170398932">
        <ele>9.445073414593935</ele>
        <time>2026-05-07T09:39:24Z</time>
      </trkpt>
      <trkpt lat="31.23047107219361" lon="121.39936873740392">
        <ele>10.216617871075869</ele>
        <time>2026-05-07T09:39:36Z</time>
      </trkpt>
      <trkpt lat="31.230205198113865" lon="121.39940376422383">
        <ele>9.944463063031435</ele>
        <time>2026-05-07T09:39:48Z</time>
      </trkpt>
      <trkpt lat="31.22991534529089" lon="121.39956680725076">
        <ele>9.77800016477704</ele>
        <time>2026-05-07T09:40:00Z</time>
      </trkpt>
      <trkpt lat="31.22973143615175" lon="121.39963283087351">
        <ele>8.871699620038271</ele>
        <time>2026-05-07T09:40:09Z</time>
      </trkpt>
    </trkseg>
  </trk>
</gpx>