<?xml version="1.0" encoding="UTF-8"?>
<gpx xmlns="http://www.topografix.com/GPX/1/1" xmlns:gpxtpx="http://www.garmin.com/xmlschemas/TrackPointExtension/v1" xmlns:xsi="http://www.w3.org/2001/XMLSchema-instance" xsi:schemaLocation="http://www.topografix.com/GPX/1/1 http://www.topografix.com/GPX/1/1/gpx.xsd" version="1.1" creator="gpx.py -- https://github.com/tkrajina/gpxpy">
  <trk>
    <name>gpx from keep</name>
    <type>Run</type>
    <trkseg>
      <trkpt lat="31.22993342519952" lon="121.40044592540602">
        <ele>13.526959485374391</ele>
        <time>2026-05-10T11:10:22Z</time>
      </trkpt>
      <trkpt lat="31.229984399735482" lon="121.40043091857585">
        <ele>13.434479898773134</ele>
        <time>2026-05-10T11:10:37Z</time>
      </trkpt>
      <trkpt lat="31.230110339956532" lon="121.40041990584993">
        <ele>15.484884447418153</ele>
        <time>2026-05-10T11:11:37Z</time>
      </trkpt>
      <trkpt lat="31.230341220575035" lon="121.40031486941615">
        <ele>18.544637626968324</ele>
        <time>2026-05-10T11:11:46Z</time>
      </trkpt>
      <trkpt lat="31.230495136009928" lon="121.40019683837028">
        <ele>13.006431526504457</ele>
        <time>2026-05-10T11:11:52Z</time>
      </trkpt>
      <trkpt lat="31.23058909330376" lon="121.40020483134602">
        <ele>13.038138813339174</ele>
        <time>2026-05-10T11:11:55Z</time>
      </trkpt>
      <trkpt lat="31.230898942427086" lon="121.40013779461127">
        <ele>14.192812508903444</ele>
        <time>2026-05-10T11:12:05Z</time>
      </trkpt>
      <trkpt lat="31.23109183620494" lon="121.3999737550204">
        <ele>12.403993076644838</ele>
        <time>2026-05-10T11:12:11Z</time>
      </trkpt>
      <trkpt lat="31.231170788534474" lon="121.3998587330131">
        <ele>12.705212301574647</ele>
        <time>2026-05-10T11:12:14Z</time>
      </trkpt>
      <trkpt lat="31.231198763652674" lon="121.39972771419502">
        <ele>13.944438762031496</ele>
        <time>2026-05-10T11:12:17Z</time>
      </trkpt>
      <trkpt lat="31.23118575834976" lon="121.39959469962318">
        <ele>13.47411400731653</ele>
        <time>2026-05-10T11:12:20Z</time>
      </trkpt>
      <trkpt lat="31.231139770413645" lon="121.39947869069371">
        <ele>15.889152592979372</ele>
        <time>2026-05-10T11:12:23Z</time>
      </trkpt>
      <trkpt lat="31.231079791369993" lon="121.39938768626767">
        <ele>15.286714143119752</ele>
        <time>2026-05-10T11:12:26Z</time>
      </trkpt>
      <trkpt lat="31.230968837358468" lon="121.39931168821285">
        <ele>14.755616969428957</ele>
        <time>2026-05-10T11:12:29Z</time>
      </trkpt>
      <trkpt lat="31.23089686939638" lon="121.39929269260453">
        <ele>14.443828648887575</ele>
        <time>2026-05-10T11:12:32Z</time>
      </trkpt>
      <trkpt lat="31.230536041768985" lon="121.39936473132616">
        <ele>13.661715573631227</ele>
        <time>2026-05-10T11:12:44Z</time>
      </trkpt>
      <trkpt lat="31.230241185384077" lon="121.39945676670142">
        <ele>14.079194850288332</ele>
        <time>2026-05-10T11:12:56Z</time>
      </trkpt>
      <trkpt lat="31.230036284669673" lon="121.39951079044842">
        <ele>13.141187614761293</ele>
        <time>2026-05-10T11:13:02Z</time>
      </trkpt>
      <trkpt lat="31.229841383495092" lon="121.39961381907739">
        <ele>11.405213660560548</ele>
        <time>2026-05-10T11:13:08Z</time>
      </trkpt>
      <trkpt lat="31.229784417001568" lon="121.39969683382186">
        <ele>12.71578151639551</ele>
        <time>2026-05-10T11:13:11Z</time>
      </trkpt>
      <trkpt lat="31.22973246148427" lon="121.39991886627746">
        <ele>11.827977485023439</ele>
        <time>2026-05-10T11:13:17Z</time>
      </trkpt>
      <trkpt lat="31.229745466943804" lon="121.40003488076341">
        <ele>13.933869666419923</ele>
        <time>2026-05-10T11:13:20Z</time>
      </trkpt>
      <trkpt lat="31.229820451580277" lon="121.40021890045043">
        <ele>14.100332922302186</ele>
        <time>2026-05-10T11:13:26Z</time>
      </trkpt>
      <trkpt lat="31.229990387554146" lon="121.40035090553961">
        <ele>13.516390389762819</ele>
        <time>2026-05-10T11:13:35Z</time>
      </trkpt>
      <trkpt lat="31.23012232745994" lon="121.4003608955768">
        <ele>12.71578139718622</ele>
        <time>2026-05-10T11:13:41Z</time>
      </trkpt>
      <trkpt lat="31.23034921357495" lon="121.4002858643207">
        <ele>18.378174013458192</ele>
        <time>2026-05-10T11:13:53Z</time>
      </trkpt>
      <trkpt lat="31.23046515101036" lon="121.40020684245064">
        <ele>8.461719698272645</ele>
        <time>2026-05-10T11:13:56Z</time>
      </trkpt>
      <trkpt lat="31.23065406580818" lon="121.40022882921313">
        <ele>17.815368837676942</ele>
        <time>2026-05-10T11:14:05Z</time>
      </trkpt>
      <trkpt lat="31.230975904220564" lon="121.40011378447822">
        <ele>18.388742155395448</ele>
        <time>2026-05-10T11:14:18Z</time>
      </trkpt>
      <trkpt lat="31.231046866957026" lon="121.40007177237649">
        <ele>-1.9699767166748643</ele>
        <time>2026-05-10T11:14:21Z</time>
      </trkpt>
      <trkpt lat="31.231151804108812" lon="121.39992974392219">
        <ele>17.149516767822206</ele>
        <time>2026-05-10T11:14:27Z</time>
      </trkpt>
      <trkpt lat="31.231205767141567" lon="121.39980272285045">
        <ele>18.346466726623476</ele>
        <time>2026-05-10T11:14:30Z</time>
      </trkpt>
      <trkpt lat="31.231212750689828" lon="121.39965270400384">
        <ele>9.238548940978944</ele>
        <time>2026-05-10T11:14:33Z</time>
      </trkpt>
      <trkpt lat="31.23118575469623" lon="121.39954969451948">
        <ele>15.506022638641298</ele>
        <time>2026-05-10T11:14:36Z</time>
      </trkpt>
      <trkpt lat="31.231079792323108" lon="121.39940068762073">
        <ele>18.07695526536554</ele>
        <time>2026-05-10T11:14:42Z</time>
      </trkpt>
      <trkpt lat="31.230931855688713" lon="121.39932869314228">
        <ele>11.225538677535951</ele>
        <time>2026-05-10T11:14:48Z</time>
      </trkpt>
      <trkpt lat="31.230764932291482" lon="121.39931770659885">
        <ele>9.883263534866273</ele>
        <time>2026-05-10T11:14:54Z</time>
      </trkpt>
      <trkpt lat="31.230577023774458" lon="121.39937872919208">
        <ele>18.742808288894594</ele>
        <time>2026-05-10T11:15:03Z</time>
      </trkpt>
      <trkpt lat="31.230270169594917" lon="121.39942576087012">
        <ele>18.8669948047027</ele>
        <time>2026-05-10T11:15:12Z</time>
      </trkpt>
      <trkpt lat="31.2302022017376" lon="121.39943376764634">
        <ele>11.36293692048639</ele>
        <time>2026-05-10T11:15:15Z</time>
      </trkpt>
      <trkpt lat="31.22993633481686" lon="121.39955780440384">
        <ele>14.557446188293397</ele>
        <time>2026-05-10T11:15:24Z</time>
      </trkpt>
      <trkpt lat="31.229833387292036" lon="121.3996148198905">
        <ele>-1.4890835816040635</ele>
        <time>2026-05-10T11:15:27Z</time>
      </trkpt>
      <trkpt lat="31.229754434080437" lon="121.39973284078954">
        <ele>20.920042700134218</ele>
        <time>2026-05-10T11:15:33Z</time>
      </trkpt>
      <trkpt lat="31.22971246374903" lon="121.3998448584263">
        <ele>-4.712657266296446</ele>
        <time>2026-05-10T11:15:36Z</time>
      </trkpt>
      <trkpt lat="31.22972047422119" lon="121.39999187707065">
        <ele>5.391399092040956</ele>
        <time>2026-05-10T11:15:42Z</time>
      </trkpt>
      <trkpt lat="31.229805455160786" lon="121.40018789721505">
        <ele>1.0052239364013076</ele>
        <time>2026-05-10T11:15:48Z</time>
      </trkpt>
      <trkpt lat="31.229918415016062" lon="121.40029890386397">
        <ele>20.367807096801698</ele>
        <time>2026-05-10T11:15:54Z</time>
      </trkpt>
      <trkpt lat="31.22999338500723" lon="121.40034090373759">
        <ele>21.115570730529726</ele>
        <time>2026-05-10T11:15:57Z</time>
      </trkpt>
      <trkpt lat="31.230186296492338" lon="121.40034988829687">
        <ele>-0.7862370545044541</ele>
        <time>2026-05-10T11:16:06Z</time>
      </trkpt>
      <trkpt lat="31.2303791979751" lon="121.40027085944762">
        <ele>15.5271613067016</ele>
        <time>2026-05-10T11:16:18Z</time>
      </trkpt>
      <trkpt lat="31.23064606688245" lon="121.40020482637631">
        <ele>15.807242340408266</ele>
        <time>2026-05-10T11:16:30Z</time>
      </trkpt>
      <trkpt lat="31.23092492816101" lon="121.40011678935065">
        <ele>12.945659584365785</ele>
        <time>2026-05-10T11:16:43Z</time>
      </trkpt>
      <trkpt lat="31.23097390357438" lon="121.40009878253078">
        <ele>14.412121600471437</ele>
        <time>2026-05-10T11:16:46Z</time>
      </trkpt>
      <trkpt lat="31.231174791239276" lon="121.39990673889055">
        <ele>16.858866996131837</ele>
        <time>2026-05-10T11:16:55Z</time>
      </trkpt>
      <trkpt lat="31.231218756965465" lon="121.39975671599898">
        <ele>14.797893590293825</ele>
        <time>2026-05-10T11:16:58Z</time>
      </trkpt>
      <trkpt lat="31.2312087505205" lon="121.39962870154439">
        <ele>16.150737828575075</ele>
        <time>2026-05-10T11:17:01Z</time>
      </trkpt>
      <trkpt lat="31.231186754233217" lon="121.3995496944323">
        <ele>15.630209750495851</ele>
        <time>2026-05-10T11:17:04Z</time>
      </trkpt>
      <trkpt lat="31.23110778143457" lon="121.39942868812376">
        <ele>16.27492458280176</ele>
        <time>2026-05-10T11:17:07Z</time>
      </trkpt>
      <trkpt lat="31.23096883925565" lon="121.39933869092536">
        <ele>11.864969558082521</ele>
        <time>2026-05-10T11:17:13Z</time>
      </trkpt>
      <trkpt lat="31.23089287270466" lon="121.39931369503883">
        <ele>12.039359635673463</ele>
        <time>2026-05-10T11:17:16Z</time>
      </trkpt>
      <trkpt lat="31.230826903702546" lon="121.3993197013934">
        <ele>13.12269193585962</ele>
        <time>2026-05-10T11:17:19Z</time>
      </trkpt>
      <trkpt lat="31.230708963028004" lon="121.39938471830379">
        <ele>15.421470231376588</ele>
        <time>2026-05-10T11:17:25Z</time>
      </trkpt>
      <trkpt lat="31.23039910894724" lon="121.39941474846309">
        <ele>16.28549367841333</ele>
        <time>2026-05-10T11:17:37Z</time>
      </trkpt>
      <trkpt lat="31.230200205396375" lon="121.39946977167617">
        <ele>10.147491282783449</ele>
        <time>2026-05-10T11:17:46Z</time>
      </trkpt>
      <trkpt lat="31.23012723957111" lon="121.39947377847335">
        <ele>-6.155338459648192</ele>
        <time>2026-05-10T11:17:49Z</time>
      </trkpt>
      <trkpt lat="31.229921341940358" lon="121.39955980593706">
        <ele>15.484884089790285</ele>
        <time>2026-05-10T11:17:58Z</time>
      </trkpt>
      <trkpt lat="31.229796406391912" lon="121.39963782579007">
        <ele>15.587932652793825</ele>
        <time>2026-05-10T11:18:04Z</time>
      </trkpt>
      <trkpt lat="31.22974243868369" lon="121.39972184049874">
        <ele>16.171875304542482</ele>
        <time>2026-05-10T11:18:07Z</time>
      </trkpt>
      <trkpt lat="31.229707463661164" lon="121.39981885555936">
        <ele>17.691182679496706</ele>
        <time>2026-05-10T11:18:10Z</time>
      </trkpt>
      <trkpt lat="31.229690483023955" lon="121.39993987271446">
        <ele>12.9641547864303</ele>
        <time>2026-05-10T11:18:13Z</time>
      </trkpt>
      <trkpt lat="31.229749484215233" lon="121.4002159061987">
        <ele>18.10866219457239</ele>
        <time>2026-05-10T11:18:22Z</time>
      </trkpt>
      <trkpt lat="31.22982645715669" lon="121.4002939111278">
        <ele>16.26435477193445</ele>
        <time>2026-05-10T11:18:25Z</time>
      </trkpt>
      <trkpt lat="31.230009382343948" lon="121.40038190869197">
        <ele>9.159280366264284</ele>
        <time>2026-05-10T11:18:31Z</time>
      </trkpt>
      <trkpt lat="31.230295249419328" lon="121.40037988344493">
        <ele>16.17187554296106</ele>
        <time>2026-05-10T11:18:43Z</time>
      </trkpt>
      <trkpt lat="31.230567109464108" lon="121.40025884125896">
        <ele>8.551557607017457</ele>
        <time>2026-05-10T11:18:55Z</time>
      </trkpt>
      <trkpt lat="31.230645070310718" lon="121.40023183044174">
        <ele>15.22329909261316</ele>
        <time>2026-05-10T11:19:01Z</time>
      </trkpt>
      <trkpt lat="31.230733029525624" lon="121.40023182276919">
        <ele>15.339559144340456</ele>
        <time>2026-05-10T11:19:04Z</time>
      </trkpt>
      <trkpt lat="31.23078200298178" lon="121.40019681334735">
        <ele>12.10277349408716</ele>
        <time>2026-05-10T11:19:07Z</time>
      </trkpt>
      <trkpt lat="31.231065858571082" lon="121.40007577127886">
        <ele>16.2749241059646</ele>
        <time>2026-05-10T11:19:19Z</time>
      </trkpt>
      <trkpt lat="31.231183784970824" lon="121.39988473523714">
        <ele>16.732037371955812</ele>
        <time>2026-05-10T11:19:28Z</time>
      </trkpt>
      <trkpt lat="31.23122475161487" lon="121.3997277119281">
        <ele>12.007652110420167</ele>
        <time>2026-05-10T11:19:35Z</time>
      </trkpt>
      <trkpt lat="31.231195750306895" lon="121.39955269398452">
        <ele>12.071066684089601</ele>
        <time>2026-05-10T11:19:41Z</time>
      </trkpt>
      <trkpt lat="31.23114576617929" lon="121.39945968811834">
        <ele>17.358257121406496</ele>
        <time>2026-05-10T11:19:44Z</time>
      </trkpt>
      <trkpt lat="31.23108179058992" lon="121.39938968630089">
        <ele>15.067405528388917</ele>
        <time>2026-05-10T11:19:47Z</time>
      </trkpt>
      <trkpt lat="31.23095084604534" lon="121.3993166902817">
        <ele>15.817811316810548</ele>
        <time>2026-05-10T11:19:53Z</time>
      </trkpt>
      <trkpt lat="31.23080291391643" lon="121.39930670218807">
        <ele>16.451957053504884</ele>
        <time>2026-05-10T11:19:59Z</time>
      </trkpt>
      <trkpt lat="31.2305050562132" lon="121.39936573413154">
        <ele>15.120251006446779</ele>
        <time>2026-05-10T11:20:08Z</time>
      </trkpt>
      <trkpt lat="31.230165218677783" lon="121.39943077055403">
        <ele>14.985494918189943</ele>
        <time>2026-05-10T11:20:23Z</time>
      </trkpt>
      <trkpt lat="31.22999330392053" lon="121.39950179320783">
        <ele>14.203381962142885</ele>
        <time>2026-05-10T11:20:32Z</time>
      </trkpt>
      <trkpt lat="31.229897355683548" lon="121.39959181166466">
        <ele>11.870253986679018</ele>
        <time>2026-05-10T11:20:38Z</time>
      </trkpt>
      <trkpt lat="31.229802402099846" lon="121.39961982317212">
        <ele>6.305625385604799</ele>
        <time>2026-05-10T11:20:41Z</time>
      </trkpt>
      <trkpt lat="31.22975842726233" lon="121.39967583358134">
        <ele>13.423911518417299</ele>
        <time>2026-05-10T11:20:44Z</time>
      </trkpt>
      <trkpt lat="31.22972845791126" lon="121.39986185921012">
        <ele>12.808261699043214</ele>
        <time>2026-05-10T11:20:53Z</time>
      </trkpt>
      <trkpt lat="31.22973947653661" lon="121.40010089048897">
        <ele>13.059277719818056</ele>
        <time>2026-05-10T11:21:05Z</time>
      </trkpt>
      <trkpt lat="31.22983645194904" lon="121.40028890950005">
        <ele>13.495252913795412</ele>
        <time>2026-05-10T11:21:14Z</time>
      </trkpt>
      <trkpt lat="31.230148315629105" lon="121.40036289361973">
        <ele>-2.9898945624008775</ele>
        <time>2026-05-10T11:21:29Z</time>
      </trkpt>
      <trkpt lat="31.23034322193808" lon="121.40033487230062">
        <ele>15.120251006446779</ele>
        <time>2026-05-10T11:21:39Z</time>
      </trkpt>
      <trkpt lat="31.230653064293975" lon="121.40021082664673">
        <ele>19.398092574439943</ele>
        <time>2026-05-10T11:21:54Z</time>
      </trkpt>
      <trkpt lat="31.23072203253369" lon="121.40021282092476">
        <ele>6.638552016578615</ele>
        <time>2026-05-10T11:21:57Z</time>
      </trkpt>
      <trkpt lat="31.230874955786724" lon="121.40015879972071">
        <ele>-50.12277763430029</ele>
        <time>2026-05-10T11:22:03Z</time>
      </trkpt>
      <trkpt lat="31.231049863407858" lon="121.40005076919402">
        <ele>5.565786666236818</ele>
        <time>2026-05-10T11:22:09Z</time>
      </trkpt>
      <trkpt lat="31.23111982383305" lon="121.39997975338699">
        <ele>18.253985709510744</ele>
        <time>2026-05-10T11:22:12Z</time>
      </trkpt>
      <trkpt lat="31.231183781765605" lon="121.39985073085369">
        <ele>10.020660704933107</ele>
        <time>2026-05-10T11:22:18Z</time>
      </trkpt>
      <trkpt lat="31.231208751443766" lon="121.39963970282774">
        <ele>18.806221312843263</ele>
        <time>2026-05-10T11:22:24Z</time>
      </trkpt>
      <trkpt lat="31.231152764934432" lon="121.39948569032113">
        <ele>19.118009394966066</ele>
        <time>2026-05-10T11:22:30Z</time>
      </trkpt>
      <trkpt lat="31.230980831452186" lon="121.39930668666844">
        <ele>18.325327224098146</ele>
        <time>2026-05-10T11:22:39Z</time>
      </trkpt>
      <trkpt lat="31.23090686442005" lon="121.3992876912395">
        <ele>18.09809190686792</ele>
        <time>2026-05-10T11:22:42Z</time>
      </trkpt>
      <trkpt lat="31.230838897027805" lon="121.39930369875103">
        <ele>18.09809190686792</ele>
        <time>2026-05-10T11:22:45Z</time>
      </trkpt>
      <trkpt lat="31.23076293169041" lon="121.39929570458435">
        <ele>15.318419761024415</ele>
        <time>2026-05-10T11:22:48Z</time>
      </trkpt>
      <trkpt lat="31.23045207992551" lon="121.3993537375252">
        <ele>15.191590613685548</ele>
        <time>2026-05-10T11:23:00Z</time>
      </trkpt>
      <trkpt lat="31.230284161026617" lon="121.39939775670955">
        <ele>19.847276992164552</ele>
        <time>2026-05-10T11:23:06Z</time>
      </trkpt>
      <trkpt lat="31.22996731795295" lon="121.399526798234">
        <ele>10.216188735328615</ele>
        <time>2026-05-10T11:23:18Z</time>
      </trkpt>
      <trkpt lat="31.229911345537467" lon="121.39954680534746">
        <ele>20.28325206693262</ele>
        <time>2026-05-10T11:23:21Z</time>
      </trkpt>
      <trkpt lat="31.2298034019691" lon="121.39962382354899">
        <ele>19.87898427899927</ele>
        <time>2026-05-10T11:23:24Z</time>
      </trkpt>
      <trkpt lat="31.229699463817713" lon="121.39977985136905">
        <ele>19.752155131660402</ele>
        <time>2026-05-10T11:23:31Z</time>
      </trkpt>
      <trkpt lat="31.229677486349274" lon="121.39991187015268">
        <ele>3.446683711372316</ele>
        <time>2026-05-10T11:23:34Z</time>
      </trkpt>
      <trkpt lat="31.22971148559541" lon="121.40006288760382">
        <ele>18.65825445111841</ele>
        <time>2026-05-10T11:23:40Z</time>
      </trkpt>
      <trkpt lat="31.229853445529" lon="121.40030190998598">
        <ele>16.940776175819337</ele>
        <time>2026-05-10T11:23:49Z</time>
      </trkpt>
      <trkpt lat="31.229928416909033" lon="121.40035591171733">
        <ele>17.910490817390382</ele>
        <time>2026-05-10T11:23:52Z</time>
      </trkpt>
      <trkpt lat="31.230122333203468" lon="121.40040990322693">
        <ele>14.192811316810548</ele>
        <time>2026-05-10T11:24:01Z</time>
      </trkpt>
      <trkpt lat="31.2303951965607" lon="121.40032386608193">
        <ele>12.182040995918214</ele>
        <time>2026-05-10T11:24:13Z</time>
      </trkpt>
      <trkpt lat="31.23069404594889" lon="121.40021682395466">
        <ele>12.287731952033937</ele>
        <time>2026-05-10T11:24:34Z</time>
      </trkpt>
      <trkpt lat="31.23101488479269" lon="121.40010077923826">
        <ele>11.674724406562746</ele>
        <time>2026-05-10T11:24:55Z</time>
      </trkpt>
      <trkpt lat="31.23117779023455" lon="121.3999107391533">
        <ele>11.717000789009035</ele>
        <time>2026-05-10T11:25:05Z</time>
      </trkpt>
      <trkpt lat="31.231222754222184" lon="121.39974671442187">
        <ele>13.183462805114686</ele>
        <time>2026-05-10T11:25:11Z</time>
      </trkpt>
      <trkpt lat="31.231201749632323" lon="121.39957869640132">
        <ele>-1.5630677277222276</ele>
        <time>2026-05-10T11:25:17Z</time>
      </trkpt>
      <trkpt lat="31.23111677862115" lon="121.39944668925358">
        <ele>19.231627172790468</ele>
        <time>2026-05-10T11:25:23Z</time>
      </trkpt>
      <trkpt lat="31.230998826499146" lon="121.39935468993514">
        <ele>16.784881777130067</ele>
        <time>2026-05-10T11:25:29Z</time>
      </trkpt>
      <trkpt lat="31.230763933175282" lon="121.39932370728741">
        <ele>1.7820503180846572</ele>
        <time>2026-05-10T11:25:38Z</time>
      </trkpt>
      <trkpt lat="31.230596012026105" lon="121.39933772334555">
        <ele>17.617198175750673</ele>
        <time>2026-05-10T11:25:44Z</time>
      </trkpt>
      <trkpt lat="31.230277165900556" lon="121.39941975962635">
        <ele>18.89870137628168</ele>
        <time>2026-05-10T11:25:53Z</time>
      </trkpt>
      <trkpt lat="31.229936332816955" lon="121.39953280160388">
        <ele>16.858865446411073</ele>
        <time>2026-05-10T11:26:02Z</time>
      </trkpt>
      <trkpt lat="31.229807399612017" lon="121.3996178225045">
        <ele>19.376952833496034</ele>
        <time>2026-05-10T11:26:08Z</time>
      </trkpt>
      <trkpt lat="31.229706461291624" lon="121.39978785175485">
        <ele>7.875134176574647</ele>
        <time>2026-05-10T11:26:14Z</time>
      </trkpt>
      <trkpt lat="31.22969447711215" lon="121.3998978668384">
        <ele>18.65032739099115</ele>
        <time>2026-05-10T11:26:17Z</time>
      </trkpt>
      <trkpt lat="31.229737477779256" lon="121.40010389108707">
        <ele>16.911711401306093</ele>
        <time>2026-05-10T11:26:23Z</time>
      </trkpt>
      <trkpt lat="31.229777469465247" lon="121.40019990140887">
        <ele>19.440367407165468</ele>
        <time>2026-05-10T11:26:26Z</time>
      </trkpt>
      <trkpt lat="31.229880434588793" lon="121.40031590976139">
        <ele>17.035897917114198</ele>
        <time>2026-05-10T11:26:32Z</time>
      </trkpt>
      <trkpt lat="31.229948409136625" lon="121.4003689119875">
        <ele>17.212930387817323</ele>
        <time>2026-05-10T11:26:35Z</time>
      </trkpt>
      <trkpt lat="31.230076353838502" lon="121.40040390629395">
        <ele>13.215170091949403</ele>
        <time>2026-05-10T11:26:42Z</time>
      </trkpt>
      <trkpt lat="31.230130328546657" lon="121.4004019012718">
        <ele>8.387735552154481</ele>
        <time>2026-05-10T11:26:45Z</time>
      </trkpt>
      <trkpt lat="31.230229276197797" lon="121.40034688408532">
        <ele>4.197088903747499</ele>
        <time>2026-05-10T11:26:51Z</time>
      </trkpt>
      <trkpt lat="31.23042018211937" lon="121.40029886009644">
        <ele>18.211709684692323</ele>
        <time>2026-05-10T11:26:57Z</time>
      </trkpt>
      <trkpt lat="31.23074202075693" lon="121.4001898158127">
        <ele>15.786102480255067</ele>
        <time>2026-05-10T11:27:09Z</time>
      </trkpt>
      <trkpt lat="31.230859961773593" lon="121.40014979973276">
        <ele>19.21048945840448</ele>
        <time>2026-05-10T11:27:15Z</time>
      </trkpt>
      <trkpt lat="31.23094192431945" lon="121.40015479330262">
        <ele>1.3645708030089736</ele>
        <time>2026-05-10T11:27:18Z</time>
      </trkpt>
      <trkpt lat="31.23108184848549" lon="121.40004976626545">
        <ele>18.367603487335145</ele>
        <time>2026-05-10T11:27:24Z</time>
      </trkpt>
      <trkpt lat="31.2311528061832" lon="121.39995574728948">
        <ele>0.941806978546083</ele>
        <time>2026-05-10T11:27:27Z</time>
      </trkpt>
      <trkpt lat="31.23120177119974" lon="121.39982672622662">
        <ele>18.85642451699823</ele>
        <time>2026-05-10T11:27:33Z</time>
      </trkpt>
      <trkpt lat="31.231212755767224" lon="121.39971171103589">
        <ele>15.920858091674745</ele>
        <time>2026-05-10T11:27:36Z</time>
      </trkpt>
      <trkpt lat="31.231142768870455" lon="121.39947669021524">
        <ele>12.808259195648134</ele>
        <time>2026-05-10T11:27:45Z</time>
      </trkpt>
      <trkpt lat="31.230958844456136" lon="121.3993466926083">
        <ele>12.715779609046876</ele>
        <time>2026-05-10T11:27:54Z</time>
      </trkpt>
      <trkpt lat="31.230857888224694" lon="121.39930369709444">
        <ele>13.18346208985895</ele>
        <time>2026-05-10T11:28:00Z</time>
      </trkpt>
      <trkpt lat="31.230521048939394" lon="121.39936773294181">
        <ele>14.03691656049341</ele>
        <time>2026-05-10T11:28:15Z</time>
      </trkpt>
      <trkpt lat="31.2303971072313" lon="121.39937874488585">
        <ele>21.461705989204347</ele>
        <time>2026-05-10T11:28:21Z</time>
      </trkpt>
      <trkpt lat="31.23006926679086" lon="121.39947778396358">
        <ele>15.764963454566896</ele>
        <time>2026-05-10T11:28:33Z</time>
      </trkpt>
      <trkpt lat="31.229864368802755" lon="121.3995648114711">
        <ele>3.372698134742677</ele>
        <time>2026-05-10T11:28:42Z</time>
      </trkpt>
      <trkpt lat="31.229760426677156" lon="121.39967983388279">
        <ele>18.534065551124513</ele>
        <time>2026-05-10T11:28:48Z</time>
      </trkpt>
      <trkpt lat="31.229675488823254" lon="121.39992787243354">
        <ele>11.17269069608301</ele>
        <time>2026-05-10T11:28:57Z</time>
      </trkpt>
      <trkpt lat="31.22979046353854" lon="121.40020090042188">
        <ele>20.201340979896486</ele>
        <time>2026-05-10T11:29:06Z</time>
      </trkpt>
      <trkpt lat="31.229995385580914" lon="121.40035390556686">
        <ele>13.484680480323732</ele>
        <time>2026-05-10T11:29:16Z</time>
      </trkpt>
      <trkpt lat="31.23011333221699" lon="121.40036589713631">
        <ele>16.806019133888185</ele>
        <time>2026-05-10T11:29:22Z</time>
      </trkpt>
      <trkpt lat="31.23042717785482" lon="121.40028985812408">
        <ele>10.126350707374513</ele>
        <time>2026-05-10T11:29:34Z</time>
      </trkpt>
      <trkpt lat="31.230480149575662" lon="121.40025684854544">
        <ele>15.683052367530763</ele>
        <time>2026-05-10T11:29:37Z</time>
      </trkpt>
      <trkpt lat="31.230757013480325" lon="121.40018681406757">
        <ele>0.31822997983545065</ele>
        <time>2026-05-10T11:29:49Z</time>
      </trkpt>
      <trkpt lat="31.231021880923734" lon="121.40009477778187">
        <ele>16.639555281959474</ele>
        <time>2026-05-10T11:30:01Z</time>
      </trkpt>
      <trkpt lat="31.231147810569773" lon="121.3999767505415">
        <ele>15.973702258430421</ele>
        <time>2026-05-10T11:30:07Z</time>
      </trkpt>
      <trkpt lat="31.23119678143727" lon="121.3999107374967">
        <ele>16.409677333198488</ele>
        <time>2026-05-10T11:30:10Z</time>
      </trkpt>
      <trkpt lat="31.231221762217455" lon="121.39982972486338">
        <ele>-9.685419254936278</ele>
        <time>2026-05-10T11:30:13Z</time>
      </trkpt>
      <trkpt lat="31.23121875081904" lon="121.39968670751077">
        <ele>8.197490519843996</ele>
        <time>2026-05-10T11:30:19Z</time>
      </trkpt>
      <trkpt lat="31.231196752518766" lon="121.39958569763485">
        <ele>15.368621653877199</ele>
        <time>2026-05-10T11:30:22Z</time>
      </trkpt>
      <trkpt lat="31.23109978558914" lon="121.39943468945758">
        <ele>16.639555520378053</ele>
        <time>2026-05-10T11:30:28Z</time>
      </trkpt>
      <trkpt lat="31.230920860573413" lon="121.39932569379964">
        <ele>16.972481793724</ele>
        <time>2026-05-10T11:30:37Z</time>
      </trkpt>
      <trkpt lat="31.23075093870922" lon="121.39931670771945">
        <ele>12.588949269615114</ele>
        <time>2026-05-10T11:30:46Z</time>
      </trkpt>
      <trkpt lat="31.230463077501817" lon="121.39939074037447">
        <ele>12.0604944890365</ele>
        <time>2026-05-10T11:31:04Z</time>
      </trkpt>
      <trkpt lat="31.23025218351596" lon="121.39949877029764">
        <ele>5.195866650901735</ele>
        <time>2026-05-10T11:31:14Z</time>
      </trkpt>
      <trkpt lat="31.230114246528043" lon="121.39948578090954">
        <ele>14.25622374471277</ele>
        <time>2026-05-10T11:31:20Z</time>
      </trkpt>
      <trkpt lat="31.229839382936245" lon="121.3995958171796">
        <ele>14.61028856690973</ele>
        <time>2026-05-10T11:31:32Z</time>
      </trkpt>
      <trkpt lat="31.229743438747008" lon="121.39972784114006">
        <ele>16.972481197677553</ele>
        <time>2026-05-10T11:31:38Z</time>
      </trkpt>
      <trkpt lat="31.229697476006056" lon="121.39990086696857">
        <ele>12.166184849105775</ele>
        <time>2026-05-10T11:31:44Z</time>
      </trkpt>
      <trkpt lat="31.229726478630237" lon="121.40006288629604">
        <ele>15.170450395904481</ele>
        <time>2026-05-10T11:31:50Z</time>
      </trkpt>
      <trkpt lat="31.229798462233735" lon="121.40022290295839">
        <ele>13.466183609329164</ele>
        <time>2026-05-10T11:31:56Z</time>
      </trkpt>
      <trkpt lat="31.229861440682352" lon="121.4002919077738">
        <ele>17.596057838760316</ele>
        <time>2026-05-10T11:31:59Z</time>
      </trkpt>
      <trkpt lat="31.229960401708997" lon="121.40035290846392">
        <ele>9.2068385547027</ele>
        <time>2026-05-10T11:32:02Z</time>
      </trkpt>
      <trkpt lat="31.230137321081532" lon="121.40036589504385">
        <ele>18.232846206985414</ele>
        <time>2026-05-10T11:32:08Z</time>
      </trkpt>
      <trkpt lat="31.230197292083883" lon="121.40035588826431">
        <ele>17.419026321731508</ele>
        <time>2026-05-10T11:32:11Z</time>
      </trkpt>
      <trkpt lat="31.230307233505847" lon="121.40028986858651">
        <ele>9.375944084487855</ele>
        <time>2026-05-10T11:32:14Z</time>
      </trkpt>
      <trkpt lat="31.230530125170013" lon="121.40024584254621">
        <ele>9.645456022582948</ele>
        <time>2026-05-10T11:32:23Z</time>
      </trkpt>
      <trkpt lat="31.230659059223825" lon="121.4001898230493">
        <ele>12.570453352294862</ele>
        <time>2026-05-10T11:32:29Z</time>
      </trkpt>
      <trkpt lat="31.230992895087304" lon="121.40010178129761">
        <ele>14.443825549446046</ele>
        <time>2026-05-10T11:32:44Z</time>
      </trkpt>
      <trkpt lat="31.23106485707594" lon="121.40005676871836">
        <ele>0.10684759076684713</ele>
        <time>2026-05-10T11:32:47Z</time>
      </trkpt>
      <trkpt lat="31.231157801816185" lon="121.39993474406062">
        <ele>14.745044535957277</ele>
        <time>2026-05-10T11:32:53Z</time>
      </trkpt>
      <trkpt lat="31.23119977037709" lon="121.3998077240018">
        <ele>15.722685880027711</ele>
        <time>2026-05-10T11:32:59Z</time>
      </trkpt>
      <trkpt lat="31.231206753892106" lon="121.39965770511584">
        <ele>9.00074107106775</ele>
        <time>2026-05-10T11:33:05Z</time>
      </trkpt>
      <trkpt lat="31.23118575501736" lon="121.39955369496884">
        <ele>10.91374737676233</ele>
        <time>2026-05-10T11:33:08Z</time>
      </trkpt>
      <trkpt lat="31.231117776504735" lon="121.39942468682874">
        <ele>14.35927254613489</ele>
        <time>2026-05-10T11:33:14Z</time>
      </trkpt>
      <trkpt lat="31.23101581706128" lon="121.39933268622138">
        <ele>15.003987378440797</ele>
        <time>2026-05-10T11:33:21Z</time>
      </trkpt>
      <trkpt lat="31.23086988080959" lon="121.39927669338518">
        <ele>11.87025052960962</ele>
        <time>2026-05-10T11:33:27Z</time>
      </trkpt>
      <trkpt lat="31.230727947909934" lon="121.39929570763594">
        <ele>11.061714715324342</ele>
        <time>2026-05-10T11:33:36Z</time>
      </trkpt>
      <trkpt lat="31.23057802316572" lon="121.39937672889845">
        <ele>11.082852906547487</ele>
        <time>2026-05-10T11:33:48Z</time>
      </trkpt>
      <trkpt lat="31.230353129318548" lon="121.39940175111111">
        <ele>11.547893113456666</ele>
        <time>2026-05-10T11:34:03Z</time>
      </trkpt>
      <trkpt lat="31.230032286997524" lon="121.39951679145925">
        <ele>12.382851666770875</ele>
        <time>2026-05-10T11:34:15Z</time>
      </trkpt>
      <trkpt lat="31.229888357177558" lon="121.39955880870146">
        <ele>13.994638747535646</ele>
        <time>2026-05-10T11:34:21Z</time>
      </trkpt>
      <trkpt lat="31.229787410654527" lon="121.39963882669161">
        <ele>5.069037741981447</ele>
        <time>2026-05-10T11:34:27Z</time>
      </trkpt>
      <trkpt lat="31.229706461745824" lon="121.39979285237914">
        <ele>8.720660275779665</ele>
        <time>2026-05-10T11:34:33Z</time>
      </trkpt>
      <trkpt lat="31.22969347728991" lon="121.39989486653431">
        <ele>-50.49269955698401</ele>
        <time>2026-05-10T11:34:36Z</time>
      </trkpt>
      <trkpt lat="31.229731481299435" lon="121.40011089260074">
        <ele>12.995856351219118</ele>
        <time>2026-05-10T11:34:45Z</time>
      </trkpt>
      <trkpt lat="31.229832453580222" lon="121.40028690954681">
        <ele>14.338131493888795</ele>
        <time>2026-05-10T11:34:51Z</time>
      </trkpt>
      <trkpt lat="31.229890432698777" lon="121.40033991256394">
        <ele>11.526752061210573</ele>
        <time>2026-05-10T11:34:54Z</time>
      </trkpt>
      <trkpt lat="31.23000238570963" lon="121.40038290945823">
        <ele>13.413335627876222</ele>
        <time>2026-05-10T11:34:57Z</time>
      </trkpt>
      <trkpt lat="31.230079350563546" lon="121.40038790352556">
        <ele>12.425125188194215</ele>
        <time>2026-05-10T11:35:00Z</time>
      </trkpt>
      <trkpt lat="31.230355212262467" lon="121.4002988657636">
        <ele>7.573910302482545</ele>
        <time>2026-05-10T11:35:12Z</time>
      </trkpt>
      <trkpt lat="31.230716034657757" lon="121.40020682056652">
        <ele>6.443017072044313</ele>
        <time>2026-05-10T11:35:24Z</time>
      </trkpt>
      <trkpt lat="31.23099589411665" lon="121.40010578160133">
        <ele>14.047481602989137</ele>
        <time>2026-05-10T11:35:36Z</time>
      </trkpt>
      <trkpt lat="31.231117827655602" lon="121.4000087574929">
        <ele>13.537522739730775</ele>
        <time>2026-05-10T11:35:42Z</time>
      </trkpt>
      <trkpt lat="31.231177791682175" lon="121.39992574112696">
        <ele>12.277158088050783</ele>
        <time>2026-05-10T11:35:45Z</time>
      </trkpt>
      <trkpt lat="31.23123574802575" lon="121.39974471304336">
        <ele>11.933662480674684</ele>
        <time>2026-05-10T11:35:54Z</time>
      </trkpt>
      <trkpt lat="31.231212746838064" lon="121.39960669864797">
        <ele>4.995051450096071</ele>
        <time>2026-05-10T11:35:57Z</time>
      </trkpt>
      <trkpt lat="31.231113779331437" lon="121.39943768855576">
        <ele>14.692196912132204</ele>
        <time>2026-05-10T11:36:03Z</time>
      </trkpt>
      <trkpt lat="31.230897870807606" lon="121.39931969520299">
        <ele>13.661710090003908</ele>
        <time>2026-05-10T11:36:13Z</time>
      </trkpt>
      <trkpt lat="31.230754934778766" lon="121.39928670439372">
        <ele>6.90805799420923</ele>
        <time>2026-05-10T11:36:19Z</time>
      </trkpt>
      <trkpt lat="31.230501059008215" lon="121.39937873581835">
        <ele>11.600736445747316</ele>
        <time>2026-05-10T11:36:31Z</time>
      </trkpt>
      <trkpt lat="31.230282162691218" lon="121.39940775792918">
        <ele>14.30906707700342</ele>
        <time>2026-05-10T11:36:40Z</time>
      </trkpt>
      <trkpt lat="31.230003299514028" lon="121.39950479266537">
        <ele>12.27715856488794</ele>
        <time>2026-05-10T11:36:52Z</time>
      </trkpt>
      <trkpt lat="31.229830387032187" lon="121.39959481784965">
        <ele>7.378382987342775</ele>
        <time>2026-05-10T11:36:58Z</time>
      </trkpt>
      <trkpt lat="31.229751430855952" lon="121.39967983466745">
        <ele>13.080409831367433</ele>
        <time>2026-05-10T11:37:01Z</time>
      </trkpt>
      <trkpt lat="31.22970347226476" lon="121.39989086514153">
        <ele>13.26801127847284</ele>
        <time>2026-05-10T11:37:07Z</time>
      </trkpt>
      <trkpt lat="31.22970347933907" lon="121.39996387478114">
        <ele>7.795861906372011</ele>
        <time>2026-05-10T11:37:10Z</time>
      </trkpt>
      <trkpt lat="31.229759470408133" lon="121.40013089300388">
        <ele>13.349921888671815</ele>
        <time>2026-05-10T11:37:16Z</time>
      </trkpt>
      <trkpt lat="31.229807457286356" lon="121.40021590114196">
        <ele>9.159275717101991</ele>
        <time>2026-05-10T11:37:19Z</time>
      </trkpt>
      <trkpt lat="31.229864437261693" lon="121.40027390479905">
        <ele>9.508055872283876</ele>
        <time>2026-05-10T11:37:22Z</time>
      </trkpt>
      <trkpt lat="31.23003236771591" lon="121.40034790141512">
        <ele>10.332445329986513</ele>
        <time>2026-05-10T11:37:28Z</time>
      </trkpt>
      <trkpt lat="31.230120328620245" lon="121.40036289606094">
        <ele>14.12146610673517</ele>
        <time>2026-05-10T11:37:31Z</time>
      </trkpt>
      <trkpt lat="31.230202289416816" lon="121.4003528873649">
        <ele>9.560901111923158</ele>
        <time>2026-05-10T11:37:34Z</time>
      </trkpt>
      <trkpt lat="31.230485148039076" lon="121.40026384915635">
        <ele>14.359270519576967</ele>
        <time>2026-05-10T11:37:46Z</time>
      </trkpt>
      <trkpt lat="31.230561111910983" lon="121.4002558413339">
        <ele>14.412115997634828</ele>
        <time>2026-05-10T11:37:49Z</time>
      </trkpt>
      <trkpt lat="31.230889945430693" lon="121.40012679382494">
        <ele>14.671058840118349</ele>
        <time>2026-05-10T11:38:01Z</time>
      </trkpt>
      <trkpt lat="31.231049862692284" lon="121.40004376822556">
        <ele>8.075943178497255</ele>
        <time>2026-05-10T11:38:07Z</time>
      </trkpt>
      <trkpt lat="31.231136812808113" lon="121.39994774761782">
        <ele>13.183458513580263</ele>
        <time>2026-05-10T11:38:10Z</time>
      </trkpt>
      <trkpt lat="31.23117778185032" lon="121.39982172768597">
        <ele>-31.0085733467713</ele>
        <time>2026-05-10T11:38:13Z</time>
      </trkpt>
      <trkpt lat="31.23118376101144" lon="121.39961570221564">
        <ele>15.786096758209169</ele>
        <time>2026-05-10T11:38:19Z</time>
      </trkpt>
      <trkpt lat="31.231154767455127" lon="121.39952969498815">
        <ele>-2.55128460470587</ele>
        <time>2026-05-10T11:38:22Z</time>
      </trkpt>
      <trkpt lat="31.231058802935088" lon="121.39941269070854">
        <ele>12.197888559661806</ele>
        <time>2026-05-10T11:38:28Z</time>
      </trkpt>
      <trkpt lat="31.230996828215464" lon="121.3993656912348">
        <ele>11.579596466384828</ele>
        <time>2026-05-10T11:38:31Z</time>
      </trkpt>
      <trkpt lat="31.230784921633862" lon="121.39929770286413">
        <ele>11.537320083938539</ele>
        <time>2026-05-10T11:38:40Z</time>
      </trkpt>
      <trkpt lat="31.23058201710836" lon="121.3993177225543">
        <ele>11.801547474227846</ele>
        <time>2026-05-10T11:38:55Z</time>
      </trkpt>
      <trkpt lat="31.230304153302804" lon="121.39941875716693">
        <ele>11.748701996169984</ele>
        <time>2026-05-10T11:39:13Z</time>
      </trkpt>
      <trkpt lat="31.229996305367493" lon="121.39953779693009">
        <ele>12.039352125488222</ele>
        <time>2026-05-10T11:39:31Z</time>
      </trkpt>
      <trkpt lat="31.229891356755292" lon="121.39957080979616">
        <ele>12.145043081603944</ele>
        <time>2026-05-10T11:39:37Z</time>
      </trkpt>
      <trkpt lat="31.229788415144434" lon="121.39969683347312">
        <ele>5.671472257934511</ele>
        <time>2026-05-10T11:39:43Z</time>
      </trkpt>
      <trkpt lat="31.22971646708759" lon="121.39989986518142">
        <ele>10.977158254943788</ele>
        <time>2026-05-10T11:39:52Z</time>
      </trkpt>
      <trkpt lat="31.2297444769495" lon="121.4001268937411">
        <ele>11.468621200881898</ele>
        <time>2026-05-10T11:40:01Z</time>
      </trkpt>
      <trkpt lat="31.229819457367416" lon="121.40026690767185">
        <ele>12.256018823944032</ele>
        <time>2026-05-10T11:40:07Z</time>
      </trkpt>
      <trkpt lat="31.229923416460853" lon="121.40033190845865">
        <ele>11.214962906204164</ele>
        <time>2026-05-10T11:40:10Z</time>
      </trkpt>
      <trkpt lat="31.23003037073114" lon="121.40036590437275">
        <ele>11.415775722824037</ele>
        <time>2026-05-10T11:40:13Z</time>
      </trkpt>
      <trkpt lat="31.2301533145904" lon="121.40037389489135">
        <ele>13.006424612365663</ele>
        <time>2026-05-10T11:40:16Z</time>
      </trkpt>
      <trkpt lat="31.23042817603858" lon="121.40027785622746">
        <ele>13.849309987388551</ele>
        <time>2026-05-10T11:40:25Z</time>
      </trkpt>
      <trkpt lat="31.23071903141581" lon="121.40018981781802">
        <ele>12.018214172683656</ele>
        <time>2026-05-10T11:40:40Z</time>
      </trkpt>
      <trkpt lat="31.23081998428758" lon="121.4001868085747">
        <ele>11.891385025344789</ele>
        <time>2026-05-10T11:40:46Z</time>
      </trkpt>
      <trkpt lat="31.23101488312483" lon="121.40008477698632">
        <ele>13.278578824363649</ele>
        <time>2026-05-10T11:40:58Z</time>
      </trkpt>
      <trkpt lat="31.231134815304955" lon="121.39996374992896">
        <ele>13.579798049293458</ele>
        <time>2026-05-10T11:41:05Z</time>
      </trkpt>
      <trkpt lat="31.231205769347742" lon="121.39982672587786">
        <ele>11.447482890449464</ele>
        <time>2026-05-10T11:41:11Z</time>
      </trkpt>
      <trkpt lat="31.23122875117777" lon="121.39974371353124">
        <ele>13.49524528440088</ele>
        <time>2026-05-10T11:41:14Z</time>
      </trkpt>
      <trkpt lat="31.23122174703225" lon="121.39965870392591">
        <ele>14.64991897996515</ele>
        <time>2026-05-10T11:41:17Z</time>
      </trkpt>
      <trkpt lat="31.231097785170558" lon="121.39941668772876">
        <ele>6.199926800094545</ele>
        <time>2026-05-10T11:41:26Z</time>
      </trkpt>
      <trkpt lat="31.2310318107859" lon="121.39934868644677">
        <ele>14.525732464157045</ele>
        <time>2026-05-10T11:41:29Z</time>
      </trkpt>
      <trkpt lat="31.230806911439743" lon="121.399297700946">
        <ele>-4.939899020828307</ele>
        <time>2026-05-10T11:41:38Z</time>
      </trkpt>
      <trkpt lat="31.23069596336264" lon="121.39930471131835">
        <ele>15.400324291549623</ele>
        <time>2026-05-10T11:41:41Z</time>
      </trkpt>
      <trkpt lat="31.230444085364354" lon="121.39937774068478">
        <ele>6.41130871232599</ele>
        <time>2026-05-10T11:41:53Z</time>
      </trkpt>
      <trkpt lat="31.230186209460836" lon="121.39943776946636">
        <ele>15.109674877487123</ele>
        <time>2026-05-10T11:42:05Z</time>
      </trkpt>
      <trkpt lat="31.22986936983411" lon="121.39960581571314">
        <ele>12.610083765350282</ele>
        <time>2026-05-10T11:42:20Z</time>
      </trkpt>
      <trkpt lat="31.22980940272827" lon="121.39966582794908">
        <ele>17.09666461404413</ele>
        <time>2026-05-10T11:42:23Z</time>
      </trkpt>
      <trkpt lat="31.229742445302662" lon="121.39979584961567">
        <ele>16.150730556808412</ele>
        <time>2026-05-10T11:42:29Z</time>
      </trkpt>
      <trkpt lat="31.229714466776063" lon="121.39988686366237">
        <ele>3.6422056620940566</ele>
        <time>2026-05-10T11:42:32Z</time>
      </trkpt>
      <trkpt lat="31.22974947388874" lon="121.40011989230875">
        <ele>12.403985447250307</ele>
        <time>2026-05-10T11:42:41Z</time>
      </trkpt>
      <trkpt lat="31.22977746826908" lon="121.40018889980199">
        <ele>9.323094076476991</ele>
        <time>2026-05-10T11:42:44Z</time>
      </trkpt>
      <trkpt lat="31.22997139695118" lon="121.40035590796835">
        <ele>18.33589047845453</ele>
        <time>2026-05-10T11:42:50Z</time>
      </trkpt>
      <trkpt lat="31.230103338841275" lon="121.40038290065246">
        <ele>17.847069925628603</ele>
        <time>2026-05-10T11:42:53Z</time>
      </trkpt>
      <trkpt lat="31.23040519169453" lon="121.40032186490438">
        <ele>16.348900503478944</ele>
        <time>2026-05-10T11:43:02Z</time>
      </trkpt>
      <trkpt lat="31.230738022610616" lon="121.40018981616144">
        <ele>15.088535971008241</ele>
        <time>2026-05-10T11:43:15Z</time>
      </trkpt>
      <trkpt lat="31.231033874428647" lon="121.40008577547007">
        <ele>11.986506409011781</ele>
        <time>2026-05-10T11:43:27Z</time>
      </trkpt>
      <trkpt lat="31.23118578643424" lon="121.39990973832462">
        <ele>16.119022793136537</ele>
        <time>2026-05-10T11:43:36Z</time>
      </trkpt>
      <trkpt lat="31.231212765645054" lon="121.39982172463432">
        <ele>18.325321382842958</ele>
        <time>2026-05-10T11:43:39Z</time>
      </trkpt>
      <trkpt lat="31.231205752496404" lon="121.3996357026219">
        <ele>14.068618006072938</ele>
        <time>2026-05-10T11:43:45Z</time>
      </trkpt>
      <trkpt lat="31.23113977056784" lon="121.39948069091085">
        <ele>13.278578109107912</ele>
        <time>2026-05-10T11:43:51Z</time>
      </trkpt>
      <trkpt lat="31.230918861781433" lon="121.3993296943764">
        <ele>14.649918264709413</ele>
        <time>2026-05-10T11:44:03Z</time>
      </trkpt>
      <trkpt lat="31.230701960097456" lon="121.39929771010078">
        <ele>17.02532238420099</ele>
        <time>2026-05-10T11:44:12Z</time>
      </trkpt>
      <trkpt lat="31.230484064945227" lon="121.39935173453141">
        <ele>14.068618006072938</ele>
        <time>2026-05-10T11:44:21Z</time>
      </trkpt>
      <trkpt lat="31.23033114063142" lon="121.39941675460224">
        <ele>10.406426376663148</ele>
        <time>2026-05-10T11:44:27Z</time>
      </trkpt>
      <trkpt lat="31.230073265784547" lon="121.39948878481106">
        <ele>15.661909050308168</ele>
        <time>2026-05-10T11:44:39Z</time>
      </trkpt>
      <trkpt lat="31.229928338771913" lon="121.39956080543953">
        <ele>15.683047241531312</ele>
        <time>2026-05-10T11:44:45Z</time>
      </trkpt>
      <trkpt lat="31.229767424461595" lon="121.39969183470492">
        <ele>13.82817108090967</ele>
        <time>2026-05-10T11:44:54Z</time>
      </trkpt>
      <trkpt lat="31.229736442526523" lon="121.39973384248074">
        <ele>16.08731538709253</ele>
        <time>2026-05-10T11:44:57Z</time>
      </trkpt>
      <trkpt lat="31.22970846486183" lon="121.399836857755">
        <ele>13.059269494377077</ele>
        <time>2026-05-10T11:45:00Z</time>
      </trkpt>
      <trkpt lat="31.229701477818498" lon="121.39993887162275">
        <ele>9.185695952735841</ele>
        <time>2026-05-10T11:45:03Z</time>
      </trkpt>
      <trkpt lat="31.229718485035686" lon="121.40008889062966">
        <ele>13.661708182655275</ele>
        <time>2026-05-10T11:45:09Z</time>
      </trkpt>
      <trkpt lat="31.22976547569153" lon="121.40020590333427">
        <ele>15.056828803382814</ele>
        <time>2026-05-10T11:45:15Z</time>
      </trkpt>
      <trkpt lat="31.22983345390698" lon="121.4002939105175">
        <ele>11.267808026634157</ele>
        <time>2026-05-10T11:45:18Z</time>
      </trkpt>
      <trkpt lat="31.23001637909539" lon="121.40038190808167">
        <ele>-5.8118504816666245</ele>
        <time>2026-05-10T11:45:27Z</time>
      </trkpt>
      <trkpt lat="31.230194296153194" lon="121.40037889209496">
        <ele>14.454390591941774</ele>
        <time>2026-05-10T11:45:36Z</time>
      </trkpt>
      <trkpt lat="31.230473156864512" lon="121.40029285456701">
        <ele>11.008865422569215</ele>
        <time>2026-05-10T11:45:48Z</time>
      </trkpt>
      <trkpt lat="31.23080298743756" lon="121.40014280369759">
        <ele>12.964148110710084</ele>
        <time>2026-05-10T11:46:03Z</time>
      </trkpt>
      <trkpt lat="31.231014879311363" lon="121.40004777183027">
        <ele>14.13203317578882</ele>
        <time>2026-05-10T11:46:16Z</time>
      </trkpt>
      <trkpt lat="31.231142804526268" lon="121.39989073959178">
        <ele>2.2312315171584487</ele>
        <time>2026-05-10T11:46:22Z</time>
      </trkpt>
      <trkpt lat="31.231193767382525" lon="121.39974371658289">
        <ele>15.368617839179933</ele>
        <time>2026-05-10T11:46:28Z</time>
      </trkpt>
      <trkpt lat="31.23115476953212" lon="121.39955569789673">
        <ele>15.70154435094446</ele>
        <time>2026-05-10T11:46:34Z</time>
      </trkpt>
      <trkpt lat="31.231081793924975" lon="121.399434691027">
        <ele>7.087730950675905</ele>
        <time>2026-05-10T11:46:40Z</time>
      </trkpt>
      <trkpt lat="31.230907867513295" lon="121.39933869624389">
        <ele>9.93610221799463</ele>
        <time>2026-05-10T11:46:49Z</time>
      </trkpt>
      <trkpt lat="31.230735945311572" lon="121.39931170852783">
        <ele>12.28772599156946</ele>
        <time>2026-05-10T11:46:55Z</time>
      </trkpt>
      <trkpt lat="31.23046907319315" lon="121.39936973768106">
        <ele>11.68528754170984</ele>
        <time>2026-05-10T11:47:07Z</time>
      </trkpt>
      <trkpt lat="31.230411100376553" lon="121.39937374314954">
        <ele>10.665369815193117</ele>
        <time>2026-05-10T11:47:10Z</time>
      </trkpt>
      <trkpt lat="31.230362125365794" lon="121.39940475064009">
        <ele>13.474107093177736</ele>
        <time>2026-05-10T11:47:13Z</time>
      </trkpt>
      <trkpt lat="31.23009525441877" lon="121.39947378126331">
        <ele>18.314752883277833</ele>
        <time>2026-05-10T11:47:23Z</time>
      </trkpt>
      <trkpt lat="31.229999301605197" lon="121.39950779334399">
        <ele>16.462518996559083</ele>
        <time>2026-05-10T11:47:26Z</time>
      </trkpt>
      <trkpt lat="31.229753434103834" lon="121.3997278402682">
        <ele>9.323094672523439</ele>
        <time>2026-05-10T11:47:38Z</time>
      </trkpt>
      <trkpt lat="31.229723453397707" lon="121.39978785027272">
        <ele>-5.616321259178221</ele>
        <time>2026-05-10T11:47:41Z</time>
      </trkpt>
      <trkpt lat="31.229717484150928" lon="121.40007588889434">
        <ele>4.371473616920412</ele>
        <time>2026-05-10T11:47:53Z</time>
      </trkpt>
      <trkpt lat="31.229747478748983" lon="121.40015689777917">
        <ele>13.8387406533584</ele>
        <time>2026-05-10T11:47:56Z</time>
      </trkpt>
      <trkpt lat="31.22981645630784" lon="121.4002449046485">
        <ele>13.714553779922426</ele>
        <time>2026-05-10T11:48:02Z</time>
      </trkpt>
      <trkpt lat="31.22998938940965" lon="121.4003629074823">
        <ele>13.756830162368715</ele>
        <time>2026-05-10T11:48:08Z</time>
      </trkpt>
      <trkpt lat="31.23017930311202" lon="121.40037889340276">
        <ele>12.610083288513124</ele>
        <time>2026-05-10T11:48:17Z</time>
      </trkpt>
      <trkpt lat="31.230234276430267" lon="121.4003688870523">
        <ele>16.99361581262201</ele>
        <time>2026-05-10T11:48:20Z</time>
      </trkpt>
      <trkpt lat="31.230507136500258" lon="121.4002518454452">
        <ele>13.402765697799623</ele>
        <time>2026-05-10T11:48:36Z</time>
      </trkpt>
      <trkpt lat="31.23058209611221" lon="121.40020083137023">
        <ele>6.1787886088714</ele>
        <time>2026-05-10T11:48:42Z</time>
      </trkpt>
      <trkpt lat="31.23080898873481" lon="121.4001808086606">
        <ele>14.557439274154603</ele>
        <time>2026-05-10T11:48:48Z</time>
      </trkpt>
      <trkpt lat="31.230970906852324" lon="121.40011678533995">
        <ele>15.453170008026063</ele>
        <time>2026-05-10T11:48:54Z</time>
      </trkpt>
      <trkpt lat="31.231142810029766" lon="121.39994774709469">
        <ele>15.318414158187807</ele>
        <time>2026-05-10T11:49:00Z</time>
      </trkpt>
      <trkpt lat="31.23120177427488" lon="121.39985973043869">
        <ele>14.443821377120912</ele>
        <time>2026-05-10T11:49:03Z</time>
      </trkpt>
      <trkpt lat="31.23123774236785" lon="121.39969070633227">
        <ele>15.870649284683168</ele>
        <time>2026-05-10T11:49:09Z</time>
      </trkpt>
      <trkpt lat="31.231193751474095" lon="121.39955569449631">
        <ele>15.453170008026063</ele>
        <time>2026-05-10T11:49:15Z</time>
      </trkpt>
      <trkpt lat="31.231154763853702" lon="121.39948368992908">
        <ele>16.607843822799623</ele>
        <time>2026-05-10T11:49:18Z</time>
      </trkpt>
      <trkpt lat="31.23105280409363" lon="121.39939068893325">
        <ele>4.545863575302064</ele>
        <time>2026-05-10T11:49:24Z</time>
      </trkpt>
      <trkpt lat="31.23094384949783" lon="121.39931969119229">
        <ele>16.49422592576593</ele>
        <time>2026-05-10T11:49:30Z</time>
      </trkpt>
      <trkpt lat="31.230744938797585" lon="121.39927770438172">
        <ele>2.188954777084291</ele>
        <time>2026-05-10T11:49:39Z</time>
      </trkpt>
      <trkpt lat="31.230438086847084" lon="121.39935973935852">
        <ele>15.506015247665346</ele>
        <time>2026-05-10T11:49:54Z</time>
      </trkpt>
      <trkpt lat="31.230349129128804" lon="121.39937374855515">
        <ele>8.45114368852228</ele>
        <time>2026-05-10T11:49:57Z</time>
      </trkpt>
      <trkpt lat="31.230217193212503" lon="121.39941276412094">
        <ele>13.297073788009584</ele>
        <time>2026-05-10T11:50:03Z</time>
      </trkpt>
      <trkpt lat="31.229934334941873" lon="121.3995478034543">
        <ele>11.246669239364564</ele>
        <time>2026-05-10T11:50:18Z</time>
      </trkpt>
      <trkpt lat="31.2297994045792" lon="121.39963282494492">
        <ele>11.341791099868715</ele>
        <time>2026-05-10T11:50:25Z</time>
      </trkpt>
      <trkpt lat="31.229734446035618" lon="121.39976284621198">
        <ele>10.718214458785951</ele>
        <time>2026-05-10T11:50:31Z</time>
      </trkpt>
      <trkpt lat="31.229712480948887" lon="121.40002188185491">
        <ele>13.537520832382143</ele>
        <time>2026-05-10T11:50:40Z</time>
      </trkpt>
      <trkpt lat="31.22980846046621" lon="121.40024890594135">
        <ele>17.06759876664728</ele>
        <time>2026-05-10T11:50:46Z</time>
      </trkpt>
      <trkpt lat="31.2299254185334" lon="121.40035791228814">
        <ele>14.713332838378847</ele>
        <time>2026-05-10T11:50:49Z</time>
      </trkpt>
      <trkpt lat="31.23003736970137" lon="121.40038490671883">
        <ele>13.870447463355958</ele>
        <time>2026-05-10T11:50:52Z</time>
      </trkpt>
      <trkpt lat="31.23020628767699" lon="121.4003538871706">
        <ele>-0.8760830694809556</ele>
        <time>2026-05-10T11:50:58Z</time>
      </trkpt>
      <trkpt lat="31.230277250715645" lon="121.40031887560619">
        <ele>10.448703116737306</ele>
        <time>2026-05-10T11:51:01Z</time>
      </trkpt>
      <trkpt lat="31.23051213585648" lon="121.40026684725173">
        <ele>15.014552420936525</ele>
        <time>2026-05-10T11:51:10Z</time>
      </trkpt>
      <trkpt lat="31.230793994606074" lon="121.40017080851734">
        <ele>12.256018466316164</ele>
        <time>2026-05-10T11:51:22Z</time>
      </trkpt>
      <trkpt lat="31.23109384129654" lon="121.40003376301014">
        <ele>3.404400653205812</ele>
        <time>2026-05-10T11:51:37Z</time>
      </trkpt>
      <trkpt lat="31.231151808123776" lon="121.39997074938579">
        <ele>11.15683204587549</ele>
        <time>2026-05-10T11:51:40Z</time>
      </trkpt>
      <trkpt lat="31.23124174498167" lon="121.39974171215304">
        <ele>11.103986567817628</ele>
        <time>2026-05-10T11:51:49Z</time>
      </trkpt>
      <trkpt lat="31.231205747780322" lon="121.39957869605256">
        <ele>13.651138610206544</ele>
        <time>2026-05-10T11:51:55Z</time>
      </trkpt>
      <trkpt lat="31.23112677535906" lon="121.39946469031317">
        <ele>3.895862883888185</ele>
        <time>2026-05-10T11:52:01Z</time>
      </trkpt>
      <trkpt lat="31.230984832769316" lon="121.39935169085">
        <ele>15.15194923337549</ele>
        <time>2026-05-10T11:52:07Z</time>
      </trkpt>
      <trkpt lat="31.23086388586152" lon="121.39930969716828">
        <ele>14.182234711013734</ele>
        <time>2026-05-10T11:52:13Z</time>
      </trkpt>
      <trkpt lat="31.23065698213407" lon="121.3993147157152">
        <ele>11.362928337417543</ele>
        <time>2026-05-10T11:52:22Z</time>
      </trkpt>
      <trkpt lat="31.230443082676988" lon="121.39933373628124">
        <ele>14.338128752075136</ele>
        <time>2026-05-10T11:52:32Z</time>
      </trkpt>
      <trkpt lat="31.230233186384822" lon="121.39942076356802">
        <ele>12.09219593461603</ele>
        <time>2026-05-10T11:52:41Z</time>
      </trkpt>
      <trkpt lat="31.229922336951724" lon="121.39950279950779">
        <ele>13.558657950721681</ele>
        <time>2026-05-10T11:52:53Z</time>
      </trkpt>
      <trkpt lat="31.22980040145381" lon="121.39960082115373">
        <ele>14.568006700836122</ele>
        <time>2026-05-10T11:52:59Z</time>
      </trkpt>
      <trkpt lat="31.22971645837997" lon="121.39980685326225">
        <ele>12.871666735969484</ele>
        <time>2026-05-10T11:53:08Z</time>
      </trkpt>
      <trkpt lat="31.229713478772315" lon="121.40000487944607">
        <ele>8.49870330747217</ele>
        <time>2026-05-10T11:53:17Z</time>
      </trkpt>
      <trkpt lat="31.229743475098054" lon="121.40010489070532">
        <ele>14.348697966895998</ele>
        <time>2026-05-10T11:53:23Z</time>
      </trkpt>
      <trkpt lat="31.229818454603542" lon="121.40023790343427">
        <ele>13.069837397895753</ele>
        <time>2026-05-10T11:53:26Z</time>
      </trkpt>
      <trkpt lat="31.229873436244713" lon="121.40030190824228">
        <ele>9.259678429923952</ele>
        <time>2026-05-10T11:53:29Z</time>
      </trkpt>
      <trkpt lat="31.229954403799933" lon="121.40034690806148">
        <ele>14.121462411247194</ele>
        <time>2026-05-10T11:53:33Z</time>
      </trkpt>
      <trkpt lat="31.23011233337988" lon="121.40037189815504">
        <ele>11.25723750051111</ele>
        <time>2026-05-10T11:53:39Z</time>
      </trkpt>
      <trkpt lat="31.230417180353342" lon="121.40027085613451">
        <ele>10.9560182755813</ele>
        <time>2026-05-10T11:53:54Z</time>
      </trkpt>
      <trkpt lat="31.230470151880258" lon="121.4002358462922">
        <ele>14.879794902168214</ele>
        <time>2026-05-10T11:53:57Z</time>
      </trkpt>
      <trkpt lat="31.230775001906856" lon="121.40015680815125">
        <ele>12.620650834403932</ele>
        <time>2026-05-10T11:54:09Z</time>
      </trkpt>
      <trkpt lat="31.230909935848132" lon="121.40012379165381">
        <ele>12.04991967137903</ele>
        <time>2026-05-10T11:54:15Z</time>
      </trkpt>
      <trkpt lat="31.231027874212227" lon="121.40005677194436">
        <ele>-6.82120078150183</ele>
        <time>2026-05-10T11:54:21Z</time>
      </trkpt>
      <trkpt lat="31.231186781407935" lon="121.39986173200366">
        <ele>9.259678429923952</ele>
        <time>2026-05-10T11:54:33Z</time>
      </trkpt>
      <trkpt lat="31.231202769263124" lon="121.3998107241178">
        <ele>13.579796380363405</ele>
        <time>2026-05-10T11:54:36Z</time>
      </trkpt>
      <trkpt lat="31.23117676194273" lon="121.39958769960701">
        <ele>10.205612725578249</ele>
        <time>2026-05-10T11:54:45Z</time>
      </trkpt>
      <trkpt lat="31.23109978387337" lon="121.39941168702875">
        <ele>14.483454293571413</ele>
        <time>2026-05-10T11:54:54Z</time>
      </trkpt>
      <trkpt lat="31.231013819981683" lon="121.3993606892403">
        <ele>14.869226044975221</ele>
        <time>2026-05-10T11:55:00Z</time>
      </trkpt>
      <trkpt lat="31.230773927841557" lon="121.39931370541429">
        <ele>11.84382254537195</ele>
        <time>2026-05-10T11:55:12Z</time>
      </trkpt>
      <trkpt lat="31.230462077381606" lon="121.39938273963214">
        <ele>10.480409211479127</ele>
        <time>2026-05-10T11:55:25Z</time>
      </trkpt>
      <trkpt lat="31.230122242275716" lon="121.39947877945119">
        <ele>12.351139134727418</ele>
        <time>2026-05-10T11:55:40Z</time>
      </trkpt>
      <trkpt lat="31.229854376055066" lon="121.39959681598648">
        <ele>11.51618058141321</ele>
        <time>2026-05-10T11:55:52Z</time>
      </trkpt>
      <trkpt lat="31.22971946124605" lon="121.39985285883944">
        <ele>10.538539237342775</ele>
        <time>2026-05-10T11:56:01Z</time>
      </trkpt>
      <trkpt lat="31.229709477738428" lon="121.39997587586942">
        <ele>11.56902605947107</ele>
        <time>2026-05-10T11:56:04Z</time>
      </trkpt>
      <trkpt lat="31.22976247103583" lon="121.40014989546391">
        <ele>10.987725800834596</ele>
        <time>2026-05-10T11:56:10Z</time>
      </trkpt>
      <trkpt lat="31.229859446858796" lon="121.40033791495932">
        <ele>10.728782958351076</ele>
        <time>2026-05-10T11:56:16Z</time>
      </trkpt>
      <trkpt lat="31.229931420188304" lon="121.40039591768077">
        <ele>11.590164250694215</ele>
        <time>2026-05-10T11:56:19Z</time>
      </trkpt>
      <trkpt lat="31.22989544211931" lon="121.40043992776417">
        <ele>8.90561396535486</ele>
        <time>2026-05-10T11:56:25Z</time>
      </trkpt>
    </trkseg>
  </trk>
</gpx>