<?xml version="1.0" encoding="UTF-8"?>
<gpx xmlns="http://www.topografix.com/GPX/1/1" xmlns:gpxtpx="http://www.garmin.com/xmlschemas/TrackPointExtension/v1" xmlns:xsi="http://www.w3.org/2001/XMLSchema-instance" xsi:schemaLocation="http://www.topografix.com/GPX/1/1 http://www.topografix.com/GPX/1/1/gpx.xsd" version="1.1" creator="gpx.py -- https://github.com/tkrajina/gpxpy">
  <trk>
    <name>gpx from keep</name>
    <type>Run</type>
    <trkseg>
      <trkpt lat="31.229723450160133" lon="121.39975184581667">
        <ele>23.376095318235457</ele>
        <time>2026-05-28T09:22:58Z</time>
      </trkpt>
      <trkpt lat="31.229754468945035" lon="121.40009488833516">
        <ele>33.62283375207335</ele>
        <time>2026-05-28T09:23:10Z</time>
      </trkpt>
      <trkpt lat="31.22981245761052" lon="121.40023990425424">
        <ele>33.6122632259503</ele>
        <time>2026-05-28T09:23:13Z</time>
      </trkpt>
      <trkpt lat="31.22999439224564" lon="121.40040691391471">
        <ele>32.01104786340147</ele>
        <time>2026-05-28T09:23:19Z</time>
      </trkpt>
      <trkpt lat="31.2300633623594" lon="121.40042491073801">
        <ele>32.48136951867491</ele>
        <time>2026-05-28T09:23:22Z</time>
      </trkpt>
      <trkpt lat="31.230215285943828" lon="121.40037488964134">
        <ele>27.934017681516707</ele>
        <time>2026-05-28T09:23:25Z</time>
      </trkpt>
      <trkpt lat="31.230352212635186" lon="121.40028986466311">
        <ele>-9.446231341920793</ele>
        <time>2026-05-28T09:23:28Z</time>
      </trkpt>
      <trkpt lat="31.23061408259018" lon="121.40021283034108">
        <ele>-0.47306964453309774</ele>
        <time>2026-05-28T09:23:34Z</time>
      </trkpt>
      <trkpt lat="31.23089694144857" lon="121.40011979221818">
        <ele>30.087471508421004</ele>
        <time>2026-05-28T09:23:43Z</time>
      </trkpt>
      <trkpt lat="31.23097990100425" lon="121.40010078228987">
        <ele>31.091534161008894</ele>
        <time>2026-05-28T09:23:46Z</time>
      </trkpt>
      <trkpt lat="31.231030873130887" lon="121.40005977209961">
        <ele>30.33848621789366</ele>
        <time>2026-05-28T09:23:49Z</time>
      </trkpt>
      <trkpt lat="31.231065849536208" lon="121.39998675904017">
        <ele>-23.68544719275087</ele>
        <time>2026-05-28T09:23:52Z</time>
      </trkpt>
      <trkpt lat="31.231193772697612" lon="121.39980272389673">
        <ele>33.08908894006163</ele>
        <time>2026-05-28T09:23:58Z</time>
      </trkpt>
      <trkpt lat="31.231208748690037" lon="121.39960669899673">
        <ele>31.123238109983504</ele>
        <time>2026-05-28T09:24:01Z</time>
      </trkpt>
      <trkpt lat="31.23115176462606" lon="121.39947568932214">
        <ele>-21.629760242067277</ele>
        <time>2026-05-28T09:24:04Z</time>
      </trkpt>
      <trkpt lat="31.23107079430293" lon="121.39937068529638">
        <ele>30.024052166379988</ele>
        <time>2026-05-28T09:24:07Z</time>
      </trkpt>
      <trkpt lat="31.23098682936969" lon="121.39931668714287">
        <ele>28.51795628014952</ele>
        <time>2026-05-28T09:24:10Z</time>
      </trkpt>
      <trkpt lat="31.23062599539168" lon="121.39929871682612">
        <ele>30.34905292931944</ele>
        <time>2026-05-28T09:24:22Z</time>
      </trkpt>
      <trkpt lat="31.2305410344495" lon="121.39929372374237">
        <ele>30.013485454954207</ele>
        <time>2026-05-28T09:24:25Z</time>
      </trkpt>
      <trkpt lat="31.2302841605134" lon="121.39939075598099">
        <ele>30.975269817747176</ele>
        <time>2026-05-28T09:24:37Z</time>
      </trkpt>
      <trkpt lat="31.22990334965172" lon="121.39955180660598">
        <ele>30.829945110715926</ele>
        <time>2026-05-28T09:24:55Z</time>
      </trkpt>
      <trkpt lat="31.22982638938308" lon="121.39960081888691">
        <ele>27.01450397912413</ele>
        <time>2026-05-28T09:24:58Z</time>
      </trkpt>
      <trkpt lat="31.22974743340222" lon="121.39968783597031">
        <ele>31.85514881554991</ele>
        <time>2026-05-28T09:25:01Z</time>
      </trkpt>
      <trkpt lat="31.229702465890867" lon="121.39981785586896">
        <ele>22.895199322141707</ele>
        <time>2026-05-28T09:25:04Z</time>
      </trkpt>
      <trkpt lat="31.229695482758586" lon="121.39996087507694">
        <ele>28.895802044309676</ele>
        <time>2026-05-28T09:25:10Z</time>
      </trkpt>
      <trkpt lat="31.22980645929071" lon="121.40022990329525">
        <ele>-6.259654498659074</ele>
        <time>2026-05-28T09:25:19Z</time>
      </trkpt>
      <trkpt lat="31.229929415750238" lon="121.40034991070365">
        <ele>19.687475704587996</ele>
        <time>2026-05-28T09:25:25Z</time>
      </trkpt>
      <trkpt lat="31.230079353629016" lon="121.400413907606">
        <ele>30.087465786375105</ele>
        <time>2026-05-28T09:25:31Z</time>
      </trkpt>
      <trkpt lat="31.230221285034126" lon="121.40039089161411">
        <ele>34.93868114892393</ele>
        <time>2026-05-28T09:25:37Z</time>
      </trkpt>
      <trkpt lat="31.230320232260546" lon="121.40033187384576">
        <ele>26.272020840086043</ele>
        <time>2026-05-28T09:25:40Z</time>
      </trkpt>
      <trkpt lat="31.230517134660147" lon="121.40027684831735">
        <ele>31.738886379636824</ele>
        <time>2026-05-28T09:25:46Z</time>
      </trkpt>
      <trkpt lat="31.230849966941154" lon="121.40015480132399">
        <ele>8.5899243587628</ele>
        <time>2026-05-28T09:25:55Z</time>
      </trkpt>
      <trkpt lat="31.231061859081994" lon="121.400062769814">
        <ele>33.45372250024229</ele>
        <time>2026-05-28T09:26:01Z</time>
      </trkpt>
      <trkpt lat="31.231193777885032" lon="121.39985873100774">
        <ele>29.47974255029112</ele>
        <time>2026-05-28T09:26:07Z</time>
      </trkpt>
      <trkpt lat="31.231230749719934" lon="121.39973771262332">
        <ele>31.675470852293074</ele>
        <time>2026-05-28T09:26:10Z</time>
      </trkpt>
      <trkpt lat="31.231231740123125" lon="121.3996316998884">
        <ele>31.823439144529402</ele>
        <time>2026-05-28T09:26:13Z</time>
      </trkpt>
      <trkpt lat="31.231126772860815" lon="121.39943168678508">
        <ele>31.05982067529112</ele>
        <time>2026-05-28T09:26:22Z</time>
      </trkpt>
      <trkpt lat="31.230988828863435" lon="121.39932268756955">
        <ele>32.357180141843855</ele>
        <time>2026-05-28T09:26:28Z</time>
      </trkpt>
      <trkpt lat="31.230778921553014" lon="121.39925569927453">
        <ele>29.366125606931746</ele>
        <time>2026-05-28T09:26:37Z</time>
      </trkpt>
      <trkpt lat="31.23062199471952" lon="121.39926171354497">
        <ele>29.469172024168074</ele>
        <time>2026-05-28T09:26:43Z</time>
      </trkpt>
      <trkpt lat="31.230370117522014" lon="121.39934774406377">
        <ele>31.466730617918074</ele>
        <time>2026-05-28T09:26:55Z</time>
      </trkpt>
      <trkpt lat="31.230309146169613" lon="121.39935274989107">
        <ele>27.19153454247862</ele>
        <time>2026-05-28T09:26:58Z</time>
      </trkpt>
      <trkpt lat="31.230189208445832" lon="121.39944276973726">
        <ele>20.044184231199324</ele>
        <time>2026-05-28T09:27:04Z</time>
      </trkpt>
      <trkpt lat="31.229890357788435" lon="121.39957781067798">
        <ele>11.282402538694441</ele>
        <time>2026-05-28T09:27:16Z</time>
      </trkpt>
      <trkpt lat="31.229811401203534" lon="121.39965882694773">
        <ele>33.015104793943465</ele>
        <time>2026-05-28T09:27:19Z</time>
      </trkpt>
      <trkpt lat="31.229712460328955" lon="121.39980785373673">
        <ele>33.078520321287215</ele>
        <time>2026-05-28T09:27:22Z</time>
      </trkpt>
      <trkpt lat="31.229702476285222" lon="121.39992787007955">
        <ele>31.905348324216902</ele>
        <time>2026-05-28T09:27:25Z</time>
      </trkpt>
      <trkpt lat="31.229754468111803" lon="121.40008688721004">
        <ele>31.310839199461043</ele>
        <time>2026-05-28T09:27:31Z</time>
      </trkpt>
      <trkpt lat="31.22980445573353" lon="121.40018889744799">
        <ele>11.86634495202452</ele>
        <time>2026-05-28T09:27:34Z</time>
      </trkpt>
      <trkpt lat="31.229984394297666" lon="121.40038491133967">
        <ele>30.391325497068465</ele>
        <time>2026-05-28T09:27:43Z</time>
      </trkpt>
      <trkpt lat="31.230054365585413" lon="121.40041691025876">
        <ele>30.034620785154402</ele>
        <time>2026-05-28T09:27:46Z</time>
      </trkpt>
      <trkpt lat="31.230197298170975" lon="121.40040789637322">
        <ele>15.739916347898543</ele>
        <time>2026-05-28T09:27:52Z</time>
      </trkpt>
      <trkpt lat="31.230477157280955" lon="121.40031285725398">
        <ele>29.78360226098448</ele>
        <time>2026-05-28T09:28:04Z</time>
      </trkpt>
      <trkpt lat="31.2307750079728" lon="121.40021281630379">
        <ele>10.259842419065535</ele>
        <time>2026-05-28T09:28:16Z</time>
      </trkpt>
      <trkpt lat="31.23097390514698" lon="121.40011378465259">
        <ele>16.931581997312605</ele>
        <time>2026-05-28T09:28:25Z</time>
      </trkpt>
      <trkpt lat="31.23110982876176" lon="121.39998275466355">
        <ele>31.300268673337996</ele>
        <time>2026-05-28T09:28:31Z</time>
      </trkpt>
      <trkpt lat="31.231186777683146" lon="121.39982172690127">
        <ele>17.182600521482527</ele>
        <time>2026-05-28T09:28:34Z</time>
      </trkpt>
      <trkpt lat="31.231208758231823" lon="121.39971871223108">
        <ele>31.582991146482527</ele>
        <time>2026-05-28T09:28:37Z</time>
      </trkpt>
      <trkpt lat="31.231202751550764" lon="121.39960769963513">
        <ele>31.49843838158995</ele>
        <time>2026-05-28T09:28:40Z</time>
      </trkpt>
      <trkpt lat="31.231168760576605" lon="121.39952469321223">
        <ele>28.726694607175887</ele>
        <time>2026-05-28T09:28:43Z</time>
      </trkpt>
      <trkpt lat="31.231103783062597" lon="121.3994256881551">
        <ele>30.975267910398543</ele>
        <time>2026-05-28T09:28:46Z</time>
      </trkpt>
      <trkpt lat="31.231037808722242" lon="121.39935868694322">
        <ele>30.61063625756651</ele>
        <time>2026-05-28T09:28:49Z</time>
      </trkpt>
      <trkpt lat="31.23088487447505" lon="121.39928569296076">
        <ele>31.3531136745587</ele>
        <time>2026-05-28T09:28:55Z</time>
      </trkpt>
      <trkpt lat="31.23063499025701" lon="121.39928471465953">
        <ele>30.808805965818465</ele>
        <time>2026-05-28T09:29:04Z</time>
      </trkpt>
      <trkpt lat="31.230524043926625" lon="121.39931672751115">
        <ele>24.440928005613387</ele>
        <time>2026-05-28T09:29:10Z</time>
      </trkpt>
      <trkpt lat="31.23047106759468" lon="121.39930373083627">
        <ele>31.60413219872862</ele>
        <time>2026-05-28T09:29:34Z</time>
      </trkpt>
      <trkpt lat="31.230346130592565" lon="121.39937474891974">
        <ele>23.899260067380965</ele>
        <time>2026-05-28T09:29:40Z</time>
      </trkpt>
      <trkpt lat="31.230218192304594" lon="121.39940676340439">
        <ele>29.84701778832823</ele>
        <time>2026-05-28T09:29:46Z</time>
      </trkpt>
      <trkpt lat="31.2299533262835" lon="121.39954980202214">
        <ele>30.745390438474715</ele>
        <time>2026-05-28T09:29:58Z</time>
      </trkpt>
      <trkpt lat="31.22988436114471" lon="121.3995848119983">
        <ele>31.582991146482527</ele>
        <time>2026-05-28T09:30:01Z</time>
      </trkpt>
      <trkpt lat="31.229772421105537" lon="121.39967983283655">
        <ele>31.937056087888777</ele>
        <time>2026-05-28T09:30:07Z</time>
      </trkpt>
      <trkpt lat="31.229718454995" lon="121.39977984971253">
        <ele>30.420393490232527</ele>
        <time>2026-05-28T09:30:10Z</time>
      </trkpt>
      <trkpt lat="31.229700478282858" lon="121.39993887170994">
        <ele>31.572424435056746</ele>
        <time>2026-05-28T09:30:16Z</time>
      </trkpt>
      <trkpt lat="31.22975647233125" lon="121.40013589397981">
        <ele>34.67973568383604</ele>
        <time>2026-05-28T09:30:23Z</time>
      </trkpt>
      <trkpt lat="31.22982145398657" lon="121.40024490421257">
        <ele>32.34660961572081</ele>
        <time>2026-05-28T09:30:26Z</time>
      </trkpt>
      <trkpt lat="31.229937409618376" lon="121.40032890677836">
        <ele>30.504946255125105</ele>
        <time>2026-05-28T09:30:29Z</time>
      </trkpt>
      <trkpt lat="31.230060358092178" lon="121.40037690346645">
        <ele>20.65983059350401</ele>
        <time>2026-05-28T09:30:32Z</time>
      </trkpt>
      <trkpt lat="31.230347216767377" lon="121.4003058675234">
        <ele>33.41408779565245</ele>
        <time>2026-05-28T09:30:38Z</time>
      </trkpt>
      <trkpt lat="31.230446167579643" lon="121.40027685450765">
        <ele>16.210241817869246</ele>
        <time>2026-05-28T09:30:41Z</time>
      </trkpt>
      <trkpt lat="31.230613089819528" lon="121.40027383949632">
        <ele>32.52364208642393</ele>
        <time>2026-05-28T09:30:47Z</time>
      </trkpt>
      <trkpt lat="31.230873956357215" lon="121.40015979995215">
        <ele>31.63583614770323</ele>
        <time>2026-05-28T09:30:59Z</time>
      </trkpt>
      <trkpt lat="31.23107585290721" lon="121.40006576901109">
        <ele>29.804743313230574</ele>
        <time>2026-05-28T09:31:11Z</time>
      </trkpt>
      <trkpt lat="31.231135818317373" lon="121.39999875456279">
        <ele>32.79579784814268</ele>
        <time>2026-05-28T09:31:14Z</time>
      </trkpt>
      <trkpt lat="31.23121775627057" lon="121.39974371449033">
        <ele>32.219782375730574</ele>
        <time>2026-05-28T09:31:20Z</time>
      </trkpt>
      <trkpt lat="31.23119875110283" lon="121.39957969677667">
        <ele>31.812868618406355</ele>
        <time>2026-05-28T09:31:26Z</time>
      </trkpt>
      <trkpt lat="31.23112977290411" lon="121.39945068854786">
        <ele>-6.613721347413957</ele>
        <time>2026-05-28T09:31:32Z</time>
      </trkpt>
      <trkpt lat="31.231010819589134" lon="121.39933568696014">
        <ele>32.49193050805479</ele>
        <time>2026-05-28T09:31:38Z</time>
      </trkpt>
      <trkpt lat="31.230878876503752" lon="121.39927469240473">
        <ele>16.492964291013777</ele>
        <time>2026-05-28T09:31:44Z</time>
      </trkpt>
      <trkpt lat="31.230650981750923" lon="121.39926871169776">
        <ele>15.06085064355284</ele>
        <time>2026-05-28T09:31:56Z</time>
      </trkpt>
      <trkpt lat="31.230580015546476" lon="121.39928171916007">
        <ele>3.1019177669659257</ele>
        <time>2026-05-28T09:31:59Z</time>
      </trkpt>
      <trkpt lat="31.230369121604095" lon="121.39939774929864">
        <ele>30.755957149900496</ele>
        <time>2026-05-28T09:32:11Z</time>
      </trkpt>
      <trkpt lat="31.230105247871773" lon="121.39944877770162">
        <ele>32.679533504880965</ele>
        <time>2026-05-28T09:32:23Z</time>
      </trkpt>
      <trkpt lat="31.22990434878668" lon="121.39954680595775">
        <ele>27.075270199216902</ele>
        <time>2026-05-28T09:32:35Z</time>
      </trkpt>
      <trkpt lat="31.22976242609269" lon="121.39968383418505">
        <ele>-0.48364780005067587</ele>
        <time>2026-05-28T09:32:41Z</time>
      </trkpt>
      <trkpt lat="31.22972245080284" lon="121.39975384614962">
        <ele>31.81286480370909</ele>
        <time>2026-05-28T09:32:44Z</time>
      </trkpt>
      <trkpt lat="31.22970246727672" lon="121.39983285776934">
        <ele>31.57242062035948</ele>
        <time>2026-05-28T09:32:47Z</time>
      </trkpt>
      <trkpt lat="31.229727477651892" lon="121.40005788551368">
        <ele>26.95108272973448</ele>
        <time>2026-05-28T09:32:56Z</time>
      </trkpt>
      <trkpt lat="31.229752473870253" lon="121.40013289389977">
        <ele>31.749453091062605</ele>
        <time>2026-05-28T09:32:59Z</time>
      </trkpt>
      <trkpt lat="31.229854443028774" lon="121.40028390717612">
        <ele>24.055151485837996</ele>
        <time>2026-05-28T09:33:05Z</time>
      </trkpt>
      <trkpt lat="31.229931415169048" lon="121.4003529109923">
        <ele>32.86977627221495</ele>
        <time>2026-05-28T09:33:08Z</time>
      </trkpt>
      <trkpt lat="31.23010434202882" lon="121.40041390542635">
        <ele>22.562265896238387</ele>
        <time>2026-05-28T09:33:14Z</time>
      </trkpt>
      <trkpt lat="31.230252269949993" lon="121.40038488797379">
        <ele>23.199053310789168</ele>
        <time>2026-05-28T09:33:20Z</time>
      </trkpt>
      <trkpt lat="31.230424180718394" lon="121.40030286035442">
        <ele>20.12608959618956</ele>
        <time>2026-05-28T09:33:29Z</time>
      </trkpt>
      <trkpt lat="31.230473153602958" lon="121.4002638502026">
        <ele>25.622019314207137</ele>
        <time>2026-05-28T09:33:32Z</time>
      </trkpt>
      <trkpt lat="31.230524128173833" lon="121.40024784336701">
        <ele>8.547644161619246</ele>
        <time>2026-05-28T09:33:35Z</time>
      </trkpt>
      <trkpt lat="31.230671059366113" lon="121.400241829658">
        <ele>27.619577907957137</ele>
        <time>2026-05-28T09:33:44Z</time>
      </trkpt>
      <trkpt lat="31.230777003995666" lon="121.40018481203253">
        <ele>23.15677883569151</ele>
        <time>2026-05-28T09:33:50Z</time>
      </trkpt>
      <trkpt lat="31.23085896384342" lon="121.40016480198196">
        <ele>20.939909481443465</ele>
        <time>2026-05-28T09:33:56Z</time>
      </trkpt>
      <trkpt lat="31.231056855002176" lon="121.39999976158659">
        <ele>22.226698421873152</ele>
        <time>2026-05-28T09:34:08Z</time>
      </trkpt>
      <trkpt lat="31.231219762958336" lon="121.399827724784">
        <ele>28.800673031248152</ele>
        <time>2026-05-28T09:34:11Z</time>
      </trkpt>
      <trkpt lat="31.231235746522135" lon="121.399727710969">
        <ele>23.022020840086043</ele>
        <time>2026-05-28T09:34:14Z</time>
      </trkpt>
      <trkpt lat="31.231231740458767" lon="121.39963570035496">
        <ele>19.782595180906355</ele>
        <time>2026-05-28T09:34:17Z</time>
      </trkpt>
      <trkpt lat="31.231182751586086" lon="121.39949268846887">
        <ele>26.145189785398543</ele>
        <time>2026-05-28T09:34:20Z</time>
      </trkpt>
      <trkpt lat="31.231100781644844" lon="121.39938768443669">
        <ele>30.190512203611434</ele>
        <time>2026-05-28T09:34:23Z</time>
      </trkpt>
      <trkpt lat="31.23099682614442" lon="121.39933668828182">
        <ele>18.976698421873152</ele>
        <time>2026-05-28T09:34:26Z</time>
      </trkpt>
      <trkpt lat="31.230893872032304" lon="121.3993106946523">
        <ele>29.26042797509581</ele>
        <time>2026-05-28T09:34:29Z</time>
      </trkpt>
      <trkpt lat="31.23080891338125" lon="121.39933870487559">
        <ele>29.490309261716902</ele>
        <time>2026-05-28T09:34:32Z</time>
      </trkpt>
      <trkpt lat="31.230628996305313" lon="121.39933171986259">
        <ele>29.60656597558409</ele>
        <time>2026-05-28T09:34:38Z</time>
      </trkpt>
      <trkpt lat="31.230457077750263" lon="121.39935573729329">
        <ele>28.821814083494246</ele>
        <time>2026-05-28T09:34:44Z</time>
      </trkpt>
      <trkpt lat="31.230397107959828" lon="121.39938874592114">
        <ele>30.975264095701277</ele>
        <time>2026-05-28T09:34:47Z</time>
      </trkpt>
      <trkpt lat="31.230154222365474" lon="121.39941176950866">
        <ele>20.10495235864073</ele>
        <time>2026-05-28T09:34:59Z</time>
      </trkpt>
      <trkpt lat="31.23010124829692" lon="121.39942977602801">
        <ele>22.39316036645323</ele>
        <time>2026-05-28T09:35:02Z</time>
      </trkpt>
      <trkpt lat="31.23003928194991" lon="121.39949378832122">
        <ele>30.380754970945418</ele>
        <time>2026-05-28T09:35:05Z</time>
      </trkpt>
      <trkpt lat="31.229878359580233" lon="121.39953080643807">
        <ele>24.274458431638777</ele>
        <time>2026-05-28T09:35:14Z</time>
      </trkpt>
      <trkpt lat="31.22986336870204" lon="121.3995578107684">
        <ele>23.38665630761534</ele>
        <time>2026-05-28T09:35:17Z</time>
      </trkpt>
    </trkseg>
  </trk>
</gpx>