<?xml version="1.0" encoding="UTF-8"?>
<gpx xmlns="http://www.topografix.com/GPX/1/1" xmlns:gpxtpx="http://www.garmin.com/xmlschemas/TrackPointExtension/v1" xmlns:xsi="http://www.w3.org/2001/XMLSchema-instance" xsi:schemaLocation="http://www.topografix.com/GPX/1/1 http://www.topografix.com/GPX/1/1/gpx.xsd" version="1.1" creator="gpx.py -- https://github.com/tkrajina/gpxpy">
  <trk>
    <name>gpx from keep</name>
    <type>Run</type>
    <trkseg>
      <trkpt lat="31.23000638561483" lon="121.40039791145531">
        <ele>16.97889988962561</ele>
        <time>2026-05-24T10:59:52Z</time>
      </trkpt>
      <trkpt lat="31.230115332805312" lon="121.40037889898267">
        <ele>16.98946660105139</ele>
        <time>2026-05-24T10:59:58Z</time>
      </trkpt>
      <trkpt lat="31.23025825623376" lon="121.40028987285866">
        <ele>20.976660662330687</ele>
        <time>2026-05-24T11:00:04Z</time>
      </trkpt>
      <trkpt lat="31.230530125392153" lon="121.4002478428439">
        <ele>19.05044072214514</ele>
        <time>2026-05-24T11:00:10Z</time>
      </trkpt>
      <trkpt lat="31.23082197788969" lon="121.40013580103869">
        <ele>20.316092425026</ele>
        <time>2026-05-24T11:00:19Z</time>
      </trkpt>
      <trkpt lat="31.23103087354236" lon="121.40006377265605">
        <ele>23.386416369117796</ele>
        <time>2026-05-24T11:00:25Z</time>
      </trkpt>
      <trkpt lat="31.231117826752733" lon="121.39999975626803">
        <ele>21.771983080543578</ele>
        <time>2026-05-24T11:00:28Z</time>
      </trkpt>
      <trkpt lat="31.23117379324395" lon="121.39992274108003">
        <ele>19.61588948313147</ele>
        <time>2026-05-24T11:00:31Z</time>
      </trkpt>
      <trkpt lat="31.23123175032232" lon="121.3997497140051">
        <ele>19.83519642893225</ele>
        <time>2026-05-24T11:00:37Z</time>
      </trkpt>
      <trkpt lat="31.23121274453936" lon="121.39957869544223">
        <ele>16.579916887916625</ele>
        <time>2026-05-24T11:00:44Z</time>
      </trkpt>
      <trkpt lat="31.231131770320754" lon="121.39942868603121">
        <ele>18.91304295603186</ele>
        <time>2026-05-24T11:00:50Z</time>
      </trkpt>
      <trkpt lat="31.23099982376835" lon="121.39932268661047">
        <ele>19.008166247047484</ele>
        <time>2026-05-24T11:00:56Z</time>
      </trkpt>
      <trkpt lat="31.230905863587733" lon="121.39926868946468">
        <ele>18.181132250465453</ele>
        <time>2026-05-24T11:00:59Z</time>
      </trkpt>
      <trkpt lat="31.230704956182475" lon="121.39926070621125">
        <ele>9.173621111549437</ele>
        <time>2026-05-24T11:01:08Z</time>
      </trkpt>
      <trkpt lat="31.230435087593836" lon="121.39935073870177">
        <ele>17.784792833961546</ele>
        <time>2026-05-24T11:01:17Z</time>
      </trkpt>
      <trkpt lat="31.23026816756958" lon="121.39938575685714">
        <ele>19.563044481910765</ele>
        <time>2026-05-24T11:01:26Z</time>
      </trkpt>
      <trkpt lat="31.230131237331605" lon="121.39946877758403">
        <ele>18.056948595680296</ele>
        <time>2026-05-24T11:01:32Z</time>
      </trkpt>
      <trkpt lat="31.230032283883503" lon="121.39947678708104">
        <ele>18.53784077707678</ele>
        <time>2026-05-24T11:01:35Z</time>
      </trkpt>
      <trkpt lat="31.229904348067908" lon="121.3995378049512">
        <ele>18.788855486549437</ele>
        <time>2026-05-24T11:01:41Z</time>
      </trkpt>
      <trkpt lat="31.229785414554875" lon="121.39967383098977">
        <ele>19.34373372141272</ele>
        <time>2026-05-24T11:01:47Z</time>
      </trkpt>
      <trkpt lat="31.229718458645443" lon="121.3998198547267">
        <ele>17.364672594703734</ele>
        <time>2026-05-24T11:01:53Z</time>
      </trkpt>
      <trkpt lat="31.229701480958553" lon="121.39997087589457">
        <ele>19.071581774391234</ele>
        <time>2026-05-24T11:01:59Z</time>
      </trkpt>
      <trkpt lat="31.229745481181087" lon="121.4001708999762">
        <ele>20.358366900123656</ele>
        <time>2026-05-24T11:02:05Z</time>
      </trkpt>
      <trkpt lat="31.229815459000616" lon="121.40026490772091">
        <ele>18.159995012916625</ele>
        <time>2026-05-24T11:02:08Z</time>
      </trkpt>
      <trkpt lat="31.229956402987202" lon="121.40034790804124">
        <ele>19.438857012428343</ele>
        <time>2026-05-24T11:02:14Z</time>
      </trkpt>
      <trkpt lat="31.230122328506887" lon="121.40036989697246">
        <ele>15.031542711891234</ele>
        <time>2026-05-24T11:02:20Z</time>
      </trkpt>
      <trkpt lat="31.230451165261222" lon="121.4002768540717">
        <ele>73.98595707956702</ele>
        <time>2026-05-24T11:02:33Z</time>
      </trkpt>
      <trkpt lat="31.23072302977923" lon="121.40019181776105">
        <ele>17.731947832740843</ele>
        <time>2026-05-24T11:02:48Z</time>
      </trkpt>
      <trkpt lat="31.230905940142094" lon="121.40014679529108">
        <ele>17.311823778785765</ele>
        <time>2026-05-24T11:02:57Z</time>
      </trkpt>
      <trkpt lat="31.231110829694142" lon="121.39999675647101">
        <ele>17.55491536203772</ele>
        <time>2026-05-24T11:03:06Z</time>
      </trkpt>
      <trkpt lat="31.2311927808037" lon="121.39988473445243">
        <ele>16.98946660105139</ele>
        <time>2026-05-24T11:03:12Z</time>
      </trkpt>
      <trkpt lat="31.231221755576513" lon="121.39975671573741">
        <ele>19.124426775611937</ele>
        <time>2026-05-24T11:03:18Z</time>
      </trkpt>
      <trkpt lat="31.23118575679623" lon="121.39957569745533">
        <ele>18.74658101145178</ele>
        <time>2026-05-24T11:03:24Z</time>
      </trkpt>
      <trkpt lat="31.23112677452096" lon="121.3994536891308">
        <ele>16.957758837379515</ele>
        <time>2026-05-24T11:03:30Z</time>
      </trkpt>
      <trkpt lat="31.231022815168448" lon="121.39935168753681">
        <ele>19.96202748361975</ele>
        <time>2026-05-24T11:03:36Z</time>
      </trkpt>
      <trkpt lat="31.23088987195326" lon="121.39928269222987">
        <ele>17.10308735910803</ele>
        <time>2026-05-24T11:03:42Z</time>
      </trkpt>
      <trkpt lat="31.230829898798834" lon="121.39926869609103">
        <ele>17.594550066627562</ele>
        <time>2026-05-24T11:03:45Z</time>
      </trkpt>
      <trkpt lat="31.230722950020414" lon="121.39929270777536">
        <ele>17.930117540992796</ele>
        <time>2026-05-24T11:03:51Z</time>
      </trkpt>
      <trkpt lat="31.23065298546365" lon="121.3993357181737">
        <ele>16.52707188669592</ele>
        <time>2026-05-24T11:03:54Z</time>
      </trkpt>
      <trkpt lat="31.23058501543829" lon="121.39931372189287">
        <ele>16.62219136301428</ele>
        <time>2026-05-24T11:03:57Z</time>
      </trkpt>
      <trkpt lat="31.23041909494172" lon="121.39934973999497">
        <ele>16.632761889137328</ele>
        <time>2026-05-24T11:04:06Z</time>
      </trkpt>
      <trkpt lat="31.23036812273089" lon="121.39940675032634">
        <ele>17.459792071022093</ele>
        <time>2026-05-24T11:04:09Z</time>
      </trkpt>
      <trkpt lat="31.2301022528718" lon="121.39949578304719">
        <ele>17.710810595192015</ele>
        <time>2026-05-24T11:04:21Z</time>
      </trkpt>
      <trkpt lat="31.229924342006523" lon="121.39957780771365">
        <ele>18.276255541481078</ele>
        <time>2026-05-24T11:04:30Z</time>
      </trkpt>
      <trkpt lat="31.2298004079338" lon="121.39967783015737">
        <ele>18.368735247291625</ele>
        <time>2026-05-24T11:04:36Z</time>
      </trkpt>
      <trkpt lat="31.229741446497073" lon="121.3998038507057">
        <ele>17.166499071754515</ele>
        <time>2026-05-24T11:04:42Z</time>
      </trkpt>
      <trkpt lat="31.229723469953576" lon="121.39996287290349">
        <ele>16.957758837379515</ele>
        <time>2026-05-24T11:04:48Z</time>
      </trkpt>
      <trkpt lat="31.22981645212254" lon="121.40020689903453">
        <ele>17.523207598365843</ele>
        <time>2026-05-24T11:04:57Z</time>
      </trkpt>
      <trkpt lat="31.22986143854209" lon="121.40027290491037">
        <ele>18.339671068824828</ele>
        <time>2026-05-24T11:05:00Z</time>
      </trkpt>
      <trkpt lat="31.23012832560652" lon="121.40036889629405">
        <ele>17.951254778541625</ele>
        <time>2026-05-24T11:05:12Z</time>
      </trkpt>
      <trkpt lat="31.230438174226585" lon="121.4003028591338">
        <ele>17.13479130808264</ele>
        <time>2026-05-24T11:05:27Z</time>
      </trkpt>
      <trkpt lat="31.23049414667571" lon="121.40028885213145">
        <ele>16.52707188669592</ele>
        <time>2026-05-24T11:05:30Z</time>
      </trkpt>
      <trkpt lat="31.230536121612268" lon="121.40023884098285">
        <ele>17.05288212839514</ele>
        <time>2026-05-24T11:05:33Z</time>
      </trkpt>
      <trkpt lat="31.23079499178404" lon="121.40014880525628">
        <ele>17.06080906931311</ele>
        <time>2026-05-24T11:05:45Z</time>
      </trkpt>
      <trkpt lat="31.230951916286138" lon="121.40012278784953">
        <ele>16.392313891090453</ele>
        <time>2026-05-24T11:05:51Z</time>
      </trkpt>
      <trkpt lat="31.231065855588575" lon="121.40004676724526">
        <ele>18.233977251686156</ele>
        <time>2026-05-24T11:05:57Z</time>
      </trkpt>
      <trkpt lat="31.231196771217217" lon="121.39980172350968">
        <ele>19.206335955299437</ele>
        <time>2026-05-24T11:06:06Z</time>
      </trkpt>
      <trkpt lat="31.231208751443766" lon="121.39963970282774">
        <ele>16.820361071266234</ele>
        <time>2026-05-24T11:06:12Z</time>
      </trkpt>
      <trkpt lat="31.231103783212106" lon="121.39942768836667">
        <ele>17.251051836647093</ele>
        <time>2026-05-24T11:06:21Z</time>
      </trkpt>
      <trkpt lat="31.23099482629495" lon="121.39932568734764">
        <ele>18.516703539527953</ele>
        <time>2026-05-24T11:06:27Z</time>
      </trkpt>
      <trkpt lat="31.23088987188489" lon="121.39928169213165">
        <ele>18.078085833229125</ele>
        <time>2026-05-24T11:06:33Z</time>
      </trkpt>
      <trkpt lat="31.230670975296768" lon="121.39930971399566">
        <ele>17.972392016090453</ele>
        <time>2026-05-24T11:06:42Z</time>
      </trkpt>
      <trkpt lat="31.230397108545834" lon="121.39939674675317">
        <ele>17.63682454172522</ele>
        <time>2026-05-24T11:06:54Z</time>
      </trkpt>
      <trkpt lat="31.230076266343715" lon="121.39951378729178">
        <ele>16.505930834449828</ele>
        <time>2026-05-24T11:07:09Z</time>
      </trkpt>
      <trkpt lat="31.2299483305416" lon="121.39957380516681">
        <ele>17.322394304908812</ele>
        <time>2026-05-24T11:07:15Z</time>
      </trkpt>
      <trkpt lat="31.22981040389324" lon="121.39968483011945">
        <ele>16.780730181373656</ele>
        <time>2026-05-24T11:07:21Z</time>
      </trkpt>
      <trkpt lat="31.229742447593598" lon="121.39982085276068">
        <ele>17.155932360328734</ele>
        <time>2026-05-24T11:07:27Z</time>
      </trkpt>
      <trkpt lat="31.22972646475349" lon="121.39992386745922">
        <ele>18.98702519480139</ele>
        <time>2026-05-24T11:07:30Z</time>
      </trkpt>
      <trkpt lat="31.229758466150606" lon="121.40008588672089">
        <ele>17.53377812448889</ele>
        <time>2026-05-24T11:07:36Z</time>
      </trkpt>
      <trkpt lat="31.22985344057748" lon="121.40025790336065">
        <ele>17.5654820734635</ele>
        <time>2026-05-24T11:07:45Z</time>
      </trkpt>
      <trkpt lat="31.22991441937776" lon="121.40032090756009">
        <ele>17.523207598365843</ele>
        <time>2026-05-24T11:07:48Z</time>
      </trkpt>
      <trkpt lat="31.230092344883552" lon="121.40039090286113">
        <ele>17.33296483103186</ele>
        <time>2026-05-24T11:07:57Z</time>
      </trkpt>
      <trkpt lat="31.230292247321653" lon="121.4003498790551">
        <ele>17.53377812448889</ele>
        <time>2026-05-24T11:08:06Z</time>
      </trkpt>
      <trkpt lat="31.230544117460948" lon="121.4002348396921">
        <ele>16.98946660105139</ele>
        <time>2026-05-24T11:08:21Z</time>
      </trkpt>
      <trkpt lat="31.230816984703747" lon="121.40017780752723">
        <ele>17.877272539772093</ele>
        <time>2026-05-24T11:08:33Z</time>
      </trkpt>
      <trkpt lat="31.231045868766948" lon="121.40008477428346">
        <ele>19.983164721168578</ele>
        <time>2026-05-24T11:08:46Z</time>
      </trkpt>
      <trkpt lat="31.23113581543383" lon="121.39996975064652">
        <ele>19.248610430397093</ele>
        <time>2026-05-24T11:08:49Z</time>
      </trkpt>
      <trkpt lat="31.23118978096116" lon="121.3998717330308">
        <ele>20.74678319040686</ele>
        <time>2026-05-24T11:08:52Z</time>
      </trkpt>
      <trkpt lat="31.231211759938525" lon="121.39975371624024">
        <ele>17.81650059763342</ele>
        <time>2026-05-24T11:08:55Z</time>
      </trkpt>
      <trkpt lat="31.23120975318432" lon="121.39966570579917">
        <ele>20.02279942575842</ele>
        <time>2026-05-24T11:08:58Z</time>
      </trkpt>
      <trkpt lat="31.23117075980881" lon="121.3995266932598">
        <ele>4.739886217750609</ele>
        <time>2026-05-24T11:09:01Z</time>
      </trkpt>
      <trkpt lat="31.2311167770425" lon="121.39942568702163">
        <ele>13.094756060279906</ele>
        <time>2026-05-24T11:09:04Z</time>
      </trkpt>
      <trkpt lat="31.231030811463167" lon="121.3993516868393">
        <ele>10.77484028879553</ele>
        <time>2026-05-24T11:09:07Z</time>
      </trkpt>
      <trkpt lat="31.230824903375975" lon="121.3993016997731">
        <ele>16.466296129859984</ele>
        <time>2026-05-24T11:09:16Z</time>
      </trkpt>
      <trkpt lat="31.230624000903283" lon="121.3993637235511">
        <ele>18.35023778025061</ele>
        <time>2026-05-24T11:09:25Z</time>
      </trkpt>
      <trkpt lat="31.23050605596594" lon="121.39936873435235">
        <ele>18.41100972238928</ele>
        <time>2026-05-24T11:09:31Z</time>
      </trkpt>
      <trkpt lat="31.230420098912592" lon="121.39941074621196">
        <ele>18.17056553903967</ele>
        <time>2026-05-24T11:09:34Z</time>
      </trkpt>
      <trkpt lat="31.23021619622256" lon="121.39944676781015">
        <ele>17.48092930857092</ele>
        <time>2026-05-24T11:09:43Z</time>
      </trkpt>
      <trkpt lat="31.22994133558894" lon="121.39959580828666">
        <ele>15.271990709938109</ele>
        <time>2026-05-24T11:09:55Z</time>
      </trkpt>
      <trkpt lat="31.229877367365546" lon="121.39962081674915">
        <ele>17.449225359596312</ele>
        <time>2026-05-24T11:09:58Z</time>
      </trkpt>
      <trkpt lat="31.22977042735933" lon="121.39974084037095">
        <ele>17.240485125221312</ele>
        <time>2026-05-24T11:10:04Z</time>
      </trkpt>
      <trkpt lat="31.22973046068254" lon="121.39990086409146">
        <ele>16.632761889137328</ele>
        <time>2026-05-24T11:10:10Z</time>
      </trkpt>
      <trkpt lat="31.229728469709762" lon="121.39998387529135">
        <ele>18.90511601511389</ele>
        <time>2026-05-24T11:10:13Z</time>
      </trkpt>
      <trkpt lat="31.229768468891425" lon="121.40015589580419">
        <ele>17.57340901438147</ele>
        <time>2026-05-24T11:10:19Z</time>
      </trkpt>
      <trkpt lat="31.229833452664952" lon="121.40028290885625">
        <ele>18.778288775123656</ele>
        <time>2026-05-24T11:10:26Z</time>
      </trkpt>
      <trkpt lat="31.22996140462094" lon="121.40038191287688">
        <ele>15.607558184303343</ele>
        <time>2026-05-24T11:10:32Z</time>
      </trkpt>
      <trkpt lat="31.230101343183943" lon="121.40041190537276">
        <ele>17.626257830299437</ele>
        <time>2026-05-24T11:10:38Z</time>
      </trkpt>
      <trkpt lat="31.23016831115232" lon="121.40040389827283">
        <ele>17.53377812448889</ele>
        <time>2026-05-24T11:10:41Z</time>
      </trkpt>
      <trkpt lat="31.23044717107716" lon="121.4003118597173">
        <ele>18.46385853830725</ele>
        <time>2026-05-24T11:10:53Z</time>
      </trkpt>
      <trkpt lat="31.230521133819064" lon="121.40028584932449">
        <ele>18.035807543434203</ele>
        <time>2026-05-24T11:10:59Z</time>
      </trkpt>
      <trkpt lat="31.230570103425197" lon="121.40021683476596">
        <ele>17.28275960031897</ele>
        <time>2026-05-24T11:11:02Z</time>
      </trkpt>
      <trkpt lat="31.230692050743865" lon="121.40025182931547">
        <ele>18.60125630442053</ele>
        <time>2026-05-24T11:11:05Z</time>
      </trkpt>
      <trkpt lat="31.230992898352454" lon="121.40013278570063">
        <ele>12.719553881324828</ele>
        <time>2026-05-24T11:11:20Z</time>
      </trkpt>
      <trkpt lat="31.231126824394394" lon="121.40001775793729">
        <ele>17.502070360817015</ele>
        <time>2026-05-24T11:11:26Z</time>
      </trkpt>
      <trkpt lat="31.23118079243432" lon="121.39994774378147">
        <ele>20.107352190651</ele>
        <time>2026-05-24T11:11:29Z</time>
      </trkpt>
      <trkpt lat="31.231217764625722" lon="121.39983572597467">
        <ele>18.307963305152953</ele>
        <time>2026-05-24T11:11:32Z</time>
      </trkpt>
      <trkpt lat="31.2312217514257" lon="121.3997097100098">
        <ele>9.205328875221312</ele>
        <time>2026-05-24T11:11:35Z</time>
      </trkpt>
      <trkpt lat="31.231174757088432" lon="121.3995156916929">
        <ele>19.919749193824828</ele>
        <time>2026-05-24T11:11:41Z</time>
      </trkpt>
      <trkpt lat="31.231131771599458" lon="121.39944568783892">
        <ele>20.20247166696936</ele>
        <time>2026-05-24T11:11:44Z</time>
      </trkpt>
      <trkpt lat="31.2309998251803" lon="121.3993426886276">
        <ele>14.299632006324828</ele>
        <time>2026-05-24T11:11:50Z</time>
      </trkpt>
      <trkpt lat="31.230727947565676" lon="121.39929070714201">
        <ele>19.803488665260375</ele>
        <time>2026-05-24T11:12:03Z</time>
      </trkpt>
      <trkpt lat="31.23043309141235" lon="121.3993907429901">
        <ele>19.008166247047484</ele>
        <time>2026-05-24T11:12:15Z</time>
      </trkpt>
      <trkpt lat="31.23012124289389" lon="121.3994807797555">
        <ele>19.866904192604125</ele>
        <time>2026-05-24T11:12:27Z</time>
      </trkpt>
      <trkpt lat="31.23005227890249" lon="121.39953179137899">
        <ele>20.88418095652014</ele>
        <time>2026-05-24T11:12:30Z</time>
      </trkpt>
      <trkpt lat="31.229985311191342" lon="121.39954679889571">
        <ele>20.66223042551428</ele>
        <time>2026-05-24T11:12:33Z</time>
      </trkpt>
      <trkpt lat="31.22989135929141" lon="121.39960181333478">
        <ele>20.149626665748656</ele>
        <time>2026-05-24T11:12:36Z</time>
      </trkpt>
      <trkpt lat="31.229769426586888" lon="121.39972683875168">
        <ele>20.54860966745764</ele>
        <time>2026-05-24T11:12:42Z</time>
      </trkpt>
      <trkpt lat="31.229728453449958" lon="121.39981385309737">
        <ele>9.538256579078734</ele>
        <time>2026-05-24T11:12:45Z</time>
      </trkpt>
      <trkpt lat="31.2297124759495" lon="121.39997187506988">
        <ele>20.18133442942053</ele>
        <time>2026-05-24T11:12:51Z</time>
      </trkpt>
      <trkpt lat="31.22979746468531" lon="121.4002409057105">
        <ele>22.839465075172484</ele>
        <time>2026-05-24T11:13:00Z</time>
      </trkpt>
      <trkpt lat="31.229837452616355" lon="121.40029891092598">
        <ele>18.60125630442053</ele>
        <time>2026-05-24T11:13:03Z</time>
      </trkpt>
      <trkpt lat="31.229949408090633" lon="121.4003639111247">
        <ele>17.626257830299437</ele>
        <time>2026-05-24T11:13:09Z</time>
      </trkpt>
      <trkpt lat="31.230040368660983" lon="121.4003879069258">
        <ele>30.594538622535765</ele>
        <time>2026-05-24T11:13:12Z</time>
      </trkpt>
      <trkpt lat="31.230289247328656" lon="121.40033787746935">
        <ele>14.204512530006468</ele>
        <time>2026-05-24T11:13:24Z</time>
      </trkpt>
      <trkpt lat="31.230620083670832" lon="121.400247834997">
        <ele>18.714873247779906</ele>
        <time>2026-05-24T11:13:39Z</time>
      </trkpt>
      <trkpt lat="31.230820984910544" lon="121.400196809947">
        <ele>15.293127947486937</ele>
        <time>2026-05-24T11:13:48Z</time>
      </trkpt>
      <trkpt lat="31.23108784407515" lon="121.40003376353327">
        <ele>20.863039904274046</ele>
        <time>2026-05-24T11:14:00Z</time>
      </trkpt>
      <trkpt lat="31.231180788461135" lon="121.3999067383674">
        <ele>17.605116778053343</ele>
        <time>2026-05-24T11:14:06Z</time>
      </trkpt>
      <trkpt lat="31.231211766569768" lon="121.39982672535471">
        <ele>17.605116778053343</ele>
        <time>2026-05-24T11:14:09Z</time>
      </trkpt>
      <trkpt lat="31.23119875836266" lon="121.3996667068766">
        <ele>17.951254778541625</ele>
        <time>2026-05-24T11:14:15Z</time>
      </trkpt>
      <trkpt lat="31.231157766861305" lon="121.39953969584107">
        <ele>17.21934407297522</ele>
        <time>2026-05-24T11:14:21Z</time>
      </trkpt>
      <trkpt lat="31.23104080943205" lon="121.39938768966806">
        <ele>19.647597246803343</ele>
        <time>2026-05-24T11:14:27Z</time>
      </trkpt>
      <trkpt lat="31.23098583230612" lon="121.39935169076281">
        <ele>18.90511601511389</ele>
        <time>2026-05-24T11:14:30Z</time>
      </trkpt>
      <trkpt lat="31.230858889860748" lon="121.39933370001096">
        <ele>19.103285723365843</ele>
        <time>2026-05-24T11:14:36Z</time>
      </trkpt>
      <trkpt lat="31.230652987317587" lon="121.39936172081781">
        <ele>20.170763903297484</ele>
        <time>2026-05-24T11:14:45Z</time>
      </trkpt>
      <trkpt lat="31.230463080989285" lon="121.39943774531554">
        <ele>17.311823778785765</ele>
        <time>2026-05-24T11:14:55Z</time>
      </trkpt>
      <trkpt lat="31.230159228305496" lon="121.39951978071834">
        <ele>17.89840977732092</ele>
        <time>2026-05-24T11:15:13Z</time>
      </trkpt>
      <trkpt lat="31.23006827460812" lon="121.39957079436424">
        <ele>15.974833422340453</ele>
        <time>2026-05-24T11:15:19Z</time>
      </trkpt>
      <trkpt lat="31.23001829854258" lon="121.3995797997457">
        <ele>18.432150774635375</ele>
        <time>2026-05-24T11:15:22Z</time>
      </trkpt>
      <trkpt lat="31.2299743175832" lon="121.39956280165471">
        <ele>17.856135302223265</ele>
        <time>2026-05-24T11:15:25Z</time>
      </trkpt>
      <trkpt lat="31.2298843645334" lon="121.3996258167193">
        <ele>18.32910054270178</ele>
        <time>2026-05-24T11:15:31Z</time>
      </trkpt>
      <trkpt lat="31.229822401102254" lon="121.39971683291827">
        <ele>17.88784306589514</ele>
        <time>2026-05-24T11:15:37Z</time>
      </trkpt>
      <trkpt lat="31.229784427540473" lon="121.39981484834111">
        <ele>18.12036030832678</ele>
        <time>2026-05-24T11:15:43Z</time>
      </trkpt>
      <trkpt lat="31.229769450871657" lon="121.3999858719869">
        <ele>17.626257830299437</ele>
        <time>2026-05-24T11:15:52Z</time>
      </trkpt>
      <trkpt lat="31.22982144492781" lon="121.40016189204866">
        <ele>18.17056553903967</ele>
        <time>2026-05-24T11:16:01Z</time>
      </trkpt>
      <trkpt lat="31.229922411689255" lon="121.4002859015492">
        <ele>17.10308735910803</ele>
        <time>2026-05-24T11:16:07Z</time>
      </trkpt>
      <trkpt lat="31.22997639094433" lon="121.40032390261301">
        <ele>18.453288012184203</ele>
        <time>2026-05-24T11:16:10Z</time>
      </trkpt>
      <trkpt lat="31.230044360189282" lon="121.40033089775591">
        <ele>0.1634663874283433</ele>
        <time>2026-05-24T11:16:13Z</time>
      </trkpt>
      <trkpt lat="31.23037819687331" lon="121.40025685743854">
        <ele>20.213042193092406</ele>
        <time>2026-05-24T11:16:28Z</time>
      </trkpt>
      <trkpt lat="31.230531121395583" lon="121.40021583801904">
        <ele>14.999834948219359</ele>
        <time>2026-05-24T11:16:34Z</time>
      </trkpt>
      <trkpt lat="31.230712034442913" lon="121.40018781813674">
        <ele>19.248610430397093</ele>
        <time>2026-05-24T11:16:40Z</time>
      </trkpt>
      <trkpt lat="31.230970903817113" lon="121.40008778124387">
        <ele>19.19576542917639</ele>
        <time>2026-05-24T11:16:49Z</time>
      </trkpt>
      <trkpt lat="31.23114780557329" lon="121.39992574374266">
        <ele>19.428286486305296</ele>
        <time>2026-05-24T11:16:58Z</time>
      </trkpt>
      <trkpt lat="31.231186779909514" lon="121.39984572995263">
        <ele>16.49800389353186</ele>
        <time>2026-05-24T11:17:01Z</time>
      </trkpt>
      <trkpt lat="31.231201760075706" lon="121.39970271091047">
        <ele>18.35023778025061</ele>
        <time>2026-05-24T11:17:07Z</time>
      </trkpt>
      <trkpt lat="31.231167765049342" lon="121.39957469891117">
        <ele>17.81650059763342</ele>
        <time>2026-05-24T11:17:13Z</time>
      </trkpt>
      <trkpt lat="31.23106880092562" lon="121.39944769354554">
        <ele>18.26568501535803</ele>
        <time>2026-05-24T11:17:19Z</time>
      </trkpt>
      <trkpt lat="31.230998828666145" lon="121.39938469301904">
        <ele>20.065073900856078</ele>
        <time>2026-05-24T11:17:22Z</time>
      </trkpt>
      <trkpt lat="31.23092785917308" lon="121.39935169581979">
        <ele>19.61588948313147</ele>
        <time>2026-05-24T11:17:26Z</time>
      </trkpt>
      <trkpt lat="31.230626997656476" lon="121.39933772064273">
        <ele>17.12422459665686</ele>
        <time>2026-05-24T11:17:38Z</time>
      </trkpt>
      <trkpt lat="31.230337136518244" lon="121.39939875219292">
        <ele>18.664668017067015</ele>
        <time>2026-05-24T11:17:47Z</time>
      </trkpt>
      <trkpt lat="31.229985309757385" lon="121.39952879688681">
        <ele>18.389872484840453</ele>
        <time>2026-05-24T11:17:59Z</time>
      </trkpt>
      <trkpt lat="31.229906350687614" lon="121.39958180973824">
        <ele>15.607558184303343</ele>
        <time>2026-05-24T11:18:02Z</time>
      </trkpt>
      <trkpt lat="31.22980141120242" lon="121.39972083523357">
        <ele>19.584181719459593</ele>
        <time>2026-05-24T11:18:08Z</time>
      </trkpt>
      <trkpt lat="31.229767434059557" lon="121.39979984793703">
        <ele>13.942927294410765</ele>
        <time>2026-05-24T11:18:11Z</time>
      </trkpt>
      <trkpt lat="31.22974446287777" lon="121.39998987470744">
        <ele>14.685404711402953</ele>
        <time>2026-05-24T11:18:17Z</time>
      </trkpt>
      <trkpt lat="31.229748469136503" lon="121.40006988535343">
        <ele>19.008166247047484</ele>
        <time>2026-05-24T11:18:20Z</time>
      </trkpt>
      <trkpt lat="31.229771465685335" lon="121.40013889310129">
        <ele>15.13723271433264</ele>
        <time>2026-05-24T11:18:23Z</time>
      </trkpt>
      <trkpt lat="31.22985443933343" lon="121.40025090222883">
        <ele>-10.270871228538454</ele>
        <time>2026-05-24T11:18:29Z</time>
      </trkpt>
      <trkpt lat="31.229954401384077" lon="121.40032590483699">
        <ele>17.583979540504515</ele>
        <time>2026-05-24T11:18:35Z</time>
      </trkpt>
      <trkpt lat="31.230070350660533" lon="121.40035289887348">
        <ele>17.951254778541625</ele>
        <time>2026-05-24T11:18:41Z</time>
      </trkpt>
      <trkpt lat="31.230241087436628" lon="121.40034493112883">
        <ele>17.88784306589514</ele>
        <time>2026-05-24T11:18:53Z</time>
      </trkpt>
      <trkpt lat="31.230272251098775" lon="121.40030187345506">
        <ele>20.96609013620764</ele>
        <time>2026-05-24T11:18:59Z</time>
      </trkpt>
      <trkpt lat="31.23054011909436" lon="121.40023283974453">
        <ele>19.428286486305296</ele>
        <time>2026-05-24T11:19:05Z</time>
      </trkpt>
      <trkpt lat="31.230847965524745" lon="121.40013279834301">
        <ele>18.078085833229125</ele>
        <time>2026-05-24T11:19:21Z</time>
      </trkpt>
      <trkpt lat="31.231016879307038" lon="121.40005677290345">
        <ele>20.223612719215453</ele>
        <time>2026-05-24T11:19:30Z</time>
      </trkpt>
      <trkpt lat="31.231144807641414" lon="121.3999327449293">
        <ele>17.385809832252562</ele>
        <time>2026-05-24T11:19:36Z</time>
      </trkpt>
      <trkpt lat="31.231192778629858" lon="121.39986173148051">
        <ele>18.02524083200842</ele>
        <time>2026-05-24T11:19:39Z</time>
      </trkpt>
      <trkpt lat="31.23120976347059" lon="121.39978272000195">
        <ele>18.74658101145178</ele>
        <time>2026-05-24T11:19:42Z</time>
      </trkpt>
      <trkpt lat="31.23119075994627" lon="121.39964170463116">
        <ele>20.139059954322875</ele>
        <time>2026-05-24T11:19:48Z</time>
      </trkpt>
      <trkpt lat="31.2311317762147" lon="121.39950569434016">
        <ele>19.48905842844397</ele>
        <time>2026-05-24T11:19:54Z</time>
      </trkpt>
      <trkpt lat="31.230991832054343" lon="121.39938669383663">
        <ele>20.107352190651</ele>
        <time>2026-05-24T11:20:03Z</time>
      </trkpt>
      <trkpt lat="31.230820906903546" lon="121.39932570251852">
        <ele>17.83763783518225</ele>
        <time>2026-05-24T11:20:09Z</time>
      </trkpt>
      <trkpt lat="31.23069596532205" lon="121.3993327141218">
        <ele>16.350039415992796</ele>
        <time>2026-05-24T11:20:15Z</time>
      </trkpt>
      <trkpt lat="31.230422098059243" lon="121.39941174614255">
        <ele>18.68316548410803</ele>
        <time>2026-05-24T11:20:27Z</time>
      </trkpt>
      <trkpt lat="31.230239187381297" lon="121.39947076838395">
        <ele>18.76771824900061</ele>
        <time>2026-05-24T11:20:36Z</time>
      </trkpt>
      <trkpt lat="31.230105250626618" lon="121.39948478158536">
        <ele>20.276457720436156</ele>
        <time>2026-05-24T11:20:42Z</time>
      </trkpt>
      <trkpt lat="31.230042282593367" lon="121.39951979091914">
        <ele>19.05044072214514</ele>
        <time>2026-05-24T11:20:45Z</time>
      </trkpt>
      <trkpt lat="31.229959321270602" lon="121.399521798377">
        <ele>15.25085347238928</ele>
        <time>2026-05-24T11:20:48Z</time>
      </trkpt>
      <trkpt lat="31.229833384983387" lon="121.39958681667302">
        <ele>18.714873247779906</ele>
        <time>2026-05-24T11:20:51Z</time>
      </trkpt>
      <trkpt lat="31.229759430790327" lon="121.39972183901659">
        <ele>19.48905842844397</ele>
        <time>2026-05-24T11:20:54Z</time>
      </trkpt>
      <trkpt lat="31.229736448453306" lon="121.39979985063977">
        <ele>22.651858263649046</ele>
        <time>2026-05-24T11:20:57Z</time>
      </trkpt>
      <trkpt lat="31.22974047316094" lon="121.40007288646977">
        <ele>18.202273302711546</ele>
        <time>2026-05-24T11:21:03Z</time>
      </trkpt>
      <trkpt lat="31.22993841261544" lon="121.40035891130944">
        <ele>19.103285723365843</ele>
        <time>2026-05-24T11:21:16Z</time>
      </trkpt>
      <trkpt lat="31.2300743521805" lon="121.4003819030249">
        <ele>16.653899126686156</ele>
        <time>2026-05-24T11:21:19Z</time>
      </trkpt>
      <trkpt lat="31.230284245873438" lon="121.40030487286425">
        <ele>16.223208361305296</ele>
        <time>2026-05-24T11:21:28Z</time>
      </trkpt>
      <trkpt lat="31.230338215870383" lon="121.40026086152389">
        <ele>20.26588719431311</ele>
        <time>2026-05-24T11:21:31Z</time>
      </trkpt>
      <trkpt lat="31.230510134664556" lon="121.40024784458764">
        <ele>6.5472020441666245</ele>
        <time>2026-05-24T11:21:37Z</time>
      </trkpt>
      <trkpt lat="31.2308109834115" lon="121.40013980257021">
        <ele>17.972392016090453</ele>
        <time>2026-05-24T11:21:52Z</time>
      </trkpt>
      <trkpt lat="31.23104086716699" lon="121.40004676942499">
        <ele>17.322394304908812</ele>
        <time>2026-05-24T11:22:04Z</time>
      </trkpt>
      <trkpt lat="31.231186784438787" lon="121.39989373614607">
        <ele>18.056948595680296</ele>
        <time>2026-05-24T11:22:13Z</time>
      </trkpt>
      <trkpt lat="31.231205754610222" lon="121.39966070555698">
        <ele>18.95532124582678</ele>
        <time>2026-05-24T11:22:19Z</time>
      </trkpt>
      <trkpt lat="31.231150764092874" lon="121.39946268800517">
        <ele>17.940688067115843</ele>
        <time>2026-05-24T11:22:28Z</time>
      </trkpt>
      <trkpt lat="31.230998824653263" lon="121.3993286873006">
        <ele>17.742514544166625</ele>
        <time>2026-05-24T11:22:37Z</time>
      </trkpt>
      <trkpt lat="31.23085588763707" lon="121.39928169509608">
        <ele>19.76121419016272</ele>
        <time>2026-05-24T11:22:44Z</time>
      </trkpt>
      <trkpt lat="31.230698965710435" lon="121.39935771639804">
        <ele>17.605116778053343</ele>
        <time>2026-05-24T11:22:50Z</time>
      </trkpt>
      <trkpt lat="31.230400109976824" lon="121.3994347504895">
        <ele>17.81650059763342</ele>
        <time>2026-05-24T11:23:05Z</time>
      </trkpt>
      <trkpt lat="31.23013024366588" lon="121.39954378591771">
        <ele>17.311823778785765</ele>
        <time>2026-05-24T11:23:23Z</time>
      </trkpt>
      <trkpt lat="31.230089771486014" lon="121.39957282127008">
        <ele>17.9829625422135</ele>
        <time>2026-05-24T11:23:26Z</time>
      </trkpt>
      <trkpt lat="31.229911764602218" lon="121.39962930557384">
        <ele>17.9829625422135</ele>
        <time>2026-05-24T11:23:38Z</time>
      </trkpt>
      <trkpt lat="31.229807411873246" lon="121.39975983947745">
        <ele>18.360808306373656</ele>
        <time>2026-05-24T11:23:44Z</time>
      </trkpt>
      <trkpt lat="31.229768438307154" lon="121.3998508543112">
        <ele>16.926054888404906</ele>
        <time>2026-05-24T11:23:47Z</time>
      </trkpt>
      <trkpt lat="31.229768453636183" lon="121.40000887519581">
        <ele>14.027480059303343</ele>
        <time>2026-05-24T11:23:53Z</time>
      </trkpt>
      <trkpt lat="31.229805448945015" lon="121.40012988885064">
        <ele>18.76771824900061</ele>
        <time>2026-05-24T11:23:59Z</time>
      </trkpt>
      <trkpt lat="31.22991141578167" lon="121.40027690115235">
        <ele>16.809794359840453</ele>
        <time>2026-05-24T11:24:05Z</time>
      </trkpt>
      <trkpt lat="31.230042364349085" lon="121.40035890224212">
        <ele>17.594550066627562</ele>
        <time>2026-05-24T11:24:11Z</time>
      </trkpt>
      <trkpt lat="31.230259257924487" lon="121.40030887565192">
        <ele>18.244547777809203</ele>
        <time>2026-05-24T11:24:20Z</time>
      </trkpt>
      <trkpt lat="31.230317226729195" lon="121.40027086485321">
        <ele>17.96182530466467</ele>
        <time>2026-05-24T11:24:23Z</time>
      </trkpt>
      <trkpt lat="31.230604085805012" lon="121.40019982930569">
        <ele>17.866702013649046</ele>
        <time>2026-05-24T11:24:38Z</time>
      </trkpt>
      <trkpt lat="31.230657056807313" lon="121.40015881872777">
        <ele>18.820563250221312</ele>
        <time>2026-05-24T11:24:41Z</time>
      </trkpt>
      <trkpt lat="31.230751819465265" lon="121.40015600703502">
        <ele>18.432150774635375</ele>
        <time>2026-05-24T11:24:47Z</time>
      </trkpt>
      <trkpt lat="31.231090839556725" lon="121.40000275902996">
        <ele>15.586420946754515</ele>
        <time>2026-05-24T11:25:02Z</time>
      </trkpt>
      <trkpt lat="31.231180783341784" lon="121.39985273137144">
        <ele>18.138857775367796</ele>
        <time>2026-05-24T11:25:08Z</time>
      </trkpt>
      <trkpt lat="31.2311987684731" lon="121.3997817208366">
        <ele>15.158373766578734</ele>
        <time>2026-05-24T11:25:11Z</time>
      </trkpt>
      <trkpt lat="31.231185760751735" lon="121.39962370296851">
        <ele>18.244547777809203</ele>
        <time>2026-05-24T11:25:17Z</time>
      </trkpt>
      <trkpt lat="31.231126776510546" lon="121.39947969193574">
        <ele>18.389872484840453</ele>
        <time>2026-05-24T11:25:23Z</time>
      </trkpt>
      <trkpt lat="31.23101382077455" lon="121.39937169036905">
        <ele>16.162436419166625</ele>
        <time>2026-05-24T11:25:30Z</time>
      </trkpt>
      <trkpt lat="31.230722951127348" lon="121.39930870936224">
        <ele>19.375441485084593</ele>
        <time>2026-05-24T11:25:42Z</time>
      </trkpt>
      <trkpt lat="31.23039610937726" lon="121.39940174736206">
        <ele>18.643530779518187</ele>
        <time>2026-05-24T11:25:54Z</time>
      </trkpt>
      <trkpt lat="31.2302481813784" lon="121.39944676502017">
        <ele>18.643530779518187</ele>
        <time>2026-05-24T11:26:00Z</time>
      </trkpt>
      <trkpt lat="31.229993310144696" lon="121.39957980192534">
        <ele>13.932356768287718</ele>
        <time>2026-05-24T11:26:12Z</time>
      </trkpt>
      <trkpt lat="31.229835390061538" lon="121.39965882485528">
        <ele>12.970568590797484</ele>
        <time>2026-05-24T11:26:18Z</time>
      </trkpt>
      <trkpt lat="31.229779422031996" lon="121.39972783800138">
        <ele>19.061011248268187</ele>
        <time>2026-05-24T11:26:21Z</time>
      </trkpt>
      <trkpt lat="31.229720463894896" lon="121.39988586300937">
        <ele>19.03987401071936</ele>
        <time>2026-05-24T11:26:24Z</time>
      </trkpt>
      <trkpt lat="31.2297134766749" lon="121.39998387659912">
        <ele>-9.549531049095094</ele>
        <time>2026-05-24T11:26:27Z</time>
      </trkpt>
      <trkpt lat="31.229820455562862" lon="121.40025490578974">
        <ele>19.082148485817015</ele>
        <time>2026-05-24T11:26:36Z</time>
      </trkpt>
      <trkpt lat="31.229951407162357" lon="121.40036391095033">
        <ele>17.166499071754515</ele>
        <time>2026-05-24T11:26:42Z</time>
      </trkpt>
      <trkpt lat="31.23027425717774" lon="121.40036288263424">
        <ele>20.075644426979125</ele>
        <time>2026-05-24T11:26:57Z</time>
      </trkpt>
      <trkpt lat="31.230473157884305" lon="121.4003018559305">
        <ele>19.008166247047484</ele>
        <time>2026-05-24T11:27:06Z</time>
      </trkpt>
      <trkpt lat="31.23059509850032" lon="121.40027684151671">
        <ele>18.484995775856078</ele>
        <time>2026-05-24T11:27:12Z</time>
      </trkpt>
      <trkpt lat="31.230861961060597" lon="121.40015179984596">
        <ele>20.170763903297484</ele>
        <time>2026-05-24T11:27:21Z</time>
      </trkpt>
      <trkpt lat="31.23095991131667" lon="121.40011078544794">
        <ele>20.096781664527953</ele>
        <time>2026-05-24T11:27:24Z</time>
      </trkpt>
      <trkpt lat="31.231166797163205" lon="121.39992974261435">
        <ele>22.12868779245764</ele>
        <time>2026-05-24T11:27:33Z</time>
      </trkpt>
      <trkpt lat="31.23120676833081" lon="121.39982072503098">
        <ele>13.295569353736937</ele>
        <time>2026-05-24T11:27:36Z</time>
      </trkpt>
      <trkpt lat="31.231217753452277" lon="121.39971171059993">
        <ele>20.559180193580687</ele>
        <time>2026-05-24T11:27:39Z</time>
      </trkpt>
      <trkpt lat="31.231186753194432" lon="121.39953669297768">
        <ele>19.166701250709593</ele>
        <time>2026-05-24T11:27:45Z</time>
      </trkpt>
      <trkpt lat="31.231128770592296" lon="121.39941368471035">
        <ele>18.62239354196936</ele>
        <time>2026-05-24T11:27:51Z</time>
      </trkpt>
      <trkpt lat="31.231028809916246" lon="121.39931668348092">
        <ele>19.66873448435217</ele>
        <time>2026-05-24T11:27:57Z</time>
      </trkpt>
      <trkpt lat="31.230856886560456" lon="121.39927269412736">
        <ele>12.352278643287718</ele>
        <time>2026-05-24T11:28:06Z</time>
      </trkpt>
      <trkpt lat="31.230579020830973" lon="121.39935072614674">
        <ele>20.39007466379553</ele>
        <time>2026-05-24T11:28:25Z</time>
      </trkpt>
      <trkpt lat="31.230302154827054" lon="121.39942675818588">
        <ele>17.385809832252562</ele>
        <time>2026-05-24T11:28:43Z</time>
      </trkpt>
      <trkpt lat="31.230161224644327" lon="121.39948477670292">
        <ele>18.49556248728186</ele>
        <time>2026-05-24T11:28:49Z</time>
      </trkpt>
      <trkpt lat="31.23007027262919" lon="121.39955779272091">
        <ele>20.358366900123656</ele>
        <time>2026-05-24T11:28:55Z</time>
      </trkpt>
      <trkpt lat="31.229900355526784" lon="121.39960681312559">
        <ele>19.478491717018187</ele>
        <time>2026-05-24T11:29:01Z</time>
      </trkpt>
      <trkpt lat="31.2298193991987" lon="121.39967882861983">
        <ele>16.537638598121703</ele>
        <time>2026-05-24T11:29:04Z</time>
      </trkpt>
      <trkpt lat="31.229770430579368" lon="121.39977684480621">
        <ele>20.506335192359984</ele>
        <time>2026-05-24T11:29:07Z</time>
      </trkpt>
      <trkpt lat="31.229740470488668" lon="121.40004688285549">
        <ele>18.672594957984984</ele>
        <time>2026-05-24T11:29:16Z</time>
      </trkpt>
      <trkpt lat="31.229769465659192" lon="121.40012989198931">
        <ele>13.388049059547484</ele>
        <time>2026-05-24T11:29:19Z</time>
      </trkpt>
      <trkpt lat="31.22986843652975" lon="121.40028390595553">
        <ele>17.417517595924437</ele>
        <time>2026-05-24T11:29:25Z</time>
      </trkpt>
      <trkpt lat="31.229920418543184" lon="121.40033790964102">
        <ele>18.934180193580687</ele>
        <time>2026-05-24T11:29:28Z</time>
      </trkpt>
      <trkpt lat="31.2301253252562" lon="121.40035389423268">
        <ele>17.805930071510375</ele>
        <time>2026-05-24T11:29:40Z</time>
      </trkpt>
      <trkpt lat="31.23036620322004" lon="121.40026385953162">
        <ele>21.09292119089514</ele>
        <time>2026-05-24T11:29:52Z</time>
      </trkpt>
      <trkpt lat="31.230517129757445" lon="121.40023284174984">
        <ele>21.11405842844397</ele>
        <time>2026-05-24T11:29:58Z</time>
      </trkpt>
      <trkpt lat="31.230652061168993" lon="121.40017782191327">
        <ele>19.96202748361975</ele>
        <time>2026-05-24T11:30:04Z</time>
      </trkpt>
      <trkpt lat="31.230844968937003" lon="121.40015180132816">
        <ele>20.234179430641234</ele>
        <time>2026-05-24T11:30:10Z</time>
      </trkpt>
      <trkpt lat="31.230963909253802" lon="121.4001087848159">
        <ele>14.97869771067053</ele>
        <time>2026-05-24T11:30:13Z</time>
      </trkpt>
      <trkpt lat="31.23109483730367" lon="121.39999875813757">
        <ele>21.52096837107092</ele>
        <time>2026-05-24T11:30:19Z</time>
      </trkpt>
      <trkpt lat="31.231179784931278" lon="121.39986473300006">
        <ele>17.523207598365843</ele>
        <time>2026-05-24T11:30:25Z</time>
      </trkpt>
      <trkpt lat="31.231196760746382" lon="121.39968370907091">
        <ele>20.276457720436156</ele>
        <time>2026-05-24T11:30:31Z</time>
      </trkpt>
      <trkpt lat="31.23117476401937" lon="121.39960170138572">
        <ele>12.21752064768225</ele>
        <time>2026-05-24T11:30:34Z</time>
      </trkpt>
      <trkpt lat="31.231069798957698" lon="121.39942769133111">
        <ele>19.19576542917639</ele>
        <time>2026-05-24T11:30:40Z</time>
      </trkpt>
      <trkpt lat="31.23091986174176" lon="121.39933569489435">
        <ele>21.061213427223265</ele>
        <time>2026-05-24T11:30:46Z</time>
      </trkpt>
      <trkpt lat="31.230813908265322" lon="121.39929870043471">
        <ele>19.909182482399046</ele>
        <time>2026-05-24T11:30:49Z</time>
      </trkpt>
      <trkpt lat="31.23071995099854" lon="121.39928670744531">
        <ele>18.12828724924475</ele>
        <time>2026-05-24T11:30:52Z</time>
      </trkpt>
      <trkpt lat="31.23044908239443" lon="121.39936873932204">
        <ele>19.05044072214514</ele>
        <time>2026-05-24T11:31:01Z</time>
      </trkpt>
      <trkpt lat="31.230168219097056" lon="121.39945477285144">
        <ele>20.107352190651</ele>
        <time>2026-05-24T11:31:13Z</time>
      </trkpt>
      <trkpt lat="31.229973314378686" lon="121.39951679660322">
        <ele>19.888041430152953</ele>
        <time>2026-05-24T11:31:22Z</time>
      </trkpt>
      <trkpt lat="31.22983838505394" lon="121.39961581957024">
        <ele>21.6055211359635</ele>
        <time>2026-05-24T11:31:28Z</time>
      </trkpt>
      <trkpt lat="31.22976942933705" lon="121.39975784254409">
        <ele>19.19576542917639</ele>
        <time>2026-05-24T11:31:34Z</time>
      </trkpt>
      <trkpt lat="31.229753460299424" lon="121.40000587609482">
        <ele>20.24474995676428</ele>
        <time>2026-05-24T11:31:43Z</time>
      </trkpt>
      <trkpt lat="31.229802452144227" lon="121.40014689154552">
        <ele>19.689871721901</ele>
        <time>2026-05-24T11:31:49Z</time>
      </trkpt>
      <trkpt lat="31.229942408216736" lon="121.40033690756934">
        <ele>19.62645619455725</ele>
        <time>2026-05-24T11:31:58Z</time>
      </trkpt>
      <trkpt lat="31.230076349385183" lon="121.4003659003622">
        <ele>20.77848713938147</ele>
        <time>2026-05-24T11:32:04Z</time>
      </trkpt>
      <trkpt lat="31.23036520978699" lon="121.40031786778114">
        <ele>19.45999424997717</ele>
        <time>2026-05-24T11:32:16Z</time>
      </trkpt>
      <trkpt lat="31.230513138998198" lon="121.40029885198803">
        <ele>19.33316319528967</ele>
        <time>2026-05-24T11:32:22Z</time>
      </trkpt>
      <trkpt lat="31.230794996196998" lon="121.40018981119171">
        <ele>20.33986943308264</ele>
        <time>2026-05-24T11:32:31Z</time>
      </trkpt>
      <trkpt lat="31.231050863252058" lon="121.4000537695227">
        <ele>19.029303484596312</ele>
        <time>2026-05-24T11:32:43Z</time>
      </trkpt>
      <trkpt lat="31.231139812694277" lon="121.39996074909133">
        <ele>20.68336766306311</ele>
        <time>2026-05-24T11:32:49Z</time>
      </trkpt>
      <trkpt lat="31.231215744953595" lon="121.399600697696">
        <ele>20.789057665504515</ele>
        <time>2026-05-24T11:33:04Z</time>
      </trkpt>
      <trkpt lat="31.23115876092403" lon="121.39946968806264">
        <ele>19.845766955055296</ele>
        <time>2026-05-24T11:33:10Z</time>
      </trkpt>
      <trkpt lat="31.231001824396103" lon="121.3993446886561">
        <ele>20.24474995676428</ele>
        <time>2026-05-24T11:33:19Z</time>
      </trkpt>
      <trkpt lat="31.23080091373764" lon="121.39929070077724">
        <ele>19.689871721901</ele>
        <time>2026-05-24T11:33:28Z</time>
      </trkpt>
      <trkpt lat="31.230663977502424" lon="121.3992947131171">
        <ele>18.90511601511389</ele>
        <time>2026-05-24T11:33:34Z</time>
      </trkpt>
      <trkpt lat="31.230399106158668" lon="121.39937674450503">
        <ele>1.8862294489517808</ele>
        <time>2026-05-24T11:33:46Z</time>
      </trkpt>
      <trkpt lat="31.230159223196562" lon="121.39945377352889">
        <ele>19.888041430152953</ele>
        <time>2026-05-24T11:33:59Z</time>
      </trkpt>
      <trkpt lat="31.229885363402154" lon="121.39961781570402">
        <ele>20.485197954811156</ele>
        <time>2026-05-24T11:34:11Z</time>
      </trkpt>
      <trkpt lat="31.229755435926744" lon="121.39975884388787">
        <ele>13.12646382395178</ele>
        <time>2026-05-24T11:34:17Z</time>
      </trkpt>
      <trkpt lat="31.229700476343364" lon="121.39991886906738">
        <ele>19.55247395578772</ele>
        <time>2026-05-24T11:34:23Z</time>
      </trkpt>
      <trkpt lat="31.22971248917836" lon="121.40010189298415">
        <ele>21.90938084665686</ele>
        <time>2026-05-24T11:34:29Z</time>
      </trkpt>
      <trkpt lat="31.229765477225413" lon="121.400219905393">
        <ele>21.552676134742796</ele>
        <time>2026-05-24T11:34:32Z</time>
      </trkpt>
      <trkpt lat="31.229884436406923" lon="121.40034791431859">
        <ele>20.33986943308264</ele>
        <time>2026-05-24T11:34:38Z</time>
      </trkpt>
      <trkpt lat="31.229999388627995" lon="121.40039591175214">
        <ele>17.177069597877562</ele>
        <time>2026-05-24T11:34:44Z</time>
      </trkpt>
      <trkpt lat="31.230182302422595" lon="121.40038489407684">
        <ele>20.934382372535765</ele>
        <time>2026-05-24T11:34:50Z</time>
      </trkpt>
      <trkpt lat="31.23046416024683" lon="121.40028585429417">
        <ele>21.10348790232092</ele>
        <time>2026-05-24T11:35:02Z</time>
      </trkpt>
      <trkpt lat="31.23060508785987" lon="121.40022283259893">
        <ele>20.02279942575842</ele>
        <time>2026-05-24T11:35:08Z</time>
      </trkpt>
      <trkpt lat="31.23082398113648" lon="121.40017480648149">
        <ele>20.74678319040686</ele>
        <time>2026-05-24T11:35:17Z</time>
      </trkpt>
      <trkpt lat="31.231040865842104" lon="121.40003376763117">
        <ele>20.68336766306311</ele>
        <time>2026-05-24T11:35:29Z</time>
      </trkpt>
      <trkpt lat="31.23111082622176" lon="121.39996175175366">
        <ele>22.379710131324828</ele>
        <time>2026-05-24T11:35:35Z</time>
      </trkpt>
      <trkpt lat="31.231186777867702" lon="121.3998237271544">
        <ele>20.90531819406897</ele>
        <time>2026-05-24T11:35:38Z</time>
      </trkpt>
      <trkpt lat="31.23119676572736" lon="121.39974071595431">
        <ele>19.248610430397093</ele>
        <time>2026-05-24T11:35:41Z</time>
      </trkpt>
      <trkpt lat="31.231167763030662" lon="121.3995496960889">
        <ele>19.301459246315062</ele>
        <time>2026-05-24T11:35:50Z</time>
      </trkpt>
      <trkpt lat="31.231126773990407" lon="121.39944668838169">
        <ele>19.7717809015885</ele>
        <time>2026-05-24T11:35:53Z</time>
      </trkpt>
      <trkpt lat="31.231021814565022" lon="121.39933668610209">
        <ele>19.34373372141272</ele>
        <time>2026-05-24T11:35:59Z</time>
      </trkpt>
      <trkpt lat="31.230960840924944" lon="121.39930968871094">
        <ele>17.40694706980139</ele>
        <time>2026-05-24T11:36:03Z</time>
      </trkpt>
      <trkpt lat="31.230676972585492" lon="121.39931071357222">
        <ele>19.478491717018187</ele>
        <time>2026-05-24T11:36:15Z</time>
      </trkpt>
      <trkpt lat="31.230372120580743" lon="121.39940274955906">
        <ele>19.700442248024046</ele>
        <time>2026-05-24T11:36:27Z</time>
      </trkpt>
      <trkpt lat="31.230263172841855" lon="121.39942576148043">
        <ele>20.54860966745764</ele>
        <time>2026-05-24T11:36:33Z</time>
      </trkpt>
      <trkpt lat="31.230106252266374" lon="121.3995117844556">
        <ele>18.548411303199828</ele>
        <time>2026-05-24T11:36:39Z</time>
      </trkpt>
      <trkpt lat="31.230049279345025" lon="121.39951979030883">
        <ele>20.26588719431311</ele>
        <time>2026-05-24T11:36:42Z</time>
      </trkpt>
      <trkpt lat="31.22988136459472" lon="121.39960981512803">
        <ele>20.107352190651</ele>
        <time>2026-05-24T11:36:51Z</time>
      </trkpt>
      <trkpt lat="31.22980940384128" lon="121.39967882949168">
        <ele>19.983164721168578</ele>
        <time>2026-05-24T11:36:54Z</time>
      </trkpt>
      <trkpt lat="31.22975144378384" lon="121.39982485248227">
        <ele>19.428286486305296</ele>
        <time>2026-05-24T11:37:00Z</time>
      </trkpt>
      <trkpt lat="31.229745466537473" lon="121.40003088021304">
        <ele>20.506335192359984</ele>
        <time>2026-05-24T11:37:06Z</time>
      </trkpt>
      <trkpt lat="31.229805455594956" lon="121.40019189779842">
        <ele>18.02524083200842</ele>
        <time>2026-05-24T11:37:12Z</time>
      </trkpt>
      <trkpt lat="31.229919417400193" lon="121.40032390758259">
        <ele>19.61588948313147</ele>
        <time>2026-05-24T11:37:18Z</time>
      </trkpt>
      <trkpt lat="31.230049364836706" lon="121.40039090661013">
        <ele>22.202677660621703</ele>
        <time>2026-05-24T11:37:24Z</time>
      </trkpt>
      <trkpt lat="31.230346219857697" lon="121.4003288711192">
        <ele>19.721579485572875</ele>
        <time>2026-05-24T11:37:39Z</time>
      </trkpt>
      <trkpt lat="31.230550118911836" lon="121.4002728448389">
        <ele>18.643530779518187</ele>
        <time>2026-05-24T11:37:48Z</time>
      </trkpt>
      <trkpt lat="31.23079699000493" lon="121.40014080393408">
        <ele>19.792921953834593</ele>
        <time>2026-05-24T11:38:01Z</time>
      </trkpt>
      <trkpt lat="31.230957908904557" lon="121.4000787811151">
        <ele>8.964880877174437</ele>
        <time>2026-05-24T11:38:07Z</time>
      </trkpt>
      <trkpt lat="31.23104885930879" lon="121.4000057631002">
        <ele>20.569750719703734</ele>
        <time>2026-05-24T11:38:13Z</time>
      </trkpt>
      <trkpt lat="31.231152798660737" lon="121.39987773703258">
        <ele>20.767920427955687</ele>
        <time>2026-05-24T11:38:16Z</time>
      </trkpt>
      <trkpt lat="31.23119077055601" lon="121.39976371930325">
        <ele>21.6055211359635</ele>
        <time>2026-05-24T11:38:19Z</time>
      </trkpt>
      <trkpt lat="31.23119376025139" lon="121.39966170672133">
        <ele>20.54860966745764</ele>
        <time>2026-05-24T11:38:22Z</time>
      </trkpt>
      <trkpt lat="31.231145769966822" lon="121.39950869344953">
        <ele>7.479926043190062</ele>
        <time>2026-05-24T11:38:28Z</time>
      </trkpt>
      <trkpt lat="31.231050803854977" lon="121.39937468745198">
        <ele>20.976660662330687</ele>
        <time>2026-05-24T11:38:34Z</time>
      </trkpt>
      <trkpt lat="31.23096983766429" lon="121.39932268922615">
        <ele>16.077883654274046</ele>
        <time>2026-05-24T11:38:37Z</time>
      </trkpt>
      <trkpt lat="31.230677970807115" lon="121.3992917116001">
        <ele>21.156332903541625</ele>
        <time>2026-05-24T11:38:49Z</time>
      </trkpt>
      <trkpt lat="31.23047906790823" lon="121.39936073588613">
        <ele>22.086413317359984</ele>
        <time>2026-05-24T11:38:58Z</time>
      </trkpt>
      <trkpt lat="31.23039810575506" lon="121.39936474335803">
        <ele>10.114272051490843</ele>
        <time>2026-05-24T11:39:01Z</time>
      </trkpt>
      <trkpt lat="31.230052276853076" lon="121.39950578850315">
        <ele>21.05064290110022</ele>
        <time>2026-05-24T11:39:13Z</time>
      </trkpt>
      <trkpt lat="31.229900354291" lon="121.3995918114031">
        <ele>20.651659899391234</ele>
        <time>2026-05-24T11:39:19Z</time>
      </trkpt>
      <trkpt lat="31.229793418821036" lon="121.39976484131498">
        <ele>19.81405919138342</ele>
        <time>2026-05-24T11:39:25Z</time>
      </trkpt>
      <trkpt lat="31.2297574525965" lon="121.3999468678033">
        <ele>19.05044072214514</ele>
        <time>2026-05-24T11:39:31Z</time>
      </trkpt>
      <trkpt lat="31.229783455584705" lon="121.40009588594766">
        <ele>19.206335955299437</ele>
        <time>2026-05-24T11:39:38Z</time>
      </trkpt>
      <trkpt lat="31.229848438911233" lon="121.40022189845158">
        <ele>19.28031819406897</ele>
        <time>2026-05-24T11:39:44Z</time>
      </trkpt>
      <trkpt lat="31.229955396936994" lon="121.40029089942719">
        <ele>21.478690081276</ele>
        <time>2026-05-24T11:39:50Z</time>
      </trkpt>
      <trkpt lat="31.230182292168184" lon="121.4002958803924">
        <ele>19.124426775611937</ele>
        <time>2026-05-24T11:40:02Z</time>
      </trkpt>
      <trkpt lat="31.230516128020952" lon="121.40021283888547">
        <ele>19.54190342966467</ele>
        <time>2026-05-24T11:40:17Z</time>
      </trkpt>
      <trkpt lat="31.23079598898347" lon="121.40012680202067">
        <ele>15.565283709205687</ele>
        <time>2026-05-24T11:40:32Z</time>
      </trkpt>
      <trkpt lat="31.23099288909272" lon="121.40004377319534">
        <ele>18.651457720436156</ele>
        <time>2026-05-24T11:40:45Z</time>
      </trkpt>
      <trkpt lat="31.231084162425606" lon="121.3999701314457">
        <ele>19.438857012428343</ele>
        <time>2026-05-24T11:40:51Z</time>
      </trkpt>
      <trkpt lat="31.2311617891666" lon="121.39982072895452">
        <ele>19.48905842844397</ele>
        <time>2026-05-24T11:41:00Z</time>
      </trkpt>
      <trkpt lat="31.2311923906454" lon="121.39964806791453">
        <ele>19.230116778053343</ele>
        <time>2026-05-24T11:41:10Z</time>
      </trkpt>
      <trkpt lat="31.23111278291653" lon="121.39947869304784">
        <ele>18.98702519480139</ele>
        <time>2026-05-24T11:41:18Z</time>
      </trkpt>
      <trkpt lat="31.231016820474835" lon="121.3993866916569">
        <ele>18.757147722877562</ele>
        <time>2026-05-24T11:41:24Z</time>
      </trkpt>
      <trkpt lat="31.23086188811816" lon="121.3993286992455">
        <ele>11.401057177223265</ele>
        <time>2026-05-24T11:41:33Z</time>
      </trkpt>
      <trkpt lat="31.230559032482535" lon="121.39938373127845">
        <ele>12.185812884010375</ele>
        <time>2026-05-24T11:41:45Z</time>
      </trkpt>
      <trkpt lat="31.230207203846174" lon="121.39949177345541">
        <ele>18.55897801462561</ele>
        <time>2026-05-24T11:42:00Z</time>
      </trkpt>
      <trkpt lat="31.2299703184736" lon="121.39955080065224">
        <ele>18.548411303199828</ele>
        <time>2026-05-24T11:42:12Z</time>
      </trkpt>
      <trkpt lat="31.229923342878404" lon="121.39958280837003">
        <ele>18.714873247779906</ele>
        <time>2026-05-24T11:42:16Z</time>
      </trkpt>
      <trkpt lat="31.229808410962086" lon="121.39975483877465">
        <ele>20.20247166696936</ele>
        <time>2026-05-24T11:42:22Z</time>
      </trkpt>
      <trkpt lat="31.229772444073273" lon="121.39993086437306">
        <ele>17.84556477610022</ele>
        <time>2026-05-24T11:42:28Z</time>
      </trkpt>
      <trkpt lat="31.22978845180637" lon="121.40008188354425">
        <ele>16.392313891090453</ele>
        <time>2026-05-24T11:42:34Z</time>
      </trkpt>
      <trkpt lat="31.22982244651029" lon="121.40018089471403">
        <ele>-6.156849927268922</ele>
        <time>2026-05-24T11:42:37Z</time>
      </trkpt>
      <trkpt lat="31.22992141328364" lon="121.40029590314793">
        <ele>19.11385624948889</ele>
        <time>2026-05-24T11:42:43Z</time>
      </trkpt>
      <trkpt lat="31.230005382333008" lon="121.4003659065524">
        <ele>20.442919665016234</ele>
        <time>2026-05-24T11:42:46Z</time>
      </trkpt>
      <trkpt lat="31.230103339075573" lon="121.40038490096455">
        <ele>18.47442524973303</ele>
        <time>2026-05-24T11:42:49Z</time>
      </trkpt>
      <trkpt lat="31.2303852001695" lon="121.40031486557993">
        <ele>20.68336766306311</ele>
        <time>2026-05-24T11:42:58Z</time>
      </trkpt>
      <trkpt lat="31.230680055083972" lon="121.40024082872476">
        <ele>21.82482808176428</ele>
        <time>2026-05-24T11:43:10Z</time>
      </trkpt>
      <trkpt lat="31.23096091434389" lon="121.40014379006517">
        <ele>19.679301195777953</ele>
        <time>2026-05-24T11:43:22Z</time>
      </trkpt>
      <trkpt lat="31.231087846424277" lon="121.400056766713">
        <ele>19.05044072214514</ele>
        <time>2026-05-24T11:43:28Z</time>
      </trkpt>
      <trkpt lat="31.231199776614623" lon="121.39987473254656">
        <ele>18.643530779518187</ele>
        <time>2026-05-24T11:43:37Z</time>
      </trkpt>
      <trkpt lat="31.231224752055784" lon="121.3997327125366">
        <ele>19.951456957496703</ele>
        <time>2026-05-24T11:43:43Z</time>
      </trkpt>
      <trkpt lat="31.231164760855826" lon="121.399504691353">
        <ele>18.339671068824828</ele>
        <time>2026-05-24T11:43:52Z</time>
      </trkpt>
      <trkpt lat="31.231076792759332" lon="121.39938768652924">
        <ele>18.736010485328734</ele>
        <time>2026-05-24T11:43:58Z</time>
      </trkpt>
      <trkpt lat="31.2308788771863" lon="121.39928469338554">
        <ele>13.787032061256468</ele>
        <time>2026-05-24T11:44:07Z</time>
      </trkpt>
      <trkpt lat="31.230733944305005" lon="121.39928370592958">
        <ele>20.45349019113928</ele>
        <time>2026-05-24T11:44:13Z</time>
      </trkpt>
      <trkpt lat="31.23047107357319" lon="121.39938773936551">
        <ele>18.389872484840453</ele>
        <time>2026-05-24T11:44:26Z</time>
      </trkpt>
      <trkpt lat="31.2302072020724" lon="121.39946877095785">
        <ele>16.49800389353186</ele>
        <time>2026-05-24T11:44:38Z</time>
      </trkpt>
      <trkpt lat="31.22998231250362" lon="121.39954579904521">
        <ele>18.49556248728186</ele>
        <time>2026-05-24T11:44:47Z</time>
      </trkpt>
      <trkpt lat="31.22982739539882" lon="121.39967782780336">
        <ele>18.442717486061156</ele>
        <time>2026-05-24T11:44:56Z</time>
      </trkpt>
      <trkpt lat="31.229777427781073" lon="121.39978184481731">
        <ele>17.721377306617796</ele>
        <time>2026-05-24T11:44:59Z</time>
      </trkpt>
      <trkpt lat="31.229761458804173" lon="121.40002787840587">
        <ele>18.32910054270178</ele>
        <time>2026-05-24T11:45:08Z</time>
      </trkpt>
      <trkpt lat="31.229828448415983" lon="121.40022390049045">
        <ele>18.223410540260375</ele>
        <time>2026-05-24T11:45:17Z</time>
      </trkpt>
      <trkpt lat="31.229939413313904" lon="121.40036891277218">
        <ele>17.877272539772093</ele>
        <time>2026-05-24T11:45:23Z</time>
      </trkpt>
      <trkpt lat="31.22995741286337" lon="121.40043592172312">
        <ele>10.375857287086546</ele>
        <time>2026-05-24T11:45:29Z</time>
      </trkpt>
    </trkseg>
  </trk>
</gpx>