<?xml version="1.0" encoding="UTF-8"?>
<gpx xmlns="http://www.topografix.com/GPX/1/1" xmlns:gpxtpx="http://www.garmin.com/xmlschemas/TrackPointExtension/v1" xmlns:xsi="http://www.w3.org/2001/XMLSchema-instance" xsi:schemaLocation="http://www.topografix.com/GPX/1/1 http://www.topografix.com/GPX/1/1/gpx.xsd" version="1.1" creator="gpx.py -- https://github.com/tkrajina/gpxpy">
  <trk>
    <name>gpx from keep</name>
    <type>Run</type>
    <trkseg>
      <trkpt lat="31.226080126900648" lon="121.39949113331238">
        <ele>11.212564032524824</ele>
        <time>2026-09-28T09:15:58Z</time>
      </trkpt>
      <trkpt lat="31.226080108288272" lon="121.3992321068034">
        <ele>9.81480173394084</ele>
        <time>2026-09-28T09:16:04Z</time>
      </trkpt>
      <trkpt lat="31.226008133915574" lon="121.39910510136559">
        <ele>10.409312766045332</ele>
        <time>2026-09-28T09:16:13Z</time>
      </trkpt>
      <trkpt lat="31.225943161170626" lon="121.399052102393">
        <ele>11.265409033745527</ele>
        <time>2026-09-28T09:16:16Z</time>
      </trkpt>
      <trkpt lat="31.22569527246475" lon="121.39896811696089">
        <ele>10.773946326225996</ele>
        <time>2026-09-28T09:16:25Z</time>
      </trkpt>
      <trkpt lat="31.225341436776123" lon="121.39894214571198">
        <ele>10.430451910942793</ele>
        <time>2026-09-28T09:16:37Z</time>
      </trkpt>
      <trkpt lat="31.225029583725718" lon="121.39895717412072">
        <ele>10.483296912163496</ele>
        <time>2026-09-28T09:16:49Z</time>
      </trkpt>
      <trkpt lat="31.224868659825134" lon="121.39896918913277">
        <ele>10.356467764824629</ele>
        <time>2026-09-28T09:16:55Z</time>
      </trkpt>
      <trkpt lat="31.224793697027316" lon="121.39900619873262">
        <ele>10.943051856011152</ele>
        <time>2026-09-28T09:16:58Z</time>
      </trkpt>
      <trkpt lat="31.22467176333171" lon="121.39915922279067">
        <ele>9.180655997246504</ele>
        <time>2026-09-28T09:17:04Z</time>
      </trkpt>
      <trkpt lat="31.22461081000918" lon="121.39942225404774">
        <ele>10.324760001152754</ele>
        <time>2026-09-28T09:17:13Z</time>
      </trkpt>
      <trkpt lat="31.224613815176262" lon="121.39950826305504">
        <ele>10.70260576531291</ele>
        <time>2026-09-28T09:17:16Z</time>
      </trkpt>
      <trkpt lat="31.22470178675953" lon="121.39966527330557">
        <ele>10.8267913274467</ele>
        <time>2026-09-28T09:17:22Z</time>
      </trkpt>
      <trkpt lat="31.224837732925227" lon="121.39977827514986">
        <ele>10.911344092339277</ele>
        <time>2026-09-28T09:17:28Z</time>
      </trkpt>
      <trkpt lat="31.225054636544645" lon="121.39983626352587">
        <ele>9.60606149956584</ele>
        <time>2026-09-28T09:17:37Z</time>
      </trkpt>
      <trkpt lat="31.225378484416634" lon="121.39983223477411">
        <ele>3.7454982213675976</ele>
        <time>2026-09-28T09:17:49Z</time>
      </trkpt>
      <trkpt lat="31.22562237233573" lon="121.39985521643996">
        <ele>10.586345236748457</ele>
        <time>2026-09-28T09:17:58Z</time>
      </trkpt>
      <trkpt lat="31.225849265836477" lon="121.39985219626742">
        <ele>11.349961798638105</ele>
        <time>2026-09-28T09:18:07Z</time>
      </trkpt>
      <trkpt lat="31.225971201245333" lon="121.39977017530603">
        <ele>9.690614264458418</ele>
        <time>2026-09-28T09:18:13Z</time>
      </trkpt>
      <trkpt lat="31.226080135950614" lon="121.39960414598008">
        <ele>12.02638391777873</ele>
        <time>2026-09-28T09:18:19Z</time>
      </trkpt>
      <trkpt lat="31.226110115141292" lon="121.39952013388431">
        <ele>10.430451910942793</ele>
        <time>2026-09-28T09:18:22Z</time>
      </trkpt>
      <trkpt lat="31.226126099622327" lon="121.3994151211592">
        <ele>7.740615408867598</ele>
        <time>2026-09-28T09:18:25Z</time>
      </trkpt>
      <trkpt lat="31.226033126632675" lon="121.39917610563107">
        <ele>10.179435294121504</ele>
        <time>2026-09-28T09:18:34Z</time>
      </trkpt>
      <trkpt lat="31.225920172747735" lon="121.39906610560904">
        <ele>8.562364142388105</ele>
        <time>2026-09-28T09:18:40Z</time>
      </trkpt>
      <trkpt lat="31.225785232062215" lon="121.3989991116745">
        <ele>10.316833060234785</ele>
        <time>2026-09-28T09:18:46Z</time>
      </trkpt>
      <trkpt lat="31.225486370396425" lon="121.39897013534333">
        <ele>10.179435294121504</ele>
        <time>2026-09-28T09:18:58Z</time>
      </trkpt>
      <trkpt lat="31.22520450206762" lon="121.39896315935388">
        <ele>11.067239325493574</ele>
        <time>2026-09-28T09:19:10Z</time>
      </trkpt>
      <trkpt lat="31.22490164424973" lon="121.39896718609269">
        <ele>9.970695059746504</ele>
        <time>2026-09-28T09:19:22Z</time>
      </trkpt>
      <trkpt lat="31.22477070713837" lon="121.39899419973652">
        <ele>10.160939734429121</ele>
        <time>2026-09-28T09:19:29Z</time>
      </trkpt>
      <trkpt lat="31.224664765178485" lon="121.39913622130466">
        <ele>9.804231207817793</ele>
        <time>2026-09-28T09:19:35Z</time>
      </trkpt>
      <trkpt lat="31.22458282448828" lon="121.39944025839634">
        <ele>10.515004675835371</ele>
        <time>2026-09-28T09:19:44Z</time>
      </trkpt>
      <trkpt lat="31.224581830417453" lon="121.39951126617476">
        <ele>10.554637473076582</ele>
        <time>2026-09-28T09:19:47Z</time>
      </trkpt>
      <trkpt lat="31.224726779183563" lon="121.39971327686365">
        <ele>10.076386969536543</ele>
        <time>2026-09-28T09:19:56Z</time>
      </trkpt>
      <trkpt lat="31.224787755102753" lon="121.3997642777747">
        <ele>9.159516852349043</ele>
        <time>2026-09-28T09:19:59Z</time>
      </trkpt>
      <trkpt lat="31.225061635788308" lon="121.39986326637039">
        <ele>10.575776617974043</ele>
        <time>2026-09-28T09:20:11Z</time>
      </trkpt>
      <trkpt lat="31.2253345069762" lon="121.3998532412889">
        <ele>10.012971442192793</ele>
        <time>2026-09-28T09:20:23Z</time>
      </trkpt>
      <trkpt lat="31.22562936999881" lon="121.3998652171148">
        <ele>11.09894708916545</ele>
        <time>2026-09-28T09:20:35Z</time>
      </trkpt>
      <trkpt lat="31.22589723866776" lon="121.39980118561917">
        <ele>10.515004675835371</ele>
        <time>2026-09-28T09:20:47Z</time>
      </trkpt>
      <trkpt lat="31.226015172837915" lon="121.39968116066203">
        <ele>8.990411322563887</ele>
        <time>2026-09-28T09:20:53Z</time>
      </trkpt>
      <trkpt lat="31.226095122313037" lon="121.39952213541333">
        <ele>8.802810233086348</ele>
        <time>2026-09-28T09:20:59Z</time>
      </trkpt>
      <trkpt lat="31.226111107231258" lon="121.39942312330972">
        <ele>10.78451494500041</ele>
        <time>2026-09-28T09:21:02Z</time>
      </trkpt>
      <trkpt lat="31.226026126044044" lon="121.39911410059882">
        <ele>8.353623908013105</ele>
        <time>2026-09-28T09:21:14Z</time>
      </trkpt>
      <trkpt lat="31.22596515088064" lon="121.39905210047519">
        <ele>10.607484381645918</ele>
        <time>2026-09-28T09:21:17Z</time>
      </trkpt>
      <trkpt lat="31.225786231482733" lon="121.3989971114207">
        <ele>10.274556677788496</ele>
        <time>2026-09-28T09:21:23Z</time>
      </trkpt>
      <trkpt lat="31.22549936425608" lon="121.3989691341283">
        <ele>10.16886667534709</ele>
        <time>2026-09-28T09:21:32Z</time>
      </trkpt>
      <trkpt lat="31.225412404012726" lon="121.3989511402484">
        <ele>1.2432647161185741</ele>
        <time>2026-09-28T09:21:35Z</time>
      </trkpt>
      <trkpt lat="31.22509855150587" lon="121.39895916826843">
        <ele>10.63919023796916</ele>
        <time>2026-09-28T09:21:47Z</time>
      </trkpt>
      <trkpt lat="31.22487865513823" lon="121.39896918826108">
        <ele>11.18085626885295</ele>
        <time>2026-09-28T09:21:56Z</time>
      </trkpt>
      <trkpt lat="31.2248186847492" lon="121.39899619571872">
        <ele>10.242848914116621</ele>
        <time>2026-09-28T09:21:59Z</time>
      </trkpt>
      <trkpt lat="31.224700747009393" lon="121.39911521627688">
        <ele>9.941630881279707</ele>
        <time>2026-09-28T09:22:05Z</time>
      </trkpt>
      <trkpt lat="31.224655773709603" lon="121.39920422836674">
        <ele>7.280860465019941</ele>
        <time>2026-09-28T09:22:08Z</time>
      </trkpt>
      <trkpt lat="31.224610806990274" lon="121.3993812497654">
        <ele>10.63919023796916</ele>
        <time>2026-09-28T09:22:14Z</time>
      </trkpt>
      <trkpt lat="31.224607815967868" lon="121.39948226073494">
        <ele>8.866225760430098</ele>
        <time>2026-09-28T09:22:17Z</time>
      </trkpt>
      <trkpt lat="31.224624814717348" lon="121.39956726867932">
        <ele>9.941630881279707</ele>
        <time>2026-09-28T09:22:20Z</time>
      </trkpt>
      <trkpt lat="31.22472977812711" lon="121.39971727708571">
        <ele>8.324559729546309</ele>
        <time>2026-09-28T09:22:26Z</time>
      </trkpt>
      <trkpt lat="31.224863724846667" lon="121.39982327852553">
        <ele>9.867646735161543</ele>
        <time>2026-09-28T09:22:32Z</time>
      </trkpt>
      <trkpt lat="31.225140597091894" lon="121.39984525717655">
        <ele>10.263988059014082</ele>
        <time>2026-09-28T09:22:44Z</time>
      </trkpt>
      <trkpt lat="31.225196573110853" lon="121.39986925537534">
        <ele>8.887362997978926</ele>
        <time>2026-09-28T09:22:47Z</time>
      </trkpt>
      <trkpt lat="31.22543945576292" lon="121.39983122932968">
        <ele>10.723743002861738</ele>
        <time>2026-09-28T09:22:56Z</time>
      </trkpt>
      <trkpt lat="31.225556402199206" lon="121.39984422078581">
        <ele>10.221711676567793</ele>
        <time>2026-09-28T09:23:02Z</time>
      </trkpt>
      <trkpt lat="31.225888244712827" lon="121.39982118892233">
        <ele>9.981263678520918</ele>
        <time>2026-09-28T09:23:17Z</time>
      </trkpt>
      <trkpt lat="31.226075142558237" lon="121.3996551523526">
        <ele>10.044679205864668</ele>
        <time>2026-09-28T09:23:26Z</time>
      </trkpt>
      <trkpt lat="31.22611411139077" lon="121.39949613089485">
        <ele>7.050982993096113</ele>
        <time>2026-09-28T09:23:32Z</time>
      </trkpt>
      <trkpt lat="31.22610010769212" lon="121.39935911761921">
        <ele>10.441020529717207</ele>
        <time>2026-09-28T09:23:38Z</time>
      </trkpt>
      <trkpt lat="31.225998137809277" lon="121.39909210108588">
        <ele>9.680045645684004</ele>
        <time>2026-09-28T09:23:47Z</time>
      </trkpt>
      <trkpt lat="31.225868193567347" lon="121.3990051049403">
        <ele>10.118663351982832</ele>
        <time>2026-09-28T09:23:53Z</time>
      </trkpt>
      <trkpt lat="31.2255893213149" lon="121.39895412506185">
        <ele>9.336549323052168</ele>
        <time>2026-09-28T09:24:05Z</time>
      </trkpt>
      <trkpt lat="31.225293459521478" lon="121.39894715029874">
        <ele>8.562364142388105</ele>
        <time>2026-09-28T09:24:17Z</time>
      </trkpt>
      <trkpt lat="31.225005595241726" lon="121.39896217661928">
        <ele>9.35504488274455</ele>
        <time>2026-09-28T09:24:29Z</time>
      </trkpt>
      <trkpt lat="31.224852668368268" lon="121.398988192091">
        <ele>8.250575583428144</ele>
        <time>2026-09-28T09:24:36Z</time>
      </trkpt>
      <trkpt lat="31.224722735845777" lon="121.39910121311219">
        <ele>8.78167299553752</ele>
        <time>2026-09-28T09:24:42Z</time>
      </trkpt>
      <trkpt lat="31.224626793534625" lon="121.3992972398723">
        <ele>9.701182883232832</ele>
        <time>2026-09-28T09:24:51Z</time>
      </trkpt>
      <trkpt lat="31.224602812499846" lon="121.39940525295879">
        <ele>9.06439546868205</ele>
        <time>2026-09-28T09:24:54Z</time>
      </trkpt>
      <trkpt lat="31.224608815113537" lon="121.39947726010509">
        <ele>9.503013174980879</ele>
        <time>2026-09-28T09:24:57Z</time>
      </trkpt>
      <trkpt lat="31.224668798939252" lon="121.39962627160962">
        <ele>9.325980704277754</ele>
        <time>2026-09-28T09:25:03Z</time>
      </trkpt>
      <trkpt lat="31.22479075423528" lon="121.39977027825492">
        <ele>8.522729437798262</ele>
        <time>2026-09-28T09:25:12Z</time>
      </trkpt>
      <trkpt lat="31.224946686039942" lon="121.39982427141706">
        <ele>9.981263678520918</ele>
        <time>2026-09-28T09:25:18Z</time>
      </trkpt>
      <trkpt lat="31.224991664123507" lon="121.39981526635704">
        <ele>9.783093970268965</ele>
        <time>2026-09-28T09:25:21Z</time>
      </trkpt>
      <trkpt lat="31.22513759840402" lon="121.39984425731038">
        <ele>10.097524207085371</ele>
        <time>2026-09-28T09:25:27Z</time>
      </trkpt>
      <trkpt lat="31.225426464085487" lon="121.39985523352554">
        <ele>10.108092825859785</ele>
        <time>2026-09-28T09:25:39Z</time>
      </trkpt>
      <trkpt lat="31.2257123321947" lon="121.39987621129913">
        <ele>10.129231970757246</ele>
        <time>2026-09-28T09:25:51Z</time>
      </trkpt>
      <trkpt lat="31.22595421328852" lon="121.39981518241115">
        <ele>9.793662589043379</ele>
        <time>2026-09-28T09:26:03Z</time>
      </trkpt>
      <trkpt lat="31.226062149062138" lon="121.39966015407522">
        <ele>8.823949377983809</ele>
        <time>2026-09-28T09:26:09Z</time>
      </trkpt>
      <trkpt lat="31.22612510648103" lon="121.39949913026439">
        <ele>8.678622763603926</ele>
        <time>2026-09-28T09:26:15Z</time>
      </trkpt>
      <trkpt lat="31.22611909938338" lon="121.39936711678234">
        <ele>10.012971442192793</ele>
        <time>2026-09-28T09:26:21Z</time>
      </trkpt>
      <trkpt lat="31.226066114307265" lon="121.39922410726099">
        <ele>9.77252535149455</ele>
        <time>2026-09-28T09:26:27Z</time>
      </trkpt>
      <trkpt lat="31.225992140435753" lon="121.39908910134446">
        <ele>9.941630881279707</ele>
        <time>2026-09-28T09:26:33Z</time>
      </trkpt>
      <trkpt lat="31.225889185160263" lon="121.39903010521797">
        <ele>9.6272006444633</ele>
        <time>2026-09-28T09:26:39Z</time>
      </trkpt>
      <trkpt lat="31.22558332526403" lon="121.39897512729759">
        <ele>10.462157767266035</ele>
        <time>2026-09-28T09:26:51Z</time>
      </trkpt>
      <trkpt lat="31.225284464925174" lon="121.39896915287007">
        <ele>10.129231970757246</ele>
        <time>2026-09-28T09:27:03Z</time>
      </trkpt>
      <trkpt lat="31.224923633776204" lon="121.39896418393015">
        <ele>9.31541208550334</ele>
        <time>2026-09-28T09:27:18Z</time>
      </trkpt>
      <trkpt lat="31.22481568671478" lon="121.39900619681491">
        <ele>9.376184027642012</ele>
        <time>2026-09-28T09:27:24Z</time>
      </trkpt>
      <trkpt lat="31.224613791539955" lon="121.399175229321">
        <ele>10.607484381645918</ele>
        <time>2026-09-28T09:27:33Z</time>
      </trkpt>
      <trkpt lat="31.22456682098294" lon="121.39928724411531">
        <ele>9.60606149956584</ele>
        <time>2026-09-28T09:27:39Z</time>
      </trkpt>
      <trkpt lat="31.224557831771833" lon="121.39938025428198">
        <ele>10.221711676567793</ele>
        <time>2026-09-28T09:27:42Z</time>
      </trkpt>
      <trkpt lat="31.224572829404025" lon="121.39944325958767">
        <ele>10.129231970757246</ele>
        <time>2026-09-28T09:27:45Z</time>
      </trkpt>
      <trkpt lat="31.224745771680393" lon="121.39972927714673">
        <ele>9.909923117607832</ele>
        <time>2026-09-28T09:27:54Z</time>
      </trkpt>
      <trkpt lat="31.224817744845378" lon="121.39980628039136">
        <ele>9.35504488274455</ele>
        <time>2026-09-28T09:27:57Z</time>
      </trkpt>
      <trkpt lat="31.22495568545682" lon="121.39986327561037">
        <ele>8.469884436577559</ele>
        <time>2026-09-28T09:28:03Z</time>
      </trkpt>
      <trkpt lat="31.225228559067823" lon="121.39987925387825">
        <ele>10.065816443413496</ele>
        <time>2026-09-28T09:28:15Z</time>
      </trkpt>
      <trkpt lat="31.225603382922127" lon="121.39987322041306">
        <ele>10.086955588310957</ele>
        <time>2026-09-28T09:28:30Z</time>
      </trkpt>
      <trkpt lat="31.22589723875909" lon="121.3998021857446">
        <ele>9.931062262505293</ele>
        <time>2026-09-28T09:28:45Z</time>
      </trkpt>
      <trkpt lat="31.225959203031625" lon="121.39972717107815">
        <ele>15.64894251152873</ele>
        <time>2026-09-28T09:28:48Z</time>
      </trkpt>
      <trkpt lat="31.22604216055542" lon="121.3996851587852">
        <ele>8.792241614311934</ele>
        <time>2026-09-28T09:28:54Z</time>
      </trkpt>
    </trkseg>
  </trk>
</gpx>