<?xml version="1.0" encoding="UTF-8"?>
<gpx xmlns="http://www.topografix.com/GPX/1/1" xmlns:gpxtpx="http://www.garmin.com/xmlschemas/TrackPointExtension/v1" xmlns:xsi="http://www.w3.org/2001/XMLSchema-instance" xsi:schemaLocation="http://www.topografix.com/GPX/1/1 http://www.topografix.com/GPX/1/1/gpx.xsd" version="1.1" creator="gpx.py -- https://github.com/tkrajina/gpxpy">
  <trk>
    <name>gpx from keep</name>
    <type>Run</type>
    <trkseg>
      <trkpt lat="32.051919623187636" lon="118.80406020583554">
        <ele>9.44584284722805</ele>
        <time>2026-07-29T10:33:49Z</time>
      </trkpt>
      <trkpt lat="32.051932870681256" lon="118.80420048180486">
        <ele>10.711490735411644</ele>
        <time>2026-07-29T10:33:55Z</time>
      </trkpt>
      <trkpt lat="32.051978006620615" lon="118.80427262033454">
        <ele>10.835678204894066</ele>
        <time>2026-07-29T10:33:58Z</time>
      </trkpt>
      <trkpt lat="32.05214626459903" lon="118.80439885476072">
        <ele>11.047058209776878</ele>
        <time>2026-07-29T10:34:04Z</time>
      </trkpt>
      <trkpt lat="32.05247551488384" lon="118.80450002499876">
        <ele>10.983646497130394</ele>
        <time>2026-07-29T10:34:16Z</time>
      </trkpt>
      <trkpt lat="32.052814753483275" lon="118.80459317858354">
        <ele>9.44584284722805</ele>
        <time>2026-07-29T10:34:28Z</time>
      </trkpt>
      <trkpt lat="32.05306091179327" lon="118.80465227324777">
        <ele>11.945434674620628</ele>
        <time>2026-07-29T10:34:38Z</time>
      </trkpt>
      <trkpt lat="32.05322089130675" lon="118.80462019493142">
        <ele>1.0222741216421127</ele>
        <time>2026-07-29T10:34:44Z</time>
      </trkpt>
      <trkpt lat="32.053316782935354" lon="118.80454603906777">
        <ele>9.44584284722805</ele>
        <time>2026-07-29T10:34:47Z</time>
      </trkpt>
      <trkpt lat="32.05342940704575" lon="118.80431657420365">
        <ele>6.623893842101097</ele>
        <time>2026-07-29T10:34:56Z</time>
      </trkpt>
      <trkpt lat="32.05340810511816" lon="118.80414623929363">
        <ele>8.787914380431175</ele>
        <time>2026-07-29T10:35:02Z</time>
      </trkpt>
      <trkpt lat="32.05335486279116" lon="118.80401398294246">
        <ele>9.3005181401968</ele>
        <time>2026-07-29T10:35:05Z</time>
      </trkpt>
      <trkpt lat="32.05329072290106" lon="118.80394184646018">
        <ele>10.346859082579613</ele>
        <time>2026-07-29T10:35:08Z</time>
      </trkpt>
      <trkpt lat="32.05320259691559" lon="118.80388073400086">
        <ele>10.23059855401516</ele>
        <time>2026-07-29T10:35:11Z</time>
      </trkpt>
      <trkpt lat="32.05289936731505" lon="118.80378757818406">
        <ele>10.471042737364769</ele>
        <time>2026-07-29T10:35:23Z</time>
      </trkpt>
      <trkpt lat="32.052667233737495" lon="118.80374050674236">
        <ele>9.831615552306175</ele>
        <time>2026-07-29T10:35:32Z</time>
      </trkpt>
      <trkpt lat="32.05255508341923" lon="118.80366837499788">
        <ele>4.177147015929222</ele>
        <time>2026-07-29T10:35:38Z</time>
      </trkpt>
      <trkpt lat="32.05228590859843" lon="118.80360226959756">
        <ele>10.648075208067894</ele>
        <time>2026-07-29T10:35:47Z</time>
      </trkpt>
      <trkpt lat="32.05221188687564" lon="118.80359927048652">
        <ele>11.118400678038597</ele>
        <time>2026-07-29T10:35:50Z</time>
      </trkpt>
      <trkpt lat="32.052076955933465" lon="118.80365639527022">
        <ele>12.090759381651878</ele>
        <time>2026-07-29T10:35:56Z</time>
      </trkpt>
      <trkpt lat="32.0520020958843" lon="118.80374657970766">
        <ele>9.134052380919456</ele>
        <time>2026-07-29T10:35:59Z</time>
      </trkpt>
      <trkpt lat="32.05193330178674" lon="118.80387383681182">
        <ele>9.134052380919456</ele>
        <time>2026-07-29T10:36:02Z</time>
      </trkpt>
      <trkpt lat="32.051903506152016" lon="118.80399507873142">
        <ele>10.198890790343285</ele>
        <time>2026-07-29T10:36:05Z</time>
      </trkpt>
      <trkpt lat="32.05190067483067" lon="118.80409227090546">
        <ele>10.626937970519066</ele>
        <time>2026-07-29T10:36:08Z</time>
      </trkpt>
      <trkpt lat="32.05193386566016" lon="118.80419747577038">
        <ele>9.342792615294456</ele>
        <time>2026-07-29T10:36:11Z</time>
      </trkpt>
      <trkpt lat="32.05197900684372" lon="118.80427262024263">
        <ele>10.000721082091331</ele>
        <time>2026-07-29T10:36:14Z</time>
      </trkpt>
      <trkpt lat="32.05207616495748" lon="118.80435076597672">
        <ele>9.5911675542593</ele>
        <time>2026-07-29T10:36:17Z</time>
      </trkpt>
      <trkpt lat="32.05233439409201" lon="118.80444893670706">
        <ele>10.24116526544094</ele>
        <time>2026-07-29T10:36:26Z</time>
      </trkpt>
      <trkpt lat="32.05261760262489" lon="118.80453207549934">
        <ele>10.616371259093285</ele>
        <time>2026-07-29T10:36:38Z</time>
      </trkpt>
      <trkpt lat="32.05280276133056" lon="118.80459919160978">
        <ele>10.534458264708519</ele>
        <time>2026-07-29T10:36:44Z</time>
      </trkpt>
      <trkpt lat="32.053028878347774" lon="118.80463724636846">
        <ele>9.289947614073753</ele>
        <time>2026-07-29T10:36:50Z</time>
      </trkpt>
      <trkpt lat="32.053166914358805" lon="118.8046402396498">
        <ele>9.403564557433128</ele>
        <time>2026-07-29T10:36:53Z</time>
      </trkpt>
      <trkpt lat="32.053257843428874" lon="118.80458812793509">
        <ele>7.3769417852163315</ele>
        <time>2026-07-29T10:36:56Z</time>
      </trkpt>
      <trkpt lat="32.053337694726004" lon="118.80449293187819">
        <ele>9.831615552306175</ele>
        <time>2026-07-29T10:36:59Z</time>
      </trkpt>
      <trkpt lat="32.0533835070615" lon="118.80437970337891">
        <ele>7.39807902276516</ele>
        <time>2026-07-29T10:37:02Z</time>
      </trkpt>
      <trkpt lat="32.053404312259296" lon="118.80426547540027">
        <ele>9.760273084044456</ele>
        <time>2026-07-29T10:37:05Z</time>
      </trkpt>
      <trkpt lat="32.053401194439" lon="118.80419834292078">
        <ele>10.626937970519066</ele>
        <time>2026-07-29T10:37:08Z</time>
      </trkpt>
      <trkpt lat="32.0533589230351" lon="118.80404804983222">
        <ele>10.545028790831566</ele>
        <time>2026-07-29T10:37:11Z</time>
      </trkpt>
      <trkpt lat="32.053289748845835" lon="118.80395687620442">
        <ele>10.124904736876488</ele>
        <time>2026-07-29T10:37:14Z</time>
      </trkpt>
      <trkpt lat="32.05314157809463" lon="118.8038777336808">
        <ele>9.498687848448753</ele>
        <time>2026-07-29T10:37:20Z</time>
      </trkpt>
      <trkpt lat="32.053063520619226" lon="118.80385469541494">
        <ele>10.064132794737816</ele>
        <time>2026-07-29T10:37:23Z</time>
      </trkpt>
      <trkpt lat="32.052812248644905" lon="118.80373047368128">
        <ele>8.922672376036644</ele>
        <time>2026-07-29T10:37:35Z</time>
      </trkpt>
      <trkpt lat="32.05253106240494" lon="118.8036593594551">
        <ele>9.823688611388206</ele>
        <time>2026-07-29T10:37:44Z</time>
      </trkpt>
      <trkpt lat="32.05231991618109" lon="118.8036022664723">
        <ele>4.438732251524925</ele>
        <time>2026-07-29T10:37:50Z</time>
      </trkpt>
      <trkpt lat="32.05221189557294" lon="118.80360428034177">
        <ele>7.87897501885891</ele>
        <time>2026-07-29T10:37:53Z</time>
      </trkpt>
      <trkpt lat="32.052136924075874" lon="118.8036303384898">
        <ele>9.5911675542593</ele>
        <time>2026-07-29T10:37:56Z</time>
      </trkpt>
      <trkpt lat="32.05202006507148" lon="118.8037265385874">
        <ele>10.064132794737816</ele>
        <time>2026-07-29T10:38:02Z</time>
      </trkpt>
      <trkpt lat="32.051927279528115" lon="118.80386181365786">
        <ele>9.374500378966331</ele>
        <time>2026-07-29T10:38:05Z</time>
      </trkpt>
      <trkpt lat="32.05189445179561" lon="118.80396502023977">
        <ele>8.893608197569847</ele>
        <time>2026-07-29T10:38:08Z</time>
      </trkpt>
      <trkpt lat="32.0518936296095" lon="118.8040672220758">
        <ele>8.912101849913597</ele>
        <time>2026-07-29T10:38:11Z</time>
      </trkpt>
      <trkpt lat="32.051933846432476" lon="118.8041864539822">
        <ele>7.950313672423363</ele>
        <time>2026-07-29T10:38:14Z</time>
      </trkpt>
      <trkpt lat="32.052054133798016" lon="118.80433573825083">
        <ele>8.137916669249535</ele>
        <time>2026-07-29T10:38:20Z</time>
      </trkpt>
      <trkpt lat="32.05214923200371" lon="118.80437981679042">
        <ele>8.222469434142113</ele>
        <time>2026-07-29T10:38:23Z</time>
      </trkpt>
      <trkpt lat="32.052382366264425" lon="118.80442688863214">
        <ele>8.851329907774925</ele>
        <time>2026-07-29T10:38:32Z</time>
      </trkpt>
      <trkpt lat="32.052670596913295" lon="118.80452205076716">
        <ele>9.279377087950706</ele>
        <time>2026-07-29T10:38:44Z</time>
      </trkpt>
      <trkpt lat="32.05301989037657" lon="118.8046452630992">
        <ele>8.809055432677269</ele>
        <time>2026-07-29T10:38:59Z</time>
      </trkpt>
      <trkpt lat="32.05318492538628" lon="118.80464424594746">
        <ele>9.562103375792503</ele>
        <time>2026-07-29T10:39:05Z</time>
      </trkpt>
      <trkpt lat="32.05325788201027" lon="118.80461017165555">
        <ele>9.519825085997581</ele>
        <time>2026-07-29T10:39:08Z</time>
      </trkpt>
      <trkpt lat="32.0533406883855" lon="118.80448892366016">
        <ele>9.89502726495266</ele>
        <time>2026-07-29T10:39:14Z</time>
      </trkpt>
      <trkpt lat="32.05338751495508" lon="118.80438371094661">
        <ele>10.30458079278469</ele>
        <time>2026-07-29T10:39:17Z</time>
      </trkpt>
      <trkpt lat="32.05341220388143" lon="118.80420234983339">
        <ele>8.692794904112816</ele>
        <time>2026-07-29T10:39:23Z</time>
      </trkpt>
      <trkpt lat="32.05339706423047" lon="118.80412419674785">
        <ele>9.477550610899925</ele>
        <time>2026-07-29T10:39:26Z</time>
      </trkpt>
      <trkpt lat="32.05332582142564" lon="118.80399394605368">
        <ele>9.990150555968285</ele>
        <time>2026-07-29T10:39:32Z</time>
      </trkpt>
      <trkpt lat="32.05324165442814" lon="118.80390878574198">
        <ele>9.823688611388206</ele>
        <time>2026-07-29T10:39:35Z</time>
      </trkpt>
      <trkpt lat="32.05300743494171" lon="118.80381261761589">
        <ele>8.859256848692894</ele>
        <time>2026-07-29T10:39:44Z</time>
      </trkpt>
      <trkpt lat="32.05269922171556" lon="118.80372948209491">
        <ele>8.003158673644066</ele>
        <time>2026-07-29T10:39:56Z</time>
      </trkpt>
      <trkpt lat="32.052399986212066" lon="118.80363231825815">
        <ele>9.739135846495628</ele>
        <time>2026-07-29T10:40:08Z</time>
      </trkpt>
      <trkpt lat="32.05228690708199" lon="118.80360126753459">
        <ele>9.498687848448753</ele>
        <time>2026-07-29T10:40:11Z</time>
      </trkpt>
      <trkpt lat="32.05212688183193" lon="118.80360729406827">
        <ele>9.707428082823753</ele>
        <time>2026-07-29T10:40:17Z</time>
      </trkpt>
      <trkpt lat="32.05204792858208" lon="118.80364437427353">
        <ele>9.644012555480003</ele>
        <time>2026-07-29T10:40:20Z</time>
      </trkpt>
      <trkpt lat="32.05194516155283" lon="118.80379167376903">
        <ele>7.7627144902944565</ele>
        <time>2026-07-29T10:40:26Z</time>
      </trkpt>
      <trkpt lat="32.051896375487786" lon="118.80392093308174">
        <ele>9.374500378966331</ele>
        <time>2026-07-29T10:40:29Z</time>
      </trkpt>
      <trkpt lat="32.05188652504721" lon="118.80400810600328">
        <ele>9.488117322325706</ele>
        <time>2026-07-29T10:40:32Z</time>
      </trkpt>
      <trkpt lat="32.05192385993294" lon="118.8041954727278">
        <ele>9.572670087218285</ele>
        <time>2026-07-29T10:40:38Z</time>
      </trkpt>
      <trkpt lat="32.052042097873425" lon="118.80431670167836">
        <ele>8.317592725157738</ele>
        <time>2026-07-29T10:40:44Z</time>
      </trkpt>
      <trkpt lat="32.052230264076066" lon="118.80438782521693">
        <ele>7.89746867120266</ele>
        <time>2026-07-29T10:40:50Z</time>
      </trkpt>
      <trkpt lat="32.052399352543155" lon="118.80441686722527">
        <ele>9.947872266173363</ele>
        <time>2026-07-29T10:40:56Z</time>
      </trkpt>
      <trkpt lat="32.05269061539317" lon="118.8045300648181">
        <ele>9.194824323058128</ele>
        <time>2026-07-29T10:41:05Z</time>
      </trkpt>
      <trkpt lat="32.053015878959435" lon="118.80463925153897">
        <ele>9.279377087950706</ele>
        <time>2026-07-29T10:41:17Z</time>
      </trkpt>
      <trkpt lat="32.05308392393599" lon="118.8046562790867">
        <ele>9.11027155816555</ele>
        <time>2026-07-29T10:41:20Z</time>
      </trkpt>
      <trkpt lat="32.05320192741937" lon="118.80464324239713">
        <ele>8.8830376714468</ele>
        <time>2026-07-29T10:41:23Z</time>
      </trkpt>
      <trkpt lat="32.053328771585186" lon="118.80453802207381">
        <ele>9.414135083556175</ele>
        <time>2026-07-29T10:41:29Z</time>
      </trkpt>
      <trkpt lat="32.05337664734935" lon="118.80446086476259">
        <ele>9.791980847716331</ele>
        <time>2026-07-29T10:41:32Z</time>
      </trkpt>
      <trkpt lat="32.05341141528511" lon="118.80432358973792">
        <ele>9.562103375792503</ele>
        <time>2026-07-29T10:41:38Z</time>
      </trkpt>
      <trkpt lat="32.05342021265587" lon="118.80420635702201">
        <ele>9.141979321837425</ele>
        <time>2026-07-29T10:41:41Z</time>
      </trkpt>
      <trkpt lat="32.05340206185016" lon="118.80412219232895">
        <ele>7.4905587285757065</ele>
        <time>2026-07-29T10:41:44Z</time>
      </trkpt>
      <trkpt lat="32.05330877575947" lon="118.8039699001597">
        <ele>9.215965375304222</ele>
        <time>2026-07-29T10:41:50Z</time>
      </trkpt>
      <trkpt lat="32.05318861820716" lon="118.80389476294903">
        <ele>9.44584284722805</ele>
        <time>2026-07-29T10:41:56Z</time>
      </trkpt>
      <trkpt lat="32.052915400499785" lon="118.80380461027634">
        <ele>8.901535138487816</ele>
        <time>2026-07-29T10:42:08Z</time>
      </trkpt>
      <trkpt lat="32.052784247628004" lon="118.80373348217469">
        <ele>9.466980084776878</ele>
        <time>2026-07-29T10:42:14Z</time>
      </trkpt>
      <trkpt lat="32.05248504518739" lon="118.80365535579546">
        <ele>9.456409558653831</ele>
        <time>2026-07-29T10:42:26Z</time>
      </trkpt>
      <trkpt lat="32.05223691158617" lon="118.80361028987065">
        <ele>8.943809613585472</ele>
        <time>2026-07-29T10:42:35Z</time>
      </trkpt>
      <trkpt lat="32.051971941210425" lon="118.80366141478159">
        <ele>11.097263440489769</ele>
        <time>2026-07-29T10:42:44Z</time>
      </trkpt>
      <trkpt lat="32.05191502945686" lon="118.80371953442715">
        <ele>10.418197736144066</ele>
        <time>2026-07-29T10:42:47Z</time>
      </trkpt>
      <trkpt lat="32.05185132882421" lon="118.80389989571857">
        <ele>9.498687848448753</ele>
        <time>2026-07-29T10:42:53Z</time>
      </trkpt>
      <trkpt lat="32.05185061477644" lon="118.8040642200918">
        <ele>9.403564557433128</ele>
        <time>2026-07-29T10:42:59Z</time>
      </trkpt>
      <trkpt lat="32.0518887787194" lon="118.80415339276527">
        <ele>9.414135083556175</ele>
        <time>2026-07-29T10:43:02Z</time>
      </trkpt>
      <trkpt lat="32.05206208833762" lon="118.80430868397872">
        <ele>10.648075208067894</ele>
        <time>2026-07-29T10:43:08Z</time>
      </trkpt>
      <trkpt lat="32.052210201848474" lon="118.80435476159494">
        <ele>7.9397469609975815</ele>
        <time>2026-07-29T10:43:14Z</time>
      </trkpt>
      <trkpt lat="32.05252248681578" lon="118.80447797699776">
        <ele>8.066574200987816</ele>
        <time>2026-07-29T10:43:26Z</time>
      </trkpt>
      <trkpt lat="32.05281271270801" lon="118.8045701330662">
        <ele>9.038932904601097</ele>
        <time>2026-07-29T10:43:38Z</time>
      </trkpt>
      <trkpt lat="32.05304185844076" lon="118.80462421933247">
        <ele>9.194824323058128</ele>
        <time>2026-07-29T10:43:47Z</time>
      </trkpt>
      <trkpt lat="32.05319985505867" lon="118.80460216108666">
        <ele>7.910682782530785</ele>
        <time>2026-07-29T10:43:54Z</time>
      </trkpt>
      <trkpt lat="32.05332773105064" lon="118.80451497648447">
        <ele>8.851329907774925</ele>
        <time>2026-07-29T10:44:00Z</time>
      </trkpt>
      <trkpt lat="32.053396488950575" lon="118.80436767837968">
        <ele>8.912101849913597</ele>
        <time>2026-07-29T10:44:06Z</time>
      </trkpt>
      <trkpt lat="32.053413349247016" lon="118.80428551421558">
        <ele>8.840759381651878</ele>
        <time>2026-07-29T10:44:09Z</time>
      </trkpt>
      <trkpt lat="32.05337906371522" lon="118.80412620236166">
        <ele>10.796043500304222</ele>
        <time>2026-07-29T10:44:15Z</time>
      </trkpt>
      <trkpt lat="32.05329480753965" lon="118.80398994099298">
        <ele>9.530395612120628</ele>
        <time>2026-07-29T10:44:21Z</time>
      </trkpt>
      <trkpt lat="32.053226675502735" lon="118.80392281478852">
        <ele>7.4086495488882065</ele>
        <time>2026-07-29T10:44:24Z</time>
      </trkpt>
      <trkpt lat="32.0530154088458" lon="118.80379658528959">
        <ele>9.831615552306175</ele>
        <time>2026-07-29T10:44:33Z</time>
      </trkpt>
      <trkpt lat="32.05272125970743" lon="118.80374851756625">
        <ele>9.414135083556175</ele>
        <time>2026-07-29T10:44:45Z</time>
      </trkpt>
      <trkpt lat="32.05264722927893" lon="118.80374050858072">
        <ele>10.994213208556175</ele>
        <time>2026-07-29T10:44:48Z</time>
      </trkpt>
      <trkpt lat="32.052341959359175" lon="118.8036243078175">
        <ele>8.745639905333519</ele>
        <time>2026-07-29T10:45:00Z</time>
      </trkpt>
      <trkpt lat="32.05225988714512" lon="118.80359325424858">
        <ele>9.017791852355003</ele>
        <time>2026-07-29T10:45:03Z</time>
      </trkpt>
      <trkpt lat="32.052191865021236" lon="118.80358925261562">
        <ele>8.264743909239769</ele>
        <time>2026-07-29T10:45:06Z</time>
      </trkpt>
      <trkpt lat="32.052111883704626" lon="118.80361030136055">
        <ele>11.496246442198753</ele>
        <time>2026-07-29T10:45:09Z</time>
      </trkpt>
      <trkpt lat="32.05205195035646" lon="118.80365639756818">
        <ele>10.042995557188988</ele>
        <time>2026-07-29T10:45:12Z</time>
      </trkpt>
      <trkpt lat="32.051957160745715" lon="118.80378966871767">
        <ele>7.96088419854641</ele>
        <time>2026-07-29T10:45:18Z</time>
      </trkpt>
      <trkpt lat="32.051915327410775" lon="118.80389087205303">
        <ele>8.013729199767113</ele>
        <time>2026-07-29T10:45:21Z</time>
      </trkpt>
      <trkpt lat="32.05190051944439" lon="118.80400309482799">
        <ele>8.943809613585472</ele>
        <time>2026-07-29T10:45:24Z</time>
      </trkpt>
      <trkpt lat="32.0519167028537" lon="118.80410629714427">
        <ele>7.910682782530785</ele>
        <time>2026-07-29T10:45:27Z</time>
      </trkpt>
      <trkpt lat="32.051955870568584" lon="118.80419747374845">
        <ele>8.777347669005394</ele>
        <time>2026-07-29T10:45:30Z</time>
      </trkpt>
      <trkpt lat="32.05201001900716" lon="118.80427562333979">
        <ele>8.893608197569847</ele>
        <time>2026-07-29T10:45:33Z</time>
      </trkpt>
      <trkpt lat="32.05214923550499" lon="118.804381820758">
        <ele>8.328159436583519</ele>
        <time>2026-07-29T10:45:39Z</time>
      </trkpt>
      <trkpt lat="32.05229134947311" lon="118.80442890096442">
        <ele>8.61088190972805</ele>
        <time>2026-07-29T10:45:45Z</time>
      </trkpt>
      <trkpt lat="32.052433430182056" lon="118.80445694348829">
        <ele>7.6992989629507065</ele>
        <time>2026-07-29T10:45:51Z</time>
      </trkpt>
      <trkpt lat="32.05272365780689" lon="118.80455010151219">
        <ele>9.141979321837425</ele>
        <time>2026-07-29T10:46:03Z</time>
      </trkpt>
      <trkpt lat="32.052869688596054" lon="118.80454908610798">
        <ele>9.403564557433128</ele>
        <time>2026-07-29T10:46:09Z</time>
      </trkpt>
      <trkpt lat="32.053039859749155" lon="118.80462522150397">
        <ele>9.717994794249535</ele>
        <time>2026-07-29T10:46:15Z</time>
      </trkpt>
      <trkpt lat="32.05312689316721" lon="118.80463322941065">
        <ele>6.195846661925316</ele>
        <time>2026-07-29T10:46:18Z</time>
      </trkpt>
      <trkpt lat="32.05327881829876" lon="118.8045710922264">
        <ele>8.954380139708519</ele>
        <time>2026-07-29T10:46:24Z</time>
      </trkpt>
      <trkpt lat="32.05334270635331" lon="118.80449894333259">
        <ele>9.5092583745718</ele>
        <time>2026-07-29T10:46:27Z</time>
      </trkpt>
      <trkpt lat="32.05340437173398" lon="118.80429954279636">
        <ele>9.342792615294456</ele>
        <time>2026-07-29T10:46:33Z</time>
      </trkpt>
      <trkpt lat="32.05340620953763" lon="118.80420635830876">
        <ele>9.392997846007347</ele>
        <time>2026-07-29T10:46:36Z</time>
      </trkpt>
      <trkpt lat="32.053342895029665" lon="118.80403402360633">
        <ele>9.374500378966331</ele>
        <time>2026-07-29T10:46:42Z</time>
      </trkpt>
      <trkpt lat="32.05321061613375" lon="118.80389075302328">
        <ele>9.226532086730003</ele>
        <time>2026-07-29T10:46:48Z</time>
      </trkpt>
      <trkpt lat="32.05291438285352" lon="118.80379459062475">
        <ele>9.54096232354641</ele>
        <time>2026-07-29T10:47:00Z</time>
      </trkpt>
      <trkpt lat="32.05262618628823" lon="118.80371846710094">
        <ele>9.644012555480003</ele>
        <time>2026-07-29T10:47:12Z</time>
      </trkpt>
      <trkpt lat="32.05233298171057" lon="118.80363833624645">
        <ele>9.466980084776878</ele>
        <time>2026-07-29T10:47:25Z</time>
      </trkpt>
      <trkpt lat="32.05219290699114" lon="118.80361329982877">
        <ele>9.707428082823753</ele>
        <time>2026-07-29T10:47:31Z</time>
      </trkpt>
      <trkpt lat="32.052077957896806" lon="118.80365739715027">
        <ele>7.0730782598257065</ele>
        <time>2026-07-29T10:47:37Z</time>
      </trkpt>
      <trkpt lat="32.051950166152864" lon="118.80379367725787">
        <ele>5.495643720030785</ele>
        <time>2026-07-29T10:47:43Z</time>
      </trkpt>
      <trkpt lat="32.0519122883844" lon="118.80386882886444">
        <ele>7.147064313292503</ele>
        <time>2026-07-29T10:47:46Z</time>
      </trkpt>
      <trkpt lat="32.051891430190544" lon="118.80395299679212">
        <ele>9.707428082823753</ele>
        <time>2026-07-29T10:47:49Z</time>
      </trkpt>
      <trkpt lat="32.05189469794505" lon="118.80410629916625">
        <ele>9.947872266173363</ele>
        <time>2026-07-29T10:47:55Z</time>
      </trkpt>
      <trkpt lat="32.051937912006714" lon="118.80422352690987">
        <ele>9.916168317198753</ele>
        <time>2026-07-29T10:47:58Z</time>
      </trkpt>
      <trkpt lat="32.05204917293651" lon="118.80435878432507">
        <ele>9.1736870855093</ele>
        <time>2026-07-29T10:48:04Z</time>
      </trkpt>
      <trkpt lat="32.05233439058883" lon="118.80444693273733">
        <ele>9.289947614073753</ele>
        <time>2026-07-29T10:48:16Z</time>
      </trkpt>
      <trkpt lat="32.052602623820874" lon="118.80454610468642">
        <ele>9.194824323058128</ele>
        <time>2026-07-29T10:48:28Z</time>
      </trkpt>
      <trkpt lat="32.052882815991715" lon="118.80462022599419">
        <ele>9.519825085997581</ele>
        <time>2026-07-29T10:48:40Z</time>
      </trkpt>
      <trkpt lat="32.053111991590576" lon="118.80469134610995">
        <ele>6.02674113214016</ele>
        <time>2026-07-29T10:48:49Z</time>
      </trkpt>
      <trkpt lat="32.053186996016066" lon="118.80468432529655">
        <ele>8.589744672179222</ele>
        <time>2026-07-29T10:48:52Z</time>
      </trkpt>
      <trkpt lat="32.05326293048324" lon="118.80463722486346">
        <ele>7.3769417852163315</ele>
        <time>2026-07-29T10:48:55Z</time>
      </trkpt>
      <trkpt lat="32.05334580166625" lon="118.80455305030812">
        <ele>8.328159436583519</ele>
        <time>2026-07-29T10:48:58Z</time>
      </trkpt>
      <trkpt lat="32.05340461154763" lon="118.80443681455148">
        <ele>9.65458308160305</ele>
        <time>2026-07-29T10:49:01Z</time>
      </trkpt>
      <trkpt lat="32.05343242521201" lon="118.80432659375661">
        <ele>9.696857556700706</ele>
        <time>2026-07-29T10:49:04Z</time>
      </trkpt>
      <trkpt lat="32.05340805270495" lon="118.80411617989989">
        <ele>7.5222664922475815</ele>
        <time>2026-07-29T10:49:10Z</time>
      </trkpt>
      <trkpt lat="32.053365898407144" lon="118.8040330195141">
        <ele>10.064132794737816</ele>
        <time>2026-07-29T10:49:13Z</time>
      </trkpt>
      <trkpt lat="32.05330675612204" lon="118.80395887859576">
        <ele>9.781410321593285</ele>
        <time>2026-07-29T10:49:16Z</time>
      </trkpt>
      <trkpt lat="32.05323364218267" lon="118.80390277462068">
        <ele>8.16169749200344</ele>
        <time>2026-07-29T10:49:19Z</time>
      </trkpt>
      <trkpt lat="32.05291738177984" lon="118.80379358837473">
        <ele>9.74970255792141</ele>
        <time>2026-07-29T10:49:31Z</time>
      </trkpt>
      <trkpt lat="32.05261216053322" lon="118.80370544274017">
        <ele>7.921249493956566</ele>
        <time>2026-07-29T10:49:46Z</time>
      </trkpt>
      <trkpt lat="32.0523189350931" lon="118.80361328824692">
        <ele>9.163120374083519</ele>
        <time>2026-07-29T10:50:01Z</time>
      </trkpt>
      <trkpt lat="32.05214191823179" lon="118.80362633014421">
        <ele>8.275314435362816</ele>
        <time>2026-07-29T10:50:10Z</time>
      </trkpt>
      <trkpt lat="32.05209494080686" lon="118.80364537192514">
        <ele>8.682224377989769</ele>
        <time>2026-07-29T10:50:13Z</time>
      </trkpt>
      <trkpt lat="32.051967201308614" lon="118.80381171123419">
        <ele>10.135475262999535</ele>
        <time>2026-07-29T10:50:22Z</time>
      </trkpt>
      <trkpt lat="32.051915398912975" lon="118.80393195307599">
        <ele>9.60437785089016</ele>
        <time>2026-07-29T10:50:25Z</time>
      </trkpt>
      <trkpt lat="32.05191255528464" lon="118.80402213130378">
        <ele>10.325718030333519</ele>
        <time>2026-07-29T10:50:28Z</time>
      </trkpt>
      <trkpt lat="32.05199302046207" lon="118.80427863084854">
        <ele>8.922672376036644</ele>
        <time>2026-07-29T10:50:37Z</time>
      </trkpt>
      <trkpt lat="32.052051145379174" lon="118.80434275240837">
        <ele>9.665149793028831</ele>
        <time>2026-07-29T10:50:40Z</time>
      </trkpt>
      <trkpt lat="32.0522823649798" lon="118.80443892163797">
        <ele>9.572670087218285</ele>
        <time>2026-07-29T10:50:50Z</time>
      </trkpt>
      <trkpt lat="32.05255052634931" lon="118.80449701214906">
        <ele>9.633442029356956</ele>
        <time>2026-07-29T10:51:02Z</time>
      </trkpt>
      <trkpt lat="32.05290181496427" lon="118.80461721828527">
        <ele>9.74970255792141</ele>
        <time>2026-07-29T10:51:17Z</time>
      </trkpt>
      <trkpt lat="32.05298490012133" lon="118.8046552861967">
        <ele>9.855392560362816</ele>
        <time>2026-07-29T10:51:20Z</time>
      </trkpt>
      <trkpt lat="32.05309394195516" lon="118.80466529606207">
        <ele>7.826126202940941</ele>
        <time>2026-07-29T10:51:23Z</time>
      </trkpt>
      <trkpt lat="32.05321089784906" lon="118.80462520578875">
        <ele>9.488117322325706</ele>
        <time>2026-07-29T10:51:26Z</time>
      </trkpt>
      <trkpt lat="32.05333576262762" lon="118.80453200951283">
        <ele>9.665149793028831</ele>
        <time>2026-07-29T10:51:32Z</time>
      </trkpt>
      <trkpt lat="32.053389574931956" lon="118.80441777822342">
        <ele>9.728565320372581</ele>
        <time>2026-07-29T10:51:35Z</time>
      </trkpt>
      <trkpt lat="32.0534124120082" lon="118.80432158568026">
        <ele>10.177753552794456</ele>
        <time>2026-07-29T10:51:38Z</time>
      </trkpt>
      <trkpt lat="32.05341525350254" lon="118.80423040503044">
        <ele>9.184257611632347</ele>
        <time>2026-07-29T10:51:41Z</time>
      </trkpt>
      <trkpt lat="32.05334487627314" lon="118.80402300166321">
        <ele>9.466980084776878</ele>
        <time>2026-07-29T10:51:50Z</time>
      </trkpt>
      <trkpt lat="32.05328072416223" lon="118.80394385133278">
        <ele>9.781410321593285</ele>
        <time>2026-07-29T10:51:53Z</time>
      </trkpt>
      <trkpt lat="32.053220634055094" lon="118.80389976988751">
        <ele>9.739135846495628</ele>
        <time>2026-07-29T10:51:56Z</time>
      </trkpt>
      <trkpt lat="32.05295644971623" lon="118.80382765192407">
        <ele>9.0917779058218</ele>
        <time>2026-07-29T10:52:08Z</time>
      </trkpt>
      <trkpt lat="32.05268820533333" lon="118.80372146732105">
        <ele>9.194824323058128</ele>
        <time>2026-07-29T10:52:17Z</time>
      </trkpt>
      <trkpt lat="32.05240501690756" lon="118.80364935131759">
        <ele>9.728565320372581</ele>
        <time>2026-07-29T10:52:29Z</time>
      </trkpt>
      <trkpt lat="32.05220394424014" lon="118.8036333382459">
        <ele>6.8854790776968</ele>
        <time>2026-07-29T10:52:38Z</time>
      </trkpt>
      <trkpt lat="32.05208599274923" lon="118.80367643388549">
        <ele>10.38648997247219</ele>
        <time>2026-07-29T10:52:44Z</time>
      </trkpt>
      <trkpt lat="32.05193221615371" lon="118.80382474012147">
        <ele>9.5911675542593</ele>
        <time>2026-07-29T10:52:50Z</time>
      </trkpt>
      <trkpt lat="32.051865469752514" lon="118.80397905058547">
        <ele>9.374500378966331</ele>
        <time>2026-07-29T10:52:56Z</time>
      </trkpt>
      <trkpt lat="32.05187773083685" lon="118.80412734229868">
        <ele>9.873890027403831</ele>
        <time>2026-07-29T10:53:02Z</time>
      </trkpt>
      <trkpt lat="32.051923943854355" lon="118.80424356782487">
        <ele>8.996654614806175</ele>
        <time>2026-07-29T10:53:05Z</time>
      </trkpt>
      <trkpt lat="32.051984088433535" lon="118.80431871097434">
        <ele>9.68628703057766</ele>
        <time>2026-07-29T10:53:08Z</time>
      </trkpt>
      <trkpt lat="32.052242315778784" lon="118.8044158796697">
        <ele>9.498687848448753</ele>
        <time>2026-07-29T10:53:20Z</time>
      </trkpt>
      <trkpt lat="32.052550540367946" lon="118.80450502803481">
        <ele>10.03242503106594</ele>
        <time>2026-07-29T10:53:32Z</time>
      </trkpt>
      <trkpt lat="32.05288980527419" lon="118.80461321143792">
        <ele>9.456409558653831</ele>
        <time>2026-07-29T10:53:41Z</time>
      </trkpt>
      <trkpt lat="32.05306491794793" lon="118.80465527884463">
        <ele>9.44584284722805</ele>
        <time>2026-07-29T10:53:47Z</time>
      </trkpt>
      <trkpt lat="32.05322990208192" lon="118.80462520404261">
        <ele>3.268203839659691</ele>
        <time>2026-07-29T10:53:53Z</time>
      </trkpt>
      <trkpt lat="32.053284865226104" lon="118.80459714333841">
        <ele>9.163120374083519</ele>
        <time>2026-07-29T10:53:56Z</time>
      </trkpt>
      <trkpt lat="32.05336874368842" lon="118.8045169766883">
        <ele>9.781410321593285</ele>
        <time>2026-07-29T10:53:59Z</time>
      </trkpt>
      <trkpt lat="32.05342044178879" lon="118.8043376166729">
        <ele>9.332225903868675</ele>
        <time>2026-07-29T10:54:05Z</time>
      </trkpt>
      <trkpt lat="32.05342626994117" lon="118.80423841987113">
        <ele>3.823082074522972</ele>
        <time>2026-07-29T10:54:08Z</time>
      </trkpt>
      <trkpt lat="32.053378993845236" lon="118.80408612318632">
        <ele>10.354786023497581</ele>
        <time>2026-07-29T10:54:14Z</time>
      </trkpt>
      <trkpt lat="32.05326071447364" lon="118.80394084724097">
        <ele>8.777347669005394</ele>
        <time>2026-07-29T10:54:21Z</time>
      </trkpt>
      <trkpt lat="32.052942411744255" lon="118.80380761371792">
        <ele>10.38648997247219</ele>
        <time>2026-07-29T10:54:33Z</time>
      </trkpt>
      <trkpt lat="32.05273621603321" lon="118.80372146290895">
        <ele>9.802547559142113</ele>
        <time>2026-07-29T10:54:42Z</time>
      </trkpt>
      <trkpt lat="32.052436044703136" lon="118.80366137213151">
        <ele>6.970031842589378</ele>
        <time>2026-07-29T10:54:54Z</time>
      </trkpt>
      <trkpt lat="32.052251925369454" lon="118.80361630031935">
        <ele>8.787914380431175</ele>
        <time>2026-07-29T10:55:03Z</time>
      </trkpt>
      <trkpt lat="32.05219092220229" lon="118.80362231775449">
        <ele>8.8830376714468</ele>
        <time>2026-07-29T10:55:06Z</time>
      </trkpt>
      <trkpt lat="32.05204803997728" lon="118.80370850050022">
        <ele>8.922672376036644</ele>
        <time>2026-07-29T10:55:12Z</time>
      </trkpt>
      <trkpt lat="32.05190929294513" lon="118.80387183506667">
        <ele>8.901535138487816</ele>
        <time>2026-07-29T10:55:18Z</time>
      </trkpt>
      <trkpt lat="32.051881438426875" lon="118.80395900957262">
        <ele>9.54096232354641</ele>
        <time>2026-07-29T10:55:21Z</time>
      </trkpt>
      <trkpt lat="32.05189362437099" lon="118.80406421613972">
        <ele>9.392997846007347</ele>
        <time>2026-07-29T10:55:24Z</time>
      </trkpt>
      <trkpt lat="32.051978964869036" lon="118.80424857267816">
        <ele>8.526329144835472</ele>
        <time>2026-07-29T10:55:30Z</time>
      </trkpt>
      <trkpt lat="32.05205313182494" lon="118.80433473635968">
        <ele>8.954380139708519</ele>
        <time>2026-07-29T10:55:33Z</time>
      </trkpt>
      <trkpt lat="32.05219830946732" lon="118.80441788768218">
        <ele>8.45234690606594</ele>
        <time>2026-07-29T10:55:39Z</time>
      </trkpt>
      <trkpt lat="32.05247148245251" lon="118.80448198962632">
        <ele>8.713932141661644</ele>
        <time>2026-07-29T10:55:51Z</time>
      </trkpt>
      <trkpt lat="32.05260559118598" lon="118.80452706667128">
        <ele>7.7627144902944565</ele>
        <time>2026-07-29T10:55:57Z</time>
      </trkpt>
      <trkpt lat="32.05290679152464" lon="118.80460319000132">
        <ele>9.530395612120628</ele>
        <time>2026-07-29T10:56:12Z</time>
      </trkpt>
      <trkpt lat="32.05307291446712" lon="118.80465227214495">
        <ele>9.551532849669456</ele>
        <time>2026-07-29T10:56:18Z</time>
      </trkpt>
      <trkpt lat="32.05324389467668" lon="118.80461919083002">
        <ele>9.562103375792503</ele>
        <time>2026-07-29T10:56:24Z</time>
      </trkpt>
      <trkpt lat="32.05331378577303" lon="118.80454804331643">
        <ele>8.484054669737816</ele>
        <time>2026-07-29T10:56:27Z</time>
      </trkpt>
      <trkpt lat="32.053366653880936" lon="118.80446587560733">
        <ele>9.321655377745628</ele>
        <time>2026-07-29T10:56:30Z</time>
      </trkpt>
      <trkpt lat="32.05341135754822" lon="118.80429052431103">
        <ele>8.119419202208519</ele>
        <time>2026-07-29T10:56:36Z</time>
      </trkpt>
      <trkpt lat="32.05341320235605" lon="118.80420134776054">
        <ele>6.581615552306175</ele>
        <time>2026-07-29T10:56:39Z</time>
      </trkpt>
      <trkpt lat="32.05338401242429" lon="118.80409614251815">
        <ele>8.756210431456566</ele>
        <time>2026-07-29T10:56:42Z</time>
      </trkpt>
      <trkpt lat="32.0533398542137" lon="118.80401097838764">
        <ele>10.064132794737816</ele>
        <time>2026-07-29T10:56:45Z</time>
      </trkpt>
      <trkpt lat="32.05322163602167" lon="118.80390077177161">
        <ele>7.720436200499535</ele>
        <time>2026-07-29T10:56:51Z</time>
      </trkpt>
      <trkpt lat="32.052920429494556" lon="118.80382064140981">
        <ele>8.766777142882347</ele>
        <time>2026-07-29T10:57:03Z</time>
      </trkpt>
      <trkpt lat="32.052655238028414" lon="118.80374451573897">
        <ele>9.519825085997581</ele>
        <time>2026-07-29T10:57:15Z</time>
      </trkpt>
      <trkpt lat="32.05234998202177" lon="118.80363633074053">
        <ele>8.09828196465969</ele>
        <time>2026-07-29T10:57:30Z</time>
      </trkpt>
      <trkpt lat="32.052261955436386" lon="118.80363233094302">
        <ele>9.152549847960472</ele>
        <time>2026-07-29T10:57:33Z</time>
      </trkpt>
      <trkpt lat="32.05209996802532" lon="118.80366040104407">
        <ele>6.185276135802269</ele>
        <time>2026-07-29T10:57:39Z</time>
      </trkpt>
      <trkpt lat="32.05203702881843" lon="118.80370349164738">
        <ele>6.478569135069847</ele>
        <time>2026-07-29T10:57:43Z</time>
      </trkpt>
      <trkpt lat="32.05192823268902" lon="118.80383476023738">
        <ele>10.09584055840969</ele>
        <time>2026-07-29T10:57:49Z</time>
      </trkpt>
      <trkpt lat="32.05188042599161" lon="118.8039519958263">
        <ele>9.23710261285305</ele>
        <time>2026-07-29T10:57:52Z</time>
      </trkpt>
      <trkpt lat="32.05188058480437" lon="118.8040431757861">
        <ele>9.696857556700706</ele>
        <time>2026-07-29T10:57:55Z</time>
      </trkpt>
      <trkpt lat="32.051901746674396" lon="118.80413335197137">
        <ele>8.72450266778469</ele>
        <time>2026-07-29T10:57:58Z</time>
      </trkpt>
      <trkpt lat="32.05195093763781" lon="118.80423655147277">
        <ele>4.293407544493675</ele>
        <time>2026-07-29T10:58:01Z</time>
      </trkpt>
      <trkpt lat="32.05201409162692" lon="118.80431670425168">
        <ele>8.840759381651878</ele>
        <time>2026-07-29T10:58:04Z</time>
      </trkpt>
      <trkpt lat="32.05214826154338" lon="118.8043968506088">
        <ele>8.954380139708519</ele>
        <time>2026-07-29T10:58:10Z</time>
      </trkpt>
      <trkpt lat="32.05242143976855" lon="118.80446395848661">
        <ele>9.363929852843285</ele>
        <time>2026-07-29T10:58:22Z</time>
      </trkpt>
      <trkpt lat="32.05271768802597" lon="118.80456813782325">
        <ele>7.889541730284691</ele>
        <time>2026-07-29T10:58:34Z</time>
      </trkpt>
      <trkpt lat="32.053000880879715" lon="118.80464225888133">
        <ele>6.100723370909691</ele>
        <time>2026-07-29T10:58:46Z</time>
      </trkpt>
      <trkpt lat="32.05315299195083" lon="118.80468633239848">
        <ele>7.7310067266225815</ele>
        <time>2026-07-29T10:58:52Z</time>
      </trkpt>
      <trkpt lat="32.053223918286555" lon="118.80463522447187">
        <ele>8.505191907286644</ele>
        <time>2026-07-29T10:58:55Z</time>
      </trkpt>
      <trkpt lat="32.05336262145916" lon="118.80444784024436">
        <ele>7.992591962218285</ele>
        <time>2026-07-29T10:59:04Z</time>
      </trkpt>
      <trkpt lat="32.053396499453584" lon="118.80437369028161">
        <ele>8.682224377989769</ele>
        <time>2026-07-29T10:59:07Z</time>
      </trkpt>
      <trkpt lat="32.05340935360405" lon="118.80428852053015">
        <ele>9.350719556212425</ele>
        <time>2026-07-29T10:59:10Z</time>
      </trkpt>
      <trkpt lat="32.05337805650445" lon="118.80412219453487">
        <ele>10.616371259093285</ele>
        <time>2026-07-29T10:59:16Z</time>
      </trkpt>
      <trkpt lat="32.05323368578298" lon="118.80392782402724">
        <ele>10.011287793517113</ele>
        <time>2026-07-29T10:59:25Z</time>
      </trkpt>
      <trkpt lat="32.053095541694994" lon="118.80386270827621">
        <ele>9.3824273198843</ele>
        <time>2026-07-29T10:59:31Z</time>
      </trkpt>
      <trkpt lat="32.05287039047075" lon="118.80380461441264">
        <ele>7.7627144902944565</ele>
        <time>2026-07-29T10:59:40Z</time>
      </trkpt>
      <trkpt lat="32.05258413514098" lon="118.80369442361426">
        <ele>8.03486643731594</ele>
        <time>2026-07-29T10:59:52Z</time>
      </trkpt>
      <trkpt lat="32.052319949233606" lon="118.80362130392551">
        <ele>9.802547559142113</ele>
        <time>2026-07-29T11:00:04Z</time>
      </trkpt>
      <trkpt lat="32.05225491560078" lon="118.8036102882161">
        <ele>10.637508496642113</ele>
        <time>2026-07-29T11:00:07Z</time>
      </trkpt>
      <trkpt lat="32.052179923228294" lon="118.80362432270842">
        <ele>10.909660443663597</ele>
        <time>2026-07-29T11:00:10Z</time>
      </trkpt>
      <trkpt lat="32.05204900538294" lon="118.80368846095513">
        <ele>8.151126965880394</ele>
        <time>2026-07-29T11:00:16Z</time>
      </trkpt>
      <trkpt lat="32.05199609454572" lon="118.80374658025916">
        <ele>10.315151318907738</ele>
        <time>2026-07-29T11:00:19Z</time>
      </trkpt>
      <trkpt lat="32.051919431204325" lon="118.80394998828812">
        <ele>9.823688611388206</ele>
        <time>2026-07-29T11:00:25Z</time>
      </trkpt>
      <trkpt lat="32.05191061943348" lon="118.80405920468412">
        <ele>10.774906262755394</ele>
        <time>2026-07-29T11:00:28Z</time>
      </trkpt>
      <trkpt lat="32.051928784149375" lon="118.80415138512878">
        <ele>9.551532849669456</ele>
        <time>2026-07-29T11:00:31Z</time>
      </trkpt>
      <trkpt lat="32.0519729652792" lon="118.80424957521126">
        <ele>8.37043772637844</ele>
        <time>2026-07-29T11:00:34Z</time>
      </trkpt>
      <trkpt lat="32.05205810494227" lon="118.80431870417344">
        <ele>9.279377087950706</ele>
        <time>2026-07-29T11:00:37Z</time>
      </trkpt>
      <trkpt lat="32.05213215644776" lon="118.80433873703157">
        <ele>10.02185831964016</ele>
        <time>2026-07-29T11:00:40Z</time>
      </trkpt>
      <trkpt lat="32.05244845805216" lon="118.8044709699015">
        <ele>9.802547559142113</ele>
        <time>2026-07-29T11:00:55Z</time>
      </trkpt>
      <trkpt lat="32.05276571099866" lon="118.80457514731991">
        <ele>9.770843610167503</ele>
        <time>2026-07-29T11:01:07Z</time>
      </trkpt>
      <trkpt lat="32.05309792179199" lon="118.80465327183556">
        <ele>8.975517377257347</ele>
        <time>2026-07-29T11:01:20Z</time>
      </trkpt>
      <trkpt lat="32.053230925108686" lon="118.80463822979223">
        <ele>9.321655377745628</ele>
        <time>2026-07-29T11:01:26Z</time>
      </trkpt>
      <trkpt lat="32.053323816050174" lon="118.80456407418318">
        <ele>8.589744672179222</ele>
        <time>2026-07-29T11:01:29Z</time>
      </trkpt>
      <trkpt lat="32.05341452622103" lon="118.80438671441675">
        <ele>9.89502726495266</ele>
        <time>2026-07-29T11:01:35Z</time>
      </trkpt>
      <trkpt lat="32.05342936680553" lon="118.80429352860384">
        <ele>9.477550610899925</ele>
        <time>2026-07-29T11:01:38Z</time>
      </trkpt>
      <trkpt lat="32.053401084339356" lon="118.80413521815763">
        <ele>7.847267255187035</ele>
        <time>2026-07-29T11:01:44Z</time>
      </trkpt>
      <trkpt lat="32.053352885037484" lon="118.80402700884012">
        <ele>9.990150555968285</ele>
        <time>2026-07-29T11:01:47Z</time>
      </trkpt>
      <trkpt lat="32.05323063453912" lon="118.80389876699235">
        <ele>8.172264203429222</ele>
        <time>2026-07-29T11:01:53Z</time>
      </trkpt>
      <trkpt lat="32.052915403984635" lon="118.80380661422524">
        <ele>9.905597791075706</ele>
        <time>2026-07-29T11:02:08Z</time>
      </trkpt>
      <trkpt lat="32.05264920360419" lon="118.80372547879823">
        <ele>9.54096232354641</ele>
        <time>2026-07-29T11:02:20Z</time>
      </trkpt>
      <trkpt lat="32.05243602033994" lon="118.80364734452444">
        <ele>9.65458308160305</ele>
        <time>2026-07-29T11:02:29Z</time>
      </trkpt>
      <trkpt lat="32.05223791702802" lon="118.8036132956924">
        <ele>9.215965375304222</ele>
        <time>2026-07-29T11:02:35Z</time>
      </trkpt>
      <trkpt lat="32.05211491742858" lon="118.80362933854049">
        <ele>9.916168317198753</ele>
        <time>2026-07-29T11:02:41Z</time>
      </trkpt>
      <trkpt lat="32.05205299060933" lon="118.80367944283572">
        <ele>9.54096232354641</ele>
        <time>2026-07-29T11:02:44Z</time>
      </trkpt>
      <trkpt lat="32.05198412844473" lon="118.80376762280832">
        <ele>9.572670087218285</ele>
        <time>2026-07-29T11:02:47Z</time>
      </trkpt>
      <trkpt lat="32.05192830241459" lon="118.80387483924694">
        <ele>7.826126202940941</ele>
        <time>2026-07-29T11:02:50Z</time>
      </trkpt>
      <trkpt lat="32.05190446798511" lon="118.80397303513759">
        <ele>10.146045789122581</ele>
        <time>2026-07-29T11:02:53Z</time>
      </trkpt>
      <trkpt lat="32.05190359342795" lon="118.80404517762888">
        <ele>9.163120374083519</ele>
        <time>2026-07-29T11:02:56Z</time>
      </trkpt>
      <trkpt lat="32.051930833528225" lon="118.80417944039372">
        <ele>8.412712201476097</ele>
        <time>2026-07-29T11:02:59Z</time>
      </trkpt>
      <trkpt lat="32.05204712173665" lon="118.80432972699606">
        <ele>8.30702219903469</ele>
        <time>2026-07-29T11:03:05Z</time>
      </trkpt>
      <trkpt lat="32.052122225981044" lon="118.8043798192718">
        <ele>3.529789075255394</ele>
        <time>2026-07-29T11:03:08Z</time>
      </trkpt>
      <trkpt lat="32.052424424671784" lon="118.80445494034541">
        <ele>8.30702219903469</ele>
        <time>2026-07-29T11:03:20Z</time>
      </trkpt>
      <trkpt lat="32.05272268388079" lon="118.80456513140345">
        <ele>9.572670087218285</ele>
        <time>2026-07-29T11:03:32Z</time>
      </trkpt>
      <trkpt lat="32.053020913407" lon="118.80465828885286">
        <ele>9.102344617247581</ele>
        <time>2026-07-29T11:03:44Z</time>
      </trkpt>
      <trkpt lat="32.053153941287064" lon="118.80465727464181">
        <ele>8.51576243340969</ele>
        <time>2026-07-29T11:03:50Z</time>
      </trkpt>
      <trkpt lat="32.053241888969254" lon="118.80461618505109">
        <ele>1.8598748296499252</ele>
        <time>2026-07-29T11:03:53Z</time>
      </trkpt>
      <trkpt lat="32.05329782077798" lon="118.80457008849339">
        <ele>9.215965375304222</ele>
        <time>2026-07-29T11:03:56Z</time>
      </trkpt>
      <trkpt lat="32.05339354430425" lon="118.80439974213903">
        <ele>9.519825085997581</ele>
        <time>2026-07-29T11:04:03Z</time>
      </trkpt>
      <trkpt lat="32.053418381850335" lon="118.8043035494398">
        <ele>10.000721082091331</ele>
        <time>2026-07-29T11:04:06Z</time>
      </trkpt>
      <trkpt lat="32.05339807144135" lon="118.80412820457477">
        <ele>9.831615552306175</ele>
        <time>2026-07-29T11:04:12Z</time>
      </trkpt>
      <trkpt lat="32.053308789718315" lon="118.8039779159775">
        <ele>8.09828196465969</ele>
        <time>2026-07-29T11:04:18Z</time>
      </trkpt>
      <trkpt lat="32.05324766099662" lon="118.80391179111902">
        <ele>9.3005181401968</ele>
        <time>2026-07-29T11:04:21Z</time>
      </trkpt>
      <trkpt lat="32.05292339182845" lon="118.8037985976947">
        <ele>7.691372022032738</ele>
        <time>2026-07-29T11:04:36Z</time>
      </trkpt>
      <trkpt lat="32.05262612535648" lon="118.80368339805602">
        <ele>8.756210431456566</ele>
        <time>2026-07-29T11:04:51Z</time>
      </trkpt>
      <trkpt lat="32.05235900316932" lon="118.80364735160221">
        <ele>9.3824273198843</ele>
        <time>2026-07-29T11:05:03Z</time>
      </trkpt>
      <trkpt lat="32.05224292510183" lon="118.80361730311793">
        <ele>9.435272321105003</ele>
        <time>2026-07-29T11:05:09Z</time>
      </trkpt>
      <trkpt lat="32.05208097945036" lon="118.80366942053944">
        <ele>9.5911675542593</ele>
        <time>2026-07-29T11:05:15Z</time>
      </trkpt>
      <trkpt lat="32.05200904694654" lon="118.80371752184105">
        <ele>9.74970255792141</ele>
        <time>2026-07-29T11:05:18Z</time>
      </trkpt>
      <trkpt lat="32.05194820578233" lon="118.80381672285341">
        <ele>8.222469434142113</ele>
        <time>2026-07-29T11:05:21Z</time>
      </trkpt>
      <trkpt lat="32.05191339148985" lon="118.80392794535392">
        <ele>6.497062787413597</ele>
        <time>2026-07-29T11:05:24Z</time>
      </trkpt>
      <trkpt lat="32.05191257099515" lon="118.80403114910628">
        <ele>6.330600842833519</ele>
        <time>2026-07-29T11:05:27Z</time>
      </trkpt>
      <trkpt lat="32.05197597993927" lon="118.80425759078946">
        <ele>9.519825085997581</ele>
        <time>2026-07-29T11:05:33Z</time>
      </trkpt>
      <trkpt lat="32.05203013369405" lon="118.80433874640579">
        <ele>9.562103375792503</ele>
        <time>2026-07-29T11:05:36Z</time>
      </trkpt>
      <trkpt lat="32.05210923883741" lon="118.80438883832116">
        <ele>9.5911675542593</ele>
        <time>2026-07-29T11:05:39Z</time>
      </trkpt>
      <trkpt lat="32.052272324220844" lon="118.80441687889699">
        <ele>9.781410321593285</ele>
        <time>2026-07-29T11:05:45Z</time>
      </trkpt>
      <trkpt lat="32.052416452668545" lon="118.80447197482762">
        <ele>10.346859082579613</ele>
        <time>2026-07-29T11:05:51Z</time>
      </trkpt>
      <trkpt lat="32.0525084731825" lon="118.80447196637259">
        <ele>8.129989728331566</ele>
        <time>2026-07-29T11:05:54Z</time>
      </trkpt>
      <trkpt lat="32.05275566669291" lon="118.80455110055784">
        <ele>8.24360667169094</ele>
        <time>2026-07-29T11:06:03Z</time>
      </trkpt>
      <trkpt lat="32.05282868121106" lon="118.80455009186247">
        <ele>8.954380139708519</ele>
        <time>2026-07-29T11:06:06Z</time>
      </trkpt>
      <trkpt lat="32.052914751221415" lon="118.80457914157427">
        <ele>9.5092583745718</ele>
        <time>2026-07-29T11:06:09Z</time>
      </trkpt>
      <trkpt lat="32.05301087959952" lon="118.8046402539864">
        <ele>8.494625195860863</ele>
        <time>2026-07-29T11:06:12Z</time>
      </trkpt>
      <trkpt lat="32.05312394337569" lon="118.8046622873401">
        <ele>8.933239087462425</ele>
        <time>2026-07-29T11:06:15Z</time>
      </trkpt>
      <trkpt lat="32.05323389244891" lon="118.80461919174905">
        <ele>8.412712201476097</ele>
        <time>2026-07-29T11:06:18Z</time>
      </trkpt>
      <trkpt lat="32.053305808534155" lon="118.80456207186398">
        <ele>8.777347669005394</ele>
        <time>2026-07-29T11:06:21Z</time>
      </trkpt>
      <trkpt lat="32.053364679714605" lon="118.8044809055706">
        <ele>8.526329144835472</ele>
        <time>2026-07-29T11:06:24Z</time>
      </trkpt>
      <trkpt lat="32.05340738289942" lon="118.80430555441599">
        <ele>8.51576243340969</ele>
        <time>2026-07-29T11:06:30Z</time>
      </trkpt>
      <trkpt lat="32.053412205629556" lon="118.80420335181435">
        <ele>8.901535138487816</ele>
        <time>2026-07-29T11:06:34Z</time>
      </trkpt>
      <trkpt lat="32.05337999232152" lon="118.80408512111536">
        <ele>9.070640668272972</ele>
        <time>2026-07-29T11:06:37Z</time>
      </trkpt>
      <trkpt lat="32.05329472902536" lon="118.80394485202268">
        <ele>9.02836237847805</ele>
        <time>2026-07-29T11:06:43Z</time>
      </trkpt>
      <trkpt lat="32.05323462845526" lon="118.80389475872084">
        <ele>8.494625195860863</ele>
        <time>2026-07-29T11:06:46Z</time>
      </trkpt>
      <trkpt lat="32.052926394239364" lon="118.80379959939329">
        <ele>7.501129254698753</ele>
        <time>2026-07-29T11:06:58Z</time>
      </trkpt>
      <trkpt lat="32.052662203019764" lon="118.80372347365709">
        <ele>7.4905587285757065</ele>
        <time>2026-07-29T11:07:13Z</time>
      </trkpt>
      <trkpt lat="32.052393003790954" lon="118.80364334058983">
        <ele>7.992591962218285</ele>
        <time>2026-07-29T11:07:28Z</time>
      </trkpt>
      <trkpt lat="32.05228694361372" lon="118.80362230893024">
        <ele>7.23954401910305</ele>
        <time>2026-07-29T11:07:34Z</time>
      </trkpt>
      <trkpt lat="32.05216596012459" lon="118.80364736934253">
        <ele>9.424705609679222</ele>
        <time>2026-07-29T11:07:40Z</time>
      </trkpt>
      <trkpt lat="32.05209900957405" lon="118.80368444846944">
        <ele>7.9714547246694565</ele>
        <time>2026-07-29T11:07:43Z</time>
      </trkpt>
      <trkpt lat="32.05192326294708" lon="118.80385279624798">
        <ele>8.37836466729641</ele>
        <time>2026-07-29T11:07:52Z</time>
      </trkpt>
      <trkpt lat="32.051896403395126" lon="118.80393696470503">
        <ele>8.568607434630394</ele>
        <time>2026-07-29T11:07:55Z</time>
      </trkpt>
      <trkpt lat="32.051897731805276" lon="118.80412533650119">
        <ele>8.8830376714468</ele>
        <time>2026-07-29T11:08:01Z</time>
      </trkpt>
      <trkpt lat="32.05195896040694" lon="118.80424857451627">
        <ele>8.922672376036644</ele>
        <time>2026-07-29T11:08:04Z</time>
      </trkpt>
      <trkpt lat="32.052024116605644" lon="118.80432972910985">
        <ele>8.473484143614769</ele>
        <time>2026-07-29T11:08:07Z</time>
      </trkpt>
      <trkpt lat="32.05209922085048" lon="118.80437982138558">
        <ele>8.349296674132347</ele>
        <time>2026-07-29T11:08:10Z</time>
      </trkpt>
      <trkpt lat="32.052323314582075" lon="118.80440485039861">
        <ele>8.420639142394066</ele>
        <time>2026-07-29T11:08:19Z</time>
      </trkpt>
      <trkpt lat="32.05239338973389" lon="118.80443891143675">
        <ele>0.8452416509389877</ele>
        <time>2026-07-29T11:08:22Z</time>
      </trkpt>
      <trkpt lat="32.052523439739666" lon="118.80445092330721">
        <ele>7.910682782530785</ele>
        <time>2026-07-29T11:08:28Z</time>
      </trkpt>
      <trkpt lat="32.052832699633456" lon="118.80456011136071">
        <ele>8.589744672179222</ele>
        <time>2026-07-29T11:08:40Z</time>
      </trkpt>
      <trkpt lat="32.05306687804421" lon="118.80463223293694">
        <ele>7.773281201720238</ele>
        <time>2026-07-29T11:08:49Z</time>
      </trkpt>
      <trkpt lat="32.053224888689925" lon="118.80461819058857">
        <ele>7.992591962218285</ele>
        <time>2026-07-29T11:08:55Z</time>
      </trkpt>
      <trkpt lat="32.053351734644146" lon="118.8045139722928">
        <ele>9.342792615294456</ele>
        <time>2026-07-29T11:09:01Z</time>
      </trkpt>
      <trkpt lat="32.053402485035676" lon="118.80436467187748">
        <ele>8.285884961485863</ele>
        <time>2026-07-29T11:09:07Z</time>
      </trkpt>
      <trkpt lat="32.05341134705226" lon="118.80428451241711">
        <ele>8.119419202208519</ele>
        <time>2026-07-29T11:09:11Z</time>
      </trkpt>
      <trkpt lat="32.05340119618707" lon="118.80419934490166">
        <ele>8.766777142882347</ele>
        <time>2026-07-29T11:09:14Z</time>
      </trkpt>
      <trkpt lat="32.05335799266058" lon="118.80408812907466">
        <ele>8.901535138487816</ele>
        <time>2026-07-29T11:09:17Z</time>
      </trkpt>
      <trkpt lat="32.053250740157836" lon="118.80395687978915">
        <ele>7.950313672423363</ele>
        <time>2026-07-29T11:09:23Z</time>
      </trkpt>
      <trkpt lat="32.0531836310434" lon="118.80390277921653">
        <ele>8.473484143614769</ele>
        <time>2026-07-29T11:09:26Z</time>
      </trkpt>
      <trkpt lat="32.05286238171823" lon="118.80380060725038">
        <ele>4.877349957823753</ele>
        <time>2026-07-29T11:09:41Z</time>
      </trkpt>
      <trkpt lat="32.05259017129782" lon="118.80371446251813">
        <ele>8.30702219903469</ele>
        <time>2026-07-29T11:09:53Z</time>
      </trkpt>
      <trkpt lat="32.052289961681126" lon="118.80363232836929">
        <ele>8.211898908019066</ele>
        <time>2026-07-29T11:10:08Z</time>
      </trkpt>
      <trkpt lat="32.052193945489556" lon="118.80363534310827">
        <ele>8.494625195860863</ele>
        <time>2026-07-29T11:10:11Z</time>
      </trkpt>
      <trkpt lat="32.05206002350397" lon="118.80369747769714">
        <ele>6.697876080870628</ele>
        <time>2026-07-29T11:10:17Z</time>
      </trkpt>
      <trkpt lat="32.05191528033723" lon="118.80386381871155">
        <ele>8.24360667169094</ele>
        <time>2026-07-29T11:10:26Z</time>
      </trkpt>
      <trkpt lat="32.05189145636049" lon="118.80396802644674">
        <ele>8.9649468511343</ele>
        <time>2026-07-29T11:10:29Z</time>
      </trkpt>
      <trkpt lat="32.05192179132471" lon="118.80415639567275">
        <ele>8.735069379210472</ele>
        <time>2026-07-29T11:10:35Z</time>
      </trkpt>
      <trkpt lat="32.05196495300189" lon="118.80424356405675">
        <ele>8.692794904112816</ele>
        <time>2026-07-29T11:10:38Z</time>
      </trkpt>
      <trkpt lat="32.05209214752506" lon="118.80433874070775">
        <ele>7.1047860234975815</ele>
        <time>2026-07-29T11:10:44Z</time>
      </trkpt>
      <trkpt lat="32.05238939234485" lon="118.80444091577385">
        <ele>8.45234690606594</ele>
        <time>2026-07-29T11:10:56Z</time>
      </trkpt>
      <trkpt lat="32.05269062415703" lon="118.8045350747492">
        <ele>7.501129254698753</ele>
        <time>2026-07-29T11:11:08Z</time>
      </trkpt>
      <trkpt lat="32.05301991318417" lon="118.80465828894476">
        <ele>6.748081311583519</ele>
        <time>2026-07-29T11:11:23Z</time>
      </trkpt>
      <trkpt lat="32.05309795337438" lon="118.80467130762477">
        <ele>9.0917779058218</ele>
        <time>2026-07-29T11:11:26Z</time>
      </trkpt>
      <trkpt lat="32.053241927559235" lon="118.8046382287813">
        <ele>8.317592725157738</ele>
        <time>2026-07-29T11:11:32Z</time>
      </trkpt>
      <trkpt lat="32.05333980734209" lon="118.80455705880591">
        <ele>7.826126202940941</ele>
        <time>2026-07-29T11:11:38Z</time>
      </trkpt>
      <trkpt lat="32.053398568180945" lon="118.80441276747442">
        <ele>8.23303996026516</ele>
        <time>2026-07-29T11:11:44Z</time>
      </trkpt>
      <trkpt lat="32.05342634689468" lon="118.80428250707396">
        <ele>7.23954401910305</ele>
        <time>2026-07-29T11:11:47Z</time>
      </trkpt>
      <trkpt lat="32.053424189073716" lon="118.80419232892183">
        <ele>6.896049603819847</ele>
        <time>2026-07-29T11:11:50Z</time>
      </trkpt>
      <trkpt lat="32.05337497199774" lon="118.80407409980647">
        <ele>8.431209668517113</ele>
        <time>2026-07-29T11:11:56Z</time>
      </trkpt>
      <trkpt lat="32.05324067164528" lon="118.80391880559628">
        <ele>8.787914380431175</ele>
        <time>2026-07-29T11:12:02Z</time>
      </trkpt>
      <trkpt lat="32.05290838674321" lon="118.80379759709915">
        <ele>5.955398663878441</ele>
        <time>2026-07-29T11:12:17Z</time>
      </trkpt>
      <trkpt lat="32.05260219312618" lon="118.8037254831184">
        <ele>7.39807902276516</ele>
        <time>2026-07-29T11:12:32Z</time>
      </trkpt>
      <trkpt lat="32.052518097796586" lon="118.8036814040385">
        <ele>8.431209668517113</ele>
        <time>2026-07-29T11:12:35Z</time>
      </trkpt>
      <trkpt lat="32.05224091247831" lon="118.80361028950297">
        <ele>8.766777142882347</ele>
        <time>2026-07-29T11:12:47Z</time>
      </trkpt>
      <trkpt lat="32.05201504654396" lon="118.80371651931658">
        <ele>9.070640668272972</ele>
        <time>2026-07-29T11:12:56Z</time>
      </trkpt>
      <trkpt lat="32.05192431895713" lon="118.80388485937111">
        <ele>8.254177197813988</ele>
        <time>2026-07-29T11:13:02Z</time>
      </trkpt>
      <trkpt lat="32.051901444634005" lon="118.80396000971136">
        <ele>-1.931789293885231</ele>
        <time>2026-07-29T11:13:05Z</time>
      </trkpt>
      <trkpt lat="32.05192874745724" lon="118.80413034355057">
        <ele>8.045436963438988</ele>
        <time>2026-07-29T11:13:11Z</time>
      </trkpt>
      <trkpt lat="32.05196089965474" lon="118.8042135049843">
        <ele>8.285884961485863</ele>
        <time>2026-07-29T11:13:14Z</time>
      </trkpt>
      <trkpt lat="32.05207314328663" lon="118.80433874245392">
        <ele>9.007225140929222</ele>
        <time>2026-07-29T11:13:20Z</time>
      </trkpt>
      <trkpt lat="32.05235338957133" lon="118.80444392503668">
        <ele>7.009666547179222</ele>
        <time>2026-07-29T11:13:32Z</time>
      </trkpt>
      <trkpt lat="32.052589613910875" lon="118.80454209793554">
        <ele>6.843200787901878</ele>
        <time>2026-07-29T11:13:44Z</time>
      </trkpt>
      <trkpt lat="32.052914807338034" lon="118.8046112051654">
        <ele>7.7627144902944565</ele>
        <time>2026-07-29T11:13:57Z</time>
      </trkpt>
      <trkpt lat="32.05305491221077" lon="118.8046532757873">
        <ele>6.288326367735863</ele>
        <time>2026-07-29T11:14:03Z</time>
      </trkpt>
      <trkpt lat="32.05319393440881" lon="118.8046482530725">
        <ele>7.210479840636253</ele>
        <time>2026-07-29T11:14:09Z</time>
      </trkpt>
      <trkpt lat="32.05330880043669" lon="118.80455706165493">
        <ele>6.40458308160305</ele>
        <time>2026-07-29T11:14:15Z</time>
      </trkpt>
      <trkpt lat="32.053397583718606" lon="118.80442178542592">
        <ele>8.359867200255394</ele>
        <time>2026-07-29T11:14:21Z</time>
      </trkpt>
      <trkpt lat="32.053426465876804" lon="118.80435064190344">
        <ele>8.02429972589016</ele>
        <time>2026-07-29T11:14:24Z</time>
      </trkpt>
      <trkpt lat="32.053418168510454" lon="118.80418130768568">
        <ele>5.276332959532738</ele>
        <time>2026-07-29T11:14:30Z</time>
      </trkpt>
      <trkpt lat="32.053345893952205" lon="118.80403302135238">
        <ele>9.456409558653831</ele>
        <time>2026-07-29T11:14:36Z</time>
      </trkpt>
      <trkpt lat="32.053290764770686" lon="118.80396589390568">
        <ele>9.65458308160305</ele>
        <time>2026-07-29T11:14:39Z</time>
      </trkpt>
      <trkpt lat="32.05321368481576" lon="118.80392982981854">
        <ele>8.954380139708519</ele>
        <time>2026-07-29T11:14:42Z</time>
      </trkpt>
      <trkpt lat="32.053134663726595" lon="118.80392783312696">
        <ele>9.44584284722805</ele>
        <time>2026-07-29T11:14:45Z</time>
      </trkpt>
      <trkpt lat="32.05285941241434" lon="118.8038186430674">
        <ele>8.328159436583519</ele>
        <time>2026-07-29T11:14:57Z</time>
      </trkpt>
      <trkpt lat="32.0525501623798" lon="118.80371446619486">
        <ele>8.45234690606594</ele>
        <time>2026-07-29T11:15:09Z</time>
      </trkpt>
      <trkpt lat="32.052369014100165" lon="118.80365236054232">
        <ele>8.254177197813988</ele>
        <time>2026-07-29T11:15:18Z</time>
      </trkpt>
      <trkpt lat="32.05223893464807" lon="118.80362331531377">
        <ele>8.37043772637844</ele>
        <time>2026-07-29T11:15:24Z</time>
      </trkpt>
      <trkpt lat="32.05216593576426" lon="118.80363334173882">
        <ele>6.549911603331566</ele>
        <time>2026-07-29T11:15:27Z</time>
      </trkpt>
      <trkpt lat="32.05203404207719" lon="118.80371150770559">
        <ele>7.4905587285757065</ele>
        <time>2026-07-29T11:15:33Z</time>
      </trkpt>
      <trkpt lat="32.051919352715906" lon="118.80390489934865">
        <ele>8.254177197813988</ele>
        <time>2026-07-29T11:15:42Z</time>
      </trkpt>
      <trkpt lat="32.051915578647325" lon="118.8040351567432">
        <ele>8.8830376714468</ele>
        <time>2026-07-29T11:15:48Z</time>
      </trkpt>
      <trkpt lat="32.05193377652815" lon="118.80414637476902">
        <ele>8.943809613585472</ele>
        <time>2026-07-29T11:15:51Z</time>
      </trkpt>
      <trkpt lat="32.05201605708117" lon="118.80429666441594">
        <ele>6.7586480230093</ele>
        <time>2026-07-29T11:15:57Z</time>
      </trkpt>
      <trkpt lat="32.05213528490821" lon="118.80441188156604">
        <ele>8.682224377989769</ele>
        <time>2026-07-29T11:16:03Z</time>
      </trkpt>
      <trkpt lat="32.05240648372771" lon="118.80449101346935">
        <ele>7.4588509649038315</ele>
        <time>2026-07-29T11:16:15Z</time>
      </trkpt>
      <trkpt lat="32.05268867279524" lon="118.80456313055464">
        <ele>4.428165540099144</ele>
        <time>2026-07-29T11:16:30Z</time>
      </trkpt>
      <trkpt lat="32.05299590257259" lon="118.80465528518579">
        <ele>8.943809613585472</ele>
        <time>2026-07-29T11:16:48Z</time>
      </trkpt>
      <trkpt lat="32.05306493724805" lon="118.80466630071554">
        <ele>8.505191907286644</ele>
        <time>2026-07-29T11:16:54Z</time>
      </trkpt>
      <trkpt lat="32.05319787215121" lon="118.80461218114466">
        <ele>9.947872266173363</ele>
        <time>2026-07-29T11:17:00Z</time>
      </trkpt>
      <trkpt lat="32.05336065254447" lon="118.80446587615876">
        <ele>6.864341840147972</ele>
        <time>2026-07-29T11:17:09Z</time>
      </trkpt>
      <trkpt lat="32.05341242075742" lon="118.80432659559479">
        <ele>9.60437785089016</ele>
        <time>2026-07-29T11:17:15Z</time>
      </trkpt>
      <trkpt lat="32.05341528148064" lon="118.80424643673487">
        <ele>6.100723370909691</ele>
        <time>2026-07-29T11:17:18Z</time>
      </trkpt>
      <trkpt lat="32.05336397478651" lon="118.80407710675418">
        <ele>9.279377087950706</ele>
        <time>2026-07-29T11:17:24Z</time>
      </trkpt>
      <trkpt lat="32.053275733515186" lon="118.80394986365305">
        <ele>9.226532086730003</ele>
        <time>2026-07-29T11:17:30Z</time>
      </trkpt>
      <trkpt lat="32.0529684419342" lon="118.80382163897247">
        <ele>8.830192670226097</ele>
        <time>2026-07-29T11:17:42Z</time>
      </trkpt>
      <trkpt lat="32.05268020006758" lon="118.80371946411033">
        <ele>9.163120374083519</ele>
        <time>2026-07-29T11:17:54Z</time>
      </trkpt>
      <trkpt lat="32.052457066789806" lon="118.80367138992254">
        <ele>9.226532086730003</ele>
        <time>2026-07-29T11:18:03Z</time>
      </trkpt>
      <trkpt lat="32.052251920150496" lon="118.80361329440554">
        <ele>9.081207379698753</ele>
        <time>2026-07-29T11:18:12Z</time>
      </trkpt>
      <trkpt lat="32.0521839049837" lon="118.80361330065604">
        <ele>6.288326367735863</ele>
        <time>2026-07-29T11:18:15Z</time>
      </trkpt>
      <trkpt lat="32.05211194807928" lon="118.80364737430612">
        <ele>8.912101849913597</ele>
        <time>2026-07-29T11:18:18Z</time>
      </trkpt>
      <trkpt lat="32.05198513040971" lon="118.80376862469024">
        <ele>9.215965375304222</ele>
        <time>2026-07-29T11:18:24Z</time>
      </trkpt>
      <trkpt lat="32.05189033752627" lon="118.803899892134">
        <ele>8.61088190972805</ele>
        <time>2026-07-29T11:18:30Z</time>
      </trkpt>
      <trkpt lat="32.051883466789235" lon="118.8039750410221">
        <ele>6.425724133849144</ele>
        <time>2026-07-29T11:18:33Z</time>
      </trkpt>
      <trkpt lat="32.0519348379163" lon="118.80418144398722">
        <ele>9.11027155816555</ele>
        <time>2026-07-29T11:18:39Z</time>
      </trkpt>
      <trkpt lat="32.051977992628146" lon="118.80426460447869">
        <ele>6.82206355035305</ele>
        <time>2026-07-29T11:18:42Z</time>
      </trkpt>
      <trkpt lat="32.052031109417825" lon="118.80432471855188">
        <ele>8.713932141661644</ele>
        <time>2026-07-29T11:18:45Z</time>
      </trkpt>
      <trkpt lat="32.052238337652604" lon="118.80442890583527">
        <ele>8.589744672179222</ele>
        <time>2026-07-29T11:18:54Z</time>
      </trkpt>
      <trkpt lat="32.0525415085728" lon="118.80448799510593">
        <ele>8.653160199522972</ele>
        <time>2026-07-29T11:19:12Z</time>
      </trkpt>
      <trkpt lat="32.05266254430968" lon="118.80449299391346">
        <ele>8.045436963438988</ele>
        <time>2026-07-29T11:19:18Z</time>
      </trkpt>
      <trkpt lat="32.0529427767499" lon="118.80459016085864">
        <ele>8.901535138487816</ele>
        <time>2026-07-29T11:19:31Z</time>
      </trkpt>
      <trkpt lat="32.05304586108612" lon="118.80462522095256">
        <ele>7.638527020812035</ele>
        <time>2026-07-29T11:19:34Z</time>
      </trkpt>
      <trkpt lat="32.05312289052182" lon="118.80463222779045">
        <ele>9.350719556212425</ele>
        <time>2026-07-29T11:19:37Z</time>
      </trkpt>
      <trkpt lat="32.05322882118702" lon="118.80457911271685">
        <ele>5.891983136534691</ele>
        <time>2026-07-29T11:19:43Z</time>
      </trkpt>
      <trkpt lat="32.0533416080237" lon="118.80444283225016">
        <ele>8.349296674132347</ele>
        <time>2026-07-29T11:19:49Z</time>
      </trkpt>
      <trkpt lat="32.05338632749005" lon="118.80427649885723">
        <ele>7.0730782598257065</ele>
        <time>2026-07-29T11:19:55Z</time>
      </trkpt>
      <trkpt lat="32.05337918429464" lon="118.80419533900027">
        <ele>8.642589673399925</ele>
        <time>2026-07-29T11:19:58Z</time>
      </trkpt>
      <trkpt lat="32.05329787976854" lon="118.80403102180794">
        <ele>6.309463605284691</ele>
        <time>2026-07-29T11:20:04Z</time>
      </trkpt>
      <trkpt lat="32.053150587073844" lon="118.80388174075625">
        <ele>9.392997846007347</ele>
        <time>2026-07-29T11:20:10Z</time>
      </trkpt>
      <trkpt lat="32.05285336925847" lon="118.80379459623174">
        <ele>8.558036908507347</ele>
        <time>2026-07-29T11:20:22Z</time>
      </trkpt>
      <trkpt lat="32.05257717536404" lon="118.80371847160494">
        <ele>7.7310067266225815</ele>
        <time>2026-07-29T11:20:34Z</time>
      </trkpt>
      <trkpt lat="32.0522409437932" lon="118.80362832498722">
        <ele>9.134052380919456</ele>
        <time>2026-07-29T11:20:49Z</time>
      </trkpt>
      <trkpt lat="32.05212394031558" lon="118.80364136137254">
        <ele>6.970031842589378</ele>
        <time>2026-07-29T11:20:55Z</time>
      </trkpt>
      <trkpt lat="32.05198110339058" lon="118.80375359545248">
        <ele>7.115356549620628</ele>
        <time>2026-07-29T11:21:01Z</time>
      </trkpt>
      <trkpt lat="32.05193519416912" lon="118.80381171417544">
        <ele>9.070640668272972</ele>
        <time>2026-07-29T11:21:04Z</time>
      </trkpt>
      <trkpt lat="32.05190740584946" lon="118.80393696369401">
        <ele>8.151126965880394</ele>
        <time>2026-07-29T11:21:10Z</time>
      </trkpt>
      <trkpt lat="32.05192665268876" lon="118.80407623685191">
        <ele>8.682224377989769</ele>
        <time>2026-07-29T11:21:16Z</time>
      </trkpt>
      <trkpt lat="32.05196387759765" lon="118.80420047895575">
        <ele>8.986087903380394</ele>
        <time>2026-07-29T11:21:19Z</time>
      </trkpt>
      <trkpt lat="32.05209216502627" lon="118.80434876053967">
        <ele>7.910682782530785</ele>
        <time>2026-07-29T11:21:25Z</time>
      </trkpt>
      <trkpt lat="32.05241944632993" lon="118.80446796661104">
        <ele>8.66108714044094</ele>
        <time>2026-07-29T11:21:40Z</time>
      </trkpt>
      <trkpt lat="32.05269167171082" lon="118.80456212829223">
        <ele>8.72450266778469</ele>
        <time>2026-07-29T11:21:52Z</time>
      </trkpt>
      <trkpt lat="32.05299089093175" lon="118.80464927371652">
        <ele>7.847267255187035</ele>
        <time>2026-07-29T11:22:04Z</time>
      </trkpt>
      <trkpt lat="32.05307292148499" lon="118.8046562800976">
        <ele>6.61332331597805</ele>
        <time>2026-07-29T11:22:07Z</time>
      </trkpt>
      <trkpt lat="32.05322686458134" lon="118.80460416258">
        <ele>8.986087903380394</ele>
        <time>2026-07-29T11:22:13Z</time>
      </trkpt>
      <trkpt lat="32.05329978090142" lon="118.80454704261662">
        <ele>6.351738080382347</ele>
        <time>2026-07-29T11:22:16Z</time>
      </trkpt>
      <trkpt lat="32.05339953513546" lon="118.80439372968314">
        <ele>9.551532849669456</ele>
        <time>2026-07-29T11:22:23Z</time>
      </trkpt>
      <trkpt lat="32.053415447675384" lon="118.80434162506508">
        <ele>8.859256848692894</ele>
        <time>2026-07-29T11:22:26Z</time>
      </trkpt>
      <trkpt lat="32.053415197557264" lon="118.80419834163402">
        <ele>9.141979321837425</ele>
        <time>2026-07-29T11:22:29Z</time>
      </trkpt>
      <trkpt lat="32.053396029070456" lon="118.80410415724947">
        <ele>9.102344617247581</ele>
        <time>2026-07-29T11:22:32Z</time>
      </trkpt>
      <trkpt lat="32.053302758720314" lon="118.80396088291744">
        <ele>8.851329907774925</ele>
        <time>2026-07-29T11:22:38Z</time>
      </trkpt>
      <trkpt lat="32.05309654366107" lon="118.80386371015969">
        <ele>8.431209668517113</ele>
        <time>2026-07-29T11:22:47Z</time>
      </trkpt>
      <trkpt lat="32.052794324749776" lon="118.80377656612079">
        <ele>8.558036908507347</ele>
        <time>2026-07-29T11:23:02Z</time>
      </trkpt>
      <trkpt lat="32.052659261561395" lon="118.80375754102735">
        <ele>8.45234690606594</ele>
        <time>2026-07-29T11:23:08Z</time>
      </trkpt>
      <trkpt lat="32.05261619798862" lon="118.80372648380467">
        <ele>8.190761670470238</ele>
        <time>2026-07-29T11:23:11Z</time>
      </trkpt>
      <trkpt lat="32.052538166668846" lon="118.80371847518975">
        <ele>8.851329907774925</ele>
        <time>2026-07-29T11:23:14Z</time>
      </trkpt>
      <trkpt lat="32.05227292831341" lon="118.80361529641775">
        <ele>8.077144727110863</ele>
        <time>2026-07-29T11:23:26Z</time>
      </trkpt>
      <trkpt lat="32.05221092144399" lon="118.80361931000199">
        <ele>9.081207379698753</ele>
        <time>2026-07-29T11:23:29Z</time>
      </trkpt>
      <trkpt lat="32.052046041272135" lon="118.80370950265687">
        <ele>8.600315198302269</ele>
        <time>2026-07-29T11:23:38Z</time>
      </trkpt>
      <trkpt lat="32.05197415234349" lon="118.80378265333637">
        <ele>8.547470197081566</ele>
        <time>2026-07-29T11:23:41Z</time>
      </trkpt>
      <trkpt lat="32.051911368370305" lon="118.8039149198454">
        <ele>8.211898908019066</ele>
        <time>2026-07-29T11:23:47Z</time>
      </trkpt>
      <trkpt lat="32.05190575455555" lon="118.80413735952304">
        <ele>8.129989728331566</ele>
        <time>2026-07-29T11:23:56Z</time>
      </trkpt>
      <trkpt lat="32.05196494076131" lon="118.80423655018609">
        <ele>8.264743909239769</ele>
        <time>2026-07-29T11:23:59Z</time>
      </trkpt>
      <trkpt lat="32.052088169384604" lon="118.80435176685718">
        <ele>7.3452340215444565</ele>
        <time>2026-07-29T11:24:05Z</time>
      </trkpt>
      <trkpt lat="32.05234539654511" lon="118.80444893569613">
        <ele>8.600315198302269</ele>
        <time>2026-07-29T11:24:17Z</time>
      </trkpt>
      <trkpt lat="32.05263662789485" lon="118.80454409758893">
        <ele>7.910682782530785</ele>
        <time>2026-07-29T11:24:29Z</time>
      </trkpt>
      <trkpt lat="32.05283475969458" lon="118.80459417873271">
        <ele>8.087711438536644</ele>
        <time>2026-07-29T11:24:38Z</time>
      </trkpt>
      <trkpt lat="32.05289676825193" lon="118.80459116707327">
        <ele>8.30702219903469</ele>
        <time>2026-07-29T11:24:41Z</time>
      </trkpt>
      <trkpt lat="32.05307087893549" lon="118.80463223256933">
        <ele>5.860275372862816</ele>
        <time>2026-07-29T11:24:50Z</time>
      </trkpt>
      <trkpt lat="32.05319189361611" lon="118.8046252075349">
        <ele>8.618808850646019</ele>
        <time>2026-07-29T11:24:53Z</time>
      </trkpt>
      <trkpt lat="32.053286806054864" lon="118.80456307559687">
        <ele>8.137916669249535</ele>
        <time>2026-07-29T11:24:56Z</time>
      </trkpt>
      <trkpt lat="32.05334269058317" lon="118.80448992546191">
        <ele>7.355804547667503</ele>
        <time>2026-07-29T11:24:59Z</time>
      </trkpt>
      <trkpt lat="32.05340444347524" lon="118.80434062409289">
        <ele>8.056007489562035</ele>
        <time>2026-07-29T11:25:05Z</time>
      </trkpt>
      <trkpt lat="32.05340216145112" lon="118.80417930519509">
        <ele>10.354786023497581</ele>
        <time>2026-07-29T11:25:11Z</time>
      </trkpt>
      <trkpt lat="32.053337921849234" lon="118.80405005571932">
        <ele>7.23954401910305</ele>
        <time>2026-07-29T11:25:17Z</time>
      </trkpt>
      <trkpt lat="32.05320364247463" lon="118.80390678528255">
        <ele>8.119419202208519</ele>
        <time>2026-07-29T11:25:26Z</time>
      </trkpt>
      <trkpt lat="32.05290442070089" lon="118.80381763695647">
        <ele>9.060070142149925</ele>
        <time>2026-07-29T11:25:38Z</time>
      </trkpt>
      <trkpt lat="32.05259017652121" lon="118.80371746843701">
        <ele>7.596248731017113</ele>
        <time>2026-07-29T11:25:53Z</time>
      </trkpt>
      <trkpt lat="32.05249406111653" lon="118.80366337074433">
        <ele>8.473484143614769</ele>
        <time>2026-07-29T11:25:56Z</time>
      </trkpt>
      <trkpt lat="32.05221992519109" lon="118.80362031114608">
        <ele>7.889541730284691</ele>
        <time>2026-07-29T11:26:11Z</time>
      </trkpt>
      <trkpt lat="32.052106964365926" lon="118.80365739448465">
        <ele>7.931820020079613</ele>
        <time>2026-07-29T11:26:17Z</time>
      </trkpt>
      <trkpt lat="32.052017081815734" lon="118.8037365585952">
        <ele>8.16169749200344</ele>
        <time>2026-07-29T11:26:23Z</time>
      </trkpt>
      <trkpt lat="32.051936419297256" lon="118.80394096893507">
        <ele>6.539341077208519</ele>
        <time>2026-07-29T11:26:32Z</time>
      </trkpt>
      <trkpt lat="32.051931538578316" lon="118.80401010582287">
        <ele>4.82450495660305</ele>
        <time>2026-07-29T11:26:35Z</time>
      </trkpt>
      <trkpt lat="32.05197686476575" lon="118.80419145993369">
        <ele>8.18019114434719</ele>
        <time>2026-07-29T11:26:41Z</time>
      </trkpt>
      <trkpt lat="32.05207814440202" lon="118.8043387419944">
        <ele>7.33466349542141</ele>
        <time>2026-07-29T11:26:47Z</time>
      </trkpt>
      <trkpt lat="32.05236138434937" lon="118.80443991636238">
        <ele>4.8165780156850815</ele>
        <time>2026-07-29T11:26:59Z</time>
      </trkpt>
      <trkpt lat="32.05263766317922" lon="118.80456413722834">
        <ele>7.9714547246694565</ele>
        <time>2026-07-29T11:27:11Z</time>
      </trkpt>
      <trkpt lat="32.052793766339455" lon="118.80460320038617">
        <ele>7.709869489073753</ele>
        <time>2026-07-29T11:27:17Z</time>
      </trkpt>
      <trkpt lat="32.05300994780385" lon="118.80467933161997">
        <ele>7.575111493468285</ele>
        <time>2026-07-29T11:27:26Z</time>
      </trkpt>
      <trkpt lat="32.053140985767435" lon="118.80468432952398">
        <ele>7.3452340215444565</ele>
        <time>2026-07-29T11:27:32Z</time>
      </trkpt>
      <trkpt lat="32.0532399306222" lon="118.80464023294095">
        <ele>7.6490975469350815</ele>
        <time>2026-07-29T11:27:35Z</time>
      </trkpt>
      <trkpt lat="32.05333574159547" lon="118.80451998567922">
        <ele>7.4086495488882065</ele>
        <time>2026-07-29T11:27:41Z</time>
      </trkpt>
      <trkpt lat="32.053387481694635" lon="118.8043646732561">
        <ele>6.9277535527944565</ele>
        <time>2026-07-29T11:27:47Z</time>
      </trkpt>
      <trkpt lat="32.05339220816751" lon="118.80420736157654">
        <ele>7.6173897832632065</ele>
        <time>2026-07-29T11:27:53Z</time>
      </trkpt>
      <trkpt lat="32.05331085124461" lon="118.80401298500887">
        <ele>5.693813428282738</ele>
        <time>2026-07-29T11:28:00Z</time>
      </trkpt>
      <trkpt lat="32.05325973343992" lon="118.80395186907738">
        <ele>7.324096783995628</ele>
        <time>2026-07-29T11:28:03Z</time>
      </trkpt>
      <trkpt lat="32.052991478429846" lon="118.80383967240591">
        <ele>7.931820020079613</ele>
        <time>2026-07-29T11:28:15Z</time>
      </trkpt>
      <trkpt lat="32.052863430732735" lon="118.8038286624472">
        <ele>6.874908551573753</ele>
        <time>2026-07-29T11:28:21Z</time>
      </trkpt>
      <trkpt lat="32.05257020166386" lon="118.80373450381852">
        <ele>6.372879132628441</ele>
        <time>2026-07-29T11:28:39Z</time>
      </trkpt>
      <trkpt lat="32.052314015756714" lon="118.80366038137356">
        <ele>7.720436200499535</ele>
        <time>2026-07-29T11:28:51Z</time>
      </trkpt>
      <trkpt lat="32.05206904640302" lon="118.8037095005428">
        <ele>7.709869489073753</ele>
        <time>2026-07-29T11:29:00Z</time>
      </trkpt>
      <trkpt lat="32.05200710396618" lon="118.80375058714202">
        <ele>7.1682015508413315</ele>
        <time>2026-07-29T11:29:03Z</time>
      </trkpt>
      <trkpt lat="32.05195720082007" lon="118.80381271412786">
        <ele>5.54584513604641</ele>
        <time>2026-07-29T11:29:06Z</time>
      </trkpt>
      <trkpt lat="32.0519155123198" lon="118.8039970815836">
        <ele>7.868404492735863</ele>
        <time>2026-07-29T11:29:12Z</time>
      </trkpt>
      <trkpt lat="32.051924690665075" lon="118.8040982805747">
        <ele>7.450924023985863</ele>
        <time>2026-07-29T11:29:15Z</time>
      </trkpt>
      <trkpt lat="32.051952871647316" lon="118.804198476005">
        <ele>8.23303996026516</ele>
        <time>2026-07-29T11:29:18Z</time>
      </trkpt>
      <trkpt lat="32.0520621635846" lon="118.80435176924668">
        <ele>8.23303996026516</ele>
        <time>2026-07-29T11:29:24Z</time>
      </trkpt>
      <trkpt lat="32.05232937020733" lon="118.80443591136444">
        <ele>7.429786786437035</ele>
        <time>2026-07-29T11:29:33Z</time>
      </trkpt>
      <trkpt lat="32.05239043110399" lon="118.80446295935047">
        <ele>7.083648785948753</ele>
        <time>2026-07-29T11:29:36Z</time>
      </trkpt>
      <trkpt lat="32.052534449198866" lon="118.80445493023608">
        <ele>7.218406781554222</ele>
        <time>2026-07-29T11:29:42Z</time>
      </trkpt>
      <trkpt lat="32.05271566303577" lon="118.80455411019356">
        <ele>7.23954401910305</ele>
        <time>2026-07-29T11:29:48Z</time>
      </trkpt>
      <trkpt lat="32.05299389861797" lon="118.80465328139327">
        <ele>7.218406781554222</ele>
        <time>2026-07-29T11:30:00Z</time>
      </trkpt>
      <trkpt lat="32.05313792894988" lon="118.80465226617137">
        <ele>6.790355786681175</ele>
        <time>2026-07-29T11:30:06Z</time>
      </trkpt>
      <trkpt lat="32.053260852865094" lon="118.80459313759518">
        <ele>5.944828137755394</ele>
        <time>2026-07-29T11:30:12Z</time>
      </trkpt>
      <trkpt lat="32.05339157712859" lon="118.80441878002402">
        <ele>7.1364937871694565</ele>
        <time>2026-07-29T11:30:21Z</time>
      </trkpt>
      <trkpt lat="32.053413454230395" lon="118.80434563318178">
        <ele>7.836696729063988</ele>
        <time>2026-07-29T11:30:24Z</time>
      </trkpt>
      <trkpt lat="32.05338701483912" lon="118.80409714422164">
        <ele>6.9277535527944565</ele>
        <time>2026-07-29T11:30:33Z</time>
      </trkpt>
      <trkpt lat="32.0532977907578" lon="118.80397992094318">
        <ele>7.125927075743675</ele>
        <time>2026-07-29T11:30:39Z</time>
      </trkpt>
      <trkpt lat="32.05298746359558" lon="118.80383165697401">
        <ele>7.4403573125600815</ele>
        <time>2026-07-29T11:30:57Z</time>
      </trkpt>
      <trkpt lat="32.05269826503025" lon="118.80375453152168">
        <ele>7.910682782530785</ele>
        <time>2026-07-29T11:31:12Z</time>
      </trkpt>
      <trkpt lat="32.05249910574494" lon="118.80368841959205">
        <ele>7.218406781554222</ele>
        <time>2026-07-29T11:31:21Z</time>
      </trkpt>
      <trkpt lat="32.05228288009976" lon="118.80358623833845">
        <ele>4.240562543272972</ele>
        <time>2026-07-29T11:31:33Z</time>
      </trkpt>
      <trkpt lat="32.05207495896786" lon="118.803658399398">
        <ele>7.889541730284691</ele>
        <time>2026-07-29T11:31:39Z</time>
      </trkpt>
      <trkpt lat="32.05199103770741" lon="118.8037145175767">
        <ele>7.4588509649038315</ele>
        <time>2026-07-29T11:31:42Z</time>
      </trkpt>
      <trkpt lat="32.0519301860836" lon="118.80380770673702">
        <ele>7.638527020812035</ele>
        <time>2026-07-29T11:31:45Z</time>
      </trkpt>
      <trkpt lat="32.051894448306186" lon="118.80396301628572">
        <ele>6.121860608458519</ele>
        <time>2026-07-29T11:31:51Z</time>
      </trkpt>
      <trkpt lat="32.05191575853394" lon="118.80413836058383">
        <ele>6.988525494933128</ele>
        <time>2026-07-29T11:31:57Z</time>
      </trkpt>
      <trkpt lat="32.05195291010817" lon="118.8042205195876">
        <ele>7.115356549620628</ele>
        <time>2026-07-29T11:32:00Z</time>
      </trkpt>
      <trkpt lat="32.05205111387954" lon="118.8043247167138">
        <ele>7.5222664922475815</ele>
        <time>2026-07-29T11:32:06Z</time>
      </trkpt>
      <trkpt lat="32.05235839769259" lon="118.80444793251652">
        <ele>5.566982373595238</ele>
        <time>2026-07-29T11:32:21Z</time>
      </trkpt>
      <trkpt lat="32.05267765631798" lon="118.8045551156724">
        <ele>5.1706429570913315</ele>
        <time>2026-07-29T11:32:36Z</time>
      </trkpt>
      <trkpt lat="32.05299191396293" lon="118.804662299471">
        <ele>6.602756604552269</ele>
        <time>2026-07-29T11:32:51Z</time>
      </trkpt>
      <trkpt lat="32.05311792449376" lon="118.8046522680094">
        <ele>6.549911603331566</ele>
        <time>2026-07-29T11:32:57Z</time>
      </trkpt>
      <trkpt lat="32.05333369909171" lon="118.8044959382027">
        <ele>6.121860608458519</ele>
        <time>2026-07-29T11:33:09Z</time>
      </trkpt>
      <trkpt lat="32.053402471032804" lon="118.80435665600953">
        <ele>6.999096021056175</ele>
        <time>2026-07-29T11:33:15Z</time>
      </trkpt>
      <trkpt lat="32.05336504487408" lon="118.80411718583171">
        <ele>7.1999093145132065</ele>
        <time>2026-07-29T11:33:24Z</time>
      </trkpt>
      <trkpt lat="32.05326678734196" lon="118.80398192774724">
        <ele>7.03080378472805</ele>
        <time>2026-07-29T11:33:30Z</time>
      </trkpt>
      <trkpt lat="32.05320567082429" lon="118.80392281671877">
        <ele>6.832634076476097</ele>
        <time>2026-07-29T11:33:33Z</time>
      </trkpt>
      <trkpt lat="32.05292044517895" lon="118.80382965918275">
        <ele>3.780807599425316</ele>
        <time>2026-07-29T11:33:45Z</time>
      </trkpt>
      <trkpt lat="32.05274140528284" lon="118.80382967563591">
        <ele>7.1682015508413315</ele>
        <time>2026-07-29T11:33:54Z</time>
      </trkpt>
      <trkpt lat="32.05247008013164" lon="118.8036774005612">
        <ele>6.666168317198753</ele>
        <time>2026-07-29T11:34:04Z</time>
      </trkpt>
      <trkpt lat="32.05225196364578" lon="118.80363834369189">
        <ele>6.394016370177269</ele>
        <time>2026-07-29T11:34:13Z</time>
      </trkpt>
      <trkpt lat="32.05218776383665" lon="118.80364319037241">
        <ele>5.5881234258413315</ele>
        <time>2026-07-29T11:34:16Z</time>
      </trkpt>
      <trkpt lat="32.05216512993252" lon="118.80358161015504">
        <ele>6.362308606505394</ele>
        <time>2026-07-29T11:34:19Z</time>
      </trkpt>
      <trkpt lat="32.052070342249465" lon="118.80365013030055">
        <ele>6.874908551573753</ele>
        <time>2026-07-29T11:34:22Z</time>
      </trkpt>
      <trkpt lat="32.05197102454004" lon="118.80370950955061">
        <ele>6.549911603331566</ele>
        <time>2026-07-29T11:34:28Z</time>
      </trkpt>
      <trkpt lat="32.05192332901314" lon="118.80382463028091">
        <ele>1.566581830382347</ele>
        <time>2026-07-29T11:34:34Z</time>
      </trkpt>
      <trkpt lat="32.05190711126521" lon="118.8037676298858">
        <ele>5.965965375304222</ele>
        <time>2026-07-29T11:34:46Z</time>
      </trkpt>
      <trkpt lat="32.05186127177504" lon="118.80386582762567">
        <ele>6.069015607237816</ele>
        <time>2026-07-29T11:35:04Z</time>
      </trkpt>
      <trkpt lat="32.05188036494153" lon="118.80391692664715">
        <ele>4.3673897832632065</ele>
        <time>2026-07-29T11:35:22Z</time>
      </trkpt>
      <trkpt lat="32.05198462372142" lon="118.80405218403313">
        <ele>6.539341077208519</ele>
        <time>2026-07-29T11:35:28Z</time>
      </trkpt>
      <trkpt lat="32.05195775567456" lon="118.80413134286499">
        <ele>6.645031079649925</ele>
        <time>2026-07-29T11:35:31Z</time>
      </trkpt>
      <trkpt lat="32.0519580406425" lon="118.80429466578157">
        <ele>3.801944836974144</ele>
        <time>2026-07-29T11:35:34Z</time>
      </trkpt>
      <trkpt lat="32.05199613660945" lon="118.80434476142948">
        <ele>6.9594613164663315</ele>
        <time>2026-07-29T11:35:37Z</time>
      </trkpt>
      <trkpt lat="32.052089278149296" lon="118.80441388976216">
        <ele>5.807430371642113</ele>
        <time>2026-07-29T11:35:40Z</time>
      </trkpt>
      <trkpt lat="32.052374452062544" lon="118.80447698861398">
        <ele>6.9594613164663315</ele>
        <time>2026-07-29T11:35:52Z</time>
      </trkpt>
      <trkpt lat="32.05266067356631" lon="118.80456714107486">
        <ele>6.602756604552269</ele>
        <time>2026-07-29T11:36:04Z</time>
      </trkpt>
      <trkpt lat="32.052994909367776" lon="118.80465929323053">
        <ele>-11.964504137635231</ele>
        <time>2026-07-29T11:36:19Z</time>
      </trkpt>
      <trkpt lat="32.053102957997886" lon="118.80467331114215">
        <ele>5.955398663878441</ele>
        <time>2026-07-29T11:36:25Z</time>
      </trkpt>
      <trkpt lat="32.05317895212055" lon="118.80466027830899">
        <ele>5.537918195128441</ele>
        <time>2026-07-29T11:36:31Z</time>
      </trkpt>
      <trkpt lat="32.05327187285243" lon="118.80460315645702">
        <ele>6.069015607237816</ele>
        <time>2026-07-29T11:36:37Z</time>
      </trkpt>
      <trkpt lat="32.05331978009773" lon="118.80454403481919">
        <ele>6.047878369688988</ele>
        <time>2026-07-29T11:36:40Z</time>
      </trkpt>
      <trkpt lat="32.05337059346619" lon="118.80443080576832">
        <ele>6.518203839659691</ele>
        <time>2026-07-29T11:36:46Z</time>
      </trkpt>
      <trkpt lat="32.05338827196933" lon="118.80424443525318">
        <ele>6.687309369444847</ele>
        <time>2026-07-29T11:36:55Z</time>
      </trkpt>
      <trkpt lat="32.05338012684049" lon="118.8041622735498">
        <ele>4.137512311339378</ele>
        <time>2026-07-29T11:36:58Z</time>
      </trkpt>
      <trkpt lat="32.05332091282464" lon="118.80404705134653">
        <ele>4.449302777647972</ele>
        <time>2026-07-29T11:37:04Z</time>
      </trkpt>
      <trkpt lat="32.05320269457503" lon="118.80393684466551">
        <ele>7.4086495488882065</ele>
        <time>2026-07-29T11:37:10Z</time>
      </trkpt>
      <trkpt lat="32.0529374629102" lon="118.80383767341947">
        <ele>6.853771314024925</ele>
        <time>2026-07-29T11:37:22Z</time>
      </trkpt>
      <trkpt lat="32.0526883028637" lon="118.80377757783806">
        <ele>6.864341840147972</ele>
        <time>2026-07-29T11:37:34Z</time>
      </trkpt>
      <trkpt lat="32.05262423285905" lon="118.80374552056188">
        <ele>7.3135262578725815</ele>
        <time>2026-07-29T11:37:37Z</time>
      </trkpt>
      <trkpt lat="32.052551105154265" lon="118.80368140100516">
        <ele>7.18933878839016</ele>
        <time>2026-07-29T11:37:40Z</time>
      </trkpt>
      <trkpt lat="32.05232999148176" lon="118.8036443483525">
        <ele>7.147064313292503</ele>
        <time>2026-07-29T11:37:52Z</time>
      </trkpt>
      <trkpt lat="32.05209198190418" lon="118.80366941952833">
        <ele>3.833652600646019</ele>
        <time>2026-07-29T11:38:01Z</time>
      </trkpt>
      <trkpt lat="32.05197811491334" lon="118.80376060954362">
        <ele>7.1999093145132065</ele>
        <time>2026-07-29T11:38:07Z</time>
      </trkpt>
      <trkpt lat="32.05193820703642" lon="118.8038187277218">
        <ele>7.041374310851097</ele>
        <time>2026-07-29T11:38:10Z</time>
      </trkpt>
      <trkpt lat="32.05189943720925" lon="118.80395600198746">
        <ele>7.051941022276878</ele>
        <time>2026-07-29T11:38:16Z</time>
      </trkpt>
      <trkpt lat="32.05190555895951" lon="118.80402513788115">
        <ele>6.288326367735863</ele>
        <time>2026-07-29T11:38:19Z</time>
      </trkpt>
      <trkpt lat="32.051976871757724" lon="118.80419546785676">
        <ele>7.1047860234975815</ele>
        <time>2026-07-29T11:38:25Z</time>
      </trkpt>
      <trkpt lat="32.052086153186934" lon="118.80434274919173">
        <ele>5.3476754277944565</ele>
        <time>2026-07-29T11:38:31Z</time>
      </trkpt>
      <trkpt lat="32.05236039463546" lon="118.80444592836301">
        <ele>5.286903485655785</ele>
        <time>2026-07-29T11:38:43Z</time>
      </trkpt>
      <trkpt lat="32.052494468309035" lon="118.80447096567397">
        <ele>6.9277535527944565</ele>
        <time>2026-07-29T11:38:49Z</time>
      </trkpt>
      <trkpt lat="32.052692699986466" lon="118.80457815998948">
        <ele>3.978977307677269</ele>
        <time>2026-07-29T11:38:55Z</time>
      </trkpt>
      <trkpt lat="32.05298490713936" lon="118.80465929414953">
        <ele>5.778366193175316</ele>
        <time>2026-07-29T11:39:07Z</time>
      </trkpt>
      <trkpt lat="32.05305394707977" lon="118.80467331564529">
        <ele>6.779789075255394</ele>
        <time>2026-07-29T11:39:10Z</time>
      </trkpt>
      <trkpt lat="32.053188899964105" lon="118.80462921576155">
        <ele>6.341171368956566</ele>
        <time>2026-07-29T11:39:16Z</time>
      </trkpt>
      <trkpt lat="32.053311767798334" lon="118.8045380236362">
        <ele>6.288326367735863</ele>
        <time>2026-07-29T11:39:22Z</time>
      </trkpt>
      <trkpt lat="32.05336067181554" lon="118.80447689799668">
        <ele>4.021255597472191</ele>
        <time>2026-07-29T11:39:25Z</time>
      </trkpt>
      <trkpt lat="32.05341941356732" lon="118.80432158503689">
        <ele>7.260681256651878</ele>
        <time>2026-07-29T11:39:31Z</time>
      </trkpt>
      <trkpt lat="32.05342028084556" lon="118.80424543429368">
        <ele>7.429786786437035</ele>
        <time>2026-07-29T11:39:34Z</time>
      </trkpt>
      <trkpt lat="32.05339715334638" lon="118.80417529773251">
        <ele>6.121860608458519</ele>
        <time>2026-07-29T11:39:37Z</time>
      </trkpt>
      <trkpt lat="32.0532707550812" lon="118.8039628898128">
        <ele>3.5826378911733627</ele>
        <time>2026-07-29T11:39:46Z</time>
      </trkpt>
      <trkpt lat="32.053144597942094" lon="118.80388875513813">
        <ele>6.320030316710472</ele>
        <time>2026-07-29T11:39:52Z</time>
      </trkpt>
      <trkpt lat="32.052888443275684" lon="118.80383266804873">
        <ele>6.645031079649925</ele>
        <time>2026-07-29T11:40:04Z</time>
      </trkpt>
      <trkpt lat="32.05269827199711" lon="118.80375853941621">
        <ele>6.645031079649925</ele>
        <time>2026-07-29T11:40:13Z</time>
      </trkpt>
      <trkpt lat="32.0525622155534" lon="118.80374352231392">
        <ele>6.94889460504055</ele>
        <time>2026-07-29T11:40:19Z</time>
      </trkpt>
      <trkpt lat="32.05230199915844" lon="118.80365236670087">
        <ele>6.415153607726097</ele>
        <time>2026-07-29T11:40:31Z</time>
      </trkpt>
      <trkpt lat="32.05209191925753" lon="118.80363334854079">
        <ele>6.288326367735863</ele>
        <time>2026-07-29T11:40:40Z</time>
      </trkpt>
      <trkpt lat="32.05203496570772" lon="118.80366742082333">
        <ele>5.244625195860863</ele>
        <time>2026-07-29T11:40:43Z</time>
      </trkpt>
      <trkpt lat="32.05190638120722" lon="118.8039229361153">
        <ele>6.216983899474144</ele>
        <time>2026-07-29T11:40:52Z</time>
      </trkpt>
      <trkpt lat="32.0519105548384" lon="118.8040221314876">
        <ele>6.40458308160305</ele>
        <time>2026-07-29T11:40:55Z</time>
      </trkpt>
      <trkpt lat="32.05196988418062" lon="118.80420348434704">
        <ele>5.559055432677269</ele>
        <time>2026-07-29T11:41:01Z</time>
      </trkpt>
      <trkpt lat="32.052012014205935" lon="118.80427261720976">
        <ele>6.216983899474144</ele>
        <time>2026-07-29T11:41:04Z</time>
      </trkpt>
      <trkpt lat="32.05216624454898" lon="118.80438482514712">
        <ele>3.717392072081566</ele>
        <time>2026-07-29T11:41:10Z</time>
      </trkpt>
      <trkpt lat="32.05244450271462" lon="118.8044970218907">
        <ele>6.457431897521019</ele>
        <time>2026-07-29T11:41:22Z</time>
      </trkpt>
      <trkpt lat="32.05258154727943" lon="118.80450502518583">
        <ele>6.571048840880394</ele>
        <time>2026-07-29T11:41:28Z</time>
      </trkpt>
      <trkpt lat="32.0528737596188" lon="118.80458916521272">
        <ele>7.157631024718285</ele>
        <time>2026-07-29T11:41:44Z</time>
      </trkpt>
      <trkpt lat="32.05311889313894" lon="118.80463423213371">
        <ele>6.309463605284691</ele>
        <time>2026-07-29T11:41:56Z</time>
      </trkpt>
      <trkpt lat="32.053194883760355" lon="118.80461919533325">
        <ele>4.866783246397972</ele>
        <time>2026-07-29T11:41:59Z</time>
      </trkpt>
      <trkpt lat="32.053305750686725" lon="118.80452900631134">
        <ele>6.748081311583519</ele>
        <time>2026-07-29T11:42:05Z</time>
      </trkpt>
      <trkpt lat="32.05339151584603" lon="118.80438371057897">
        <ele>6.634464368224144</ele>
        <time>2026-07-29T11:42:11Z</time>
      </trkpt>
      <trkpt lat="32.053409420089224" lon="118.80432659587052">
        <ele>6.457431897521019</ele>
        <time>2026-07-29T11:42:14Z</time>
      </trkpt>
      <trkpt lat="32.05340922419169" lon="118.80421437388163">
        <ele>7.931820020079613</ele>
        <time>2026-07-29T11:42:17Z</time>
      </trkpt>
      <trkpt lat="32.05336596126177" lon="118.80406909073959">
        <ele>7.826126202940941</ele>
        <time>2026-07-29T11:42:23Z</time>
      </trkpt>
      <trkpt lat="32.053220668933754" lon="118.80391980941094">
        <ele>7.009666547179222</ele>
        <time>2026-07-29T11:42:32Z</time>
      </trkpt>
      <trkpt lat="32.05291146060168" lon="118.8038396797593">
        <ele>7.218406781554222</ele>
        <time>2026-07-29T11:42:44Z</time>
      </trkpt>
      <trkpt lat="32.05279639314486" lon="118.80381564293428">
        <ele>5.870845898985863</ele>
        <time>2026-07-29T11:42:50Z</time>
      </trkpt>
      <trkpt lat="32.052555179165104" lon="118.80372348349236">
        <ele>6.100723370909691</ele>
        <time>2026-07-29T11:43:02Z</time>
      </trkpt>
    </trkseg>
  </trk>
</gpx>