<?xml version="1.0" encoding="UTF-8"?>
<gpx xmlns="http://www.topografix.com/GPX/1/1" xmlns:gpxtpx="http://www.garmin.com/xmlschemas/TrackPointExtension/v1" xmlns:xsi="http://www.w3.org/2001/XMLSchema-instance" xsi:schemaLocation="http://www.topografix.com/GPX/1/1 http://www.topografix.com/GPX/1/1/gpx.xsd" version="1.1" creator="gpx.py -- https://github.com/tkrajina/gpxpy">
  <trk>
    <name>gpx from keep</name>
    <type>Run</type>
    <trkseg>
      <trkpt lat="32.05190544029259" lon="118.8039570034129">
        <ele>20.277314212173223</ele>
        <time>2026-07-26T10:35:20Z</time>
      </trkpt>
      <trkpt lat="32.05194379972817" lon="118.80415839761118">
        <ele>20.6445932649076</ele>
        <time>2026-07-26T10:35:29Z</time>
      </trkpt>
      <trkpt lat="32.05210414495183" lon="118.80433573365562">
        <ele>21.53504278883338</ele>
        <time>2026-07-26T10:35:38Z</time>
      </trkpt>
      <trkpt lat="32.05224028381454" lon="118.80439784413775">
        <ele>21.397637393325567</ele>
        <time>2026-07-26T10:35:44Z</time>
      </trkpt>
      <trkpt lat="32.05254049608516" lon="118.80448098129965">
        <ele>21.638085391372442</ele>
        <time>2026-07-26T10:35:56Z</time>
      </trkpt>
      <trkpt lat="32.05268560200976" lon="118.80452305137469">
        <ele>21.701500918716192</ele>
        <time>2026-07-26T10:36:02Z</time>
      </trkpt>
      <trkpt lat="32.052995937664974" lon="118.80467532495247">
        <ele>21.75434973463416</ele>
        <time>2026-07-26T10:36:08Z</time>
      </trkpt>
      <trkpt lat="32.05304187598194" lon="118.80463423921013">
        <ele>20.213898684829473</ele>
        <time>2026-07-26T10:36:11Z</time>
      </trkpt>
      <trkpt lat="32.053241846878784" lon="118.80459213735415">
        <ele>19.312890078872442</ele>
        <time>2026-07-26T10:36:17Z</time>
      </trkpt>
      <trkpt lat="32.053326760622845" lon="118.80453201033997">
        <ele>21.365929629653692</ele>
        <time>2026-07-26T10:36:20Z</time>
      </trkpt>
      <trkpt lat="32.053388627250435" lon="118.8044478378548">
        <ele>19.785851504653692</ele>
        <time>2026-07-26T10:36:23Z</time>
      </trkpt>
      <trkpt lat="32.05342344945723" lon="118.80434162432981">
        <ele>21.524468448013067</ele>
        <time>2026-07-26T10:36:26Z</time>
      </trkpt>
      <trkpt lat="32.053391138028545" lon="118.80416728244045">
        <ele>21.566742923110723</ele>
        <time>2026-07-26T10:36:32Z</time>
      </trkpt>
      <trkpt lat="32.05332384715889" lon="118.80400897590263">
        <ele>21.365929629653692</ele>
        <time>2026-07-26T10:36:35Z</time>
      </trkpt>
      <trkpt lat="32.05316560610816" lon="118.80389075715955">
        <ele>20.686867740005255</ele>
        <time>2026-07-26T10:36:41Z</time>
      </trkpt>
      <trkpt lat="32.05296346870437" lon="118.80383767102961">
        <ele>21.365929629653692</ele>
        <time>2026-07-26T10:36:50Z</time>
      </trkpt>
      <trkpt lat="32.052678229223844" lon="118.80373649783792">
        <ele>21.284020449966192</ele>
        <time>2026-07-26T10:37:02Z</time>
      </trkpt>
      <trkpt lat="32.052399029491305" lon="118.80365736764445">
        <ele>20.602318789809942</ele>
        <time>2026-07-26T10:37:14Z</time>
      </trkpt>
      <trkpt lat="32.05224892817973" lon="118.80361830453772">
        <ele>20.80048468336463</ele>
        <time>2026-07-26T10:37:20Z</time>
      </trkpt>
      <trkpt lat="32.05217491167457" lon="118.80361831133975">
        <ele>20.87446692213416</ele>
        <time>2026-07-26T10:37:23Z</time>
      </trkpt>
      <trkpt lat="32.05211893920026" lon="118.80364136183213">
        <ele>21.41877844557166</ele>
        <time>2026-07-26T10:37:26Z</time>
      </trkpt>
      <trkpt lat="32.05203007426763" lon="118.80373054556087">
        <ele>19.796425845474005</ele>
        <time>2026-07-26T10:37:29Z</time>
      </trkpt>
      <trkpt lat="32.0519423491284" lon="118.80389988735455">
        <ele>18.475285556167364</ele>
        <time>2026-07-26T10:37:35Z</time>
      </trkpt>
      <trkpt lat="32.05191753021864" lon="118.80400710117632">
        <ele>20.93788244947791</ele>
        <time>2026-07-26T10:37:38Z</time>
      </trkpt>
      <trkpt lat="32.051924706385385" lon="118.80410729838839">
        <ele>19.304963137954473</ele>
        <time>2026-07-26T10:37:41Z</time>
      </trkpt>
      <trkpt lat="32.051947832077815" lon="118.80417643288978">
        <ele>21.305161502212286</ele>
        <time>2026-07-26T10:37:44Z</time>
      </trkpt>
      <trkpt lat="32.05202705953516" lon="118.80429666340498">
        <ele>20.92731573805213</ele>
        <time>2026-07-26T10:37:47Z</time>
      </trkpt>
      <trkpt lat="32.052095165695484" lon="118.80434876026396">
        <ele>-44.88908288255334</ele>
        <time>2026-07-26T10:37:50Z</time>
      </trkpt>
      <trkpt lat="32.052296357593605" lon="118.80443290844327">
        <ele>20.70800879225135</ele>
        <time>2026-07-26T10:37:59Z</time>
      </trkpt>
      <trkpt lat="32.052361345820344" lon="118.80441787270198">
        <ele>19.722435977309942</ele>
        <time>2026-07-26T10:38:02Z</time>
      </trkpt>
      <trkpt lat="32.05244339037484" lon="118.80443289493353">
        <ele>22.792763736099005</ele>
        <time>2026-07-26T10:38:05Z</time>
      </trkpt>
      <trkpt lat="32.05266359710546" lon="118.80452305339655">
        <ele>20.330163028091192</ele>
        <time>2026-07-26T10:38:15Z</time>
      </trkpt>
      <trkpt lat="32.05295577964697" lon="118.8045901596639">
        <ele>20.507195498794317</ele>
        <time>2026-07-26T10:38:27Z</time>
      </trkpt>
      <trkpt lat="32.053049833914216" lon="118.80460918878376">
        <ele>19.08300879225135</ele>
        <time>2026-07-26T10:38:30Z</time>
      </trkpt>
      <trkpt lat="32.05322980387629" lon="118.804569092756">
        <ele>20.25618078932166</ele>
        <time>2026-07-26T10:38:36Z</time>
      </trkpt>
      <trkpt lat="32.05327074990097" lon="118.80453301747285">
        <ele>20.676301028579473</ele>
        <time>2026-07-26T10:38:39Z</time>
      </trkpt>
      <trkpt lat="32.0533964154438" lon="118.80432559508237">
        <ele>19.98402502760291</ele>
        <time>2026-07-26T10:38:45Z</time>
      </trkpt>
      <trkpt lat="32.05340427203571" lon="118.8042424298194">
        <ele>20.80048468336463</ele>
        <time>2026-07-26T10:38:48Z</time>
      </trkpt>
      <trkpt lat="32.053345932361154" lon="118.80405506487655">
        <ele>20.005166079849005</ele>
        <time>2026-07-26T10:38:54Z</time>
      </trkpt>
      <trkpt lat="32.05330983007788" lon="118.80400096136759">
        <ele>19.28382208570838</ele>
        <time>2026-07-26T10:38:57Z</time>
      </trkpt>
      <trkpt lat="32.05321867895291" lon="118.80392582145308">
        <ele>20.475487735122442</ele>
        <time>2026-07-26T10:39:00Z</time>
      </trkpt>
      <trkpt lat="32.05289145440147" lon="118.80383867962264">
        <ele>20.089715030044317</ele>
        <time>2026-07-26T10:39:12Z</time>
      </trkpt>
      <trkpt lat="32.05280436356403" lon="118.80379760665859">
        <ele>20.37243750318885</ele>
        <time>2026-07-26T10:39:15Z</time>
      </trkpt>
      <trkpt lat="32.05266530122054" lon="118.80377958390017">
        <ele>20.330163028091192</ele>
        <time>2026-07-26T10:39:21Z</time>
      </trkpt>
      <trkpt lat="32.05238010184047" lon="118.80370145617425">
        <ele>20.161057498306036</ele>
        <time>2026-07-26T10:39:33Z</time>
      </trkpt>
      <trkpt lat="32.05224502821489" lon="118.80367641927054">
        <ele>19.931176211684942</ele>
        <time>2026-07-26T10:39:39Z</time>
      </trkpt>
      <trkpt lat="32.052017123614135" lon="118.8037606059589">
        <ele>20.351296450942755</ele>
        <time>2026-07-26T10:39:48Z</time>
      </trkpt>
      <trkpt lat="32.05195921869232" lon="118.80382273369032">
        <ele>19.63788702711463</ele>
        <time>2026-07-26T10:39:51Z</time>
      </trkpt>
      <trkpt lat="32.05190639167221" lon="118.80392894797374">
        <ele>20.277314212173223</ele>
        <time>2026-07-26T10:39:54Z</time>
      </trkpt>
      <trkpt lat="32.051896551714705" lon="118.80402213277434">
        <ele>19.55597784742713</ele>
        <time>2026-07-26T10:39:57Z</time>
      </trkpt>
      <trkpt lat="32.051963844386464" lon="118.80418144132193">
        <ele>19.870408084243536</ele>
        <time>2026-07-26T10:40:03Z</time>
      </trkpt>
      <trkpt lat="32.052078105904336" lon="118.8043166983698">
        <ele>20.496628787368536</ele>
        <time>2026-07-26T10:40:09Z</time>
      </trkpt>
      <trkpt lat="32.052347281416154" lon="118.80438280454487">
        <ele>20.04744055494666</ele>
        <time>2026-07-26T10:40:21Z</time>
      </trkpt>
      <trkpt lat="32.05262956499026" lon="118.80450902871779">
        <ele>20.161057498306036</ele>
        <time>2026-07-26T10:40:33Z</time>
      </trkpt>
      <trkpt lat="32.05290478055663" lon="118.80459717826129">
        <ele>20.634026553481817</ele>
        <time>2026-07-26T10:40:45Z</time>
      </trkpt>
      <trkpt lat="32.053104872478414" lon="118.80462421354267">
        <ele>20.287888552993536</ele>
        <time>2026-07-26T10:40:54Z</time>
      </trkpt>
      <trkpt lat="32.05331166966084" lon="118.80448191242701">
        <ele>16.414311435073614</ele>
        <time>2026-07-26T10:41:03Z</time>
      </trkpt>
      <trkpt lat="32.0533575397874" lon="118.80440174941597">
        <ele>20.760849978774786</ele>
        <time>2026-07-26T10:41:06Z</time>
      </trkpt>
      <trkpt lat="32.05338822825586" lon="118.80421938571766">
        <ele>20.665734317153692</ele>
        <time>2026-07-26T10:41:12Z</time>
      </trkpt>
      <trkpt lat="32.053321933999285" lon="118.80405907499683">
        <ele>19.962883975356817</ele>
        <time>2026-07-26T10:41:18Z</time>
      </trkpt>
      <trkpt lat="32.05325877858002" lon="118.80397792057329">
        <ele>19.733010318130255</ele>
        <time>2026-07-26T10:41:21Z</time>
      </trkpt>
      <trkpt lat="32.05312256863098" lon="118.80387472950036">
        <ele>19.899468448013067</ele>
        <time>2026-07-26T10:41:27Z</time>
      </trkpt>
      <trkpt lat="32.05282137432249" lon="118.80380161299338">
        <ele>19.870408084243536</ele>
        <time>2026-07-26T10:41:39Z</time>
      </trkpt>
      <trkpt lat="32.05253713510732" lon="118.80370043977035">
        <ele>19.994591739028692</ele>
        <time>2026-07-26T10:41:51Z</time>
      </trkpt>
      <trkpt lat="32.052253937993584" lon="118.80362331393499">
        <ele>20.507195498794317</ele>
        <time>2026-07-26T10:42:03Z</time>
      </trkpt>
      <trkpt lat="32.052179912789825" lon="118.80361831088015">
        <ele>20.25618078932166</ele>
        <time>2026-07-26T10:42:06Z</time>
      </trkpt>
      <trkpt lat="32.05210994763314" lon="118.80364737448996">
        <ele>16.77894690260291</ele>
        <time>2026-07-26T10:42:09Z</time>
      </trkpt>
      <trkpt lat="32.05199112478086" lon="118.8037646162436">
        <ele>20.885041262954473</ele>
        <time>2026-07-26T10:42:15Z</time>
      </trkpt>
      <trkpt lat="32.05190544727116" lon="118.80396101132071">
        <ele>21.305161502212286</ele>
        <time>2026-07-26T10:42:21Z</time>
      </trkpt>
      <trkpt lat="32.05190768337883" lon="118.80409627817873">
        <ele>18.026101138442755</ele>
        <time>2026-07-26T10:42:24Z</time>
      </trkpt>
      <trkpt lat="32.051949853498066" lon="118.80418845647303">
        <ele>20.959023501724005</ele>
        <time>2026-07-26T10:42:27Z</time>
      </trkpt>
      <trkpt lat="32.05206508725725" lon="118.80430768172039">
        <ele>20.4358530305326</ele>
        <time>2026-07-26T10:42:33Z</time>
      </trkpt>
      <trkpt lat="32.05226227646541" lon="118.80439082822782">
        <ele>20.5177622102201</ele>
        <time>2026-07-26T10:42:42Z</time>
      </trkpt>
      <trkpt lat="32.0524863982115" lon="118.80443188899706">
        <ele>20.65515997633338</ele>
        <time>2026-07-26T10:42:51Z</time>
      </trkpt>
      <trkpt lat="32.052799667735385" lon="118.80454608658174">
        <ele>21.093781497329473</ele>
        <time>2026-07-26T10:43:06Z</time>
      </trkpt>
      <trkpt lat="32.05309584065628" lon="118.8046071805814">
        <ele>21.32630255445838</ele>
        <time>2026-07-26T10:43:18Z</time>
      </trkpt>
      <trkpt lat="32.05327875694151" lon="118.80453602269642">
        <ele>21.21003821119666</ele>
        <time>2026-07-26T10:43:24Z</time>
      </trkpt>
      <trkpt lat="32.05337561034259" lon="118.804439823171">
        <ele>20.634026553481817</ele>
        <time>2026-07-26T10:43:27Z</time>
      </trkpt>
      <trkpt lat="32.05339838789325" lon="118.80430956317375">
        <ele>20.969590213149786</ele>
        <time>2026-07-26T10:43:30Z</time>
      </trkpt>
      <trkpt lat="32.05339020947023" lon="118.80420836374141">
        <ele>20.6445932649076</ele>
        <time>2026-07-26T10:43:33Z</time>
      </trkpt>
      <trkpt lat="32.05336003677284" lon="118.80411317837317">
        <ele>19.22040655836463</ele>
        <time>2026-07-26T10:43:36Z</time>
      </trkpt>
      <trkpt lat="32.05325875938685" lon="118.8039668988241">
        <ele>19.032807376235723</ele>
        <time>2026-07-26T10:43:42Z</time>
      </trkpt>
      <trkpt lat="32.05296146651578" lon="118.80383666923848">
        <ele>20.414711978286505</ele>
        <time>2026-07-26T10:43:54Z</time>
      </trkpt>
      <trkpt lat="32.052683226855635" lon="118.80373449343175">
        <ele>20.25618078932166</ele>
        <time>2026-07-26T10:44:06Z</time>
      </trkpt>
      <trkpt lat="32.05241300999091" lon="118.80364434072321">
        <ele>20.686867740005255</ele>
        <time>2026-07-26T10:44:18Z</time>
      </trkpt>
      <trkpt lat="32.05226691653756" lon="118.80360928514189">
        <ele>19.4819956086576</ele>
        <time>2026-07-26T10:44:25Z</time>
      </trkpt>
      <trkpt lat="32.05218490346713" lon="118.80361229859288">
        <ele>20.277314212173223</ele>
        <time>2026-07-26T10:44:27Z</time>
      </trkpt>
      <trkpt lat="32.05202703006946" lon="118.80370549651207">
        <ele>20.570611026138067</ele>
        <time>2026-07-26T10:44:34Z</time>
      </trkpt>
      <trkpt lat="32.05196513117339" lon="118.80377163245005">
        <ele>20.496628787368536</ele>
        <time>2026-07-26T10:44:37Z</time>
      </trkpt>
      <trkpt lat="32.05188041726909" lon="118.80394698594233">
        <ele>21.33422949537635</ele>
        <time>2026-07-26T10:44:43Z</time>
      </trkpt>
      <trkpt lat="32.05187156359275" lon="118.8040321548527">
        <ele>19.77528479322791</ele>
        <time>2026-07-26T10:44:46Z</time>
      </trkpt>
      <trkpt lat="32.05188471318203" lon="118.80411631987968">
        <ele>20.026299502700567</ele>
        <time>2026-07-26T10:44:49Z</time>
      </trkpt>
      <trkpt lat="32.05196185267954" lon="118.80418645140881">
        <ele>19.63788702711463</ele>
        <time>2026-07-26T10:44:52Z</time>
      </trkpt>
      <trkpt lat="32.051978006620615" lon="118.80427262033454">
        <ele>20.46492102369666</ele>
        <time>2026-07-26T10:44:55Z</time>
      </trkpt>
      <trkpt lat="32.05204713223644" lon="118.80433573889415">
        <ele>19.43971350416541</ele>
        <time>2026-07-26T10:44:58Z</time>
      </trkpt>
      <trkpt lat="32.05225228999274" lon="118.80439984700307">
        <ele>20.089715030044317</ele>
        <time>2026-07-26T10:45:07Z</time>
      </trkpt>
      <trkpt lat="32.05233230258179" lon="118.80439683369858">
        <ele>20.811059024184942</ele>
        <time>2026-07-26T10:45:10Z</time>
      </trkpt>
      <trkpt lat="32.05265556377682" lon="118.80450501838504">
        <ele>21.104348208755255</ele>
        <time>2026-07-26T10:45:25Z</time>
      </trkpt>
      <trkpt lat="32.052980795739856" lon="118.80459616928951">
        <ele>20.4358530305326</ele>
        <time>2026-07-26T10:45:40Z</time>
      </trkpt>
      <trkpt lat="32.05311182317654" lon="118.8045951552631">
        <ele>20.538903262466192</ele>
        <time>2026-07-26T10:45:46Z</time>
      </trkpt>
      <trkpt lat="32.05326574703435" lon="118.80453201594614">
        <ele>15.064110781997442</ele>
        <time>2026-07-26T10:45:52Z</time>
      </trkpt>
      <trkpt lat="32.053311660900704" lon="118.80447690250006">
        <ele>19.931176211684942</ele>
        <time>2026-07-26T10:45:55Z</time>
      </trkpt>
      <trkpt lat="32.05337538976893" lon="118.80431357321847">
        <ele>19.785851504653692</ele>
        <time>2026-07-26T10:46:01Z</time>
      </trkpt>
      <trkpt lat="32.05337005122858" lon="118.80412019131091">
        <ele>20.58117773756385</ele>
        <time>2026-07-26T10:46:07Z</time>
      </trkpt>
      <trkpt lat="32.05330382874132" lon="118.80400096191909">
        <ele>21.32630255445838</ele>
        <time>2026-07-26T10:46:10Z</time>
      </trkpt>
      <trkpt lat="32.05323969235229" lon="118.80393082940522">
        <ele>20.068573977798223</ele>
        <time>2026-07-26T10:46:13Z</time>
      </trkpt>
      <trkpt lat="32.05300247913818" lon="118.80383866941982">
        <ele>20.11085608229041</ele>
        <time>2026-07-26T10:46:22Z</time>
      </trkpt>
      <trkpt lat="32.052702299016595" lon="118.8037735686554">
        <ele>20.612885501235723</ele>
        <time>2026-07-26T10:46:35Z</time>
      </trkpt>
      <trkpt lat="32.05236803824139" lon="118.80366638824245">
        <ele>18.163498904556036</ele>
        <time>2026-07-26T10:46:47Z</time>
      </trkpt>
      <trkpt lat="32.05220896275531" lon="118.80364335750292">
        <ele>19.91004278883338</ele>
        <time>2026-07-26T10:46:53Z</time>
      </trkpt>
      <trkpt lat="32.052065048992795" lon="118.80371150485617">
        <ele>17.45008185133338</ele>
        <time>2026-07-26T10:46:59Z</time>
      </trkpt>
      <trkpt lat="32.05195727401913" lon="118.80385479707338">
        <ele>19.57447149977088</ele>
        <time>2026-07-26T10:47:05Z</time>
      </trkpt>
      <trkpt lat="32.05192342860779" lon="118.80394798396689">
        <ele>18.979958560317755</ele>
        <time>2026-07-26T10:47:08Z</time>
      </trkpt>
      <trkpt lat="32.05190959651256" lon="118.80404617905579">
        <ele>19.3551645539701</ele>
        <time>2026-07-26T10:47:11Z</time>
      </trkpt>
      <trkpt lat="32.051919722738184" lon="118.80411731864243">
        <ele>19.241547610610723</ele>
        <time>2026-07-26T10:47:14Z</time>
      </trkpt>
      <trkpt lat="32.052014979895745" lon="118.80425257729632">
        <ele>18.779145266860723</ele>
        <time>2026-07-26T10:47:20Z</time>
      </trkpt>
      <trkpt lat="32.05208812563318" lon="118.80432671727915">
        <ele>19.323456790298223</ele>
        <time>2026-07-26T10:47:23Z</time>
      </trkpt>
      <trkpt lat="32.05215819900147" lon="118.80435977629101">
        <ele>19.50312903150916</ele>
        <time>2026-07-26T10:47:26Z</time>
      </trkpt>
      <trkpt lat="32.05227524435192" lon="118.80437078735721">
        <ele>13.536877658218145</ele>
        <time>2026-07-26T10:47:32Z</time>
      </trkpt>
      <trkpt lat="32.05254046630234" lon="118.80446394755016">
        <ele>19.849267031997442</ele>
        <time>2026-07-26T10:47:44Z</time>
      </trkpt>
      <trkpt lat="32.05272564598194" lon="118.80454308742326">
        <ele>18.403943087905645</ele>
        <time>2026-07-26T10:47:53Z</time>
      </trkpt>
      <trkpt lat="32.05283369459693" lon="118.80455710530889">
        <ele>17.94154455885291</ele>
        <time>2026-07-26T10:47:59Z</time>
      </trkpt>
      <trkpt lat="32.05301284145459" lon="118.8046182100718">
        <ele>20.005166079849005</ele>
        <time>2026-07-26T10:48:05Z</time>
      </trkpt>
      <trkpt lat="32.05315584525578" lon="118.80460216513036">
        <ele>16.969189669936895</ele>
        <time>2026-07-26T10:48:11Z</time>
      </trkpt>
      <trkpt lat="32.053207795468545" lon="118.80456709080427">
        <ele>19.408005740493536</ele>
        <time>2026-07-26T10:48:14Z</time>
      </trkpt>
      <trkpt lat="32.05332357599172" lon="118.80442680214959">
        <ele>19.56654455885291</ele>
        <time>2026-07-26T10:48:21Z</time>
      </trkpt>
      <trkpt lat="32.0533823265991" lon="118.80427649922487">
        <ele>20.1002817414701</ele>
        <time>2026-07-26T10:48:26Z</time>
      </trkpt>
      <trkpt lat="32.05339016751742" lon="118.80418431620109">
        <ele>20.507195498794317</ele>
        <time>2026-07-26T10:48:30Z</time>
      </trkpt>
      <trkpt lat="32.053324910223886" lon="118.80404504702207">
        <ele>19.659028079360723</ele>
        <time>2026-07-26T10:48:36Z</time>
      </trkpt>
      <trkpt lat="32.053192678393025" lon="118.80392882977229">
        <ele>16.047036197036505</ele>
        <time>2026-07-26T10:48:42Z</time>
      </trkpt>
      <trkpt lat="32.053012554581386" lon="118.80388075146509">
        <ele>19.952317263931036</ele>
        <time>2026-07-26T10:48:51Z</time>
      </trkpt>
      <trkpt lat="32.052743261128256" lon="118.80374651159707">
        <ele>13.30435660108924</ele>
        <time>2026-07-26T10:49:03Z</time>
      </trkpt>
      <trkpt lat="32.05254717738146" lon="118.8037234842277">
        <ele>20.25618078932166</ele>
        <time>2026-07-26T10:49:12Z</time>
      </trkpt>
      <trkpt lat="32.05248609762421" lon="118.80368541486958">
        <ele>19.71186926588416</ele>
        <time>2026-07-26T10:49:15Z</time>
      </trkpt>
      <trkpt lat="32.0522259630669" lon="118.80364135199684">
        <ele>17.99439337477088</ele>
        <time>2026-07-26T10:49:27Z</time>
      </trkpt>
      <trkpt lat="32.05212696186629" lon="118.8036533847585">
        <ele>19.42914679273963</ele>
        <time>2026-07-26T10:49:30Z</time>
      </trkpt>
      <trkpt lat="32.052044042567005" lon="118.80371050481355">
        <ele>20.538903262466192</ele>
        <time>2026-07-26T10:49:33Z</time>
      </trkpt>
      <trkpt lat="32.05191829844" lon="118.80387383819051">
        <ele>20.475487735122442</ele>
        <time>2026-07-26T10:49:39Z</time>
      </trkpt>
      <trkpt lat="32.051887432787176" lon="118.80395500111351">
        <ele>20.612885501235723</ele>
        <time>2026-07-26T10:49:42Z</time>
      </trkpt>
      <trkpt lat="32.05189055212152" lon="118.80402313530378">
        <ele>18.66552832350135</ele>
        <time>2026-07-26T10:49:45Z</time>
      </trkpt>
      <trkpt lat="32.0519368977967" lon="118.80421551115226">
        <ele>20.475487735122442</ele>
        <time>2026-07-26T10:49:48Z</time>
      </trkpt>
      <trkpt lat="32.05198103177893" lon="118.80428664780906">
        <ele>20.948456790298223</ele>
        <time>2026-07-26T10:49:51Z</time>
      </trkpt>
      <trkpt lat="32.052049127432646" lon="118.80433273276122">
        <ele>19.49256232008338</ele>
        <time>2026-07-26T10:49:54Z</time>
      </trkpt>
      <trkpt lat="32.052124182665864" lon="118.80435476949869">
        <ele>20.475487735122442</ele>
        <time>2026-07-26T10:49:57Z</time>
      </trkpt>
      <trkpt lat="32.05226920450614" lon="118.80434874427263">
        <ele>19.98402502760291</ele>
        <time>2026-07-26T10:50:03Z</time>
      </trkpt>
      <trkpt lat="32.05259149519166" lon="118.80447396271519">
        <ele>20.026299502700567</ele>
        <time>2026-07-26T10:50:18Z</time>
      </trkpt>
      <trkpt lat="32.052871710078826" lon="118.8045611097632">
        <ele>17.84906866773963</ele>
        <time>2026-07-26T10:50:30Z</time>
      </trkpt>
      <trkpt lat="32.0530658216954" lon="118.80460016942693">
        <ele>21.513901736587286</ele>
        <time>2026-07-26T10:50:39Z</time>
      </trkpt>
      <trkpt lat="32.05324481072454" lon="118.80457109535111">
        <ele>22.163903262466192</ele>
        <time>2026-07-26T10:50:48Z</time>
      </trkpt>
      <trkpt lat="32.05328875566355" lon="118.80453401780481">
        <ele>21.53504278883338</ele>
        <time>2026-07-26T10:50:51Z</time>
      </trkpt>
      <trkpt lat="32.05331356500788" lon="118.80442179314609">
        <ele>20.414711978286505</ele>
        <time>2026-07-26T10:50:54Z</time>
      </trkpt>
      <trkpt lat="32.05336836021642" lon="118.8042975421401">
        <ele>20.59174444898963</ele>
        <time>2026-07-26T10:51:00Z</time>
      </trkpt>
      <trkpt lat="32.053358123687694" lon="118.80416327755219">
        <ele>14.94785025343299</ele>
        <time>2026-07-26T10:51:06Z</time>
      </trkpt>
      <trkpt lat="32.05332799995046" lon="118.8040961476653">
        <ele>16.38260367140174</ele>
        <time>2026-07-26T10:51:09Z</time>
      </trkpt>
      <trkpt lat="32.0531747633561" lon="118.80397993224878">
        <ele>20.277314212173223</ele>
        <time>2026-07-26T10:51:18Z</time>
      </trkpt>
      <trkpt lat="32.053035625970516" lon="118.80391882443912">
        <ele>20.507195498794317</ele>
        <time>2026-07-26T10:51:25Z</time>
      </trkpt>
      <trkpt lat="32.05287841316373" lon="118.80381663737168">
        <ele>19.994591739028692</ele>
        <time>2026-07-26T10:51:31Z</time>
      </trkpt>
      <trkpt lat="32.05262928100104" lon="118.80377257339148">
        <ele>19.135857608169317</ele>
        <time>2026-07-26T10:51:43Z</time>
      </trkpt>
      <trkpt lat="32.052320015354496" lon="118.80365937885003">
        <ele>20.079148318618536</ele>
        <time>2026-07-26T10:51:58Z</time>
      </trkpt>
      <trkpt lat="32.05217499693752" lon="118.80366740795483">
        <ele>19.669594790786505</ele>
        <time>2026-07-26T10:52:04Z</time>
      </trkpt>
      <trkpt lat="32.052079027742465" lon="118.80369747595073">
        <ele>19.722435977309942</ele>
        <time>2026-07-26T10:52:07Z</time>
      </trkpt>
      <trkpt lat="32.052018116870244" lon="118.80375659797237">
        <ele>19.785851504653692</ele>
        <time>2026-07-26T10:52:10Z</time>
      </trkpt>
      <trkpt lat="32.05195237054206" lon="118.80391090817221">
        <ele>14.64399054273963</ele>
        <time>2026-07-26T10:52:16Z</time>
      </trkpt>
      <trkpt lat="32.05192167253008" lon="118.80408826105901">
        <ele>20.750283267349005</ele>
        <time>2026-07-26T10:52:22Z</time>
      </trkpt>
      <trkpt lat="32.05192981582789" lon="118.80416942068105">
        <ele>18.549267794936895</ele>
        <time>2026-07-26T10:52:25Z</time>
      </trkpt>
      <trkpt lat="32.05197897536194" lon="118.80425458456841">
        <ele>19.70130255445838</ele>
        <time>2026-07-26T10:52:28Z</time>
      </trkpt>
      <trkpt lat="32.052154261130866" lon="118.80439584807334">
        <ele>18.517563845962286</ele>
        <time>2026-07-26T10:52:37Z</time>
      </trkpt>
      <trkpt lat="32.05228527809348" lon="118.80438882214617">
        <ele>19.690728213638067</ele>
        <time>2026-07-26T10:52:43Z</time>
      </trkpt>
      <trkpt lat="32.0523773231225" lon="118.80440284146749">
        <ele>9.747853305190802</ele>
        <time>2026-07-26T10:52:46Z</time>
      </trkpt>
      <trkpt lat="32.05245241690231" lon="118.80444692189279">
        <ele>18.927117373794317</ele>
        <time>2026-07-26T10:52:49Z</time>
      </trkpt>
      <trkpt lat="32.05277064724821" lon="118.8045380733559">
        <ele>20.068573977798223</ele>
        <time>2026-07-26T10:53:04Z</time>
      </trkpt>
      <trkpt lat="32.05289878798798" lon="118.80460218874917">
        <ele>20.393578555434942</ele>
        <time>2026-07-26T10:53:10Z</time>
      </trkpt>
      <trkpt lat="32.05310087684937" lon="118.80462721987341">
        <ele>17.336464907974005</ele>
        <time>2026-07-26T10:53:20Z</time>
      </trkpt>
      <trkpt lat="32.05326477485759" lon="118.80454804781972">
        <ele>19.64845373854041</ele>
        <time>2026-07-26T10:53:26Z</time>
      </trkpt>
      <trkpt lat="32.05335057675221" lon="118.80442379371453">
        <ele>20.058007266372442</ele>
        <time>2026-07-26T10:53:32Z</time>
      </trkpt>
      <trkpt lat="32.053390296898236" lon="118.80425846281366">
        <ele>18.026101138442755</ele>
        <time>2026-07-26T10:53:38Z</time>
      </trkpt>
      <trkpt lat="32.05336402019604" lon="118.80410315821136">
        <ele>4.967980410903692</ele>
        <time>2026-07-26T10:53:44Z</time>
      </trkpt>
      <trkpt lat="32.053251764806575" lon="118.80397090737605">
        <ele>19.733010318130255</ele>
        <time>2026-07-26T10:53:50Z</time>
      </trkpt>
      <trkpt lat="32.05303651285977" lon="118.80385369592146">
        <ele>18.45678808912635</ele>
        <time>2026-07-26T10:53:59Z</time>
      </trkpt>
      <trkpt lat="32.05283239594116" lon="118.8038126337015">
        <ele>17.2307749055326</ele>
        <time>2026-07-26T10:54:08Z</time>
      </trkpt>
      <trkpt lat="32.05256213719945" lon="118.80369843352702">
        <ele>18.863701846450567</ele>
        <time>2026-07-26T10:54:20Z</time>
      </trkpt>
      <trkpt lat="32.05238200307806" lon="118.80364434357271">
        <ele>17.22020437940955</ele>
        <time>2026-07-26T10:54:29Z</time>
      </trkpt>
      <trkpt lat="32.05225194450673" lon="118.80362732200462">
        <ele>18.142357852309942</ele>
        <time>2026-07-26T10:54:35Z</time>
      </trkpt>
      <trkpt lat="32.05216794839018" lon="118.80364035535642">
        <ele>17.177929904311895</ele>
        <time>2026-07-26T10:54:38Z</time>
      </trkpt>
      <trkpt lat="32.05207900859393" lon="118.80368645425267">
        <ele>17.4923601411283</ele>
        <time>2026-07-26T10:54:41Z</time>
      </trkpt>
      <trkpt lat="32.052022082931195" lon="118.80373655813563">
        <ele>18.697236087173223</ele>
        <time>2026-07-26T10:54:44Z</time>
      </trkpt>
      <trkpt lat="32.05196045779774" lon="118.8039600042886">
        <ele>18.142357852309942</ele>
        <time>2026-07-26T10:54:53Z</time>
      </trkpt>
      <trkpt lat="32.05195460829858" lon="118.80404717689825">
        <ele>13.608216311782598</ele>
        <time>2026-07-26T10:54:56Z</time>
      </trkpt>
      <trkpt lat="32.0520129584646" lon="118.80424055370061">
        <ele>18.697236087173223</ele>
        <time>2026-07-26T10:55:02Z</time>
      </trkpt>
      <trkpt lat="32.05208615843731" lon="118.80434575514136">
        <ele>18.047238375991583</ele>
        <time>2026-07-26T10:55:08Z</time>
      </trkpt>
      <trkpt lat="32.05241439967118" lon="118.80444191546104">
        <ele>17.524067904800177</ele>
        <time>2026-07-26T10:55:23Z</time>
      </trkpt>
      <trkpt lat="32.052572476940504" lon="118.80446594857955">
        <ele>13.021634127944708</ele>
        <time>2026-07-26T10:55:29Z</time>
      </trkpt>
      <trkpt lat="32.052652580632596" lon="118.80451503851941">
        <ele>17.241345431655645</ele>
        <time>2026-07-26T10:55:32Z</time>
      </trkpt>
      <trkpt lat="32.053016828314654" lon="118.80461019380398">
        <ele>14.007199313491583</ele>
        <time>2026-07-26T10:55:47Z</time>
      </trkpt>
      <trkpt lat="32.05314585179667" lon="118.80460717598629">
        <ele>17.14622214064002</ele>
        <time>2026-07-26T10:55:53Z</time>
      </trkpt>
      <trkpt lat="32.053285783041716" lon="118.80455004986274">
        <ele>15.315125491470098</ele>
        <time>2026-07-26T10:55:59Z</time>
      </trkpt>
      <trkpt lat="32.05336854223759" lon="118.80440174840498">
        <ele>17.407807376235723</ele>
        <time>2026-07-26T10:56:05Z</time>
      </trkpt>
      <trkpt lat="32.05339641019427" lon="118.80432258913366">
        <ele>17.061669375747442</ele>
        <time>2026-07-26T10:56:08Z</time>
      </trkpt>
      <trkpt lat="32.05340025016154" lon="118.8042304064091">
        <ele>15.283417727798223</ele>
        <time>2026-07-26T10:56:11Z</time>
      </trkpt>
      <trkpt lat="32.053373102564365" lon="118.80414924845074">
        <ele>16.372036959975958</ele>
        <time>2026-07-26T10:56:14Z</time>
      </trkpt>
      <trkpt lat="32.05330290357734" lon="118.8040440470658">
        <ele>9.026513125747442</ele>
        <time>2026-07-26T10:56:20Z</time>
      </trkpt>
      <trkpt lat="32.05322374810018" lon="118.80396489808695">
        <ele>17.545205142349005</ele>
        <time>2026-07-26T10:56:23Z</time>
      </trkpt>
      <trkpt lat="32.052959530566454" lon="118.80387374250725">
        <ele>16.49622442945838</ele>
        <time>2026-07-26T10:56:35Z</time>
      </trkpt>
      <trkpt lat="32.052600264084376" lon="118.80376656421402">
        <ele>16.697033908218145</ele>
        <time>2026-07-26T10:56:53Z</time>
      </trkpt>
      <trkpt lat="32.05234102351839" lon="118.80366138086382">
        <ele>16.59134390577674</ele>
        <time>2026-07-26T10:57:05Z</time>
      </trkpt>
      <trkpt lat="32.05220593772667" lon="118.80362933017588">
        <ele>17.817360904067755</ele>
        <time>2026-07-26T10:57:11Z</time>
      </trkpt>
      <trkpt lat="32.05216094682879" lon="118.80364035599986">
        <ele>15.95191290602088</ele>
        <time>2026-07-26T10:57:14Z</time>
      </trkpt>
      <trkpt lat="32.05204311373907" lon="118.8037515858066">
        <ele>16.131588961929083</ele>
        <time>2026-07-26T10:57:20Z</time>
      </trkpt>
      <trkpt lat="32.05191858629973" lon="118.80403916438038">
        <ele>15.241143252700567</ele>
        <time>2026-07-26T10:57:32Z</time>
      </trkpt>
      <trkpt lat="32.05193979708824" lon="118.8041573959986">
        <ele>15.523865725845098</ele>
        <time>2026-07-26T10:57:35Z</time>
      </trkpt>
      <trkpt lat="32.05201807852183" lon="118.80430868802252">
        <ele>15.272851016372442</ele>
        <time>2026-07-26T10:57:41Z</time>
      </trkpt>
      <trkpt lat="32.05220830119104" lon="118.80441187485714">
        <ele>15.80658819898963</ele>
        <time>2026-07-26T10:57:50Z</time>
      </trkpt>
      <trkpt lat="32.05249652832799" lon="118.80450503299753">
        <ele>14.979558017104864</ele>
        <time>2026-07-26T10:58:02Z</time>
      </trkpt>
      <trkpt lat="32.05280276483799" lon="118.80460119558438">
        <ele>14.488095309585333</ele>
        <time>2026-07-26T10:58:17Z</time>
      </trkpt>
      <trkpt lat="32.053112877769024" lon="118.80462621678286">
        <ele>15.209435489028692</ele>
        <time>2026-07-26T10:58:29Z</time>
      </trkpt>
      <trkpt lat="32.053195882229176" lon="118.80461819325375">
        <ele>15.587281253188848</ele>
        <time>2026-07-26T10:58:32Z</time>
      </trkpt>
      <trkpt lat="32.053309769105674" lon="118.80453902580633">
        <ele>14.791955020278692</ele>
        <time>2026-07-26T10:58:38Z</time>
      </trkpt>
      <trkpt lat="32.05335065206885" lon="118.804466879063">
        <ele>12.049275424331427</ele>
        <time>2026-07-26T10:58:41Z</time>
      </trkpt>
      <trkpt lat="32.053395380226604" lon="118.80430555551891">
        <ele>15.785450961440802</ele>
        <time>2026-07-26T10:58:47Z</time>
      </trkpt>
      <trkpt lat="32.053391230672446" lon="118.80422038742314">
        <ele>16.28748419508338</ele>
        <time>2026-07-26T10:58:50Z</time>
      </trkpt>
      <trkpt lat="32.05331795231597" lon="118.80407009713025">
        <ele>13.922646548599005</ele>
        <time>2026-07-26T10:58:56Z</time>
      </trkpt>
      <trkpt lat="32.05315266076038" lon="118.80392382356673">
        <ele>15.336262729018927</ele>
        <time>2026-07-26T10:59:05Z</time>
      </trkpt>
      <trkpt lat="32.05286344641817" lon="118.80383768022133">
        <ele>14.300492312759161</ele>
        <time>2026-07-26T10:59:17Z</time>
      </trkpt>
      <trkpt lat="32.052579219343556" lon="118.80374352075133">
        <ele>15.29398825392127</ele>
        <time>2026-07-26T10:59:32Z</time>
      </trkpt>
      <trkpt lat="32.05230301504384" lon="118.80366138435672">
        <ele>14.466958072036505</ele>
        <time>2026-07-26T10:59:45Z</time>
      </trkpt>
      <trkpt lat="32.05223896770643" lon="118.80364235277362">
        <ele>14.844800021499395</ele>
        <time>2026-07-26T10:59:48Z</time>
      </trkpt>
      <trkpt lat="32.052177964541364" lon="118.80364837021133">
        <ele>15.785450961440802</ele>
        <time>2026-07-26T10:59:51Z</time>
      </trkpt>
      <trkpt lat="32.05211700488614" lon="118.803679436953">
        <ele>14.88443472608924</ele>
        <time>2026-07-26T10:59:54Z</time>
      </trkpt>
      <trkpt lat="32.05201014121288" lon="118.80377162831387">
        <ele>15.032403018325567</ele>
        <time>2026-07-26T11:00:00Z</time>
      </trkpt>
      <trkpt lat="32.051918533932444" lon="118.80400910503992">
        <ele>15.460450198501348</ele>
        <time>2026-07-26T11:00:09Z</time>
      </trkpt>
      <trkpt lat="32.05190267702347" lon="118.80409327270078">
        <ele>7.46757223829627</ele>
        <time>2026-07-26T11:00:12Z</time>
      </trkpt>
      <trkpt lat="32.05192479898403" lon="118.80416040331784">
        <ele>15.386467959731817</ele>
        <time>2026-07-26T11:00:15Z</time>
      </trkpt>
      <trkpt lat="32.0520541092993" lon="118.8043217104895">
        <ele>15.042973544448614</ele>
        <time>2026-07-26T11:00:21Z</time>
      </trkpt>
      <trkpt lat="32.052179266707206" lon="118.80439584577576">
        <ele>14.300492312759161</ele>
        <time>2026-07-26T11:00:27Z</time>
      </trkpt>
      <trkpt lat="32.05224930858451" lon="118.80441086910481">
        <ele>14.958420779556036</ele>
        <time>2026-07-26T11:00:30Z</time>
      </trkpt>
      <trkpt lat="32.0523022993931" lon="118.80439884042381">
        <ele>15.138093020766973</ele>
        <time>2026-07-26T11:00:33Z</time>
      </trkpt>
      <trkpt lat="32.05260852876688" lon="118.80449099490507">
        <ele>14.88443472608924</ele>
        <time>2026-07-26T11:00:45Z</time>
      </trkpt>
      <trkpt lat="32.05291679199951" lon="118.80460218709494">
        <ele>14.665127780288458</ele>
        <time>2026-07-26T11:01:00Z</time>
      </trkpt>
      <trkpt lat="32.0531028948366" lon="118.80463723956775">
        <ele>14.813096072524786</ele>
        <time>2026-07-26T11:01:09Z</time>
      </trkpt>
      <trkpt lat="32.053276772271914" lon="118.80454504075749">
        <ele>13.536877658218145</ele>
        <time>2026-07-26T11:01:18Z</time>
      </trkpt>
      <trkpt lat="32.05336755952493" lon="118.80441176833922">
        <ele>15.042973544448614</ele>
        <time>2026-07-26T11:01:24Z</time>
      </trkpt>
      <trkpt lat="32.05339143532951" lon="118.80433761933826">
        <ele>13.544800784438848</ele>
        <time>2026-07-26T11:01:27Z</time>
      </trkpt>
      <trkpt lat="32.05337618013041" lon="118.80419333531438">
        <ele>12.625290896743536</ele>
        <time>2026-07-26T11:01:33Z</time>
      </trkpt>
      <trkpt lat="32.05330290357734" lon="118.8040440470658">
        <ele>14.583214785903692</ele>
        <time>2026-07-26T11:01:39Z</time>
      </trkpt>
      <trkpt lat="32.05303156055875" lon="118.80388175169438">
        <ele>15.449883487075567</ele>
        <time>2026-07-26T11:01:54Z</time>
      </trkpt>
      <trkpt lat="32.05271328230795" lon="118.80376254593223">
        <ele>14.038907077163458</ele>
        <time>2026-07-26T11:02:10Z</time>
      </trkpt>
      <trkpt lat="32.05241704394707" lon="118.8036633778221">
        <ele>16.80008414015174</ele>
        <time>2026-07-26T11:02:25Z</time>
      </trkpt>
      <trkpt lat="32.052240952492625" lon="118.8036333348449">
        <ele>15.138093020766973</ele>
        <time>2026-07-26T11:02:34Z</time>
      </trkpt>
      <trkpt lat="32.052097009127905" lon="118.80368444865327">
        <ele>14.707402255386114</ele>
        <time>2026-07-26T11:02:40Z</time>
      </trkpt>
      <trkpt lat="32.05204406694308" lon="118.8037245324352">
        <ele>14.88443472608924</ele>
        <time>2026-07-26T11:02:43Z</time>
      </trkpt>
      <trkpt lat="32.051938557594575" lon="118.80402012495819">
        <ele>12.51960089430213</ele>
        <time>2026-07-26T11:02:55Z</time>
      </trkpt>
      <trkpt lat="32.05194485587838" lon="118.80419046089396">
        <ele>14.813096072524786</ele>
        <time>2026-07-26T11:03:01Z</time>
      </trkpt>
      <trkpt lat="32.05197998782741" lon="118.80426159834919">
        <ele>12.477322604507208</ele>
        <time>2026-07-26T11:03:04Z</time>
      </trkpt>
      <trkpt lat="32.052079209386605" lon="118.80437581528868">
        <ele>15.159230258315802</ele>
        <time>2026-07-26T11:03:10Z</time>
      </trkpt>
      <trkpt lat="32.05215129723275" lon="118.80441689001724">
        <ele>15.241143252700567</ele>
        <time>2026-07-26T11:03:13Z</time>
      </trkpt>
      <trkpt lat="32.05244140394033" lon="118.80444091099488">
        <ele>13.180169131606817</ele>
        <time>2026-07-26T11:03:25Z</time>
      </trkpt>
      <trkpt lat="32.05270359901185" lon="118.80451904177629">
        <ele>13.85923483595252</ele>
        <time>2026-07-26T11:03:37Z</time>
      </trkpt>
      <trkpt lat="32.05295281756044" lon="118.80461220366064">
        <ele>14.424679782241583</ele>
        <time>2026-07-26T11:03:50Z</time>
      </trkpt>
      <trkpt lat="32.05312291157274" lon="118.80464425164536">
        <ele>15.50272848829627</ele>
        <time>2026-07-26T11:03:56Z</time>
      </trkpt>
      <trkpt lat="32.05331179759877" lon="118.804555057406">
        <ele>15.01126578077674</ele>
        <time>2026-07-26T11:04:05Z</time>
      </trkpt>
      <trkpt lat="32.05339442199789" lon="118.80432960319806">
        <ele>12.834031131118536</ele>
        <time>2026-07-26T11:04:14Z</time>
      </trkpt>
      <trkpt lat="32.053402117760776" lon="118.8041542556859">
        <ele>14.37183478102088</ele>
        <time>2026-07-26T11:04:20Z</time>
      </trkpt>
      <trkpt lat="32.0532918574849" lon="118.80401899862272">
        <ele>12.123257663100958</ele>
        <time>2026-07-26T11:04:26Z</time>
      </trkpt>
      <trkpt lat="32.05317067698004" lon="118.80393083574744">
        <ele>15.159230258315802</ele>
        <time>2026-07-26T11:04:32Z</time>
      </trkpt>
      <trkpt lat="32.052878451504164" lon="118.80383868081756">
        <ele>14.37183478102088</ele>
        <time>2026-07-26T11:04:47Z</time>
      </trkpt>
      <trkpt lat="32.052590247920506" lon="118.80375854934334">
        <ele>13.975491549819708</ele>
        <time>2026-07-26T11:05:02Z</time>
      </trkpt>
      <trkpt lat="32.052311025529825" lon="118.8036663934818">
        <ele>11.914521243423223</ele>
        <time>2026-07-26T11:05:14Z</time>
      </trkpt>
      <trkpt lat="32.052117952897966" lon="118.80364937769826">
        <ele>14.456387545913458</ele>
        <time>2026-07-26T11:05:23Z</time>
      </trkpt>
      <trkpt lat="32.05205803698512" lon="118.80370549366265">
        <ele>14.781388308852911</ele>
        <time>2026-07-26T11:05:26Z</time>
      </trkpt>
      <trkpt lat="32.05201916760923" lon="118.80378565512243">
        <ele>14.477524783462286</ele>
        <time>2026-07-26T11:05:29Z</time>
      </trkpt>
      <trkpt lat="32.05196844039225" lon="118.80394898180768">
        <ele>14.87650778517127</ele>
        <time>2026-07-26T11:05:35Z</time>
      </trkpt>
      <trkpt lat="32.05194569360383" lon="118.80409727666542">
        <ele>14.863297488540411</ele>
        <time>2026-07-26T11:05:41Z</time>
      </trkpt>
      <trkpt lat="32.05201199496653" lon="118.80426159540822">
        <ele>14.791955020278692</ele>
        <time>2026-07-26T11:05:47Z</time>
      </trkpt>
      <trkpt lat="32.05206510125459" lon="118.80431569758181">
        <ele>-16.582404110580683</ele>
        <time>2026-07-26T11:05:50Z</time>
      </trkpt>
      <trkpt lat="32.05222423297727" lon="118.80437079204432">
        <ele>14.300492312759161</ele>
        <time>2026-07-26T11:05:59Z</time>
      </trkpt>
    </trkseg>
  </trk>
</gpx>