<?xml version="1.0" encoding="UTF-8"?>
<gpx xmlns="http://www.topografix.com/GPX/1/1" xmlns:gpxtpx="http://www.garmin.com/xmlschemas/TrackPointExtension/v1" xmlns:xsi="http://www.w3.org/2001/XMLSchema-instance" xsi:schemaLocation="http://www.topografix.com/GPX/1/1 http://www.topografix.com/GPX/1/1/gpx.xsd" version="1.1" creator="gpx.py -- https://github.com/tkrajina/gpxpy">
  <trk>
    <name>gpx from keep</name>
    <type>Run</type>
    <trkseg>
      <trkpt lat="31.22970748622106" lon="121.40005088628632">
        <ele>11.388873416930437</ele>
        <time>2026-07-13T09:20:53Z</time>
      </trkpt>
      <trkpt lat="31.229824454040333" lon="121.40025790588903">
        <ele>-12.50520769879222</ele>
        <time>2026-07-13T09:20:53Z</time>
      </trkpt>
      <trkpt lat="31.23001138001426" lon="121.4003699066501">
        <ele>13.766925174742937</ele>
        <time>2026-07-13T09:20:53Z</time>
      </trkpt>
      <trkpt lat="31.230124332157228" lon="121.40040890289517">
        <ele>13.957164127379656</ele>
        <time>2026-07-13T09:20:53Z</time>
      </trkpt>
      <trkpt lat="31.230394198977102" lon="121.40034086877584">
        <ele>-9.442814510315657</ele>
        <time>2026-07-13T09:20:53Z</time>
      </trkpt>
      <trkpt lat="31.230458167118417" lon="121.40032186028347">
        <ele>15.870173770934343</ele>
        <time>2026-07-13T09:20:53Z</time>
      </trkpt>
      <trkpt lat="31.23068704820729" lon="121.40020782324174">
        <ele>-33.00661150738597</ele>
        <time>2026-07-13T09:20:53Z</time>
      </trkpt>
      <trkpt lat="31.230982900347904" lon="121.40010778301775">
        <ele>4.513675052672625</ele>
        <time>2026-07-13T09:20:53Z</time>
      </trkpt>
      <trkpt lat="31.2310968336916" lon="121.39997175431557">
        <ele>14.472407657653093</ele>
        <time>2026-07-13T09:20:53Z</time>
      </trkpt>
      <trkpt lat="31.23117177971241" lon="121.39976772145414">
        <ele>6.680346805602312</ele>
        <time>2026-07-13T09:20:53Z</time>
      </trkpt>
      <trkpt lat="31.231174771450277" lon="121.39968971170563">
        <ele>17.450251895934343</ele>
        <time>2026-07-13T09:20:53Z</time>
      </trkpt>
      <trkpt lat="31.231151768606534" lon="121.3995266949164">
        <ele>14.998217899352312</ele>
        <time>2026-07-13T09:20:53Z</time>
      </trkpt>
      <trkpt lat="31.231083790839236" lon="121.39940568779473">
        <ele>14.955943424254656</ele>
        <time>2026-07-13T09:20:53Z</time>
      </trkpt>
      <trkpt lat="31.231007820414234" lon="121.39932768641528">
        <ele>13.272815067321062</ele>
        <time>2026-07-13T09:20:53Z</time>
      </trkpt>
      <trkpt lat="31.230934851448882" lon="121.3992876887982">
        <ele>14.556964237242937</ele>
        <time>2026-07-13T09:20:53Z</time>
      </trkpt>
      <trkpt lat="31.230717951105827" lon="121.3992747064421">
        <ele>13.07200177386403</ele>
        <time>2026-07-13T09:20:53Z</time>
      </trkpt>
      <trkpt lat="31.23041709680042" lon="121.39936274149652">
        <ele>13.050868351012468</ele>
        <time>2026-07-13T09:20:53Z</time>
      </trkpt>
      <trkpt lat="31.23015522512832" lon="121.39945477398487">
        <ele>15.944156009703875</ele>
        <time>2026-07-13T09:20:53Z</time>
      </trkpt>
      <trkpt lat="31.230019292401927" lon="121.39950879171032">
        <ele>13.18826611712575</ele>
        <time>2026-07-13T09:20:53Z</time>
      </trkpt>
      <trkpt lat="31.229882358359696" lon="121.39953880698091">
        <ele>-11.194637935608625</ele>
        <time>2026-07-13T09:20:53Z</time>
      </trkpt>
      <trkpt lat="31.229777420598744" lon="121.39970083491237">
        <ele>1.8661225624382496</ele>
        <time>2026-07-13T09:20:53Z</time>
      </trkpt>
      <trkpt lat="31.229730452337613" lon="121.39981185267092">
        <ele>0.2067750282585621</ele>
        <time>2026-07-13T09:20:53Z</time>
      </trkpt>
      <trkpt lat="31.2297154669786" lon="121.39989386448593">
        <ele>12.715297061949968</ele>
        <time>2026-07-13T09:20:53Z</time>
      </trkpt>
      <trkpt lat="31.229756470006706" lon="121.40011389084641">
        <ele>12.210620243102312</ele>
        <time>2026-07-13T09:20:53Z</time>
      </trkpt>
      <trkpt lat="31.229785464446294" lon="121.40018789895875">
        <ele>14.493548709899187</ele>
        <time>2026-07-13T09:20:53Z</time>
      </trkpt>
      <trkpt lat="31.22983744655865" lon="121.4002449028176">
        <ele>14.303302127867937</ele>
        <time>2026-07-13T09:20:53Z</time>
      </trkpt>
      <trkpt lat="31.230050360057056" lon="121.40035390077163">
        <ele>16.43825848773122</ele>
        <time>2026-07-13T09:20:53Z</time>
      </trkpt>
      <trkpt lat="31.23031223436756" lon="121.40031787240204">
        <ele>15.32322247698903</ele>
        <time>2026-07-13T09:20:53Z</time>
      </trkpt>
      <trkpt lat="31.23056010773197" lon="121.40021383519628">
        <ele>14.430133182555437</ele>
        <time>2026-07-13T09:20:53Z</time>
      </trkpt>
      <trkpt lat="31.230699044951656" lon="121.40022882528967">
        <ele>13.661227542907</ele>
        <time>2026-07-13T09:20:53Z</time>
      </trkpt>
      <trkpt lat="31.230839975020796" lon="121.40018680683093">
        <ele>13.26224835589528</ele>
        <time>2026-07-13T09:20:53Z</time>
      </trkpt>
      <trkpt lat="31.231069854350093" lon="121.40005276772742">
        <ele>11.737658817321062</ele>
        <time>2026-07-13T09:20:53Z</time>
      </trkpt>
      <trkpt lat="31.23112682059154" lon="121.39997975277666">
        <ele>13.650660831481218</ele>
        <time>2026-07-13T09:20:53Z</time>
      </trkpt>
      <trkpt lat="31.231177776754656" lon="121.39976572068375">
        <ele>15.376063663512468</ele>
        <time>2026-07-13T09:20:53Z</time>
      </trkpt>
      <trkpt lat="31.231183765649668" lon="121.39967070865835">
        <ele>-11.678173702210188</ele>
        <time>2026-07-13T09:20:53Z</time>
      </trkpt>
      <trkpt lat="31.23114876960035" lon="121.39952169462349">
        <ele>5.512454349547625</ele>
        <time>2026-07-13T09:20:53Z</time>
      </trkpt>
      <trkpt lat="31.231043808701664" lon="121.39939669034229">
        <ele>17.080333072692156</ele>
        <time>2026-07-13T09:20:53Z</time>
      </trkpt>
      <trkpt lat="31.230825902153807" lon="121.39929069859753">
        <ele>14.92423566058278</ele>
        <time>2026-07-13T09:20:53Z</time>
      </trkpt>
      <trkpt lat="31.230765929407443" lon="121.39928270304128">
        <ele>14.430133182555437</ele>
        <time>2026-07-13T09:20:53Z</time>
      </trkpt>
      <trkpt lat="31.230526044973665" lon="121.39934473015784">
        <ele>4.883593875914812</ele>
        <time>2026-07-13T09:20:53Z</time>
      </trkpt>
      <trkpt lat="31.23034713306236" lon="121.39941475299683">
        <ele>2.539897281676531</ele>
        <time>2026-07-13T09:20:53Z</time>
      </trkpt>
      <trkpt lat="31.230075262932907" lon="121.39946378192718">
        <ele>9.319972354918718</ele>
        <time>2026-07-13T09:20:53Z</time>
      </trkpt>
      <trkpt lat="31.229884358551562" lon="121.39955280837488">
        <ele>15.05106671527028</ele>
        <time>2026-07-13T09:20:53Z</time>
      </trkpt>
      <trkpt lat="31.229766426664337" lon="121.39971183719632">
        <ele>-114.8114058189094</ele>
        <time>2026-07-13T09:20:53Z</time>
      </trkpt>
      <trkpt lat="31.229742443129403" lon="121.39977184662732">
        <ele>16.29293378069997</ele>
        <time>2026-07-13T09:20:53Z</time>
      </trkpt>
      <trkpt lat="31.22971147940019" lon="121.40000187921231">
        <ele>7.19559033587575</ele>
        <time>2026-07-13T09:20:53Z</time>
      </trkpt>
      <trkpt lat="31.229795459803494" lon="121.4001878980869">
        <ele>15.598018009215593</ele>
        <time>2026-07-13T09:20:53Z</time>
      </trkpt>
      <trkpt lat="31.229886429077236" lon="121.40029190559417">
        <ele>-38.06392351910472</ele>
        <time>2026-07-13T09:20:53Z</time>
      </trkpt>
      <trkpt lat="31.229977394630474" lon="121.40035990806395">
        <ele>10.707171756774187</ele>
        <time>2026-07-13T09:20:53Z</time>
      </trkpt>
      <trkpt lat="31.230183301256314" lon="121.40037889305401">
        <ele>16.81875165179372</ele>
        <time>2026-07-13T09:20:53Z</time>
      </trkpt>
      <trkpt lat="31.230419178083494" lon="121.40025885416269">
        <ele>12.411433536559343</ele>
        <time>2026-07-13T09:20:53Z</time>
      </trkpt>
      <trkpt lat="31.23063107679991" lon="121.40023183166237">
        <ele>14.419566471129656</ele>
        <time>2026-07-13T09:20:53Z</time>
      </trkpt>
      <trkpt lat="31.230776003162404" lon="121.40017281037653">
        <ele>13.272815067321062</ele>
        <time>2026-07-13T09:20:53Z</time>
      </trkpt>
      <trkpt lat="31.23093292625161" lon="121.40013379107484">
        <ele>12.07322247698903</ele>
        <time>2026-07-13T09:20:53Z</time>
      </trkpt>
      <trkpt lat="31.2311288196654" lon="121.39997975260228">
        <ele>1.950671512633562</ele>
        <time>2026-07-13T09:20:53Z</time>
      </trkpt>
      <trkpt lat="31.23117779023455" lon="121.3999107391533">
        <ele>12.937251407653093</ele>
        <time>2026-07-13T09:20:53Z</time>
      </trkpt>
      <trkpt lat="31.231219756860256" lon="121.39976071640459">
        <ele>9.26713116839528</ele>
        <time>2026-07-13T09:20:56Z</time>
      </trkpt>
      <trkpt lat="31.231196754577265" lon="121.39961070050434">
        <ele>12.231761295348406</ele>
        <time>2026-07-13T09:20:56Z</time>
      </trkpt>
      <trkpt lat="31.231082787809687" lon="121.3993576829175">
        <ele>12.00980694964528</ele>
        <time>2026-07-13T09:20:56Z</time>
      </trkpt>
      <trkpt lat="31.23083489908928" lon="121.39930669939804">
        <ele>14.7868378944695</ele>
        <time>2026-07-13T09:20:56Z</time>
      </trkpt>
      <trkpt lat="31.230540038982145" lon="121.39935172964888">
        <ele>16.070987064391375</ele>
        <time>2026-07-13T09:20:56Z</time>
      </trkpt>
      <trkpt lat="31.23023818511262" lon="121.39943476461382">
        <ele>11.370379764586687</ele>
        <time>2026-07-13T09:20:57Z</time>
      </trkpt>
      <trkpt lat="31.22997831404033" lon="121.39954179894629">
        <ele>15.0405000038445</ele>
        <time>2026-07-13T09:20:57Z</time>
      </trkpt>
      <trkpt lat="31.229863370811277" lon="121.39958381371515">
        <ele>12.937251407653093</ele>
        <time>2026-07-13T09:20:57Z</time>
      </trkpt>
      <trkpt lat="31.229801403148247" lon="121.39962682407196">
        <ele>-2.0285917930305004</ele>
        <time>2026-07-13T09:20:57Z</time>
      </trkpt>
      <trkpt lat="31.229735444677278" lon="121.3997528448933">
        <ele>15.502894718199968</ele>
        <time>2026-07-13T09:20:57Z</time>
      </trkpt>
      <trkpt lat="31.229713467907295" lon="121.3998938646603">
        <ele>11.94639142230153</ele>
        <time>2026-07-13T09:20:57Z</time>
      </trkpt>
      <trkpt lat="31.229724478737033" lon="121.40005488535876">
        <ele>14.07078107073903</ele>
        <time>2026-07-13T09:20:57Z</time>
      </trkpt>
      <trkpt lat="31.229805466453826" lon="121.40028991235386">
        <ele>13.671801883727312</ele>
        <time>2026-07-13T09:20:57Z</time>
      </trkpt>
      <trkpt lat="31.230062359039188" lon="121.40039290578966">
        <ele>10.812861759215593</ele>
        <time>2026-07-13T09:20:57Z</time>
      </trkpt>
      <trkpt lat="31.23026626216957" lon="121.40037388503927">
        <ele>10.223635990172625</ele>
        <time>2026-07-13T09:20:57Z</time>
      </trkpt>
      <trkpt lat="31.23033622449552" lon="121.40032887199106">
        <ele>11.359813053160906</ele>
        <time>2026-07-13T09:20:57Z</time>
      </trkpt>
      <trkpt lat="31.230390198993884" lon="121.40032486667079">
        <ele>11.462855655699968</ele>
        <time>2026-07-13T09:20:57Z</time>
      </trkpt>
      <trkpt lat="31.23062208274377" lon="121.40024783482262">
        <ele>10.80228741839528</ele>
        <time>2026-07-13T09:20:58Z</time>
      </trkpt>
      <trkpt lat="31.230770012821413" lon="121.40023582013586">
        <ele>10.905337650328875</ele>
        <time>2026-07-13T09:20:58Z</time>
      </trkpt>
      <trkpt lat="31.231024878597072" lon="121.40008577625478">
        <ele>12.00980694964528</ele>
        <time>2026-07-13T09:20:58Z</time>
      </trkpt>
      <trkpt lat="31.231090842787488" lon="121.40003476340938">
        <ele>11.032168705016375</ele>
        <time>2026-07-13T09:20:58Z</time>
      </trkpt>
      <trkpt lat="31.231170791847145" lon="121.3998937375411">
        <ele>10.72830517962575</ele>
        <time>2026-07-13T09:20:58Z</time>
      </trkpt>
      <trkpt lat="31.23120276206508" lon="121.39973071421122">
        <ele>11.13785870745778</ele>
        <time>2026-07-13T09:20:58Z</time>
      </trkpt>
      <trkpt lat="31.231170761161202" lon="121.39954369515486">
        <ele>11.2541230507195</ele>
        <time>2026-07-13T09:20:58Z</time>
      </trkpt>
      <trkpt lat="31.231093784376394" lon="121.39938068432213">
        <ele>11.705951053649187</ele>
        <time>2026-07-13T09:20:58Z</time>
      </trkpt>
      <trkpt lat="31.230959839252396" lon="121.39927868573412">
        <ele>11.85391553118825</ele>
        <time>2026-07-13T09:20:59Z</time>
      </trkpt>
      <trkpt lat="31.230908862401435" lon="121.39927168949586">
        <ele>11.872409183532</ele>
        <time>2026-07-13T09:20:59Z</time>
      </trkpt>
      <trkpt lat="31.23086788317651" lon="121.39929769562747">
        <ele>18.039477664977312</ele>
        <time>2026-07-13T09:20:59Z</time>
      </trkpt>
      <trkpt lat="31.23066797633987" lon="121.39930471375962">
        <ele>15.45005353167653</ele>
        <time>2026-07-13T09:20:59Z</time>
      </trkpt>
      <trkpt lat="31.230513052360145" lon="121.39936373322897">
        <ele>9.782374698668718</ele>
        <time>2026-07-13T09:20:59Z</time>
      </trkpt>
      <trkpt lat="31.230357126290755" lon="121.39938574909749">
        <ele>16.554522830992937</ele>
        <time>2026-07-13T09:20:59Z</time>
      </trkpt>
      <trkpt lat="31.23017921483239" lon="121.39946577307535">
        <ele>5.953715641051531</ele>
        <time>2026-07-13T09:20:59Z</time>
      </trkpt>
      <trkpt lat="31.229894354231327" lon="121.39955680795302">
        <ele>-1.000744502991438</ele>
        <time>2026-07-13T09:20:59Z</time>
      </trkpt>
      <trkpt lat="31.229815395897933" lon="121.39961782180701">
        <ele>14.65207989886403</ele>
        <time>2026-07-13T09:20:59Z</time>
      </trkpt>
      <trkpt lat="31.229757429624314" lon="121.39969783629583">
        <ele>14.155337650328875</ele>
        <time>2026-07-13T09:20:59Z</time>
      </trkpt>
      <trkpt lat="31.22972248484903" lon="121.4001048925362">
        <ele>-8.496876399964094</ele>
        <time>2026-07-13T09:20:59Z</time>
      </trkpt>
      <trkpt lat="31.2297374850034" lon="121.40017190081855">
        <ele>-2.081440608948469</ele>
        <time>2026-07-13T09:20:59Z</time>
      </trkpt>
      <trkpt lat="31.229788471424047" lon="121.40026390992516">
        <ele>15.376063663512468</ele>
        <time>2026-07-13T09:20:59Z</time>
      </trkpt>
      <trkpt lat="31.229940411919312" lon="121.40036091144462">
        <ele>14.807978946715593</ele>
        <time>2026-07-13T09:20:59Z</time>
      </trkpt>
      <trkpt lat="31.230102338837213" lon="121.4003789001161">
        <ele>12.104930240660906</ele>
        <time>2026-07-13T09:20:59Z</time>
      </trkpt>
      <trkpt lat="31.230386199022035" lon="121.40030886457919">
        <ele>14.733996707946062</ele>
        <time>2026-07-13T09:21:00Z</time>
      </trkpt>
      <trkpt lat="31.230590095915392" lon="121.40023283538514">
        <ele>12.916110355407</ele>
        <time>2026-07-13T09:21:00Z</time>
      </trkpt>
      <trkpt lat="31.23071803504562" lon="121.40021882215679">
        <ele>12.662448246032</ele>
        <time>2026-07-13T09:21:00Z</time>
      </trkpt>
      <trkpt lat="31.230985894694406" lon="121.40006677699748">
        <ele>13.114283878356218</ele>
        <time>2026-07-13T09:21:00Z</time>
      </trkpt>
      <trkpt lat="31.231154804179923" lon="121.39994474564925">
        <ele>1.047015506774187</ele>
        <time>2026-07-13T09:21:00Z</time>
      </trkpt>
      <trkpt lat="31.231190771905975" lon="121.39977872116114">
        <ele>0.7114442177116871</ele>
        <time>2026-07-13T09:21:00Z</time>
      </trkpt>
      <trkpt lat="31.231186763407347" lon="121.39966070721358">
        <ele>15.093341190367937</ele>
        <time>2026-07-13T09:21:00Z</time>
      </trkpt>
      <trkpt lat="31.23108179198713" lon="121.3994086882834">
        <ele>2.3073762245476246</ele>
        <time>2026-07-13T09:21:00Z</time>
      </trkpt>
      <trkpt lat="31.231036808898757" lon="121.39935468662195">
        <ele>6.532374698668718</ele>
        <time>2026-07-13T09:21:00Z</time>
      </trkpt>
      <trkpt lat="31.230979832821955" lon="121.39931968805348">
        <ele>14.535823184996843</ele>
        <time>2026-07-13T09:21:00Z</time>
      </trkpt>
      <trkpt lat="31.230756934195327" lon="121.39929170471223">
        <ele>2.508189518004656</ele>
        <time>2026-07-13T09:21:00Z</time>
      </trkpt>
      <trkpt lat="31.23055003292626" lon="121.39933172675043">
        <ele>14.049647647887468</ele>
        <time>2026-07-13T09:21:00Z</time>
      </trkpt>
      <trkpt lat="31.230477069411645" lon="121.39936873688079">
        <ele>15.164683658629656</ele>
        <time>2026-07-13T09:21:00Z</time>
      </trkpt>
      <trkpt lat="31.230409100151082" lon="121.39935774168252">
        <ele>7.721400577574968</ele>
        <time>2026-07-13T09:21:00Z</time>
      </trkpt>
      <trkpt lat="31.23025117976009" lon="121.39944376443833">
        <ele>0.04030926898121834</ele>
        <time>2026-07-13T09:21:00Z</time>
      </trkpt>
      <trkpt lat="31.229973315485314" lon="121.39953079815542">
        <ele>7.837657291442156</ele>
        <time>2026-07-13T09:21:01Z</time>
      </trkpt>
      <trkpt lat="31.229845382637677" lon="121.39962582011954">
        <ele>16.314074832946062</ele>
        <time>2026-07-13T09:21:01Z</time>
      </trkpt>
      <trkpt lat="31.229760436127034" lon="121.39978684692217">
        <ele>15.555743534117937</ele>
        <time>2026-07-13T09:21:01Z</time>
      </trkpt>
      <trkpt lat="31.22973846180999" lon="121.39995086999252">
        <ele>13.692935306578875</ele>
        <time>2026-07-13T09:21:01Z</time>
      </trkpt>
      <trkpt lat="31.22975846813332" lon="121.40010488939754">
        <ele>13.441920597106218</ele>
        <time>2026-07-13T09:21:01Z</time>
      </trkpt>
      <trkpt lat="31.22978446501906" lon="121.4001888991917">
        <ele>13.38907941058278</ele>
        <time>2026-07-13T09:21:01Z</time>
      </trkpt>
      <trkpt lat="31.229885430447382" lon="121.40029990689268">
        <ele>11.86448224261403</ele>
        <time>2026-07-13T09:34:54Z</time>
      </trkpt>
      <trkpt lat="31.23000638186892" lon="121.40036590646521">
        <ele>15.143550235778093</ele>
        <time>2026-07-13T09:35:00Z</time>
      </trkpt>
      <trkpt lat="31.23028724814123" lon="121.40033687749013">
        <ele>15.302081424742937</ele>
        <time>2026-07-13T09:35:12Z</time>
      </trkpt>
      <trkpt lat="31.230352217075048" lon="121.40032887059607">
        <ele>15.354930240660906</ele>
        <time>2026-07-13T09:35:15Z</time>
      </trkpt>
      <trkpt lat="31.23052312874859" lon="121.40024884360312">
        <ele>15.682566959410906</ele>
        <time>2026-07-13T09:35:21Z</time>
      </trkpt>
      <trkpt lat="31.230687049083432" lon="121.40021582441774">
        <ele>13.082576114684343</ele>
        <time>2026-07-13T09:35:27Z</time>
      </trkpt>
      <trkpt lat="31.230853960843742" lon="121.40011479525712">
        <ele>-23.370236080139875</ele>
        <time>2026-07-13T09:35:33Z</time>
      </trkpt>
      <trkpt lat="31.23100188656282" lon="121.40005977462809">
        <ele>8.783595401793718</ele>
        <time>2026-07-13T09:35:39Z</time>
      </trkpt>
      <trkpt lat="31.23110183068506" lon="121.3999647529402">
        <ele>13.093142826110125</ele>
        <time>2026-07-13T09:35:45Z</time>
      </trkpt>
      <trkpt lat="31.23117778323881" lon="121.39983672958952">
        <ele>-0.6440397910773754</ele>
        <time>2026-07-13T09:35:51Z</time>
      </trkpt>
      <trkpt lat="31.231180766440968" lon="121.39966370809113">
        <ele>12.820987064391375</ele>
        <time>2026-07-13T09:35:57Z</time>
      </trkpt>
      <trkpt lat="31.23113277528294" lon="121.39949969359435">
        <ele>12.00980694964528</ele>
        <time>2026-07-13T09:36:04Z</time>
      </trkpt>
      <trkpt lat="31.2310847920858" lon="121.39942869012913">
        <ele>13.798632938414812</ele>
        <time>2026-07-13T09:36:07Z</time>
      </trkpt>
      <trkpt lat="31.2309548459535" lon="121.39934169244977">
        <ele>12.348018009215593</ele>
        <time>2026-07-13T09:36:13Z</time>
      </trkpt>
      <trkpt lat="31.230663977847566" lon="121.3992997136121">
        <ele>12.85269482806325</ele>
        <time>2026-07-13T09:36:25Z</time>
      </trkpt>
      <trkpt lat="31.230373119089624" lon="121.39938874801364">
        <ele>-3.941601436585188</ele>
        <time>2026-07-13T09:36:37Z</time>
      </trkpt>
      <trkpt lat="31.230193207803218" lon="121.39945877110121">
        <ele>13.661227542907</ele>
        <time>2026-07-13T09:36:43Z</time>
      </trkpt>
      <trkpt lat="31.229976314251772" lon="121.39953279811644">
        <ele>0.18563397601246834</ele>
        <time>2026-07-13T09:36:55Z</time>
      </trkpt>
      <trkpt lat="31.229826391625412" lon="121.39962782200861">
        <ele>12.620173770934343</ele>
        <time>2026-07-13T09:37:01Z</time>
      </trkpt>
      <trkpt lat="31.22973144932045" lon="121.39978384907677">
        <ele>3.0551408119499683</ele>
        <time>2026-07-13T09:37:07Z</time>
      </trkpt>
      <trkpt lat="31.22970048122533" lon="121.39996887571317">
        <ele>12.86326153948903</ele>
        <time>2026-07-13T09:37:13Z</time>
      </trkpt>
      <trkpt lat="31.229732484219095" lon="121.40014289707456">
        <ele>13.293956119567156</ele>
        <time>2026-07-13T09:37:19Z</time>
      </trkpt>
      <trkpt lat="31.229764478459916" lon="121.40022690651341">
        <ele>10.696597415953875</ele>
        <time>2026-07-13T09:37:25Z</time>
      </trkpt>
      <trkpt lat="31.229863440319814" lon="121.40029690835613">
        <ele>7.015910465270281</ele>
        <time>2026-07-13T09:37:31Z</time>
      </trkpt>
      <trkpt lat="31.230022372587765" lon="121.40034990259538">
        <ele>8.310626346617937</ele>
        <time>2026-07-13T09:37:40Z</time>
      </trkpt>
      <trkpt lat="31.23011433024421" lon="121.40035289503729">
        <ele>-2.2294050864875317</ele>
        <time>2026-07-13T09:37:46Z</time>
      </trkpt>
      <trkpt lat="31.23021427982512" lon="121.40031788094633">
        <ele>17.059192020446062</ele>
        <time>2026-07-13T09:37:52Z</time>
      </trkpt>
      <trkpt lat="31.23032322926572" lon="121.400317871443">
        <ele>11.359813053160906</ele>
        <time>2026-07-13T09:37:55Z</time>
      </trkpt>
      <trkpt lat="31.23071103382404" lon="121.40017781676919">
        <ele>-78.9266859702766</ele>
        <time>2026-07-13T09:38:01Z</time>
      </trkpt>
      <trkpt lat="31.23099488796229" lon="121.40004177274471">
        <ele>-1.9466749839484692</ele>
        <time>2026-07-13T09:38:10Z</time>
      </trkpt>
      <trkpt lat="31.23107284342623" lon="121.39995775453183">
        <ele>9.045184452086687</ele>
        <time>2026-07-13T09:38:13Z</time>
      </trkpt>
      <trkpt lat="31.23114579510596" lon="121.39980472833297">
        <ele>2.8543351478874683</ele>
        <time>2026-07-13T09:38:19Z</time>
      </trkpt>
      <trkpt lat="31.231167773400617" lon="121.39967471052815">
        <ele>12.7153046913445</ele>
        <time>2026-07-13T09:38:22Z</time>
      </trkpt>
      <trkpt lat="31.231147773661185" lon="121.39956669974828">
        <ele>10.297625858336687</ele>
        <time>2026-07-13T09:38:28Z</time>
      </trkpt>
      <trkpt lat="31.231069798137597" lon="121.39941669017007">
        <ele>8.79416974261403</ele>
        <time>2026-07-13T09:38:34Z</time>
      </trkpt>
      <trkpt lat="31.23098383139008" lon="121.39932568830672">
        <ele>11.72709210589528</ele>
        <time>2026-07-13T09:38:40Z</time>
      </trkpt>
      <trkpt lat="31.230866883363966" lon="121.39929369531899">
        <ele>12.894976932555437</ele>
        <time>2026-07-13T09:38:46Z</time>
      </trkpt>
      <trkpt lat="31.230745938949457" lon="121.39928670517841">
        <ele>12.400874454528093</ele>
        <time>2026-07-13T09:38:52Z</time>
      </trkpt>
      <trkpt lat="31.230427090804763" lon="121.39934373868793">
        <ele>2.843768436461687</ele>
        <time>2026-07-13T09:39:10Z</time>
      </trkpt>
      <trkpt lat="31.230364122389727" lon="121.39937674755659">
        <ele>6.638072330504656</ele>
        <time>2026-07-13T09:39:13Z</time>
      </trkpt>
      <trkpt lat="31.230312150788386" lon="121.39943475816199">
        <ele>7.290713626891375</ele>
        <time>2026-07-13T09:39:16Z</time>
      </trkpt>
      <trkpt lat="31.230189207618427" lon="121.39943176856758">
        <ele>12.97953351214528</ele>
        <time>2026-07-13T09:39:19Z</time>
      </trkpt>
      <trkpt lat="31.230021291317108" lon="121.39950679131587">
        <ele>12.422015506774187</ele>
        <time>2026-07-13T09:39:28Z</time>
      </trkpt>
      <trkpt lat="31.22989135474101" lon="121.39954580697912">
        <ele>13.177699405699968</ele>
        <time>2026-07-13T09:39:34Z</time>
      </trkpt>
      <trkpt lat="31.229820392003766" lon="121.39959881918031">
        <ele>7.079333622008562</ele>
        <time>2026-07-13T09:39:37Z</time>
      </trkpt>
      <trkpt lat="31.2296914726631" lon="121.39983585910988">
        <ele>12.052096683532</ele>
        <time>2026-07-13T09:39:46Z</time>
      </trkpt>
      <trkpt lat="31.22966949532492" lon="121.39996587801346">
        <ele>12.873843509703875</ele>
        <time>2026-07-13T09:39:52Z</time>
      </trkpt>
      <trkpt lat="31.22972347523531" lon="121.40001588007473">
        <ele>9.85636456683278</ele>
        <time>2026-07-13T09:39:55Z</time>
      </trkpt>
      <trkpt lat="31.229736479608825" lon="121.4001168930159">
        <ele>12.620181400328875</ele>
        <time>2026-07-13T09:40:01Z</time>
      </trkpt>
      <trkpt lat="31.22982945317311" lon="121.40027090739999">
        <ele>13.7140839882195</ele>
        <time>2026-07-13T09:40:07Z</time>
      </trkpt>
      <trkpt lat="31.229991388249108" lon="121.40036090699816">
        <ele>11.222422916442156</ele>
        <time>2026-07-13T09:40:19Z</time>
      </trkpt>
      <trkpt lat="31.230078349156038" lon="121.40037190111937">
        <ele>12.472216922789812</ele>
        <time>2026-07-13T09:40:22Z</time>
      </trkpt>
      <trkpt lat="31.230402194461664" lon="121.40033386700316">
        <ele>-4.655003231018782</ele>
        <time>2026-07-13T09:40:34Z</time>
      </trkpt>
      <trkpt lat="31.230710038863027" lon="121.40021982300168">
        <ele>15.397212345153093</ele>
        <time>2026-07-13T09:40:49Z</time>
      </trkpt>
      <trkpt lat="31.230904936795216" lon="121.40011079024333">
        <ele>-9.043820064514875</ele>
        <time>2026-07-13T09:40:58Z</time>
      </trkpt>
      <trkpt lat="31.231008888409924" lon="121.40010878089238">
        <ele>6.65921338275075</ele>
        <time>2026-07-13T09:41:01Z</time>
      </trkpt>
      <trkpt lat="31.23107485367966" lon="121.4000687695165">
        <ele>1.9612534828484058</ele>
        <time>2026-07-13T09:41:04Z</time>
      </trkpt>
      <trkpt lat="31.231123825481056" lon="121.4000147577887">
        <ele>14.356158573180437</ele>
        <time>2026-07-13T09:41:07Z</time>
      </trkpt>
      <trkpt lat="31.231198763388658" lon="121.39972471383054">
        <ele>-14.05885760113597</ele>
        <time>2026-07-13T09:41:19Z</time>
      </trkpt>
      <trkpt lat="31.23113277404089" lon="121.39948369184727">
        <ele>11.801074344664812</ele>
        <time>2026-07-13T09:41:28Z</time>
      </trkpt>
      <trkpt lat="31.23101681737736" lon="121.39934368724678">
        <ele>7.227298099547625</ele>
        <time>2026-07-13T09:41:37Z</time>
      </trkpt>
      <trkpt lat="31.230836896508585" lon="121.39928269685089">
        <ele>7.089900333434343</ele>
        <time>2026-07-13T09:41:46Z</time>
      </trkpt>
      <trkpt lat="31.23053403859382" lon="121.39930672564171">
        <ele>10.559207279235125</ele>
        <time>2026-07-13T09:41:58Z</time>
      </trkpt>
      <trkpt lat="31.230481063862936" lon="121.39931673126021">
        <ele>9.454737979918718</ele>
        <time>2026-07-13T09:42:04Z</time>
      </trkpt>
      <trkpt lat="31.230444083993174" lon="121.39935873873316">
        <ele>9.570994693785906</ele>
        <time>2026-07-13T09:42:08Z</time>
      </trkpt>
      <trkpt lat="31.2301432294103" lon="121.39943777321538">
        <ele>13.18827374652028</ele>
        <time>2026-07-13T09:42:26Z</time>
      </trkpt>
      <trkpt lat="31.22983338441164" lon="121.39957981587506">
        <ele>11.9252656288445</ele>
        <time>2026-07-13T09:42:35Z</time>
      </trkpt>
      <trkpt lat="31.2297844117112" lon="121.39963482648596">
        <ele>-10.29097430035472</ele>
        <time>2026-07-13T09:42:38Z</time>
      </trkpt>
      <trkpt lat="31.22973846348153" lon="121.39996787226595">
        <ele>4.368357975035906</ele>
        <time>2026-07-13T09:42:53Z</time>
      </trkpt>
      <trkpt lat="31.22982745009347" lon="121.40023490220474">
        <ele>15.555751163512468</ele>
        <time>2026-07-13T09:43:05Z</time>
      </trkpt>
      <trkpt lat="31.23003237131931" lon="121.4003789062191">
        <ele>9.076892215758562</ele>
        <time>2026-07-13T09:43:17Z</time>
      </trkpt>
      <trkpt lat="31.230089346863426" lon="121.40039590390542">
        <ele>8.635630924254656</ele>
        <time>2026-07-13T09:43:20Z</time>
      </trkpt>
      <trkpt lat="31.230210287563622" lon="121.40036888914477">
        <ele>8.971202213317156</ele>
        <time>2026-07-13T09:43:26Z</time>
      </trkpt>
      <trkpt lat="31.230356213390323" lon="121.40031286780362">
        <ele>6.638072330504656</ele>
        <time>2026-07-13T09:43:32Z</time>
      </trkpt>
      <trkpt lat="31.23068605452809" lon="121.40026083118265">
        <ele>16.16611798480153</ele>
        <time>2026-07-13T09:43:47Z</time>
      </trkpt>
      <trkpt lat="31.230868955159874" lon="121.4001267956559">
        <ele>11.25413068011403</ele>
        <time>2026-07-13T09:43:53Z</time>
      </trkpt>
      <trkpt lat="31.230982897427904" lon="121.40007977907541">
        <ele>11.568560916930437</ele>
        <time>2026-07-13T09:43:56Z</time>
      </trkpt>
      <trkpt lat="31.231059856433497" lon="121.40002776514966">
        <ele>10.823436100035906</ele>
        <time>2026-07-13T09:43:59Z</time>
      </trkpt>
      <trkpt lat="31.231141806903988" lon="121.39991074229214">
        <ele>10.65433057025075</ele>
        <time>2026-07-13T09:44:05Z</time>
      </trkpt>
      <trkpt lat="31.231199766927734" lon="121.39976971926028">
        <ele>8.52994092181325</ele>
        <time>2026-07-13T09:44:11Z</time>
      </trkpt>
      <trkpt lat="31.231179763780453" lon="121.39962670384024">
        <ele>11.296405155211687</ele>
        <time>2026-07-13T09:44:17Z</time>
      </trkpt>
      <trkpt lat="31.23105979853316" lon="121.39935868502505">
        <ele>5.597018558532</ele>
        <time>2026-07-13T09:44:29Z</time>
      </trkpt>
      <trkpt lat="31.230919857645613" lon="121.39927668902573">
        <ele>11.967540103942156</ele>
        <time>2026-07-13T09:44:35Z</time>
      </trkpt>
      <trkpt lat="31.230775923279694" lon="121.39926070002087">
        <ele>11.579127628356218</ele>
        <time>2026-07-13T09:44:41Z</time>
      </trkpt>
      <trkpt lat="31.230662977965913" lon="121.3992947132043">
        <ele>14.398433048278093</ele>
        <time>2026-07-13T09:44:47Z</time>
      </trkpt>
      <trkpt lat="31.230527045581955" lon="121.39935973159882">
        <ele>-5.400128047913313</ele>
        <time>2026-07-13T09:44:53Z</time>
      </trkpt>
      <trkpt lat="31.23031115020501" lon="121.39942075676744">
        <ele>11.79050763323903</ele>
        <time>2026-07-13T09:45:02Z</time>
      </trkpt>
      <trkpt lat="31.229990304923017" lon="121.39949679292147">
        <ele>12.736445743590593</ele>
        <time>2026-07-13T09:45:17Z</time>
      </trkpt>
      <trkpt lat="31.22987836021649" lon="121.39953880732965">
        <ele>8.014697391539812</ele>
        <time>2026-07-13T09:45:23Z</time>
      </trkpt>
    </trkseg>
  </trk>
</gpx>