<?xml version="1.0" encoding="UTF-8"?>
<gpx xmlns="http://www.topografix.com/GPX/1/1" xmlns:gpxtpx="http://www.garmin.com/xmlschemas/TrackPointExtension/v1" xmlns:xsi="http://www.w3.org/2001/XMLSchema-instance" xsi:schemaLocation="http://www.topografix.com/GPX/1/1 http://www.topografix.com/GPX/1/1/gpx.xsd" version="1.1" creator="gpx.py -- https://github.com/tkrajina/gpxpy">
  <trk>
    <name>gpx from keep</name>
    <type>Run</type>
    <trkseg>
      <trkpt lat="31.229706477847493" lon="121.39996287438564">
        <ele>11.652327542193234</ele>
        <time>2026-07-01T11:02:28Z</time>
      </trkpt>
      <trkpt lat="31.229742477455503" lon="121.40012289334578">
        <ele>13.784644131548703</ele>
        <time>2026-07-01T11:02:28Z</time>
      </trkpt>
      <trkpt lat="31.229780467745616" lon="121.40019690070845">
        <ele>14.46370602119714</ele>
        <time>2026-07-01T11:02:28Z</time>
      </trkpt>
      <trkpt lat="31.229902423692643" lon="121.40030990692945">
        <ele>-6.846232409588993</ele>
        <time>2026-07-01T11:02:28Z</time>
      </trkpt>
      <trkpt lat="31.230056360533073" lon="121.40038190459424">
        <ele>15.729357724078</ele>
        <time>2026-07-01T11:02:28Z</time>
      </trkpt>
      <trkpt lat="31.23020129290581" lon="121.40037889148465">
        <ele>-25.424061770550907</ele>
        <time>2026-07-01T11:02:28Z</time>
      </trkpt>
      <trkpt lat="31.23043517516381" lon="121.40029885878863">
        <ele>11.715739254839718</ele>
        <time>2026-07-01T11:02:28Z</time>
      </trkpt>
      <trkpt lat="31.23062107901697" lon="121.40020982928982">
        <ele>12.875697140581906</ele>
        <time>2026-07-01T11:02:28Z</time>
      </trkpt>
      <trkpt lat="31.230925927487235" lon="121.40011478897954">
        <ele>14.579962735064328</ele>
        <time>2026-07-01T11:02:28Z</time>
      </trkpt>
      <trkpt lat="31.231043864961347" lon="121.4000387680585">
        <ele>-5.884448046796024</ele>
        <time>2026-07-01T11:02:28Z</time>
      </trkpt>
      <trkpt lat="31.23116679398574" lon="121.39989673828097">
        <ele>14.484843258745968</ele>
        <time>2026-07-01T11:02:28Z</time>
      </trkpt>
      <trkpt lat="31.231209765198212" lon="121.39980172237621">
        <ele>14.611670498736203</ele>
        <time>2026-07-01T11:02:28Z</time>
      </trkpt>
      <trkpt lat="31.231203752417596" lon="121.3996237013991">
        <ele>-10.516354556195438</ele>
        <time>2026-07-01T11:02:28Z</time>
      </trkpt>
      <trkpt lat="31.231094783477772" lon="121.39937468361565">
        <ele>7.054766659624875</ele>
        <time>2026-07-01T11:02:28Z</time>
      </trkpt>
      <trkpt lat="31.23103880507524" lon="121.3993136823092">
        <ele>14.9763059662655</ele>
        <time>2026-07-01T11:02:28Z</time>
      </trkpt>
      <trkpt lat="31.230961837240244" lon="121.399262683998">
        <ele>14.07792950142175</ele>
        <time>2026-07-01T11:02:28Z</time>
      </trkpt>
      <trkpt lat="31.230881873293065" lon="121.39924768952119">
        <ele>9.697039608843625</ele>
        <time>2026-07-01T11:02:28Z</time>
      </trkpt>
      <trkpt lat="31.230717952062637" lon="121.3992887078167">
        <ele>15.584029202349484</ele>
        <time>2026-07-01T11:02:28Z</time>
      </trkpt>
      <trkpt lat="31.23043509232783" lon="121.39941574542952">
        <ele>-23.53748034965247</ele>
        <time>2026-07-01T11:02:28Z</time>
      </trkpt>
      <trkpt lat="31.230161225575348" lon="121.39949677801262">
        <ele>10.325903897173703</ele>
        <time>2026-07-01T11:02:28Z</time>
      </trkpt>
      <trkpt lat="31.230091259855914" lon="121.399519786647">
        <ele>13.636672024615109</ele>
        <time>2026-07-01T11:02:28Z</time>
      </trkpt>
      <trkpt lat="31.229911351666594" lon="121.39962181390082">
        <ele>13.972239498980343</ele>
        <time>2026-07-01T11:02:28Z</time>
      </trkpt>
      <trkpt lat="31.229815403043222" lon="121.39970183171951">
        <ele>14.714720730669796</ele>
        <time>2026-07-01T11:02:28Z</time>
      </trkpt>
      <trkpt lat="31.22974544518921" lon="121.39980985111127">
        <ele>13.554762844927609</ele>
        <time>2026-07-01T11:02:28Z</time>
      </trkpt>
      <trkpt lat="31.22972846353476" lon="121.3999208668895">
        <ele>14.421427731402218</ele>
        <time>2026-07-01T11:02:28Z</time>
      </trkpt>
      <trkpt lat="31.22977146451892" lon="121.40012789152968">
        <ele>13.784640316851437</ele>
        <time>2026-07-01T11:02:28Z</time>
      </trkpt>
      <trkpt lat="31.229879431310806" lon="121.40028290484574">
        <ele>12.7700071381405</ele>
        <time>2026-07-01T11:02:28Z</time>
      </trkpt>
      <trkpt lat="31.22995040461871" lon="121.40033790702546">
        <ele>13.11614513862878</ele>
        <time>2026-07-01T11:02:28Z</time>
      </trkpt>
      <trkpt lat="31.23009134254133" lon="121.40036689920953">
        <ele>9.813300137408078</ele>
        <time>2026-07-01T11:02:28Z</time>
      </trkpt>
      <trkpt lat="31.23041318288181" lon="121.40027685738482">
        <ele>13.105574612505734</ele>
        <time>2026-07-01T11:02:28Z</time>
      </trkpt>
      <trkpt lat="31.23070603679015" lon="121.40018381807735">
        <ele>11.903338436968625</ele>
        <time>2026-07-01T11:02:28Z</time>
      </trkpt>
      <trkpt lat="31.230966905565968" lon="121.40008678145215">
        <ele>13.900897030718625</ele>
        <time>2026-07-01T11:02:28Z</time>
      </trkpt>
      <trkpt lat="31.231058858830473" lon="121.40004676785559">
        <ele>-16.55659198295325</ele>
        <time>2026-07-01T11:02:28Z</time>
      </trkpt>
      <trkpt lat="31.231166798330605" lon="121.39994174420431">
        <ele>12.582404141314328</ele>
        <time>2026-07-01T11:02:28Z</time>
      </trkpt>
      <trkpt lat="31.231209769260403" lon="121.39984572794725">
        <ele>15.83504391182214</ele>
        <time>2026-07-01T11:02:28Z</time>
      </trkpt>
      <trkpt lat="31.23123874548587" lon="121.39973171119414">
        <ele>13.377730374224484</ele>
        <time>2026-07-01T11:02:28Z</time>
      </trkpt>
      <trkpt lat="31.23119875134759" lon="121.39958269711833">
        <ele>12.394801144488156</ele>
        <time>2026-07-01T11:02:28Z</time>
      </trkpt>
      <trkpt lat="31.231104781928913" lon="121.39941668711843">
        <ele>14.170409207232296</ele>
        <time>2026-07-01T11:02:28Z</time>
      </trkpt>
      <trkpt lat="31.231006821725114" lon="121.39933968771338">
        <ele>15.008009915240109</ele>
        <time>2026-07-01T11:02:28Z</time>
      </trkpt>
      <trkpt lat="31.230853888768934" lon="121.39928469556526">
        <ele>13.752932553179562</ele>
        <time>2026-07-01T11:02:28Z</time>
      </trkpt>
      <trkpt lat="31.23077492537378" lon="121.39928470245316">
        <ele>-33.59661578666419</ele>
        <time>2026-07-01T11:02:28Z</time>
      </trkpt>
      <trkpt lat="31.230679971055903" lon="121.39930871311134">
        <ele>5.350501065142453</ele>
        <time>2026-07-01T11:02:28Z</time>
      </trkpt>
      <trkpt lat="31.23052205124922" lon="121.39940573679475">
        <ele>12.373663906939328</ele>
        <time>2026-07-01T11:02:28Z</time>
      </trkpt>
      <trkpt lat="31.230196208793984" lon="121.39948977419618">
        <ele>12.384234433062375</ele>
        <time>2026-07-01T11:02:28Z</time>
      </trkpt>
      <trkpt lat="31.229921343399006" lon="121.39957780797522">
        <ele>13.689517025835812</ele>
        <time>2026-07-01T11:02:28Z</time>
      </trkpt>
      <trkpt lat="31.229852379221064" lon="121.3996238192769">
        <ele>-17.692770953290164</ele>
        <time>2026-07-01T11:02:28Z</time>
      </trkpt>
      <trkpt lat="31.22975843390878" lon="121.39975184276518">
        <ele>12.939112667925656</ele>
        <time>2026-07-01T11:02:28Z</time>
      </trkpt>
      <trkpt lat="31.229727467702652" lon="121.39995887201952">
        <ele>14.651305203326046</ele>
        <time>2026-07-01T11:02:28Z</time>
      </trkpt>
      <trkpt lat="31.22981745154901" lon="121.40020589880064">
        <ele>13.021021847613156</ele>
        <time>2026-07-01T11:02:28Z</time>
      </trkpt>
      <trkpt lat="31.229924415308446" lon="121.40032590745255">
        <ele>14.756995205767453</ele>
        <time>2026-07-01T11:02:28Z</time>
      </trkpt>
      <trkpt lat="31.229992387436823" lon="121.4003579064467">
        <ele>13.77406979072839</ele>
        <time>2026-07-01T11:02:28Z</time>
      </trkpt>
      <trkpt lat="31.230207287097286" lon="121.40035288692897">
        <ele>11.87163067329675</ele>
        <time>2026-07-01T11:02:28Z</time>
      </trkpt>
      <trkpt lat="31.23049714427018" lon="121.40027985051259">
        <ele>14.392363552935421</ele>
        <time>2026-07-01T11:02:28Z</time>
      </trkpt>
      <trkpt lat="31.230766008335824" lon="121.40017781197383">
        <ele>11.744803433306515</ele>
        <time>2026-07-01T11:02:28Z</time>
      </trkpt>
      <trkpt lat="31.231046866131962" lon="121.40006377126103">
        <ele>8.172450070269406</ele>
        <time>2026-07-01T11:02:28Z</time>
      </trkpt>
      <trkpt lat="31.231128818675288" lon="121.39996975125683">
        <ele>12.759436612017453</ele>
        <time>2026-07-01T11:02:28Z</time>
      </trkpt>
      <trkpt lat="31.23120676833081" lon="121.39982072503098">
        <ele>12.999884610064328</ele>
        <time>2026-07-01T11:02:28Z</time>
      </trkpt>
      <trkpt lat="31.23123174837403" lon="121.39972771131777">
        <ele>9.958624844439328</ele>
        <time>2026-07-01T11:02:28Z</time>
      </trkpt>
      <trkpt lat="31.23120374846209" lon="121.39957569588591">
        <ele>9.332407956011593</ele>
        <time>2026-07-01T11:02:28Z</time>
      </trkpt>
      <trkpt lat="31.23114576511664" lon="121.39944568661825">
        <ele>8.098464016802609</ele>
        <time>2026-07-01T11:02:28Z</time>
      </trkpt>
      <trkpt lat="31.231080788520995" lon="121.3993546827856">
        <ele>12.447649960406125</ele>
        <time>2026-07-01T11:02:28Z</time>
      </trkpt>
      <trkpt lat="31.231021812322876" lon="121.3993046828948">
        <ele>9.884642605669796</ele>
        <time>2026-07-01T11:02:28Z</time>
      </trkpt>
      <trkpt lat="31.230894868480647" lon="121.39926569013149">
        <ele>12.91533184517175</ele>
        <time>2026-07-01T11:02:28Z</time>
      </trkpt>
      <trkpt lat="31.230750935880863" lon="121.39927570366272">
        <ele>11.662894253619015</ele>
        <time>2026-07-01T11:02:28Z</time>
      </trkpt>
      <trkpt lat="31.23067897068812" lon="121.39929671200711">
        <ele>6.322855954058468</ele>
        <time>2026-07-01T11:02:28Z</time>
      </trkpt>
      <trkpt lat="31.23055503281672" lon="121.39936272946463">
        <ele>12.331389431841671</ele>
        <time>2026-07-01T11:02:28Z</time>
      </trkpt>
      <trkpt lat="31.230301154917655" lon="121.3994217577448">
        <ele>11.097445492632687</ele>
        <time>2026-07-01T11:02:28Z</time>
      </trkpt>
      <trkpt lat="31.230033286927693" lon="121.39952179192524">
        <ele>3.0622930573299527</ele>
        <time>2026-07-01T11:02:28Z</time>
      </trkpt>
      <trkpt lat="31.2299083498409" lon="121.39958280967781">
        <ele>11.56777096260339</ele>
        <time>2026-07-01T11:02:28Z</time>
      </trkpt>
      <trkpt lat="31.229776422721702" lon="121.39971983729203">
        <ele>11.69460201729089</ele>
        <time>2026-07-01T11:02:28Z</time>
      </trkpt>
      <trkpt lat="31.229727464289155" lon="121.39992386737204">
        <ele>9.477732663042843</ele>
        <time>2026-07-01T11:02:28Z</time>
      </trkpt>
      <trkpt lat="31.229765466459785" lon="121.40011989091379">
        <ele>9.342974667437375</ele>
        <time>2026-07-01T11:02:28Z</time>
      </trkpt>
      <trkpt lat="31.229831447574057" lon="121.4002289009677">
        <ele>9.562285427935421</ele>
        <time>2026-07-01T11:02:28Z</time>
      </trkpt>
      <trkpt lat="31.229963397092373" lon="121.40032490389935">
        <ele>15.959231381304562</ele>
        <time>2026-07-01T11:02:28Z</time>
      </trkpt>
      <trkpt lat="31.230035367017834" lon="121.40035390207942">
        <ele>14.202116970904171</ele>
        <time>2026-07-01T11:02:28Z</time>
      </trkpt>
      <trkpt lat="31.23019729138925" lon="121.40034988733781">
        <ele>12.904761319048703</ele>
        <time>2026-07-01T11:02:28Z</time>
      </trkpt>
      <trkpt lat="31.230500140749125" lon="121.40026084739957">
        <ele>10.57427502144128</ele>
        <time>2026-07-01T11:02:28Z</time>
      </trkpt>
      <trkpt lat="31.23080998590304" lon="121.40015880538797">
        <ele>13.56532955635339</ele>
        <time>2026-07-01T11:02:28Z</time>
      </trkpt>
      <trkpt lat="31.23091593412692" lon="121.40013379255706">
        <ele>12.278544430620968</ele>
        <time>2026-07-01T11:02:28Z</time>
      </trkpt>
      <trkpt lat="31.2310368721056" lon="121.40007677394725">
        <ele>9.42488766182214</ele>
        <time>2026-07-01T11:02:28Z</time>
      </trkpt>
      <trkpt lat="31.231119824927298" lon="121.39999075487304">
        <ele>13.126711850054562</ele>
        <time>2026-07-01T11:02:28Z</time>
      </trkpt>
      <trkpt lat="31.23117479009048" lon="121.39989473732265">
        <ele>7.932002072222531</ele>
        <time>2026-07-01T11:02:28Z</time>
      </trkpt>
      <trkpt lat="31.231205767415943" lon="121.39980572322722">
        <ele>11.097445492632687</ele>
        <time>2026-07-01T11:02:28Z</time>
      </trkpt>
      <trkpt lat="31.23121575437825" lon="121.39971171077431">
        <ele>12.196631436236203</ele>
        <time>2026-07-01T11:02:28Z</time>
      </trkpt>
      <trkpt lat="31.2311777573616" lon="121.39953669376239">
        <ele>11.787081723101437</ele>
        <time>2026-07-01T11:02:28Z</time>
      </trkpt>
      <trkpt lat="31.231088787348167" lon="121.39938968569056">
        <ele>13.324881558306515</ele>
        <time>2026-07-01T11:02:28Z</time>
      </trkpt>
      <trkpt lat="31.231026811052434" lon="121.39931968395558">
        <ele>13.042159085161984</ele>
        <time>2026-07-01T11:02:28Z</time>
      </trkpt>
      <trkpt lat="31.23096183853079" lon="121.39928168585405">
        <ele>13.71065426338464</ele>
        <time>2026-07-01T11:02:28Z</time>
      </trkpt>
      <trkpt lat="31.230865881241982" lon="121.39925569168912">
        <ele>-9.797656054608524</ele>
        <time>2026-07-01T11:02:28Z</time>
      </trkpt>
      <trkpt lat="31.230753933137912" lon="121.39925570145425">
        <ele>14.484843258745968</ele>
        <time>2026-07-01T11:02:28Z</time>
      </trkpt>
      <trkpt lat="31.230658978518413" lon="121.39927571168406">
        <ele>12.928542141802609</ele>
        <time>2026-07-01T11:02:28Z</time>
      </trkpt>
      <trkpt lat="31.230475070700464" lon="121.39937373756953">
        <ele>11.755373959429562</ele>
        <time>2026-07-01T11:02:28Z</time>
      </trkpt>
      <trkpt lat="31.23017621432602" lon="121.39944077065756">
        <ele>13.05272961128503</ele>
        <time>2026-07-01T11:02:28Z</time>
      </trkpt>
      <trkpt lat="31.229948327406223" lon="121.39953480078043">
        <ele>12.674883847124875</ele>
        <time>2026-07-01T11:02:28Z</time>
      </trkpt>
      <trkpt lat="31.22982839027924" lon="121.39962282125326">
        <ele>1.7675771759822965</ele>
        <time>2026-07-01T11:02:28Z</time>
      </trkpt>
      <trkpt lat="31.229741443233994" lon="121.3997678462194">
        <ele>11.850493435747921</ele>
        <time>2026-07-01T11:02:28Z</time>
      </trkpt>
      <trkpt lat="31.229712468753696" lon="121.39989786526907">
        <ele>11.736876492388546</ele>
        <time>2026-07-01T11:02:28Z</time>
      </trkpt>
      <trkpt lat="31.2297744622811" lon="121.40011989012912">
        <ele>10.711672787554562</ele>
        <time>2026-07-01T11:02:28Z</time>
      </trkpt>
      <trkpt lat="31.22991941557409" lon="121.4003079051431">
        <ele>3.125704769976437</ele>
        <time>2026-07-01T11:02:28Z</time>
      </trkpt>
      <trkpt lat="31.230077350788434" lon="121.40038190276333">
        <ele>13.240328793413937</ele>
        <time>2026-07-01T11:02:28Z</time>
      </trkpt>
      <trkpt lat="31.230147319364516" lon="121.4003908980659">
        <ele>13.438502316363156</ele>
        <time>2026-07-01T11:02:28Z</time>
      </trkpt>
      <trkpt lat="31.23042018064922" lon="121.40028585813042">
        <ele>13.607607846148312</ele>
        <time>2026-07-01T11:02:28Z</time>
      </trkpt>
      <trkpt lat="31.230700041636126" lon="121.400202821375">
        <ele>13.449069027788937</ele>
        <time>2026-07-01T11:02:28Z</time>
      </trkpt>
      <trkpt lat="31.231049863715196" lon="121.40005376960988">
        <ele>12.98931408394128</ele>
        <time>2026-07-01T11:02:28Z</time>
      </trkpt>
      <trkpt lat="31.231161797354716" lon="121.39990774015503">
        <ele>14.1413450287655</ele>
        <time>2026-07-01T11:02:28Z</time>
      </trkpt>
      <trkpt lat="31.231190767621154" lon="121.3997307152575">
        <ele>12.614111904986203</ele>
        <time>2026-07-01T11:02:28Z</time>
      </trkpt>
      <trkpt lat="31.231186760539327" lon="121.39962670322991">
        <ele>3.8470449494197965</ele>
        <time>2026-07-01T11:02:28Z</time>
      </trkpt>
      <trkpt lat="31.23116376289177" lon="121.39952469364819">
        <ele>13.293177609331906</ele>
        <time>2026-07-01T11:02:28Z</time>
      </trkpt>
      <trkpt lat="31.231116777791804" lon="121.39943568808158">
        <ele>14.233824734576046</ele>
        <time>2026-07-01T11:02:28Z</time>
      </trkpt>
      <trkpt lat="31.230999823628128" lon="121.3993206864099">
        <ele>7.28200436104089</ele>
        <time>2026-07-01T11:02:28Z</time>
      </trkpt>
      <trkpt lat="31.230867880989525" lon="121.39926569248559">
        <ele>13.137282376177609</ele>
        <time>2026-07-01T11:02:28Z</time>
      </trkpt>
      <trkpt lat="31.23079991202392" lon="121.39925869773427">
        <ele>12.791144375689328</ele>
        <time>2026-07-01T11:02:28Z</time>
      </trkpt>
      <trkpt lat="31.23049106320963" lon="121.39937273607156">
        <ele>14.202116970904171</ele>
        <time>2026-07-01T11:02:28Z</time>
      </trkpt>
      <trkpt lat="31.230158224498616" lon="121.39946477479846">
        <ele>12.896834378130734</ele>
        <time>2026-07-01T11:02:28Z</time>
      </trkpt>
      <trkpt lat="31.2298713679168" lon="121.39959381416048">
        <ele>14.1413450287655</ele>
        <time>2026-07-01T11:02:28Z</time>
      </trkpt>
      <trkpt lat="31.229795408292098" lon="121.39965482787132">
        <ele>12.968176846392453</ele>
        <time>2026-07-01T11:02:28Z</time>
      </trkpt>
      <trkpt lat="31.229714459583576" lon="121.39980985381402">
        <ele>13.063296322710812</ele>
        <time>2026-07-01T11:02:28Z</time>
      </trkpt>
      <trkpt lat="31.22969648239264" lon="121.3999618751236">
        <ele>5.265948300249875</ele>
        <time>2026-07-01T11:02:28Z</time>
      </trkpt>
      <trkpt lat="31.229727481481802" lon="121.40009489068915">
        <ele>12.069804196245968</ele>
        <time>2026-07-01T11:02:28Z</time>
      </trkpt>
      <trkpt lat="31.229858440496418" lon="121.40027790592362">
        <ele>-3.004368777386844</ele>
        <time>2026-07-01T11:02:28Z</time>
      </trkpt>
      <trkpt lat="31.230089344869267" lon="121.40037890124951">
        <ele>12.812281613238156</ele>
        <time>2026-07-01T11:02:28Z</time>
      </trkpt>
      <trkpt lat="31.23015531459755" lon="121.40038189596282">
        <ele>-3.464125628583133</ele>
        <time>2026-07-01T11:02:28Z</time>
      </trkpt>
      <trkpt lat="31.230435172792678" lon="121.40027785561715">
        <ele>13.438502316363156</ele>
        <time>2026-07-01T11:02:28Z</time>
      </trkpt>
      <trkpt lat="31.23070404032845" lon="121.40020782175955">
        <ele>7.858019833453</ele>
        <time>2026-07-01T11:02:28Z</time>
      </trkpt>
      <trkpt lat="31.23101888096069" lon="121.40008177621682">
        <ele>10.177935604937375</ele>
        <time>2026-07-01T11:02:28Z</time>
      </trkpt>
      <trkpt lat="31.231139813285424" lon="121.39996674989514">
        <ele>13.042159085161984</ele>
        <time>2026-07-01T11:02:28Z</time>
      </trkpt>
      <trkpt lat="31.231183786114304" lon="121.39989673679875">
        <ele>12.394801144488156</ele>
        <time>2026-07-01T11:02:28Z</time>
      </trkpt>
      <trkpt lat="31.231208759551905" lon="121.39973371405353">
        <ele>11.578341488726437</ele>
        <time>2026-07-01T11:02:28Z</time>
      </trkpt>
      <trkpt lat="31.231186756008192" lon="121.39957169691417">
        <ele>11.525496487505734</ele>
        <time>2026-07-01T11:02:28Z</time>
      </trkpt>
      <trkpt lat="31.231110780345038" lon="121.39943268828618">
        <ele>11.818785672076046</ele>
        <time>2026-07-01T11:02:28Z</time>
      </trkpt>
      <trkpt lat="31.231009819136553" lon="121.39932268573858">
        <ele>0.43058681953698397</ele>
        <time>2026-07-01T11:02:28Z</time>
      </trkpt>
      <trkpt lat="31.23094284801775" lon="121.39929168849511">
        <ele>2.0608701752498746</ele>
        <time>2026-07-01T11:02:28Z</time>
      </trkpt>
      <trkpt lat="31.230752934614205" lon="121.39927070299966">
        <ele>7.815741543658078</ele>
        <time>2026-07-01T11:02:28Z</time>
      </trkpt>
      <trkpt lat="31.230473071194115" lon="121.39936773712682">
        <ele>12.476714138872921</ele>
        <time>2026-07-01T11:02:28Z</time>
      </trkpt>
      <trkpt lat="31.230318147555703" lon="121.39942875700257">
        <ele>10.690535550005734</ele>
        <time>2026-07-01T11:02:28Z</time>
      </trkpt>
      <trkpt lat="31.230168218717647" lon="121.39944977231583">
        <ele>7.37712383735925</ele>
        <time>2026-07-01T11:02:28Z</time>
      </trkpt>
      <trkpt lat="31.229951326731392" lon="121.39954380152403">
        <ele>9.58342266548425</ele>
        <time>2026-07-01T11:02:28Z</time>
      </trkpt>
      <trkpt lat="31.2297594285223" lon="121.39969583588157">
        <ele>12.738299374468625</ele>
        <time>2026-07-01T11:02:28Z</time>
      </trkpt>
      <trkpt lat="31.22969647117875" lon="121.39984485982127">
        <ele>12.896834378130734</ele>
        <time>2026-07-01T11:02:28Z</time>
      </trkpt>
      <trkpt lat="31.22969648417168" lon="121.39997987754161">
        <ele>3.720217709429562</ele>
        <time>2026-07-01T11:02:28Z</time>
      </trkpt>
      <trkpt lat="31.22976947003765" lon="121.40017089788375">
        <ele>12.592974667437375</ele>
        <time>2026-07-01T11:02:28Z</time>
      </trkpt>
      <trkpt lat="31.229870435488642" lon="121.4002829056304">
        <ele>-8.106600756756961</ele>
        <time>2026-07-01T11:02:28Z</time>
      </trkpt>
      <trkpt lat="31.230017376764042" lon="121.40036590550616">
        <ele>13.179556851275265</ele>
        <time>2026-07-01T11:02:28Z</time>
      </trkpt>
      <trkpt lat="31.230172306710525" lon="121.40038189448065">
        <ele>12.006388668902218</ele>
        <time>2026-07-01T11:02:28Z</time>
      </trkpt>
      <trkpt lat="31.23040019264359" lon="121.40030986351069">
        <ele>7.3137083100155</ele>
        <time>2026-07-01T11:02:28Z</time>
      </trkpt>
      <trkpt lat="31.230667061997078" lon="121.40024883104809">
        <ele>11.496428494341671</ele>
        <time>2026-07-01T11:02:28Z</time>
      </trkpt>
      <trkpt lat="31.23097990373873" lon="121.40012678597793">
        <ele>16.995001797564328</ele>
        <time>2026-07-01T11:02:28Z</time>
      </trkpt>
      <trkpt lat="31.231081850644305" lon="121.40007076918525">
        <ele>-10.976109500043094</ele>
        <time>2026-07-01T11:02:28Z</time>
      </trkpt>
      <trkpt lat="31.231151809611276" lon="121.39998575140672">
        <ele>11.850493435747921</ele>
        <time>2026-07-01T11:02:28Z</time>
      </trkpt>
      <trkpt lat="31.231218760120033" lon="121.39979172033952">
        <ele>11.736876492388546</ele>
        <time>2026-07-01T11:02:28Z</time>
      </trkpt>
      <trkpt lat="31.231193752361825" lon="121.39956669573755">
        <ele>9.311270718462765</ele>
        <time>2026-07-01T11:02:28Z</time>
      </trkpt>
      <trkpt lat="31.231132770307536" lon="121.39943468658032">
        <ele>12.928542141802609</ele>
        <time>2026-07-01T11:02:28Z</time>
      </trkpt>
      <trkpt lat="31.231086786965427" lon="121.39937168400421">
        <ele>4.045218472369015</ele>
        <time>2026-07-01T11:02:28Z</time>
      </trkpt>
      <trkpt lat="31.230964838033334" lon="121.39929468687332">
        <ele>5.945014004595578</ele>
        <time>2026-07-01T11:02:28Z</time>
      </trkpt>
      <trkpt lat="31.230780921774933" lon="121.3992727007537">
        <ele>11.69460201729089</ele>
        <time>2026-07-01T11:02:28Z</time>
      </trkpt>
      <trkpt lat="31.23047307199039" lon="121.3993787382596">
        <ele>10.825293545611203</ele>
        <time>2026-07-01T11:02:28Z</time>
      </trkpt>
      <trkpt lat="31.230399109021484" lon="121.39941574856827">
        <ele>12.968176846392453</ele>
        <time>2026-07-01T11:02:28Z</time>
      </trkpt>
      <trkpt lat="31.23011124753374" lon="121.39948078062737">
        <ele>9.623057370074093</ele>
        <time>2026-07-01T11:02:28Z</time>
      </trkpt>
      <trkpt lat="31.229823391519687" lon="121.39960982018479">
        <ele>12.812281613238156</ele>
        <time>2026-07-01T11:02:28Z</time>
      </trkpt>
      <trkpt lat="31.229730445931963" lon="121.39974084385837">
        <ele>1.254977230913937</ele>
        <time>2026-07-01T11:02:28Z</time>
      </trkpt>
      <trkpt lat="31.22970646320671" lon="121.39980885438564">
        <ele>13.084437374956906</ele>
        <time>2026-07-01T11:02:28Z</time>
      </trkpt>
      <trkpt lat="31.229705477329254" lon="121.39995287313631">
        <ele>13.678946499712765</ele>
        <time>2026-07-01T11:02:28Z</time>
      </trkpt>
      <trkpt lat="31.22979345857183" lon="121.40016789535703">
        <ele>12.405371670611203</ele>
        <time>2026-07-01T11:02:28Z</time>
      </trkpt>
      <trkpt lat="31.22989242629209" lon="121.40029190507106">
        <ele>12.727728848345578</ele>
        <time>2026-07-01T11:02:28Z</time>
      </trkpt>
      <trkpt lat="31.229967396613446" lon="121.40033690538971">
        <ele>10.711672787554562</ele>
        <time>2026-07-01T11:02:28Z</time>
      </trkpt>
      <trkpt lat="31.23026725938051" lon="121.40035388185221">
        <ele>13.678946499712765</ele>
        <time>2026-07-01T11:02:28Z</time>
      </trkpt>
      <trkpt lat="31.230433173720076" lon="121.40027785579151">
        <ele>-10.767369265668094</ele>
        <time>2026-07-01T11:02:28Z</time>
      </trkpt>
      <trkpt lat="31.230740021792336" lon="121.40019081613293">
        <ele>11.390738491900265</ele>
        <time>2026-07-01T11:02:28Z</time>
      </trkpt>
      <trkpt lat="31.230937925638013" lon="121.40014979293203">
        <ele>8.893790249712765</ele>
        <time>2026-07-01T11:02:28Z</time>
      </trkpt>
      <trkpt lat="31.23101189157426" lon="121.40015178676762">
        <ele>13.721224789507687</ele>
        <time>2026-07-01T11:02:28Z</time>
      </trkpt>
      <trkpt lat="31.2310748595271" lon="121.40012477741001">
        <ele>1.5482702301815152</ele>
        <time>2026-07-01T11:02:28Z</time>
      </trkpt>
      <trkpt lat="31.231190779274062" lon="121.3998587312693">
        <ele>9.07082272041589</ele>
        <time>2026-07-01T11:02:28Z</time>
      </trkpt>
      <trkpt lat="31.2312127533384" lon="121.39968370767588">
        <ele>12.236266140826046</ele>
        <time>2026-07-01T11:02:28Z</time>
      </trkpt>
      <trkpt lat="31.231173758975043" lon="121.39953369377672">
        <ele>11.29561520088464</ele>
        <time>2026-07-01T11:02:28Z</time>
      </trkpt>
      <trkpt lat="31.23102881089904" lon="121.39933068488631">
        <ele>9.184439663775265</ele>
        <time>2026-07-01T11:02:28Z</time>
      </trkpt>
      <trkpt lat="31.230864883467277" lon="121.39928169431138">
        <ele>13.073866848833859</ele>
        <time>2026-07-01T11:02:28Z</time>
      </trkpt>
      <trkpt lat="31.230569024400744" lon="121.39933572549751">
        <ele>3.88667965400964</ele>
        <time>2026-07-01T11:02:28Z</time>
      </trkpt>
      <trkpt lat="31.230221193525455" lon="121.3994417668407">
        <ele>-0.16392611991614103</ele>
        <time>2026-07-01T11:02:28Z</time>
      </trkpt>
      <trkpt lat="31.22995832316311" lon="121.39953980046647">
        <ele>13.586466793902218</ele>
        <time>2026-07-01T11:02:28Z</time>
      </trkpt>
      <trkpt lat="31.229767422740863" lon="121.39967183232173">
        <ele>5.276515011675656</ele>
        <time>2026-07-01T11:02:28Z</time>
      </trkpt>
      <trkpt lat="31.229728446772008" lon="121.39973984391051">
        <ele>-0.018601412884891033</ele>
        <time>2026-07-01T11:02:28Z</time>
      </trkpt>
      <trkpt lat="31.22972346079779" lon="121.39986786041865">
        <ele>-22.32996081840247</ele>
        <time>2026-07-01T11:02:28Z</time>
      </trkpt>
      <trkpt lat="31.229769458973486" lon="121.40006588296484">
        <ele>-20.04703616630286</ele>
        <time>2026-07-01T11:02:28Z</time>
      </trkpt>
      <trkpt lat="31.22985243606647" lon="121.40021289677723">
        <ele>-23.434431071393192</ele>
        <time>2026-07-01T11:02:28Z</time>
      </trkpt>
      <trkpt lat="31.22998139069172" lon="121.40034190493763">
        <ele>-6.238512034527957</ele>
        <time>2026-07-01T11:02:28Z</time>
      </trkpt>
      <trkpt lat="31.230058358436615" lon="121.40037190286309">
        <ele>12.645820622332394</ele>
        <time>2026-07-01T11:02:28Z</time>
      </trkpt>
      <trkpt lat="31.230333227151352" lon="121.4003398739405">
        <ele>12.61411285866052</ele>
        <time>2026-07-01T11:02:28Z</time>
      </trkpt>
      <trkpt lat="31.23052713115019" lon="121.40028684895229">
        <ele>8.85151291359216</ele>
        <time>2026-07-01T11:02:28Z</time>
      </trkpt>
      <trkpt lat="31.23082897785067" lon="121.40016580474217">
        <ele>11.736877446062863</ele>
        <time>2026-07-01T11:02:28Z</time>
      </trkpt>
      <trkpt lat="31.230997892144313" lon="121.40009578001529">
        <ele>-7.794811244122684</ele>
        <time>2026-07-01T11:02:28Z</time>
      </trkpt>
      <trkpt lat="31.23114781096653" lon="121.39998075108052">
        <ele>12.645820622332394</ele>
        <time>2026-07-01T11:02:28Z</time>
      </trkpt>
      <trkpt lat="31.231205769996013" lon="121.39983372676654">
        <ele>-2.2935981703922153</ele>
        <time>2026-07-01T11:02:28Z</time>
      </trkpt>
      <trkpt lat="31.231215751863328" lon="121.39968270729507">
        <ele>8.05619049537927</ele>
        <time>2026-07-01T11:02:28Z</time>
      </trkpt>
      <trkpt lat="31.23117075980881" lon="121.3995266932598">
        <ele>11.588909153826535</ele>
        <time>2026-07-01T11:02:28Z</time>
      </trkpt>
      <trkpt lat="31.231094784862385" lon="121.39939368558322">
        <ele>11.359031681902707</ele>
        <time>2026-07-01T11:02:28Z</time>
      </trkpt>
      <trkpt lat="31.231040805977585" lon="121.39933968474894">
        <ele>10.658828740008175</ele>
        <time>2026-07-01T11:02:28Z</time>
      </trkpt>
      <trkpt lat="31.23071595298952" lon="121.39928870799106">
        <ele>2.655384068377316</ele>
        <time>2026-07-01T11:02:28Z</time>
      </trkpt>
      <trkpt lat="31.230395109326533" lon="121.39939474671921">
        <ele>12.40537262428552</ele>
        <time>2026-07-01T11:02:28Z</time>
      </trkpt>
      <trkpt lat="31.23007826177022" lon="121.39946678198902">
        <ele>11.1714324997738</ele>
        <time>2026-07-01T11:02:28Z</time>
      </trkpt>
      <trkpt lat="31.229818392603175" lon="121.39959481889588">
        <ele>10.69053650368005</ele>
        <time>2026-07-01T11:02:28Z</time>
      </trkpt>
      <trkpt lat="31.229728445888178" lon="121.39972984269109">
        <ele>10.093383793719113</ele>
        <time>2026-07-01T11:02:28Z</time>
      </trkpt>
      <trkpt lat="31.229697474479977" lon="121.39988486488477">
        <ele>10.8358612107113</ele>
        <time>2026-07-01T11:02:28Z</time>
      </trkpt>
      <trkpt lat="31.22969748133845" lon="121.3999558742342">
        <ele>13.911468510515988</ele>
        <time>2026-07-01T11:02:28Z</time>
      </trkpt>
      <trkpt lat="31.22974047680555" lon="121.40010789139123">
        <ele>10.085456852801144</ele>
        <time>2026-07-01T11:02:28Z</time>
      </trkpt>
      <trkpt lat="31.229822454189012" lon="121.40025090501877">
        <ele>13.356590275652707</ele>
        <time>2026-07-01T11:02:28Z</time>
      </trkpt>
      <trkpt lat="31.229880432995298" lon="121.40030190763198">
        <ele>-1.7730674697086215</ele>
        <time>2026-07-01T11:02:28Z</time>
      </trkpt>
      <trkpt lat="31.230011377114952" lon="121.4003449027838">
        <ele>13.219192509539425</ele>
        <time>2026-07-01T11:02:28Z</time>
      </trkpt>
      <trkpt lat="31.23014131736976" lon="121.40034989222025">
        <ele>13.438503270037472</ele>
        <time>2026-07-01T11:02:28Z</time>
      </trkpt>
      <trkpt lat="31.230448166203022" lon="121.40027285373202">
        <ele>4.713714604265988</ele>
        <time>2026-07-01T11:02:28Z</time>
      </trkpt>
      <trkpt lat="31.230773007588024" lon="121.40020081471732">
        <ele>3.1045684861019254</ele>
        <time>2026-07-01T11:02:28Z</time>
      </trkpt>
      <trkpt lat="31.230835975576408" lon="121.40017480543523">
        <ele>10.846431736834347</ele>
        <time>2026-07-01T11:02:28Z</time>
      </trkpt>
      <trkpt lat="31.231001896633828" lon="121.40015578821533">
        <ele>13.126712803728878</ele>
        <time>2026-07-01T11:02:28Z</time>
      </trkpt>
      <trkpt lat="31.23117080161095" lon="121.39999375083278">
        <ele>7.992774968035519</ele>
        <time>2026-07-01T11:02:28Z</time>
      </trkpt>
      <trkpt lat="31.231215762237653" lon="121.39979972160225">
        <ele>1.965747837908566</ele>
        <time>2026-07-01T11:02:28Z</time>
      </trkpt>
      <trkpt lat="31.231221751687723" lon="121.39971271037193">
        <ele>13.636672978289425</ele>
        <time>2026-07-01T11:02:28Z</time>
      </trkpt>
      <trkpt lat="31.231203749523306" lon="121.39958869736714">
        <ele>12.947040562517941</ele>
        <time>2026-07-01T11:02:28Z</time>
      </trkpt>
      <trkpt lat="31.23117475599111" lon="121.39950169015171">
        <ele>10.61655426491052</ele>
        <time>2026-07-01T11:02:28Z</time>
      </trkpt>
      <trkpt lat="31.231018814547873" lon="121.39931668435281">
        <ele>10.973258976824582</ele>
        <time>2026-07-01T11:02:28Z</time>
      </trkpt>
      <trkpt lat="31.230888872075155" lon="121.39927769182654">
        <ele>12.8334198044613</ele>
        <time>2026-07-01T11:02:28Z</time>
      </trkpt>
      <trkpt lat="31.230749936480517" lon="121.39927770394577">
        <ele>7.239727024920285</ele>
        <time>2026-07-01T11:02:28Z</time>
      </trkpt>
      <trkpt lat="31.230520047471206" lon="121.39934073027543">
        <ele>11.797649388201535</ele>
        <time>2026-07-01T11:02:28Z</time>
      </trkpt>
      <trkpt lat="31.230398108597182" lon="121.39940374739675">
        <ele>11.578342442400753</ele>
        <time>2026-07-01T11:02:28Z</time>
      </trkpt>
      <trkpt lat="31.230125239275395" lon="121.39945777692246">
        <ele>12.886264805682003</ele>
        <time>2026-07-01T11:02:28Z</time>
      </trkpt>
      <trkpt lat="31.230048276921238" lon="121.39948278633744">
        <ele>-3.1708316756412387</ele>
        <time>2026-07-01T11:02:28Z</time>
      </trkpt>
      <trkpt lat="31.229823394446544" lon="121.3996448242553">
        <ele>13.116146092303097</ele>
        <time>2026-07-01T11:02:28Z</time>
      </trkpt>
      <trkpt lat="31.22972845107602" lon="121.39978784983678">
        <ele>12.164924626238644</ele>
        <time>2026-07-01T11:02:28Z</time>
      </trkpt>
      <trkpt lat="31.229712469807993" lon="121.39990886670775">
        <ele>10.69053650368005</ele>
        <time>2026-07-01T11:02:28Z</time>
      </trkpt>
      <trkpt lat="31.229739474868733" lon="121.40008488823706">
        <ele>9.771026615984738</ele>
        <time>2026-07-01T11:02:28Z</time>
      </trkpt>
      <trkpt lat="31.229818454603542" lon="121.40023790343427">
        <ele>11.433017735369503</ele>
        <time>2026-07-01T11:02:28Z</time>
      </trkpt>
      <trkpt lat="31.22998739010551" lon="121.4003609073469">
        <ele>12.48728180397302</ele>
        <time>2026-07-01T11:02:28Z</time>
      </trkpt>
      <trkpt lat="31.230236275619017" lon="121.40036988703322">
        <ele>3.1362762497738004</ele>
        <time>2026-07-01T11:02:28Z</time>
      </trkpt>
      <trkpt lat="31.23051313394116" lon="121.40025384522039">
        <ele>7.932003025896847</ele>
        <time>2026-07-01T11:02:28Z</time>
      </trkpt>
      <trkpt lat="31.230796995053268" lon="121.40018781072574">
        <ele>8.05619049537927</ele>
        <time>2026-07-01T11:02:28Z</time>
      </trkpt>
      <trkpt lat="31.230973908322095" lon="121.40014378893171">
        <ele>7.366558079607785</ele>
        <time>2026-07-01T11:02:28Z</time>
      </trkpt>
      <trkpt lat="31.231116827817324" lon="121.40000575717131">
        <ele>12.458217625506222</ele>
        <time>2026-07-01T11:02:28Z</time>
      </trkpt>
      <trkpt lat="31.231167797283074" lon="121.39993574332121">
        <ele>10.595417027361691</ele>
        <time>2026-07-01T11:02:28Z</time>
      </trkpt>
      <trkpt lat="31.231224744457396" lon="121.39964470201814">
        <ele>12.571834568865597</ele>
        <time>2026-07-01T11:02:28Z</time>
      </trkpt>
      <trkpt lat="31.231202746504668" lon="121.39954569258873">
        <ele>13.18748474586755</ele>
        <time>2026-07-01T11:02:28Z</time>
      </trkpt>
      <trkpt lat="31.231129770351963" lon="121.3994166849387">
        <ele>11.985252385027707</ele>
        <time>2026-07-01T11:02:28Z</time>
      </trkpt>
      <trkpt lat="31.231083787849578" lon="121.39936468354676">
        <ele>10.8358612107113</ele>
        <time>2026-07-01T11:02:28Z</time>
      </trkpt>
      <trkpt lat="31.230919857577515" lon="121.39927568892783">
        <ele>12.320819859392941</ele>
        <time>2026-07-01T11:02:28Z</time>
      </trkpt>
      <trkpt lat="31.230770924723977" lon="121.39924769919914">
        <ele>13.565330510027707</ele>
        <time>2026-07-01T11:02:28Z</time>
      </trkpt>
      <trkpt lat="31.23060400428458" lon="121.3992797168713">
        <ele>4.013511662371457</ele>
        <time>2026-07-01T11:02:28Z</time>
      </trkpt>
      <trkpt lat="31.23035812818375" lon="121.39941775235349">
        <ele>0.7027435349300504</ele>
        <time>2026-07-01T11:02:28Z</time>
      </trkpt>
      <trkpt lat="31.230222191935276" lon="121.39942676516084">
        <ele>12.331390385515988</ele>
        <time>2026-07-01T11:02:28Z</time>
      </trkpt>
      <trkpt lat="31.230060273532562" lon="121.39951078835595">
        <ele>12.257404332049191</ele>
        <time>2026-07-01T11:02:28Z</time>
      </trkpt>
      <trkpt lat="31.22991234563482" lon="121.39955380604611">
        <ele>13.0421600388363</ele>
        <time>2026-07-01T11:02:28Z</time>
      </trkpt>
      <trkpt lat="31.229753433839814" lon="121.39972483990371">
        <ele>6.85395431984216</ele>
        <time>2026-07-01T11:02:28Z</time>
      </trkpt>
      <trkpt lat="31.229713458950666" lon="121.39979785239443">
        <ele>2.758430485613644</ele>
        <time>2026-07-01T11:02:28Z</time>
      </trkpt>
      <trkpt lat="31.229710474029318" lon="121.39994287136912">
        <ele>10.878139500506222</ele>
        <time>2026-07-01T11:02:28Z</time>
      </trkpt>
      <trkpt lat="31.229745474798857" lon="121.40011089138015">
        <ele>12.928543095476925</ele>
        <time>2026-07-01T11:02:28Z</time>
      </trkpt>
      <trkpt lat="31.229822452746532" lon="121.40023790308554">
        <ele>13.752933506853878</ele>
        <time>2026-07-01T11:02:28Z</time>
      </trkpt>
      <trkpt lat="31.22994440763384" lon="121.40033990785592">
        <ele>13.438503270037472</ele>
        <time>2026-07-01T11:02:28Z</time>
      </trkpt>
      <trkpt lat="31.229992387436823" lon="121.4003579064467">
        <ele>12.738300328142941</ele>
        <time>2026-07-01T11:02:28Z</time>
      </trkpt>
      <trkpt lat="31.230332226006748" lon="121.4003258718806">
        <ele>5.580379490740597</ele>
        <time>2026-07-01T11:02:28Z</time>
      </trkpt>
      <trkpt lat="31.230631076468892" lon="121.40022883121846">
        <ele>13.420005802996457</ele>
        <time>2026-07-01T11:02:28Z</time>
      </trkpt>
      <trkpt lat="31.230903942458642" lon="121.40015979733649">
        <ele>-27.080768580548465</ele>
        <time>2026-07-01T11:02:46Z</time>
      </trkpt>
      <trkpt lat="31.231042870884675" lon="121.40009177552858">
        <ele>12.68809509743005</ele>
        <time>2026-07-01T11:02:46Z</time>
      </trkpt>
      <trkpt lat="31.231125823951004" lon="121.40000875679537">
        <ele>4.890747074969113</ele>
        <time>2026-07-01T11:02:46Z</time>
      </trkpt>
      <trkpt lat="31.231167796312455" lon="121.39992574199886">
        <ele>12.97874451149255</ele>
        <time>2026-07-01T11:02:46Z</time>
      </trkpt>
      <trkpt lat="31.231205766502907" lon="121.39979572197316">
        <ele>12.89683533180505</ele>
        <time>2026-07-01T11:02:46Z</time>
      </trkpt>
      <trkpt lat="31.2312187469823" lon="121.39964170218985">
        <ele>13.491348271258175</ele>
        <time>2026-07-01T11:02:46Z</time>
      </trkpt>
      <trkpt lat="31.231196746902082" lon="121.39951568977472">
        <ele>12.278545384295285</ele>
        <time>2026-07-01T11:02:46Z</time>
      </trkpt>
      <trkpt lat="31.231066793865175" lon="121.3993386823808">
        <ele>11.245414738543332</ele>
        <time>2026-07-01T11:02:46Z</time>
      </trkpt>
      <trkpt lat="31.231001821725155" lon="121.39930668483747">
        <ele>11.097446446307003</ele>
        <time>2026-07-01T11:02:46Z</time>
      </trkpt>
      <trkpt lat="31.23070995652804" lon="121.39929970960144">
        <ele>7.858020787127316</ele>
        <time>2026-07-01T11:02:46Z</time>
      </trkpt>
      <trkpt lat="31.23066997744293" lon="121.3993337164896">
        <ele>7.815742497332394</ele>
        <time>2026-07-01T11:02:46Z</time>
      </trkpt>
      <trkpt lat="31.23040310329249" lon="121.39936274271714">
        <ele>8.035053257830441</ele>
        <time>2026-07-01T11:02:46Z</time>
      </trkpt>
      <trkpt lat="31.23010924939062" lon="121.39949278210891">
        <ele>11.097446446307003</ele>
        <time>2026-07-01T11:02:46Z</time>
      </trkpt>
      <trkpt lat="31.22988735828791" lon="121.39956680969196">
        <ele>12.957607273943722</ele>
        <time>2026-07-01T11:02:46Z</time>
      </trkpt>
      <trkpt lat="31.229725449499064" lon="121.39975484601102">
        <ele>12.89683533180505</ele>
        <time>2026-07-01T11:02:47Z</time>
      </trkpt>
      <trkpt lat="31.229697475337" lon="121.39989386605527">
        <ele>11.977325444109738</ele>
        <time>2026-07-01T11:02:47Z</time>
      </trkpt>
      <trkpt lat="31.229719480853714" lon="121.40005288551728">
        <ele>-20.411666865460575</ele>
        <time>2026-07-01T11:02:47Z</time>
      </trkpt>
      <trkpt lat="31.22974647633831" lon="121.40012989399457">
        <ele>10.12509346473962</ele>
        <time>2026-07-01T11:02:47Z</time>
      </trkpt>
      <trkpt lat="31.229896427161723" lon="121.40031590836642">
        <ele>-1.8047733260318637</ele>
        <time>2026-07-01T11:02:47Z</time>
      </trkpt>
      <trkpt lat="31.230020376187355" lon="121.40037290633158">
        <ele>-35.69986533652991</ele>
        <time>2026-07-01T11:02:47Z</time>
      </trkpt>
      <trkpt lat="31.230223278634796" lon="121.40034388414638">
        <ele>-23.80963325034827</ele>
        <time>2026-07-01T11:02:47Z</time>
      </trkpt>
      <trkpt lat="31.230524127507945" lon="121.4002418424746">
        <ele>12.352529530413449</ele>
        <time>2026-07-01T11:02:47Z</time>
      </trkpt>
      <trkpt lat="31.230804991997857" lon="121.40019381090362">
        <ele>12.048666005022824</ele>
        <time>2026-07-01T11:02:47Z</time>
      </trkpt>
      <trkpt lat="31.231020881491254" lon="121.40009577800994">
        <ele>10.952123646624386</ele>
        <time>2026-07-01T11:02:47Z</time>
      </trkpt>
      <trkpt lat="31.231161800743358" lon="121.3999427447731">
        <ele>-21.183210368268192</ele>
        <time>2026-07-01T11:02:47Z</time>
      </trkpt>
      <trkpt lat="31.231203769719805" lon="121.39982072529256">
        <ele>9.028547291643918</ele>
        <time>2026-07-01T11:02:47Z</time>
      </trkpt>
      <trkpt lat="31.231215752986103" lon="121.39969570884926">
        <ele>11.726308827288449</ele>
        <time>2026-07-01T11:02:47Z</time>
      </trkpt>
      <trkpt lat="31.231177756330293" lon="121.39952369231662">
        <ele>10.57427788246423</ele>
        <time>2026-07-01T11:02:47Z</time>
      </trkpt>
      <trkpt lat="31.231090786641513" lon="121.39939268582795">
        <ele>-3.786479945294559</ele>
        <time>2026-07-01T11:02:48Z</time>
      </trkpt>
      <trkpt lat="31.23102081439301" lon="121.39932768528182">
        <ele>-15.293582911603153</ele>
        <time>2026-07-01T11:02:48Z</time>
      </trkpt>
      <trkpt lat="31.230890872520757" lon="121.39929769362213">
        <ele>12.207204823382199</ele>
        <time>2026-07-01T11:02:48Z</time>
      </trkpt>
      <trkpt lat="31.23073594358365" lon="121.39928670605029">
        <ele>11.77651405800134</ele>
        <time>2026-07-01T11:02:48Z</time>
      </trkpt>
      <trkpt lat="31.230441087922483" lon="121.39939374260452">
        <ele>11.401311879046261</ele>
        <time>2026-07-01T11:02:48Z</time>
      </trkpt>
      <trkpt lat="31.230259176351595" lon="121.39944776416797">
        <ele>10.524076466448605</ele>
        <time>2026-07-01T11:02:48Z</time>
      </trkpt>
      <trkpt lat="31.230155225280395" lon="121.39945677419948">
        <ele>12.080373768694699</ele>
        <time>2026-07-01T11:02:48Z</time>
      </trkpt>
      <trkpt lat="31.2300672684138" lon="121.39948678511621">
        <ele>15.425493245013058</ele>
        <time>2026-07-01T11:02:48Z</time>
      </trkpt>
      <trkpt lat="31.229986306080555" lon="121.39948779228723">
        <ele>7.472249989397824</ele>
        <time>2026-07-01T11:02:48Z</time>
      </trkpt>
      <trkpt lat="31.22990034834018" lon="121.39951780307831">
        <ele>8.423467640765011</ele>
        <time>2026-07-01T11:02:48Z</time>
      </trkpt>
      <trkpt lat="31.229755433087156" lon="121.39972683997227">
        <ele>7.511884693987668</ele>
        <time>2026-07-01T11:02:48Z</time>
      </trkpt>
      <trkpt lat="31.22971846124291" lon="121.39984785828659">
        <ele>6.20660210121423</ele>
        <time>2026-07-01T11:02:48Z</time>
      </trkpt>
      <trkpt lat="31.229750473108304" lon="121.40011689179532">
        <ele>8.087900166399777</ele>
        <time>2026-07-01T11:02:48Z</time>
      </trkpt>
      <trkpt lat="31.229814460810495" lon="121.40027690960932">
        <ele>0.29583168495446444</ele>
        <time>2026-07-01T11:02:48Z</time>
      </trkpt>
      <trkpt lat="31.229900428056922" lon="121.40033991169209">
        <ele>11.192571644671261</ele>
        <time>2026-07-01T11:02:49Z</time>
      </trkpt>
      <trkpt lat="31.229988391855844" lon="121.40037991021109">
        <ele>10.804155354388058</ele>
        <time>2026-07-01T11:02:49Z</time>
      </trkpt>
      <trkpt lat="31.230112335016848" lon="121.40038590033599">
        <ele>3.426927571184933</ele>
        <time>2026-07-01T11:02:49Z</time>
      </trkpt>
      <trkpt lat="31.230399192765926" lon="121.40030686314165">
        <ele>11.765943531878293</ele>
        <time>2026-07-01T11:02:49Z</time>
      </trkpt>
      <trkpt lat="31.2306930491697" lon="121.40024182773988">
        <ele>13.438505177386105</ele>
        <time>2026-07-01T11:02:49Z</time>
      </trkpt>
      <trkpt lat="31.23100588969453" lon="121.4001077810124">
        <ele>-18.08910750877112</ele>
        <time>2026-07-01T11:02:49Z</time>
      </trkpt>
      <trkpt lat="31.231176790986304" lon="121.39991373963429">
        <ele>-17.70333671104163</ele>
        <time>2026-07-01T11:02:49Z</time>
      </trkpt>
      <trkpt lat="31.23122475670688" lon="121.39978471894314">
        <ele>-16.847240443341434</ele>
        <time>2026-07-01T11:02:49Z</time>
      </trkpt>
      <trkpt lat="31.231225747319588" lon="121.3996837065424">
        <ele>0.7450199173763394</ele>
        <time>2026-07-01T11:02:49Z</time>
      </trkpt>
      <trkpt lat="31.231177755149613" lon="121.39950869065946">
        <ele>13.42000771034509</ele>
        <time>2026-07-01T11:02:49Z</time>
      </trkpt>
      <trkpt lat="31.23103180915758" lon="121.39932568412164">
        <ele>11.076311116106808</ele>
        <time>2026-07-01T11:02:49Z</time>
      </trkpt>
      <trkpt lat="31.23080291185287" lon="121.39927669922682">
        <ele>12.394804005511105</ele>
        <time>2026-07-01T11:02:49Z</time>
      </trkpt>
      <trkpt lat="31.230608005056027" lon="121.39931772028741">
        <ele>4.462697987444699</ele>
        <time>2026-07-01T11:02:50Z</time>
      </trkpt>
      <trkpt lat="31.230314148739122" lon="121.39941975640043">
        <ele>11.49643135536462</ele>
        <time>2026-07-01T11:02:50Z</time>
      </trkpt>
      <trkpt lat="31.230037283033543" lon="121.39949578871429">
        <ele>12.69866753090173</ele>
        <time>2026-07-01T11:02:50Z</time>
      </trkpt>
      <trkpt lat="31.229844380204476" lon="121.39959081617108">
        <ele>0.5151424454525113</ele>
        <time>2026-07-01T11:02:50Z</time>
      </trkpt>
      <trkpt lat="31.229753433664023" lon="121.39972283966098">
        <ele>9.823873524554074</ele>
        <time>2026-07-01T11:02:50Z</time>
      </trkpt>
      <trkpt lat="31.229718456811366" lon="121.3997998522091">
        <ele>10.835863118059933</ele>
        <time>2026-07-01T11:02:50Z</time>
      </trkpt>
      <trkpt lat="31.22970347188395" lon="121.39988686462141">
        <ele>13.42000771034509</ele>
        <time>2026-07-01T11:02:50Z</time>
      </trkpt>
      <trkpt lat="31.22974447621034" lon="121.40011989274467">
        <ele>12.341959004290402</ele>
        <time>2026-07-01T11:02:50Z</time>
      </trkpt>
      <trkpt lat="31.229836449139558" lon="121.40026390574026">
        <ele>-1.5220508528873324</ele>
        <time>2026-07-01T11:02:50Z</time>
      </trkpt>
      <trkpt lat="31.22996540054832" lon="121.40036290957475">
        <ele>13.208627705462277</ele>
        <time>2026-07-01T11:02:50Z</time>
      </trkpt>
      <trkpt lat="31.230116333043682" lon="121.40038489983112">
        <ele>12.038099293597043</ele>
        <time>2026-07-01T11:02:50Z</time>
      </trkpt>
      <trkpt lat="31.23041718249191" lon="121.40028985899595">
        <ele>10.273057942278683</ele>
        <time>2026-07-01T11:02:50Z</time>
      </trkpt>
      <trkpt lat="31.230724028773196" lon="121.40018681694478">
        <ele>9.467164997942746</ele>
        <time>2026-07-01T11:02:50Z</time>
      </trkpt>
      <trkpt lat="31.23099889251754" lon="121.400103781057">
        <ele>12.896837239153683</ele>
        <time>2026-07-01T11:02:51Z</time>
      </trkpt>
      <trkpt lat="31.23112582264801" lon="121.3999957550275">
        <ele>12.090944294817746</ele>
        <time>2026-07-01T11:02:51Z</time>
      </trkpt>
      <trkpt lat="31.231202771570633" lon="121.39983572728251">
        <ele>12.833421711809933</ele>
        <time>2026-07-01T11:02:51Z</time>
      </trkpt>
      <trkpt lat="31.23121774803623" lon="121.39964870309777">
        <ele>9.604562764056027</ele>
        <time>2026-07-01T11:02:51Z</time>
      </trkpt>
      <trkpt lat="31.23119575014633" lon="121.39955069375985">
        <ele>7.752328877337277</ele>
        <time>2026-07-01T11:02:51Z</time>
      </trkpt>
      <trkpt lat="31.231113777168073" lon="121.39940868549333">
        <ele>10.177938465960324</ele>
        <time>2026-07-01T11:02:51Z</time>
      </trkpt>
      <trkpt lat="31.231050801630136" lon="121.39934368428234">
        <ele>-0.9988803816959262</ele>
        <time>2026-07-01T11:02:51Z</time>
      </trkpt>
      <trkpt lat="31.230844890168452" lon="121.39924369236199">
        <ele>11.610052113421261</ele>
        <time>2026-07-01T11:02:51Z</time>
      </trkpt>
      <trkpt lat="31.2307469361804" lon="121.39925270177433">
        <ele>12.497854237444699</ele>
        <time>2026-07-01T11:02:51Z</time>
      </trkpt>
      <trkpt lat="31.230702960814252" lon="121.39931471170455">
        <ele>12.466146473772824</ele>
        <time>2026-07-01T11:02:51Z</time>
      </trkpt>
      <trkpt lat="31.2303721210237" lon="121.39940875018716">
        <ele>12.57183647621423</ele>
        <time>2026-07-01T11:02:51Z</time>
      </trkpt>
      <trkpt lat="31.230304153526205" lon="121.39942175748324">
        <ele>12.069807057268918</ele>
        <time>2026-07-01T11:02:51Z</time>
      </trkpt>
      <trkpt lat="31.230242184768134" lon="121.39945476639963">
        <ele>9.049688343890011</ele>
        <time>2026-07-01T11:02:51Z</time>
      </trkpt>
      <trkpt lat="31.23006826733192" lon="121.39947878415924">
        <ele>8.463102345354855</ele>
        <time>2026-07-01T11:02:51Z</time>
      </trkpt>
      <trkpt lat="31.229826390874383" lon="121.3996188209638">
        <ele>12.458219532854855</ele>
        <time>2026-07-01T11:02:51Z</time>
      </trkpt>
      <trkpt lat="31.22976242652387" lon="121.39968883478204">
        <ele>12.770009999163449</ele>
        <time>2026-07-01T11:02:51Z</time>
      </trkpt>
      <trkpt lat="31.22969847382565" lon="121.39988286453806">
        <ele>6.153753285296261</ele>
        <time>2026-07-01T11:02:51Z</time>
      </trkpt>
      <trkpt lat="31.229686490408795" lon="121.39999588057711">
        <ele>7.805177693255246</ele>
        <time>2026-07-01T11:02:52Z</time>
      </trkpt>
      <trkpt lat="31.229753481372505" lon="121.4002069045272">
        <ele>13.187486653216183</ele>
        <time>2026-07-01T11:02:52Z</time>
      </trkpt>
      <trkpt lat="31.229794468079806" lon="121.40025890865402">
        <ele>13.409437184222043</ele>
        <time>2026-07-01T11:02:52Z</time>
      </trkpt>
      <trkpt lat="31.229991390346598" lon="121.40037890979373">
        <ele>11.956190113909543</ele>
        <time>2026-07-01T11:02:52Z</time>
      </trkpt>
      <trkpt lat="31.2300753537129" lon="121.4003989055963">
        <ele>11.065740589983761</ele>
        <time>2026-07-01T11:02:52Z</time>
      </trkpt>
      <trkpt lat="31.23040119274974" lon="121.40031486418494">
        <ele>-8.222858424298465</ele>
        <time>2026-07-01T11:02:52Z</time>
      </trkpt>
      <trkpt lat="31.230681053625062" lon="121.40023182730297">
        <ele>12.865129475481808</ele>
        <time>2026-07-01T11:02:52Z</time>
      </trkpt>
      <trkpt lat="31.230956917050214" lon="121.40015179156302">
        <ele>-13.718788142316043</ele>
        <time>2026-07-01T11:02:52Z</time>
      </trkpt>
      <trkpt lat="31.231083849924705" lon="121.40007276929015">
        <ele>-3.234245295636356</ele>
        <time>2026-07-01T11:02:52Z</time>
      </trkpt>
      <trkpt lat="31.231132821817912" lon="121.40001975768786">
        <ele>13.636674885638058</ele>
        <time>2026-07-01T11:02:52Z</time>
      </trkpt>
      <trkpt lat="31.23121276731244" lon="121.39983972692">
        <ele>-16.733621592633426</ele>
        <time>2026-07-01T11:02:52Z</time>
      </trkpt>
      <trkpt lat="31.231230750607292" lon="121.39974771384693">
        <ele>13.795209889300168</ele>
        <time>2026-07-01T11:02:52Z</time>
      </trkpt>
      <trkpt lat="31.231224743531698" lon="121.39963370073191">
        <ele>12.801717762835324</ele>
        <time>2026-07-01T11:02:52Z</time>
      </trkpt>
      <trkpt lat="31.23114876494265" lon="121.3994616880719">
        <ele>-5.279363627545536</ele>
        <time>2026-07-01T11:02:52Z</time>
      </trkpt>
      <trkpt lat="31.23103780800698" lon="121.39934868592364">
        <ele>11.85049629677087</ele>
        <time>2026-07-01T11:02:52Z</time>
      </trkpt>
      <trkpt lat="31.23097383455581" lon="121.39930468707988">
        <ele>10.542570118792355</ele>
        <time>2026-07-01T11:02:52Z</time>
      </trkpt>
      <trkpt lat="31.2308998672521" lon="121.39928169125977">
        <ele>3.199693684466183</ele>
        <time>2026-07-01T11:02:53Z</time>
      </trkpt>
      <trkpt lat="31.230831899649086" lon="121.39929469846945">
        <ele>10.022043232806027</ele>
        <time>2026-07-01T11:02:53Z</time>
      </trkpt>
      <trkpt lat="31.230742940202664" lon="121.39928470524319">
        <ele>10.418386464007199</ele>
        <time>2026-07-01T11:02:53Z</time>
      </trkpt>
      <trkpt lat="31.2304220959292" lon="121.39938274311965">
        <ele>10.01147270668298</ele>
        <time>2026-07-01T11:02:53Z</time>
      </trkpt>
      <trkpt lat="31.230125240192084" lon="121.39946977821516">
        <ele>13.972242360003293</ele>
        <time>2026-07-01T11:02:53Z</time>
      </trkpt>
      <trkpt lat="31.22990535074429" lon="121.39957680925652">
        <ele>-3.18139838706702</ele>
        <time>2026-07-01T11:02:53Z</time>
      </trkpt>
      <trkpt lat="31.229756430871127" lon="121.39970683746515">
        <ele>12.915334706194699</ele>
        <time>2026-07-01T11:02:53Z</time>
      </trkpt>
      <trkpt lat="31.22971145987937" lon="121.3997978525688">
        <ele>-0.7188014937564731</ele>
        <time>2026-07-01T11:02:53Z</time>
      </trkpt>
      <trkpt lat="31.229692478807113" lon="121.39990586805844">
        <ele>10.029970173723996</ele>
        <time>2026-07-01T11:02:53Z</time>
      </trkpt>
      <trkpt lat="31.22971248430917" lon="121.40005488640497">
        <ele>13.62874794472009</ele>
        <time>2026-07-01T11:02:53Z</time>
      </trkpt>
      <trkpt lat="31.229792464031124" lon="121.40021390215543">
        <ele>2.676523213274777</ele>
        <time>2026-07-01T11:02:53Z</time>
      </trkpt>
      <trkpt lat="31.229914419492136" lon="121.40032190771285">
        <ele>6.698064808733761</ele>
        <time>2026-07-01T11:02:53Z</time>
      </trkpt>
      <trkpt lat="31.23005236122086" lon="121.4003719033862">
        <ele>12.405374531634152</ele>
        <time>2026-07-01T11:02:53Z</time>
      </trkpt>
      <trkpt lat="31.23012432827889" lon="121.4003758977309">
        <ele>14.151918415911496</ele>
        <time>2026-07-01T11:02:53Z</time>
      </trkpt>
      <trkpt lat="31.230461160961845" lon="121.40027985365134">
        <ele>5.590951924212277</ele>
        <time>2026-07-01T11:02:53Z</time>
      </trkpt>
      <trkpt lat="31.23076601181485" lon="121.40020981664756">
        <ele>-8.94155692588538</ele>
        <time>2026-07-01T11:02:54Z</time>
      </trkpt>
      <trkpt lat="31.231017885187722" lon="121.4001177813841">
        <ele>9.675905232317746</ele>
        <time>2026-07-01T11:02:54Z</time>
      </trkpt>
      <trkpt lat="31.23120178183254" lon="121.39993874075446">
        <ele>7.231801991350949</ele>
        <time>2026-07-01T11:02:54Z</time>
      </trkpt>
      <trkpt lat="31.231231759354834" lon="121.39984872641261">
        <ele>10.072248463518918</ele>
        <time>2026-07-01T11:02:54Z</time>
      </trkpt>
      <trkpt lat="31.231234741268793" lon="121.39966170314655">
        <ele>11.044603352434933</ele>
        <time>2026-07-01T11:02:54Z</time>
      </trkpt>
      <trkpt lat="31.231186749423685" lon="121.39948868768353">
        <ele>13.784643177874386</ele>
        <time>2026-07-01T11:02:54Z</time>
      </trkpt>
      <trkpt lat="31.231150760627767" lon="121.39941668310772">
        <ele>12.257406239397824</ele>
        <time>2026-07-01T11:02:54Z</time>
      </trkpt>
      <trkpt lat="31.23099282547794" lon="121.39930068502615">
        <ele>7.126111988909543</ele>
        <time>2026-07-01T11:02:54Z</time>
      </trkpt>
      <trkpt lat="31.23091585915859" lon="121.39927168888553">
        <ele>12.875700001604855</ele>
        <time>2026-07-01T11:02:54Z</time>
      </trkpt>
      <trkpt lat="31.23068396843978" lon="121.39929771167017">
        <ele>13.063299183733761</ele>
        <time>2026-07-01T11:02:54Z</time>
      </trkpt>
      <trkpt lat="31.230379118593664" lon="121.39941975073327">
        <ele>2.821847920306027</ele>
        <time>2026-07-01T11:02:54Z</time>
      </trkpt>
      <trkpt lat="31.230106249391635" lon="121.39947478041255">
        <ele>12.812284474261105</ele>
        <time>2026-07-01T11:02:54Z</time>
      </trkpt>
      <trkpt lat="31.229872366470076" lon="121.39958181270255">
        <ele>2.832414631731808</ele>
        <time>2026-07-01T11:02:54Z</time>
      </trkpt>
      <trkpt lat="31.229806402423346" lon="121.3996458258547">
        <ele>13.77407265175134</ele>
        <time>2026-07-01T11:02:54Z</time>
      </trkpt>
      <trkpt lat="31.22974943622551" lon="121.3997308409819">
        <ele>12.674886708147824</ele>
        <time>2026-07-01T11:02:55Z</time>
      </trkpt>
      <trkpt lat="31.22971046300634" lon="121.39982685631028">
        <ele>0.26412773597985506</ele>
        <time>2026-07-01T11:02:55Z</time>
      </trkpt>
      <trkpt lat="31.229711477902036" lon="121.39998687717879">
        <ele>-4.016357417218387</ele>
        <time>2026-07-01T11:02:55Z</time>
      </trkpt>
      <trkpt lat="31.229803457393963" lon="121.40019989914207">
        <ele>7.533021931536496</ele>
        <time>2026-07-01T11:02:55Z</time>
      </trkpt>
      <trkpt lat="31.229956402294693" lon="121.40034190711727">
        <ele>8.883222584612668</ele>
        <time>2026-07-01T11:02:55Z</time>
      </trkpt>
      <trkpt lat="31.23009933987863" lon="121.40037589991054">
        <ele>10.291555409319699</ele>
        <time>2026-07-01T11:02:55Z</time>
      </trkpt>
      <trkpt lat="31.230241270977977" lon="121.40034988350162">
        <ele>6.927942280657589</ele>
        <time>2026-07-01T11:02:55Z</time>
      </trkpt>
      <trkpt lat="31.230513133718485" lon="121.40025184492208">
        <ele>8.579362873919308</ele>
        <time>2026-07-01T11:02:55Z</time>
      </trkpt>
      <trkpt lat="31.230782999380324" lon="121.40016780904213">
        <ele>5.538103108294308</ele>
        <time>2026-07-01T11:02:55Z</time>
      </trkpt>
      <trkpt lat="31.230989896058677" lon="121.40009778099471">
        <ele>11.808221821673214</ele>
        <time>2026-07-01T11:02:55Z</time>
      </trkpt>
      <trkpt lat="31.231109830357287" lon="121.39999875682972">
        <ele>12.656389241106808</ele>
        <time>2026-07-01T11:02:55Z</time>
      </trkpt>
      <trkpt lat="31.23120277381188" lon="121.39985973035151">
        <ele>-0.28018378745764494</ele>
        <time>2026-07-01T11:02:55Z</time>
      </trkpt>
      <trkpt lat="31.231218757771458" lon="121.39976571710896">
        <ele>10.28362846840173</ele>
        <time>2026-07-01T11:02:55Z</time>
      </trkpt>
      <trkpt lat="31.23117175816311" lon="121.39951169151308">
        <ele>12.423871998675168</ele>
        <time>2026-07-01T11:02:56Z</time>
      </trkpt>
      <trkpt lat="31.231126772411763" lon="121.39942568614974">
        <ele>10.481798176653683</ele>
        <time>2026-07-01T11:02:56Z</time>
      </trkpt>
      <trkpt lat="31.231072793376693" lon="121.399370685122">
        <ele>9.226720814593136</ele>
        <time>2026-07-01T11:02:56Z</time>
      </trkpt>
      <trkpt lat="31.23092285755815" lon="121.39929569063415">
        <ele>12.791147236712277</ele>
        <time>2026-07-01T11:02:56Z</time>
      </trkpt>
      <trkpt lat="31.230607005379785" lon="121.39931572017456">
        <ele>12.112081532366574</ele>
        <time>2026-07-01T11:02:56Z</time>
      </trkpt>
      <trkpt lat="31.23054403570783" lon="121.39933172727356">
        <ele>-1.3767261458560824</ele>
        <time>2026-07-01T11:02:56Z</time>
      </trkpt>
      <trkpt lat="31.23048406769179" lon="121.39938973843967">
        <ele>3.6885128067806363</ele>
        <time>2026-07-01T11:02:56Z</time>
      </trkpt>
      <trkpt lat="31.230342134272867" lon="121.39939975186132">
        <ele>9.205579762347043</ele>
        <time>2026-07-01T11:02:56Z</time>
      </trkpt>
      <trkpt lat="31.23024818145406" lon="121.39944776512702">
        <ele>5.329366688616574</ele>
        <time>2026-07-01T11:02:56Z</time>
      </trkpt>
      <trkpt lat="31.229946330417274" lon="121.39956080387019">
        <ele>-5.134038920514286</ele>
        <time>2026-07-01T11:02:56Z</time>
      </trkpt>
      <trkpt lat="31.22987236811115" lon="121.39960181499131">
        <ele>9.91635323036462</ele>
        <time>2026-07-01T11:02:56Z</time>
      </trkpt>
      <trkpt lat="31.229748436601643" lon="121.39972984094739">
        <ele>9.85293770302087</ele>
        <time>2026-07-01T11:02:56Z</time>
      </trkpt>
      <trkpt lat="31.229708470993867" lon="121.39990186614023">
        <ele>11.285051350481808</ele>
        <time>2026-07-01T11:02:56Z</time>
      </trkpt>
      <trkpt lat="31.2297224804876" lon="121.40006288664479">
        <ele>5.234243397600949</ele>
        <time>2026-07-01T11:02:56Z</time>
      </trkpt>
      <trkpt lat="31.2297494783563" lon="121.40016189832599">
        <ele>11.69460487831384</ele>
        <time>2026-07-01T11:02:56Z</time>
      </trkpt>
      <trkpt lat="31.22983645161044" lon="121.40028590904714">
        <ele>6.082414631731808</ele>
        <time>2026-07-01T11:02:56Z</time>
      </trkpt>
      <trkpt lat="31.229958404961582" lon="121.4003729117371">
        <ele>7.408834462054074</ele>
        <time>2026-07-01T11:02:56Z</time>
      </trkpt>
      <trkpt lat="31.230102340008695" lon="121.40038890167655">
        <ele>12.143789296038449</ele>
        <time>2026-07-01T11:50:45Z</time>
      </trkpt>
      <trkpt lat="31.23038020157695" lon="121.4003068647982">
        <ele>4.285665516741574</ele>
        <time>2026-07-01T11:50:57Z</time>
      </trkpt>
      <trkpt lat="31.230692047095385" lon="121.40021882442367">
        <ele>11.076311116106808</ele>
        <time>2026-07-01T11:51:09Z</time>
      </trkpt>
      <trkpt lat="31.230970908967297" lon="121.4001367881906">
        <ele>6.864526753313839</ele>
        <time>2026-07-01T11:51:21Z</time>
      </trkpt>
      <trkpt lat="31.231072854090566" lon="121.4000637689941">
        <ele>12.373666767962277</ele>
        <time>2026-07-01T11:51:27Z</time>
      </trkpt>
      <trkpt lat="31.231190782300665" lon="121.39989073540667">
        <ele>7.239728932268918</ele>
        <time>2026-07-01T11:51:33Z</time>
      </trkpt>
      <trkpt lat="31.231233746657228" lon="121.39971871005133">
        <ele>-3.223674769513309</ele>
        <time>2026-07-01T11:51:39Z</time>
      </trkpt>
      <trkpt lat="31.231202747065872" lon="121.39955269337419">
        <ele>7.210664753802121</ele>
        <time>2026-07-01T11:51:45Z</time>
      </trkpt>
      <trkpt lat="31.23116875552933" lon="121.39945968611298">
        <ele>9.905782704241574</ele>
        <time>2026-07-01T11:51:48Z</time>
      </trkpt>
      <trkpt lat="31.231022813185525" lon="121.39932368470546">
        <ele>11.369604115374386</ele>
        <time>2026-07-01T11:51:57Z</time>
      </trkpt>
      <trkpt lat="31.230911860132654" lon="121.39925868796912">
        <ele>-6.666559214703739</ele>
        <time>2026-07-01T11:52:00Z</time>
      </trkpt>
      <trkpt lat="31.23083689427586" lon="121.39924969363761">
        <ele>3.3344478653743863</ele>
        <time>2026-07-01T11:52:03Z</time>
      </trkpt>
      <trkpt lat="31.23060800339032" lon="121.39929371790079">
        <ele>8.870012287981808</ele>
        <time>2026-07-01T11:52:12Z</time>
      </trkpt>
      <trkpt lat="31.230341135622556" lon="121.39941175320472">
        <ele>6.301721577532589</ele>
        <time>2026-07-01T11:52:24Z</time>
      </trkpt>
      <trkpt lat="31.230077263155703" lon="121.39947878337458">
        <ele>6.111478810198605</ele>
        <time>2026-07-01T11:52:36Z</time>
      </trkpt>
      <trkpt lat="31.229879361516584" lon="121.39956080971163">
        <ele>10.825296406634152</ele>
        <time>2026-07-01T11:52:45Z</time>
      </trkpt>
      <trkpt lat="31.22981639468663" lon="121.39960882067972">
        <ele>8.49481010902673</ele>
        <time>2026-07-01T11:52:48Z</time>
      </trkpt>
      <trkpt lat="31.229736442526523" lon="121.39973384248074">
        <ele>11.015539173968136</ele>
        <time>2026-07-01T11:52:54Z</time>
      </trkpt>
      <trkpt lat="31.22969747495566" lon="121.39988986553452">
        <ele>-25.664506907574832</ele>
        <time>2026-07-01T11:53:00Z</time>
      </trkpt>
      <trkpt lat="31.229725484085453" lon="121.40011089312385">
        <ele>9.718183522112668</ele>
        <time>2026-07-01T11:53:09Z</time>
      </trkpt>
      <trkpt lat="31.22980246391956" lon="121.40025490735907">
        <ele>10.450090412981808</ele>
        <time>2026-07-01T11:53:15Z</time>
      </trkpt>
      <trkpt lat="31.22992741633183" lon="121.4003469104155">
        <ele>10.376108174212277</ele>
        <time>2026-07-01T11:53:21Z</time>
      </trkpt>
      <trkpt lat="31.230055360646134" lon="121.40037890421384">
        <ele>9.604562764056027</ele>
        <time>2026-07-01T11:53:27Z</time>
      </trkpt>
      <trkpt lat="31.230383200185713" lon="121.40030686453665">
        <ele>6.563306813128293</ele>
        <time>2026-07-01T11:53:42Z</time>
      </trkpt>
      <trkpt lat="31.23058909659994" lon="121.40023483576866">
        <ele>9.948060994036496</ele>
        <time>2026-07-01T11:53:51Z</time>
      </trkpt>
      <trkpt lat="31.230866960459444" lon="121.40016780171828">
        <ele>9.48830605018884</ele>
        <time>2026-07-01T11:54:03Z</time>
      </trkpt>
      <trkpt lat="31.231071851586602" lon="121.40003476506598">
        <ele>8.423467640765011</ele>
        <time>2026-07-01T11:54:12Z</time>
      </trkpt>
      <trkpt lat="31.231177787653944" lon="121.3998837356305">
        <ele>9.675905232317746</ele>
        <time>2026-07-01T11:54:18Z</time>
      </trkpt>
      <trkpt lat="31.23121875220481" lon="121.39970270942825">
        <ele>-33.37730597984046</ele>
        <time>2026-07-01T11:54:24Z</time>
      </trkpt>
      <trkpt lat="31.23118375458348" lon="121.39953669323924">
        <ele>8.94399452675134</ele>
        <time>2026-07-01T11:54:30Z</time>
      </trkpt>
      <trkpt lat="31.231110779746302" lon="121.39942468743907">
        <ele>6.655786518938839</ele>
        <time>2026-07-01T11:54:36Z</time>
      </trkpt>
      <trkpt lat="31.231025813993472" lon="121.39935468758102">
        <ele>11.139726643450558</ele>
        <time>2026-07-01T11:54:39Z</time>
      </trkpt>
      <trkpt lat="31.230952845188792" lon="121.39931769020735">
        <ele>9.237287526018918</ele>
        <time>2026-07-01T11:54:42Z</time>
      </trkpt>
      <trkpt lat="31.230727948601768" lon="121.39930570862775">
        <ele>10.534643177874386</ele>
        <time>2026-07-01T11:54:51Z</time>
      </trkpt>
      <trkpt lat="31.230421096684495" lon="121.39938674362116">
        <ele>11.285051350481808</ele>
        <time>2026-07-01T11:55:03Z</time>
      </trkpt>
      <trkpt lat="31.230114246373404" lon="121.3994837806919">
        <ele>11.234846119768918</ele>
        <time>2026-07-01T11:55:15Z</time>
      </trkpt>
      <trkpt lat="31.22995632250516" lon="121.39951979841713">
        <ele>8.151311879046261</ele>
        <time>2026-07-01T11:55:21Z</time>
      </trkpt>
      <trkpt lat="31.229823391602558" lon="121.3996108203002">
        <ele>10.584848408587277</ele>
        <time>2026-07-01T11:55:27Z</time>
      </trkpt>
      <trkpt lat="31.229762426351265" lon="121.39968683454308">
        <ele>10.605985646136105</ele>
        <time>2026-07-01T11:55:30Z</time>
      </trkpt>
      <trkpt lat="31.229724450948034" lon="121.39976584745429">
        <ele>10.553140644915402</ele>
        <time>2026-07-01T11:55:33Z</time>
      </trkpt>
      <trkpt lat="31.229698478530743" lon="121.39993187095702">
        <ele>-30.349260325543582</ele>
        <time>2026-07-01T11:55:39Z</time>
      </trkpt>
      <trkpt lat="31.229719483532904" lon="121.40007888913976">
        <ele>4.943593983538449</ele>
        <time>2026-07-01T11:55:45Z</time>
      </trkpt>
      <trkpt lat="31.229786466378737" lon="121.40020990209054">
        <ele>-1.1362781478092074</ele>
        <time>2026-07-01T11:55:51Z</time>
      </trkpt>
      <trkpt lat="31.22990042484882" lon="121.40031190740822">
        <ele>6.196031575091183</ele>
        <time>2026-07-01T11:55:58Z</time>
      </trkpt>
      <trkpt lat="31.23014232004424" lon="121.4003768963172">
        <ele>-19.24378203880042</ele>
        <time>2026-07-01T11:56:07Z</time>
      </trkpt>
      <trkpt lat="31.230408188592396" lon="121.40030686235697">
        <ele>10.888708119280636</ele>
        <time>2026-07-01T11:56:19Z</time>
      </trkpt>
      <trkpt lat="31.230694046168455" lon="121.4002188242493">
        <ele>7.670419697649777</ele>
        <time>2026-07-01T11:56:31Z</time>
      </trkpt>
      <trkpt lat="31.23098290160997" lon="121.40011978471993">
        <ele>11.086881642229855</ele>
        <time>2026-07-01T11:56:43Z</time>
      </trkpt>
      <trkpt lat="31.23104686851167" lon="121.40008677447702">
        <ele>-5.20802306663245</ele>
        <time>2026-07-01T11:56:46Z</time>
      </trkpt>
      <trkpt lat="31.23114880911794" lon="121.39996674911043">
        <ele>11.369604115374386</ele>
        <time>2026-07-01T11:56:52Z</time>
      </trkpt>
      <trkpt lat="31.231205773364266" lon="121.3998697313776">
        <ele>11.306188588030636</ele>
        <time>2026-07-01T11:56:55Z</time>
      </trkpt>
      <trkpt lat="31.231250734972054" lon="121.39967470329138">
        <ele>9.78952217567712</ele>
        <time>2026-07-01T11:57:01Z</time>
      </trkpt>
      <trkpt lat="31.23114876586145" lon="121.39947368936711">
        <ele>10.28362846840173</ele>
        <time>2026-07-01T11:57:10Z</time>
      </trkpt>
      <trkpt lat="31.23105080284495" lon="121.39936068601429">
        <ele>9.131597523577511</ele>
        <time>2026-07-01T11:57:16Z</time>
      </trkpt>
      <trkpt lat="31.23094984609002" lon="121.3993106897697">
        <ele>10.584848408587277</ele>
        <time>2026-07-01T11:57:22Z</time>
      </trkpt>
      <trkpt lat="31.23076393108918" lon="121.39929370429942">
        <ele>8.663915638811886</ele>
        <time>2026-07-01T11:57:28Z</time>
      </trkpt>
      <trkpt lat="31.230488063162085" lon="121.39935273428453">
        <ele>-29.72568320762366</ele>
        <time>2026-07-01T11:57:40Z</time>
      </trkpt>
      <trkpt lat="31.23014623067894" lon="121.39947277670859">
        <ele>9.091962818987668</ele>
        <time>2026-07-01T11:57:58Z</time>
      </trkpt>
      <trkpt lat="31.23005927143118" lon="121.39947778483544">
        <ele>5.945016865618527</ele>
        <time>2026-07-01T11:58:01Z</time>
      </trkpt>
      <trkpt lat="31.22986337311621" lon="121.39961181692823">
        <ele>-1.0200176192447543</ele>
        <time>2026-07-01T11:58:10Z</time>
      </trkpt>
      <trkpt lat="31.229753436676567" lon="121.39975684381594">
        <ele>9.028547291643918</ele>
        <time>2026-07-01T11:58:16Z</time>
      </trkpt>
      <trkpt lat="31.229712471351082" lon="121.39992486881172">
        <ele>8.035055165179074</ele>
        <time>2026-07-01T11:58:22Z</time>
      </trkpt>
      <trkpt lat="31.229761468000884" lon="121.40011689083627">
        <ele>9.520009999163449</ele>
        <time>2026-07-01T11:58:31Z</time>
      </trkpt>
      <trkpt lat="31.229808454745875" lon="121.40019689826727">
        <ele>9.63363075722009</ele>
        <time>2026-07-01T11:58:34Z</time>
      </trkpt>
      <trkpt lat="31.229930410923803" lon="121.40031190479266">
        <ele>11.224279408343136</ele>
        <time>2026-07-01T11:58:41Z</time>
      </trkpt>
      <trkpt lat="31.230052359708605" lon="121.40035890137027">
        <ele>8.632207875140011</ele>
        <time>2026-07-01T11:58:47Z</time>
      </trkpt>
      <trkpt lat="31.23019229463536" lon="121.4003578890095">
        <ele>8.91229057777673</ele>
        <time>2026-07-01T11:58:53Z</time>
      </trkpt>
      <trkpt lat="31.2304681569295" lon="121.40027285198826">
        <ele>10.188505177386105</ele>
        <time>2026-07-01T11:59:05Z</time>
      </trkpt>
      <trkpt lat="31.23074602031806" lon="121.40020281736435">
        <ele>7.263509755022824</ele>
        <time>2026-07-01T11:59:17Z</time>
      </trkpt>
      <trkpt lat="31.230948919052" lon="121.40013578996572">
        <ele>9.665338520891964</ele>
        <time>2026-07-01T11:59:26Z</time>
      </trkpt>
      <trkpt lat="31.23104386855317" lon="121.40007377291744">
        <ele>10.888708119280636</ele>
        <time>2026-07-01T11:59:32Z</time>
      </trkpt>
      <trkpt lat="31.231151803721094" lon="121.3999257433939">
        <ele>8.91229057777673</ele>
        <time>2026-07-01T11:59:38Z</time>
      </trkpt>
      <trkpt lat="31.23119577518343" lon="121.39983972840223">
        <ele>8.526517872698605</ele>
        <time>2026-07-01T11:59:41Z</time>
      </trkpt>
      <trkpt lat="31.231214750698797" lon="121.39966370512667">
        <ele>11.171434407122433</ele>
        <time>2026-07-01T11:59:47Z</time>
      </trkpt>
      <trkpt lat="31.231167758764684" lon="121.39949569010467">
        <ele>8.264932637102902</ele>
        <time>2026-07-01T11:59:53Z</time>
      </trkpt>
      <trkpt lat="31.231066795938784" lon="121.39936768533683">
        <ele>9.07082558143884</ele>
        <time>2026-07-01T11:59:59Z</time>
      </trkpt>
      <trkpt lat="31.230986828951142" lon="121.39931068654371">
        <ele>11.285051350481808</ele>
        <time>2026-07-01T12:00:02Z</time>
      </trkpt>
      <trkpt lat="31.230793915276497" lon="121.39926569893755">
        <ele>7.126111988909543</ele>
        <time>2026-07-01T12:00:08Z</time>
      </trkpt>
      <trkpt lat="31.230497058846414" lon="121.39935073329613">
        <ele>10.093385701067746</ele>
        <time>2026-07-01T12:00:20Z</time>
      </trkpt>
      <trkpt lat="31.230220193387417" lon="121.39943376607698">
        <ele>4.095422749407589</ele>
        <time>2026-07-01T12:00:32Z</time>
      </trkpt>
      <trkpt lat="31.22993533209443" lon="121.39951780002681">
        <ele>4.576318745501339</ele>
        <time>2026-07-01T12:00:47Z</time>
      </trkpt>
    </trkseg>
  </trk>
</gpx>