<?xml version="1.0" encoding="UTF-8"?>
<gpx xmlns="http://www.topografix.com/GPX/1/1" xmlns:gpxtpx="http://www.garmin.com/xmlschemas/TrackPointExtension/v1" xmlns:xsi="http://www.w3.org/2001/XMLSchema-instance" xsi:schemaLocation="http://www.topografix.com/GPX/1/1 http://www.topografix.com/GPX/1/1/gpx.xsd" version="1.1" creator="gpx.py -- https://github.com/tkrajina/gpxpy">
  <trk>
    <name>gpx from keep</name>
    <type>Run</type>
    <trkseg>
      <trkpt lat="31.229683464246126" lon="121.39970084310778">
        <ele>16.349935964681208</ele>
        <time>2026-06-10T09:22:53Z</time>
      </trkpt>
      <trkpt lat="31.229742467626153" lon="121.40002788006238">
        <ele>15.483269170857966</ele>
        <time>2026-06-10T09:23:05Z</time>
      </trkpt>
      <trkpt lat="31.229757471019166" lon="121.40012789275026">
        <ele>8.36234136018902</ele>
        <time>2026-06-10T09:23:08Z</time>
      </trkpt>
      <trkpt lat="31.229797462808037" lon="121.40022390319318">
        <ele>20.783670858480036</ele>
        <time>2026-06-10T09:23:11Z</time>
      </trkpt>
      <trkpt lat="31.229906425041552" lon="121.40033791086162">
        <ele>19.676557973958552</ele>
        <time>2026-06-10T09:23:17Z</time>
      </trkpt>
      <trkpt lat="31.23007235475173" lon="121.40039590538758">
        <ele>18.89444585237652</ele>
        <time>2026-06-10T09:23:23Z</time>
      </trkpt>
      <trkpt lat="31.23026126919251" lon="121.4004138917381">
        <ele>20.709688619710505</ele>
        <time>2026-06-10T09:23:29Z</time>
      </trkpt>
      <trkpt lat="31.23058010987107" lon="121.40031584873084">
        <ele>18.35277982149273</ele>
        <time>2026-06-10T09:23:41Z</time>
      </trkpt>
      <trkpt lat="31.23087396068116" lon="121.40019980576487">
        <ele>18.487535909749568</ele>
        <time>2026-06-10T09:23:53Z</time>
      </trkpt>
      <trkpt lat="31.23101388830779" lon="121.40012978344134">
        <ele>13.197702840901911</ele>
        <time>2026-06-10T09:23:59Z</time>
      </trkpt>
      <trkpt lat="31.231129824117954" lon="121.40002875918375">
        <ele>-97.34446482267231</ele>
        <time>2026-06-10T09:24:02Z</time>
      </trkpt>
      <trkpt lat="31.231218766028668" lon="121.39985572844286">
        <ele>9.382257894612849</ele>
        <time>2026-06-10T09:24:05Z</time>
      </trkpt>
      <trkpt lat="31.231227744765267" lon="121.39966470411144">
        <ele>22.73630948457867</ele>
        <time>2026-06-10T09:24:08Z</time>
      </trkpt>
      <trkpt lat="31.23115876169279" lon="121.39947968914566">
        <ele>22.308262304402888</ele>
        <time>2026-06-10T09:24:11Z</time>
      </trkpt>
      <trkpt lat="31.231042806550082" lon="121.39936068671182">
        <ele>10.476158575154841</ele>
        <time>2026-06-10T09:24:14Z</time>
      </trkpt>
      <trkpt lat="31.230890873840696" lon="121.39931669551302">
        <ele>-14.815686746500432</ele>
        <time>2026-06-10T09:24:17Z</time>
      </trkpt>
      <trkpt lat="31.230741943089818" lon="121.39931970880443">
        <ele>20.146883443929255</ele>
        <time>2026-06-10T09:24:20Z</time>
      </trkpt>
      <trkpt lat="31.230362125587337" lon="121.39940775095423">
        <ele>0.20299954805523157</ele>
        <time>2026-06-10T09:24:29Z</time>
      </trkpt>
      <trkpt lat="31.230113245759867" lon="121.3994697792614">
        <ele>13.480427221395075</ele>
        <time>2026-06-10T09:24:35Z</time>
      </trkpt>
      <trkpt lat="31.229994304711244" lon="121.39951779488284">
        <ele>21.671474889852107</ele>
        <time>2026-06-10T09:24:38Z</time>
      </trkpt>
      <trkpt lat="31.2297964084228" lon="121.39966182860962">
        <ele>10.935917333699763</ele>
        <time>2026-06-10T09:24:44Z</time>
      </trkpt>
      <trkpt lat="31.229744441034224" lon="121.3997588448469">
        <ele>22.32940144930035</ele>
        <time>2026-06-10T09:24:47Z</time>
      </trkpt>
      <trkpt lat="31.22972146823942" lon="121.39993586948133">
        <ele>-14.213246866129339</ele>
        <time>2026-06-10T09:24:53Z</time>
      </trkpt>
      <trkpt lat="31.22972247803046" lon="121.40003888331988">
        <ele>11.633476690389216</ele>
        <time>2026-06-10T09:24:56Z</time>
      </trkpt>
      <trkpt lat="31.229785466405655" lon="121.40020590159057">
        <ele>18.080625967122614</ele>
        <time>2026-06-10T09:25:02Z</time>
      </trkpt>
      <trkpt lat="31.229894430842027" lon="121.40033991221519">
        <ele>12.521280721761286</ele>
        <time>2026-06-10T09:25:08Z</time>
      </trkpt>
      <trkpt lat="31.22995840601332" lon="121.40038191313845">
        <ele>22.24484868440777</ele>
        <time>2026-06-10T09:25:11Z</time>
      </trkpt>
      <trkpt lat="31.230101342592544" lon="121.40040690458582">
        <ele>19.76111073885113</ele>
        <time>2026-06-10T09:25:17Z</time>
      </trkpt>
      <trkpt lat="31.23038820037984" lon="121.40032886745735">
        <ele>20.210298971273005</ele>
        <time>2026-06-10T09:25:29Z</time>
      </trkpt>
      <trkpt lat="31.23065906382171" lon="121.40023182922111">
        <ele>17.142618612386286</ele>
        <time>2026-06-10T09:25:41Z</time>
      </trkpt>
      <trkpt lat="31.230960912011565" lon="121.40012178692254">
        <ele>22.12066121492535</ele>
        <time>2026-06-10T09:25:53Z</time>
      </trkpt>
      <trkpt lat="31.23102188134141" lon="121.40009877834571">
        <ele>21.388752416707575</ele>
        <time>2026-06-10T09:25:56Z</time>
      </trkpt>
      <trkpt lat="31.23118378861373" lon="121.39992274020814">
        <ele>13.823921636678278</ele>
        <time>2026-06-10T09:26:05Z</time>
      </trkpt>
      <trkpt lat="31.231217765649795" lon="121.39984672737754">
        <ele>19.874729589559138</ele>
        <time>2026-06-10T09:26:08Z</time>
      </trkpt>
      <trkpt lat="31.23122774264702" lon="121.39963970117113">
        <ele>9.77860112581402</ele>
        <time>2026-06-10T09:26:14Z</time>
      </trkpt>
      <trkpt lat="31.231205744636362" lon="121.39953969165596">
        <ele>15.430424169637263</ele>
        <time>2026-06-10T09:26:17Z</time>
      </trkpt>
      <trkpt lat="31.231113776946398" lon="121.39940568517903">
        <ele>21.96212621126324</ele>
        <time>2026-06-10T09:26:23Z</time>
      </trkpt>
      <trkpt lat="31.230983831249592" lon="121.39932368810585">
        <ele>22.213140920735896</ele>
        <time>2026-06-10T09:26:29Z</time>
      </trkpt>
      <trkpt lat="31.230686964188227" lon="121.39925570729588">
        <ele>19.697697118856013</ele>
        <time>2026-06-10T09:26:41Z</time>
      </trkpt>
      <trkpt lat="31.230545031771797" lon="121.39928172221164">
        <ele>21.91192288789898</ele>
        <time>2026-06-10T09:26:47Z</time>
      </trkpt>
      <trkpt lat="31.230238182510917" lon="121.39939976092877">
        <ele>16.994650320149958</ele>
        <time>2026-06-10T09:27:02Z</time>
      </trkpt>
      <trkpt lat="31.22992433806937" lon="121.39952880220515">
        <ele>-8.627479120157659</ele>
        <time>2026-06-10T09:27:17Z</time>
      </trkpt>
      <trkpt lat="31.229755432209082" lon="121.39971683875969">
        <ele>18.696274236775935</ele>
        <time>2026-06-10T09:27:26Z</time>
      </trkpt>
      <trkpt lat="31.229723452944615" lon="121.39978284964974">
        <ele>20.57493253145367</ele>
        <time>2026-06-10T09:27:29Z</time>
      </trkpt>
      <trkpt lat="31.22970947863174" lon="121.3999848770829">
        <ele>20.751965002156794</ele>
        <time>2026-06-10T09:27:35Z</time>
      </trkpt>
      <trkpt lat="31.229769468748433" lon="121.4001588961494">
        <ele>11.406240896321833</ele>
        <time>2026-06-10T09:27:41Z</time>
      </trkpt>
      <trkpt lat="31.229880433336028" lon="121.4003049080874">
        <ele>18.371275381185114</ele>
        <time>2026-06-10T09:27:47Z</time>
      </trkpt>
      <trkpt lat="31.22995640519068" lon="121.40036691097961">
        <ele>22.379604772664607</ele>
        <time>2026-06-10T09:27:50Z</time>
      </trkpt>
      <trkpt lat="31.230040370307893" lon="121.40040190911854">
        <ele>3.3895821133628488</ele>
        <time>2026-06-10T09:27:53Z</time>
      </trkpt>
      <trkpt lat="31.23012133414101" lon="121.40041390394418">
        <ele>18.225950674153864</ele>
        <time>2026-06-10T09:27:57Z</time>
      </trkpt>
      <trkpt lat="31.23040019538912" lon="121.40033386717752">
        <ele>-5.451467080973089</ele>
        <time>2026-06-10T09:28:09Z</time>
      </trkpt>
      <trkpt lat="31.23067905543667" lon="121.40023982866346">
        <ele>19.895864919759333</ele>
        <time>2026-06-10T09:28:21Z</time>
      </trkpt>
      <trkpt lat="31.230836973178477" lon="121.40015680274557">
        <ele>9.54872174654156</ele>
        <time>2026-06-10T09:28:24Z</time>
      </trkpt>
      <trkpt lat="31.230925929706558" lon="121.40013579197107">
        <ele>21.055824712850153</ele>
        <time>2026-06-10T09:28:27Z</time>
      </trkpt>
      <trkpt lat="31.231103834440535" lon="121.40001175912278">
        <ele>15.171480611898005</ele>
        <time>2026-06-10T09:28:33Z</time>
      </trkpt>
      <trkpt lat="31.231180787598937" lon="121.39989773719078">
        <ele>6.621081785298884</ele>
        <time>2026-06-10T09:28:39Z</time>
      </trkpt>
      <trkpt lat="31.23121975820823" lon="121.3997757182601">
        <ele>19.467817739583552</ele>
        <time>2026-06-10T09:28:42Z</time>
      </trkpt>
      <trkpt lat="31.23119675325664" lon="121.39959469866409">
        <ele>20.199726537801325</ele>
        <time>2026-06-10T09:28:48Z</time>
      </trkpt>
      <trkpt lat="31.23111977738328" lon="121.39944868920577">
        <ele>14.690586523152888</ele>
        <time>2026-06-10T09:28:54Z</time>
      </trkpt>
      <trkpt lat="31.230993828886678" lon="121.39935569047312">
        <ele>22.078382925130427</ele>
        <time>2026-06-10T09:29:00Z</time>
      </trkpt>
      <trkpt lat="31.230861887766608" lon="121.39932369874292">
        <ele>19.280216650106013</ele>
        <time>2026-06-10T09:29:06Z</time>
      </trkpt>
      <trkpt lat="31.23065998264436" lon="121.39934171817042">
        <ele>22.120659307576716</ele>
        <time>2026-06-10T09:29:15Z</time>
      </trkpt>
      <trkpt lat="31.230469075748413" lon="121.39940474131103">
        <ele>17.861315206624568</ele>
        <time>2026-06-10T09:29:24Z</time>
      </trkpt>
      <trkpt lat="31.230339137591727" lon="121.3994257548542">
        <ele>23.674316839314997</ele>
        <time>2026-06-10T09:29:30Z</time>
      </trkpt>
      <trkpt lat="31.230054276003262" lon="121.39950678843873">
        <ele>-2.5476088961586356</ele>
        <time>2026-06-10T09:29:42Z</time>
      </trkpt>
      <trkpt lat="31.22984737889382" lon="121.39959181602394">
        <ele>10.143232778646052</ele>
        <time>2026-06-10T09:29:51Z</time>
      </trkpt>
      <trkpt lat="31.229731447518258" lon="121.39976384659697">
        <ele>18.883875326253474</ele>
        <time>2026-06-10T09:29:54Z</time>
      </trkpt>
      <trkpt lat="31.22970247291979" lon="121.39989286548908">
        <ele>21.304197744466364</ele>
        <time>2026-06-10T09:29:57Z</time>
      </trkpt>
      <trkpt lat="31.229706481521628" lon="121.39999987937642">
        <ele>17.507250265218318</ele>
        <time>2026-06-10T09:30:00Z</time>
      </trkpt>
      <trkpt lat="31.229779468972964" lon="121.4002039018204">
        <ele>22.474724248982966</ele>
        <time>2026-06-10T09:30:06Z</time>
      </trkpt>
      <trkpt lat="31.22985545044728" lon="121.40035291761838">
        <ele>19.467817739583552</ele>
        <time>2026-06-10T09:30:09Z</time>
      </trkpt>
      <trkpt lat="31.22999039445674" lon="121.40040991473546">
        <ele>17.81111188326031</ele>
        <time>2026-06-10T09:30:12Z</time>
      </trkpt>
      <trkpt lat="31.230119334240705" lon="121.40040690301647">
        <ele>18.561516241170466</ele>
        <time>2026-06-10T09:30:15Z</time>
      </trkpt>
      <trkpt lat="31.230284251842857" lon="121.40035688083368">
        <ele>20.9395641842857</ele>
        <time>2026-06-10T09:30:21Z</time>
      </trkpt>
      <trkpt lat="31.230616082321287" lon="121.40021883104995">
        <ele>3.505840734578669</ele>
        <time>2026-06-10T09:30:33Z</time>
      </trkpt>
      <trkpt lat="31.230736026045662" lon="121.40021281970414">
        <ele>17.203388647176325</ele>
        <time>2026-06-10T09:30:36Z</time>
      </trkpt>
      <trkpt lat="31.230959912474784" lon="121.40012178700972">
        <ele>21.816799596883357</ele>
        <time>2026-06-10T09:30:45Z</time>
      </trkpt>
      <trkpt lat="31.231103834440535" lon="121.40001175912278">
        <ele>17.507250265218318</ele>
        <time>2026-06-10T09:30:51Z</time>
      </trkpt>
      <trkpt lat="31.23118677972301" lon="121.39984372969718">
        <ele>20.992409185506403</ele>
        <time>2026-06-10T09:30:57Z</time>
      </trkpt>
      <trkpt lat="31.231205760147652" lon="121.39972471322021">
        <ele>8.370266393758357</ele>
        <time>2026-06-10T09:31:00Z</time>
      </trkpt>
      <trkpt lat="31.231202752048123" lon="121.39961370032773">
        <ele>17.81903882417828</ele>
        <time>2026-06-10T09:31:03Z</time>
      </trkpt>
      <trkpt lat="31.23115476231706" lon="121.39946368776411">
        <ele>16.1094860592857</ele>
        <time>2026-06-10T09:31:09Z</time>
      </trkpt>
      <trkpt lat="31.230990829136076" lon="121.3993396891084">
        <ele>19.227369741536677</ele>
        <time>2026-06-10T09:31:18Z</time>
      </trkpt>
      <trkpt lat="31.230856888341982" lon="121.39929869668559">
        <ele>20.907856420613825</ele>
        <time>2026-06-10T09:31:24Z</time>
      </trkpt>
      <trkpt lat="31.230568024018737" lon="121.39932372437629">
        <ele>4.618236974813044</ele>
        <time>2026-06-10T09:31:36Z</time>
      </trkpt>
      <trkpt lat="31.23027116898174" lon="121.39942376057158">
        <ele>12.563554243184626</ele>
        <time>2026-06-10T09:31:48Z</time>
      </trkpt>
      <trkpt lat="31.230220194973512" lon="121.39945476831774">
        <ele>15.670869306661189</ele>
        <time>2026-06-10T09:31:51Z</time>
      </trkpt>
      <trkpt lat="31.22991734163592" lon="121.39953280326041">
        <ele>20.659482435323298</ele>
        <time>2026-06-10T09:32:06Z</time>
      </trkpt>
      <trkpt lat="31.22986736572184" lon="121.39954380884764">
        <ele>7.152177290059626</ele>
        <time>2026-06-10T09:32:09Z</time>
      </trkpt>
      <trkpt lat="31.22982139809848" lon="121.39967682820756">
        <ele>18.384484724141657</ele>
        <time>2026-06-10T09:32:12Z</time>
      </trkpt>
      <trkpt lat="31.229761437485287" lon="121.39980684933892">
        <ele>18.363345579244196</ele>
        <time>2026-06-10T09:32:18Z</time>
      </trkpt>
      <trkpt lat="31.229748467388116" lon="121.40005288298892">
        <ele>20.85765214357525</ele>
        <time>2026-06-10T09:32:27Z</time>
      </trkpt>
      <trkpt lat="31.229794461572418" lon="121.40019989992673">
        <ele>17.036923841573298</ele>
        <time>2026-06-10T09:32:33Z</time>
      </trkpt>
      <trkpt lat="31.229891430053872" lon="121.40032090956535">
        <ele>19.835092023946345</ele>
        <time>2026-06-10T09:32:39Z</time>
      </trkpt>
      <trkpt lat="31.230002386061138" lon="121.40038590992644">
        <ele>-3.443340822122991</ele>
        <time>2026-06-10T09:32:45Z</time>
      </trkpt>
      <trkpt lat="31.230116334924446" lon="121.40040090233545">
        <ele>21.106025175191462</ele>
        <time>2026-06-10T09:32:51Z</time>
      </trkpt>
      <trkpt lat="31.230385196992465" lon="121.40028686133287">
        <ele>21.618627027608454</ele>
        <time>2026-06-10T09:33:03Z</time>
      </trkpt>
      <trkpt lat="31.230718034387447" lon="121.40021282127353">
        <ele>19.029199079610407</ele>
        <time>2026-06-10T09:33:18Z</time>
      </trkpt>
      <trkpt lat="31.230872950363082" lon="121.40009879133686">
        <ele>14.722291425801814</ele>
        <time>2026-06-10T09:33:24Z</time>
      </trkpt>
      <trkpt lat="31.23104586464694" lon="121.4000447687125">
        <ele>19.37533708009869</ele>
        <time>2026-06-10T09:33:30Z</time>
      </trkpt>
      <trkpt lat="31.231107830983436" lon="121.39999575659691">
        <ele>21.523505643941462</ele>
        <time>2026-06-10T09:33:33Z</time>
      </trkpt>
      <trkpt lat="31.231157800942828" lon="121.39992574287076">
        <ele>21.69261117372662</ele>
        <time>2026-06-10T09:33:36Z</time>
      </trkpt>
      <trkpt lat="31.23120676404681" lon="121.39977371914549">
        <ele>20.794238523580134</ele>
        <time>2026-06-10T09:33:42Z</time>
      </trkpt>
      <trkpt lat="31.231205750327376" lon="121.39960969960423">
        <ele>19.895863966085017</ele>
        <time>2026-06-10T09:33:48Z</time>
      </trkpt>
      <trkpt lat="31.231185753101197" lon="121.39952969228527">
        <ele>14.867618040181696</ele>
        <time>2026-06-10T09:33:51Z</time>
      </trkpt>
      <trkpt lat="31.23113676935976" lon="121.39944668750978">
        <ele>22.54606576357037</ele>
        <time>2026-06-10T09:33:54Z</time>
      </trkpt>
      <trkpt lat="31.2309968245283" lon="121.39931368597115">
        <ele>23.632041410543025</ele>
        <time>2026-06-10T09:34:00Z</time>
      </trkpt>
      <trkpt lat="31.230787917786547" lon="121.39926169907172">
        <ele>15.337941602803767</ele>
        <time>2026-06-10T09:34:09Z</time>
      </trkpt>
      <trkpt lat="31.23048906269844" lon="121.39935273419734">
        <ele>19.594645933248103</ele>
        <time>2026-06-10T09:34:24Z</time>
      </trkpt>
      <trkpt lat="31.230226190829484" lon="121.39943676587257">
        <ele>20.479806379415095</ele>
        <time>2026-06-10T09:34:36Z</time>
      </trkpt>
      <trkpt lat="31.230024291975464" lon="121.39953279393151">
        <ele>-22.013243242166936</ele>
        <time>2026-06-10T09:34:42Z</time>
      </trkpt>
      <trkpt lat="31.22975242407" lon="121.39960482579869">
        <ele>21.045251325704157</ele>
        <time>2026-06-10T09:34:48Z</time>
      </trkpt>
      <trkpt lat="31.229650474775276" lon="121.39964483933834">
        <ele>25.272889570333064</ele>
        <time>2026-06-10T09:34:51Z</time>
      </trkpt>
      <trkpt lat="31.229595500572373" lon="121.39964784448539">
        <ele>16.516395048238337</ele>
        <time>2026-06-10T09:34:54Z</time>
      </trkpt>
    </trkseg>
  </trk>
</gpx>