<?xml version="1.0" encoding="UTF-8"?>
<gpx xmlns="http://www.topografix.com/GPX/1/1" xmlns:gpxtpx="http://www.garmin.com/xmlschemas/TrackPointExtension/v1" xmlns:xsi="http://www.w3.org/2001/XMLSchema-instance" xsi:schemaLocation="http://www.topografix.com/GPX/1/1 http://www.topografix.com/GPX/1/1/gpx.xsd" version="1.1" creator="gpx.py -- https://github.com/tkrajina/gpxpy">
  <trk>
    <name>gpx from keep</name>
    <type>Run</type>
    <trkseg>
      <trkpt lat="32.051954059053465" lon="118.80373155451967">
        <ele>20.404303333722055</ele>
        <time>2026-08-15T10:33:17Z</time>
      </trkpt>
      <trkpt lat="32.05190140625507" lon="118.8039379662221">
        <ele>41.2095630383119</ele>
        <time>2026-08-15T10:33:23Z</time>
      </trkpt>
      <trkpt lat="32.05189574882997" lon="118.80413535648243">
        <ele>22.074217579327524</ele>
        <time>2026-08-15T10:33:32Z</time>
      </trkpt>
      <trkpt lat="32.05196398950469" lon="118.80426460576535">
        <ele>21.350233814679086</ele>
        <time>2026-08-15T10:33:38Z</time>
      </trkpt>
      <trkpt lat="32.05205417580227" lon="118.804359785849">
        <ele>21.43479039426893</ele>
        <time>2026-08-15T10:33:41Z</time>
      </trkpt>
      <trkpt lat="32.0521883054857" lon="118.80441688661683">
        <ele>22.78763463255018</ele>
        <time>2026-08-15T10:33:47Z</time>
      </trkpt>
      <trkpt lat="32.05247550437019" lon="118.80449401308483">
        <ele>22.11649205442518</ele>
        <time>2026-08-15T10:33:59Z</time>
      </trkpt>
      <trkpt lat="32.05276875550586" lon="118.80460019672171">
        <ele>22.78763463255018</ele>
        <time>2026-08-15T10:34:11Z</time>
      </trkpt>
      <trkpt lat="32.05299691332256" lon="118.80466129702323">
        <ele>21.675230762921274</ele>
        <time>2026-08-15T10:34:20Z</time>
      </trkpt>
      <trkpt lat="32.053177922072415" lon="118.80464324460277">
        <ele>8.786223194561899</ele>
        <time>2026-08-15T10:34:26Z</time>
      </trkpt>
      <trkpt lat="32.05331377174958" lon="118.80454002742506">
        <ele>22.758566639386117</ele>
        <time>2026-08-15T10:34:32Z</time>
      </trkpt>
      <trkpt lat="32.05337266572868" lon="118.80447188696724">
        <ele>19.722594044171274</ele>
        <time>2026-08-15T10:34:35Z</time>
      </trkpt>
      <trkpt lat="32.053412515271475" lon="118.80438070269739">
        <ele>21.749220631085336</ele>
        <time>2026-08-15T10:34:38Z</time>
      </trkpt>
      <trkpt lat="32.05343532965827" lon="118.80427148444313">
        <ele>22.412428638897836</ele>
        <time>2026-08-15T10:34:41Z</time>
      </trkpt>
      <trkpt lat="32.05343516705344" lon="118.80417830018143">
        <ele>18.589056751690805</ele>
        <time>2026-08-15T10:34:44Z</time>
      </trkpt>
      <trkpt lat="32.05340699658898" lon="118.80408411665466">
        <ele>22.621168873272836</ele>
        <time>2026-08-15T10:34:47Z</time>
      </trkpt>
      <trkpt lat="32.053356847528356" lon="118.80400496495837">
        <ele>16.361624500714242</ele>
        <time>2026-08-15T10:34:50Z</time>
      </trkpt>
      <trkpt lat="32.053277718260716" lon="118.8039408456784">
        <ele>22.967306873761117</ele>
        <time>2026-08-15T10:34:53Z</time>
      </trkpt>
      <trkpt lat="32.05294239606273" lon="118.80379859594825">
        <ele>19.941900989972055</ele>
        <time>2026-08-15T10:35:05Z</time>
      </trkpt>
      <trkpt lat="32.0527812382526" lon="118.80372847258438">
        <ele>22.800841114483774</ele>
        <time>2026-08-15T10:35:11Z</time>
      </trkpt>
      <trkpt lat="32.05265316967353" lon="118.80370543897149">
        <ele>19.994749805890024</ele>
        <time>2026-08-15T10:35:17Z</time>
      </trkpt>
      <trkpt lat="32.052538062225366" lon="118.80365835683966">
        <ele>22.78763463255018</ele>
        <time>2026-08-15T10:35:23Z</time>
      </trkpt>
      <trkpt lat="32.0524300329235" lon="118.80365536085101">
        <ele>18.190077564679086</ele>
        <time>2026-08-15T10:35:26Z</time>
      </trkpt>
      <trkpt lat="32.052311957888215" lon="118.80362731648947">
        <ele>18.62869145628065</ele>
        <time>2026-08-15T10:35:32Z</time>
      </trkpt>
      <trkpt lat="32.0520339863707" lon="118.80367944458214">
        <ele>18.190077564679086</ele>
        <time>2026-08-15T10:35:41Z</time>
      </trkpt>
      <trkpt lat="32.05192020302036" lon="118.80381872937626">
        <ele>19.616904041729867</ele>
        <time>2026-08-15T10:35:48Z</time>
      </trkpt>
      <trkpt lat="32.051884498422375" lon="118.80399307652266">
        <ele>21.854910633526742</ele>
        <time>2026-08-15T10:35:54Z</time>
      </trkpt>
      <trkpt lat="32.051912820773346" lon="118.80417443214556">
        <ele>23.17868687864393</ele>
        <time>2026-08-15T10:36:00Z</time>
      </trkpt>
      <trkpt lat="32.0519579776723" lon="118.80425859442556">
        <ele>18.1477954601869</ele>
        <time>2026-08-15T10:36:03Z</time>
      </trkpt>
      <trkpt lat="32.05202814374843" lon="118.80434475848855">
        <ele>22.64230992551893</ele>
        <time>2026-08-15T10:36:06Z</time>
      </trkpt>
      <trkpt lat="32.052189298704256" lon="118.80441287858758">
        <ele>22.86161687131971</ele>
        <time>2026-08-15T10:36:12Z</time>
      </trkpt>
      <trkpt lat="32.0525034773235" lon="118.80447497278794">
        <ele>22.2327563976869</ele>
        <time>2026-08-15T10:36:27Z</time>
      </trkpt>
      <trkpt lat="32.05282271318358" lon="118.80456913016037">
        <ele>21.876044056378305</ele>
        <time>2026-08-15T10:36:42Z</time>
      </trkpt>
      <trkpt lat="32.053049884781416" lon="118.80463824642642">
        <ele>22.25388982053846</ele>
        <time>2026-08-15T10:36:51Z</time>
      </trkpt>
      <trkpt lat="32.05312391004123" lon="118.80464324956546">
        <ele>19.249624988995492</ele>
        <time>2026-08-15T10:36:54Z</time>
      </trkpt>
      <trkpt lat="32.05333476065211" lon="118.80453100761851">
        <ele>22.11649205442518</ele>
        <time>2026-08-15T10:37:03Z</time>
      </trkpt>
      <trkpt lat="32.05338165897392" lon="118.80446687621392">
        <ele>21.83376958128065</ele>
        <time>2026-08-15T10:37:06Z</time>
      </trkpt>
      <trkpt lat="32.053422358248895" lon="118.80428952131767">
        <ele>19.490072987042367</ele>
        <time>2026-08-15T10:37:13Z</time>
      </trkpt>
      <trkpt lat="32.05339806095922" lon="118.80412219269661">
        <ele>17.915282032452524</ele>
        <time>2026-08-15T10:37:19Z</time>
      </trkpt>
      <trkpt lat="32.05331976599657" lon="118.8039628853089">
        <ele>19.439871571026742</ele>
        <time>2026-08-15T10:37:25Z</time>
      </trkpt>
      <trkpt lat="32.05318158003277" lon="118.80387372210167">
        <ele>21.19169499631971</ele>
        <time>2026-08-15T10:37:31Z</time>
      </trkpt>
      <trkpt lat="32.052851351390764" lon="118.80378457667373">
        <ele>22.737425587140024</ele>
        <time>2026-08-15T10:37:43Z</time>
      </trkpt>
      <trkpt lat="32.05269719515152" lon="118.80371445268283">
        <ele>22.557753345929086</ele>
        <time>2026-08-15T10:37:49Z</time>
      </trkpt>
      <trkpt lat="32.05265712704549" lon="118.80368038928934">
        <ele>22.557753345929086</ele>
        <time>2026-08-15T10:37:52Z</time>
      </trkpt>
      <trkpt lat="32.05237398215404" lon="118.80363332261965">
        <ele>23.482550404034555</ele>
        <time>2026-08-15T10:38:04Z</time>
      </trkpt>
      <trkpt lat="32.052314932461414" lon="118.80361228664336">
        <ele>21.19169499631971</ele>
        <time>2026-08-15T10:38:07Z</time>
      </trkpt>
      <trkpt lat="32.05217189013004" lon="118.80360628796078">
        <ele>22.37808110471815</ele>
        <time>2026-08-15T10:38:13Z</time>
      </trkpt>
      <trkpt lat="32.05205593906734" lon="118.80364938339719">
        <ele>22.4414966320619</ele>
        <time>2026-08-15T10:38:19Z</time>
      </trkpt>
      <trkpt lat="32.05196705847118" lon="118.8037295493784">
        <ele>22.37808110471815</ele>
        <time>2026-08-15T10:38:22Z</time>
      </trkpt>
      <trkpt lat="32.051931161913735" lon="118.80379367900426">
        <ele>22.600027821026742</ele>
        <time>2026-08-15T10:38:25Z</time>
      </trkpt>
      <trkpt lat="32.0518943924832" lon="118.80393095302962">
        <ele>22.684584400616586</ele>
        <time>2026-08-15T10:38:31Z</time>
      </trkpt>
      <trkpt lat="32.051897670668225" lon="118.80409026722297">
        <ele>22.211615345440805</ele>
        <time>2026-08-15T10:38:37Z</time>
      </trkpt>
      <trkpt lat="32.05191684089163" lon="118.80418545356396">
        <ele>19.83621098753065</ele>
        <time>2026-08-15T10:38:40Z</time>
      </trkpt>
      <trkpt lat="32.05195399426975" lon="118.8042686146122">
        <ele>21.886618397198617</ele>
        <time>2026-08-15T10:38:43Z</time>
      </trkpt>
      <trkpt lat="32.05201413362473" lon="118.8043407518425">
        <ele>22.483771107159555</ele>
        <time>2026-08-15T10:38:46Z</time>
      </trkpt>
      <trkpt lat="32.052079209386605" lon="118.80437581528868">
        <ele>22.64230992551893</ele>
        <time>2026-08-15T10:38:49Z</time>
      </trkpt>
      <trkpt lat="32.0522162697074" lon="118.8043928364233">
        <ele>20.721373341046274</ele>
        <time>2026-08-15T10:38:55Z</time>
      </trkpt>
      <trkpt lat="32.05249252918851" lon="118.80450603535093">
        <ele>20.679098865948617</ele>
        <time>2026-08-15T10:39:07Z</time>
      </trkpt>
      <trkpt lat="32.05287478439289" lon="118.80460319294217">
        <ele>22.37808110471815</ele>
        <time>2026-08-15T10:39:26Z</time>
      </trkpt>
      <trkpt lat="32.05307995638262" lon="118.80467531723282">
        <ele>22.148199818097055</ele>
        <time>2026-08-15T10:39:35Z</time>
      </trkpt>
      <trkpt lat="32.053154967829045" lon="118.80467230437486">
        <ele>16.298208973370492</ele>
        <time>2026-08-15T10:39:38Z</time>
      </trkpt>
      <trkpt lat="32.05329486219279" lon="118.80459413645768">
        <ele>20.37259557005018</ele>
        <time>2026-08-15T10:39:44Z</time>
      </trkpt>
      <trkpt lat="32.05343461998097" lon="118.80443781377899">
        <ele>21.83376958128065</ele>
        <time>2026-08-15T10:39:53Z</time>
      </trkpt>
      <trkpt lat="32.053454496617526" lon="118.80436466709824">
        <ele>20.38316228147596</ele>
        <time>2026-08-15T10:39:56Z</time>
      </trkpt>
      <trkpt lat="32.05339102621005" lon="118.8041031557297">
        <ele>22.64230992551893</ele>
        <time>2026-08-15T10:40:02Z</time>
      </trkpt>
      <trkpt lat="32.053343874304836" lon="118.8040219997771">
        <ele>22.39921452756971</ele>
        <time>2026-08-15T10:40:05Z</time>
      </trkpt>
      <trkpt lat="32.053206648374726" lon="118.80390979093524">
        <ele>22.51547887083143</ele>
        <time>2026-08-15T10:40:11Z</time>
      </trkpt>
      <trkpt lat="32.05294345901872" lon="118.80383466694309">
        <ele>21.537832996807992</ele>
        <time>2026-08-15T10:40:23Z</time>
      </trkpt>
      <trkpt lat="32.05272424121946" lon="118.80373749558296">
        <ele>22.30673863645643</ele>
        <time>2026-08-15T10:40:32Z</time>
      </trkpt>
      <trkpt lat="32.052451053268946" lon="118.80366437666895">
        <ele>21.25511052366346</ele>
        <time>2026-08-15T10:40:47Z</time>
      </trkpt>
      <trkpt lat="32.052194964852944" lon="118.8036463647051">
        <ele>22.327872059307992</ele>
        <time>2026-08-15T10:40:59Z</time>
      </trkpt>
      <trkpt lat="32.05195712764661" lon="118.80377063121152">
        <ele>22.30673863645643</ele>
        <time>2026-08-15T10:41:09Z</time>
      </trkpt>
      <trkpt lat="32.051883466789235" lon="118.8039750410221">
        <ele>22.4414966320619</ele>
        <time>2026-08-15T10:41:15Z</time>
      </trkpt>
      <trkpt lat="32.05191877842345" lon="118.80414938208772">
        <ele>21.403082630597055</ele>
        <time>2026-08-15T10:41:21Z</time>
      </trkpt>
      <trkpt lat="32.05204110989886" lon="118.80432371564997">
        <ele>21.569540760479867</ele>
        <time>2026-08-15T10:41:30Z</time>
      </trkpt>
      <trkpt lat="32.05225035434001" lon="118.80443692060943">
        <ele>20.63681676145643</ele>
        <time>2026-08-15T10:41:42Z</time>
      </trkpt>
      <trkpt lat="32.052536537246546" lon="118.80450502932143">
        <ele>21.83376958128065</ele>
        <time>2026-08-15T10:41:51Z</time>
      </trkpt>
      <trkpt lat="32.052671653227364" lon="118.80455411423723">
        <ele>20.63681676145643</ele>
        <time>2026-08-15T10:41:57Z</time>
      </trkpt>
      <trkpt lat="32.052748680910426" lon="118.80456011908049">
        <ele>16.845160267315805</ele>
        <time>2026-08-15T10:42:00Z</time>
      </trkpt>
      <trkpt lat="32.05305089026704" lon="118.80464125229831">
        <ele>21.83376958128065</ele>
        <time>2026-08-15T10:42:12Z</time>
      </trkpt>
      <trkpt lat="32.05317987515663" lon="118.80461619074903">
        <ele>21.59068181272596</ele>
        <time>2026-08-15T10:42:18Z</time>
      </trkpt>
      <trkpt lat="32.0532897681562" lon="118.80454103161713">
        <ele>22.58946110960096</ele>
        <time>2026-08-15T10:42:24Z</time>
      </trkpt>
      <trkpt lat="32.05340148306254" lon="118.80436366998583">
        <ele>22.30673863645643</ele>
        <time>2026-08-15T10:42:33Z</time>
      </trkpt>
      <trkpt lat="32.053433313471494" lon="118.80426246678905">
        <ele>22.063650867901742</ele>
        <time>2026-08-15T10:42:36Z</time>
      </trkpt>
      <trkpt lat="32.05338503884773" lon="118.80411117211638">
        <ele>21.24454381223768</ele>
        <time>2026-08-15T10:42:42Z</time>
      </trkpt>
      <trkpt lat="32.05324664507877" lon="118.80390277342576">
        <ele>22.010802051983774</ele>
        <time>2026-08-15T10:42:51Z</time>
      </trkpt>
      <trkpt lat="32.05293440124931" lon="118.80380260458107">
        <ele>20.457144520245492</ele>
        <time>2026-08-15T10:43:06Z</time>
      </trkpt>
      <trkpt lat="32.05284036636104" lon="118.80379459742667">
        <ele>20.404303333722055</ele>
        <time>2026-08-15T10:43:09Z</time>
      </trkpt>
      <trkpt lat="32.052790311664516" lon="118.8037695526711">
        <ele>21.29739262815565</ele>
        <time>2026-08-15T10:43:12Z</time>
      </trkpt>
      <trkpt lat="32.05248912962775" lon="118.80370345010063">
        <ele>20.520560047589242</ele>
        <time>2026-08-15T10:43:27Z</time>
      </trkpt>
      <trkpt lat="32.0522439897033" lon="118.80365437597598">
        <ele>20.153280994854867</ele>
        <time>2026-08-15T10:43:40Z</time>
      </trkpt>
      <trkpt lat="32.05218201242269" lon="118.8036754230891">
        <ele>21.950033924542367</ele>
        <time>2026-08-15T10:43:43Z</time>
      </trkpt>
      <trkpt lat="32.05219300426533" lon="118.80359120190718">
        <ele>20.38316228147596</ele>
        <time>2026-08-15T10:43:49Z</time>
      </trkpt>
      <trkpt lat="32.0522251128246" lon="118.8035642694086">
        <ele>21.622389576397836</ele>
        <time>2026-08-15T10:43:52Z</time>
      </trkpt>
      <trkpt lat="32.05196323178382" lon="118.80382974714605">
        <ele>21.632956287823617</ele>
        <time>2026-08-15T10:43:58Z</time>
      </trkpt>
      <trkpt lat="32.051947295449494" lon="118.80381762558503">
        <ele>20.729300281964242</ele>
        <time>2026-08-15T10:44:01Z</time>
      </trkpt>
      <trkpt lat="32.051911942945154" lon="118.80389767827288">
        <ele>21.014662525616586</ele>
        <time>2026-08-15T10:44:04Z</time>
      </trkpt>
      <trkpt lat="32.051896645995186" lon="118.80407623960919">
        <ele>21.9790942883119</ele>
        <time>2026-08-15T10:44:13Z</time>
      </trkpt>
      <trkpt lat="32.05190774976027" lon="118.80413435339972">
        <ele>20.605116627179086</ele>
        <time>2026-08-15T10:44:16Z</time>
      </trkpt>
      <trkpt lat="32.05195893942267" lon="118.80423655073753">
        <ele>22.557753345929086</ele>
        <time>2026-08-15T10:44:22Z</time>
      </trkpt>
      <trkpt lat="32.05204416306961" lon="118.80435377486762">
        <ele>22.4414966320619</ele>
        <time>2026-08-15T10:44:25Z</time>
      </trkpt>
      <trkpt lat="32.05231436160794" lon="118.80443290678903">
        <ele>21.71751286741346</ele>
        <time>2026-08-15T10:44:34Z</time>
      </trkpt>
      <trkpt lat="32.05253749541628" lon="118.80448098157535">
        <ele>20.63681676145643</ele>
        <time>2026-08-15T10:44:43Z</time>
      </trkpt>
      <trkpt lat="32.05265764309423" lon="118.80455010757771">
        <ele>19.8996265148744</ele>
        <time>2026-08-15T10:44:49Z</time>
      </trkpt>
      <trkpt lat="32.05306393877987" lon="118.80466730279579">
        <ele>21.65409734006971</ele>
        <time>2026-08-15T10:45:07Z</time>
      </trkpt>
      <trkpt lat="32.05313797456998" lon="118.80467831786815">
        <ele>21.950033924542367</ele>
        <time>2026-08-15T10:45:10Z</time>
      </trkpt>
      <trkpt lat="32.053300879312594" lon="118.80460315379185">
        <ele>21.83376958128065</ele>
        <time>2026-08-15T10:45:19Z</time>
      </trkpt>
      <trkpt lat="32.053376766502005" lon="118.80452899978611">
        <ele>22.31730534788221</ele>
        <time>2026-08-15T10:45:22Z</time>
      </trkpt>
      <trkpt lat="32.05341364157691" lon="118.80445284548179">
        <ele>21.286818287335336</ele>
        <time>2026-08-15T10:45:25Z</time>
      </trkpt>
      <trkpt lat="32.053445352875734" lon="118.80428350730992">
        <ele>22.010802051983774</ele>
        <time>2026-08-15T10:45:31Z</time>
      </trkpt>
      <trkpt lat="32.05340808589849" lon="118.80413521751423">
        <ele>20.393728992901742</ele>
        <time>2026-08-15T10:45:37Z</time>
      </trkpt>
      <trkpt lat="32.053304821983225" lon="118.80399695391662">
        <ele>18.89292027708143</ele>
        <time>2026-08-15T10:45:43Z</time>
      </trkpt>
      <trkpt lat="32.05302950084148" lon="118.8038476847137">
        <ele>21.601248524151742</ele>
        <time>2026-08-15T10:45:55Z</time>
      </trkpt>
      <trkpt lat="32.05273432705439" lon="118.80378558940224">
        <ele>20.25633122678846</ele>
        <time>2026-08-15T10:46:10Z</time>
      </trkpt>
      <trkpt lat="32.05261628158678" lon="118.80377457853426">
        <ele>21.537832996807992</ele>
        <time>2026-08-15T10:46:16Z</time>
      </trkpt>
      <trkpt lat="32.052350055113195" lon="118.80367841356377">
        <ele>22.127066395245492</ele>
        <time>2026-08-15T10:46:28Z</time>
      </trkpt>
      <trkpt lat="32.052274989656446" lon="118.80365036523892">
        <ele>20.824423572979867</ele>
        <time>2026-08-15T10:46:31Z</time>
      </trkpt>
      <trkpt lat="32.05215298680912" lon="118.80366440406067">
        <ele>21.71751286741346</ele>
        <time>2026-08-15T10:46:37Z</time>
      </trkpt>
      <trkpt lat="32.05201794451173" lon="118.80365740266534">
        <ele>22.631735584698617</ele>
        <time>2026-08-15T10:46:40Z</time>
      </trkpt>
      <trkpt lat="32.05196202775525" lon="118.80371251629647">
        <ele>21.29739262815565</ele>
        <time>2026-08-15T10:46:43Z</time>
      </trkpt>
      <trkpt lat="32.05190023341322" lon="118.80383877071074">
        <ele>20.856131336651742</ele>
        <time>2026-08-15T10:46:49Z</time>
      </trkpt>
      <trkpt lat="32.05186247955296" lon="118.80398506272516">
        <ele>21.759787342511117</ele>
        <time>2026-08-15T10:46:56Z</time>
      </trkpt>
      <trkpt lat="32.05188779946637" lon="118.80416541661975">
        <ele>21.664664051495492</ele>
        <time>2026-08-15T10:47:02Z</time>
      </trkpt>
      <trkpt lat="32.05195997112296" lon="118.80425458631461">
        <ele>20.153280994854867</ele>
        <time>2026-08-15T10:47:05Z</time>
      </trkpt>
      <trkpt lat="32.052096199174734" lon="118.80436779785718">
        <ele>21.360800526104867</ele>
        <time>2026-08-15T10:47:11Z</time>
      </trkpt>
      <trkpt lat="32.05234841473084" lon="118.80445895527006">
        <ele>20.647391102276742</ele>
        <time>2026-08-15T10:47:23Z</time>
      </trkpt>
      <trkpt lat="32.05251850870122" lon="118.8044910031763">
        <ele>22.000235340557992</ele>
        <time>2026-08-15T10:47:29Z</time>
      </trkpt>
      <trkpt lat="32.052786748995956" lon="118.80459418314398">
        <ele>21.83376958128065</ele>
        <time>2026-08-15T10:47:41Z</time>
      </trkpt>
      <trkpt lat="32.05298793763701" lon="118.80467632767619">
        <ele>20.97238805051893</ele>
        <time>2026-08-15T10:47:50Z</time>
      </trkpt>
      <trkpt lat="32.05313896777369" lon="118.8046743098222">
        <ele>21.339667103253305</ele>
        <time>2026-08-15T10:47:56Z</time>
      </trkpt>
      <trkpt lat="32.05327791628318" lon="118.80462720360676">
        <ele>19.941900989972055</ele>
        <time>2026-08-15T10:48:02Z</time>
      </trkpt>
      <trkpt lat="32.05334984638804" lon="118.80457809960957">
        <ele>18.62076451536268</ele>
        <time>2026-08-15T10:48:05Z</time>
      </trkpt>
      <trkpt lat="32.05340174753373" lon="118.8045149696835">
        <ele>19.75430180784315</ele>
        <time>2026-08-15T10:48:08Z</time>
      </trkpt>
      <trkpt lat="32.05343662568082" lon="118.80444081954946">
        <ele>19.397597095929086</ele>
        <time>2026-08-15T10:48:11Z</time>
      </trkpt>
      <trkpt lat="32.053451329723686" lon="118.80426947900847">
        <ele>21.202269337140024</ele>
        <time>2026-08-15T10:48:17Z</time>
      </trkpt>
      <trkpt lat="32.05340199722175" lon="118.80408511909326">
        <ele>21.138853809796274</ele>
        <time>2026-08-15T10:48:24Z</time>
      </trkpt>
      <trkpt lat="32.05330677182438" lon="118.80396789638925">
        <ele>21.37137486692518</ele>
        <time>2026-08-15T10:48:30Z</time>
      </trkpt>
      <trkpt lat="32.05305551012112" lon="118.80384968627418">
        <ele>21.71751286741346</ele>
        <time>2026-08-15T10:48:42Z</time>
      </trkpt>
      <trkpt lat="32.052888451989965" lon="118.80383767792341">
        <ele>21.8971851086244</ele>
        <time>2026-08-15T10:48:48Z</time>
      </trkpt>
      <trkpt lat="32.05259221701735" lon="118.80374051363621">
        <ele>19.63803746458143</ele>
        <time>2026-08-15T10:49:03Z</time>
      </trkpt>
      <trkpt lat="32.05225297604913" lon="118.80364535740203">
        <ele>21.477064869366586</ele>
        <time>2026-08-15T10:49:18Z</time>
      </trkpt>
      <trkpt lat="32.05208795142639" lon="118.80365238637141">
        <ele>21.569540760479867</ele>
        <time>2026-08-15T10:49:24Z</time>
      </trkpt>
      <trkpt lat="32.05196508414645" lon="118.80374457916166">
        <ele>21.096579334698617</ele>
        <time>2026-08-15T10:49:30Z</time>
      </trkpt>
      <trkpt lat="32.05192318626426" lon="118.80380870935491">
        <ele>20.248404285870492</ele>
        <time>2026-08-15T10:49:34Z</time>
      </trkpt>
      <trkpt lat="32.05187252192343" lon="118.80400810729003">
        <ele>21.360800526104867</ele>
        <time>2026-08-15T10:49:40Z</time>
      </trkpt>
      <trkpt lat="32.051895769796985" lon="118.8041473802415">
        <ele>21.632956287823617</ele>
        <time>2026-08-15T10:49:43Z</time>
      </trkpt>
      <trkpt lat="32.05192389489621" lon="118.80421551234704">
        <ele>18.073813221417367</ele>
        <time>2026-08-15T10:49:46Z</time>
      </trkpt>
      <trkpt lat="32.05208416149149" lon="118.80434775929163">
        <ele>21.19169499631971</ele>
        <time>2026-08-15T10:49:52Z</time>
      </trkpt>
      <trkpt lat="32.05231639708428" lon="118.80445294630097">
        <ele>21.067511341534555</ele>
        <time>2026-08-15T10:50:01Z</time>
      </trkpt>
      <trkpt lat="32.05251055072663" lon="118.80451605355546">
        <ele>16.771170399151742</ele>
        <time>2026-08-15T10:50:10Z</time>
      </trkpt>
      <trkpt lat="32.05257463160253" lon="118.80455412315168">
        <ele>20.206129810772836</ele>
        <time>2026-08-15T10:50:13Z</time>
      </trkpt>
      <trkpt lat="32.052896812096" lon="118.80461621675721">
        <ele>21.120360157452524</ele>
        <time>2026-08-15T10:50:28Z</time>
      </trkpt>
      <trkpt lat="32.05302696387607" lon="118.80468634397793">
        <ele>21.537832996807992</ele>
        <time>2026-08-15T10:50:34Z</time>
      </trkpt>
      <trkpt lat="32.05310397752357" lon="118.80468433292431">
        <ele>21.329092762432992</ele>
        <time>2026-08-15T10:50:37Z</time>
      </trkpt>
      <trkpt lat="32.05321892068108" lon="118.80463722890715">
        <ele>21.548407337628305</ele>
        <time>2026-08-15T10:50:43Z</time>
      </trkpt>
      <trkpt lat="32.05330583483347" lon="118.80457710166638">
        <ele>19.50063969846815</ele>
        <time>2026-08-15T10:50:46Z</time>
      </trkpt>
      <trkpt lat="32.05340664352112" lon="118.8044548500951">
        <ele>14.493536732159555</ele>
        <time>2026-08-15T10:50:52Z</time>
      </trkpt>
      <trkpt lat="32.053445492862615" lon="118.80436366594188">
        <ele>20.467711231671274</ele>
        <time>2026-08-15T10:50:55Z</time>
      </trkpt>
      <trkpt lat="32.053453351159" lon="118.80428150261017">
        <ele>21.265684864483774</ele>
        <time>2026-08-15T10:50:58Z</time>
      </trkpt>
      <trkpt lat="32.053406050512606" lon="118.80411517810418">
        <ele>21.067511341534555</ele>
        <time>2026-08-15T10:51:04Z</time>
      </trkpt>
      <trkpt lat="32.05328371610859" lon="118.80393884117358">
        <ele>20.83499028440565</ele>
        <time>2026-08-15T10:51:10Z</time>
      </trkpt>
      <trkpt lat="32.05320458864378" lon="118.80387572393876">
        <ele>21.664664051495492</ele>
        <time>2026-08-15T10:51:13Z</time>
      </trkpt>
      <trkpt lat="32.053019505585404" lon="118.80385169353359">
        <ele>21.477064869366586</ele>
        <time>2026-08-15T10:51:22Z</time>
      </trkpt>
      <trkpt lat="32.05271926274484" lon="118.80375052169711">
        <ele>21.25511052366346</ele>
        <time>2026-08-15T10:51:34Z</time>
      </trkpt>
      <trkpt lat="32.05241600195965" lon="118.80363933058882">
        <ele>16.446173450909555</ele>
        <time>2026-08-15T10:51:49Z</time>
      </trkpt>
      <trkpt lat="32.05223186350755" lon="118.80358323711407">
        <ele>21.6435229992494</ele>
        <time>2026-08-15T10:51:58Z</time>
      </trkpt>
      <trkpt lat="32.05194607816586" lon="118.80374357893464">
        <ele>21.014662525616586</ele>
        <time>2026-08-15T10:52:04Z</time>
      </trkpt>
      <trkpt lat="32.051877285805176" lon="118.80387183800788">
        <ele>20.729300281964242</ele>
        <time>2026-08-15T10:52:07Z</time>
      </trkpt>
      <trkpt lat="32.05185952425883" lon="118.80401111441819">
        <ele>18.02097203489393</ele>
        <time>2026-08-15T10:52:10Z</time>
      </trkpt>
      <trkpt lat="32.05188875949862" lon="118.80414237098496">
        <ele>21.360800526104867</ele>
        <time>2026-08-15T10:52:13Z</time>
      </trkpt>
      <trkpt lat="32.05195599821411" lon="118.8042706183924">
        <ele>21.360800526104867</ele>
        <time>2026-08-15T10:52:16Z</time>
      </trkpt>
      <trkpt lat="32.05204920969661" lon="118.80437982598073">
        <ele>18.41995122190565</ele>
        <time>2026-08-15T10:52:19Z</time>
      </trkpt>
      <trkpt lat="32.05223640201497" lon="118.8044659794588">
        <ele>20.277472279034555</ele>
        <time>2026-08-15T10:52:26Z</time>
      </trkpt>
      <trkpt lat="32.05250755356285" lon="118.80451805780311">
        <ele>21.90775182005018</ele>
        <time>2026-08-15T10:52:38Z</time>
      </trkpt>
      <trkpt lat="32.052576646073454" lon="118.8045621388609">
        <ele>21.537832996807992</ele>
        <time>2026-08-15T10:52:41Z</time>
      </trkpt>
      <trkpt lat="32.05284683427972" lon="118.80463525911867">
        <ele>20.121573231182992</ele>
        <time>2026-08-15T10:52:53Z</time>
      </trkpt>
      <trkpt lat="32.05298491766683" lon="118.80466530607926">
        <ele>19.98417546506971</ele>
        <time>2026-08-15T10:52:59Z</time>
      </trkpt>
      <trkpt lat="32.05311594159323" lon="118.8046622880753">
        <ele>20.792715809307992</ele>
        <time>2026-08-15T10:53:05Z</time>
      </trkpt>
      <trkpt lat="32.053255888580246" lon="118.80461417978935">
        <ele>20.78214909788221</ele>
        <time>2026-08-15T10:53:11Z</time>
      </trkpt>
      <trkpt lat="32.05338172730682" lon="118.8045059536486">
        <ele>20.70023228880018</ele>
        <time>2026-08-15T10:53:17Z</time>
      </trkpt>
      <trkpt lat="32.05341165514513" lon="118.80446086154586">
        <ele>20.605116627179086</ele>
        <time>2026-08-15T10:53:20Z</time>
      </trkpt>
      <trkpt lat="32.053436508362815" lon="118.80437368660529">
        <ele>20.647391102276742</ele>
        <time>2026-08-15T10:53:23Z</time>
      </trkpt>
      <trkpt lat="32.053438319832104" lon="118.80426547227533">
        <ele>19.849425098858774</ele>
        <time>2026-08-15T10:53:26Z</time>
      </trkpt>
      <trkpt lat="32.05341414140383" lon="118.8041662783461">
        <ele>20.951254627667367</ele>
        <time>2026-08-15T10:53:29Z</time>
      </trkpt>
      <trkpt lat="32.05319962763282" lon="118.80389876984177">
        <ele>19.36588933225721</ele>
        <time>2026-08-15T10:53:41Z</time>
      </trkpt>
      <trkpt lat="32.05304845279067" lon="118.80381762372029">
        <ele>21.12827946897596</ele>
        <time>2026-08-15T10:53:48Z</time>
      </trkpt>
      <trkpt lat="32.05280327972693" lon="118.80374951200244">
        <ele>18.388243458233774</ele>
        <time>2026-08-15T10:54:00Z</time>
      </trkpt>
      <trkpt lat="32.052529135064546" lon="118.80370144247843">
        <ele>19.3553149914369</ele>
        <time>2026-08-15T10:54:15Z</time>
      </trkpt>
      <trkpt lat="32.052263941963666" lon="118.80362431498722">
        <ele>20.269545338116586</ele>
        <time>2026-08-15T10:54:27Z</time>
      </trkpt>
      <trkpt lat="32.051993977446976" lon="118.80367944825883">
        <ele>19.912840626202524</ele>
        <time>2026-08-15T10:54:36Z</time>
      </trkpt>
      <trkpt lat="32.051945067493854" lon="118.80373756718645">
        <ele>20.541701099835336</ele>
        <time>2026-08-15T10:54:39Z</time>
      </trkpt>
      <trkpt lat="32.05186944970693" lon="118.80396702649169">
        <ele>20.153280994854867</ele>
        <time>2026-08-15T10:54:49Z</time>
      </trkpt>
      <trkpt lat="32.051925949546764" lon="118.80424657358586">
        <ele>20.856131336651742</ele>
        <time>2026-08-15T10:54:58Z</time>
      </trkpt>
      <trkpt lat="32.05197006256432" lon="118.80430568648612">
        <ele>21.086004993878305</ele>
        <time>2026-08-15T10:55:01Z</time>
      </trkpt>
      <trkpt lat="32.0520972484162" lon="118.8043958533118">
        <ele>20.30918004270643</ele>
        <time>2026-08-15T10:55:07Z</time>
      </trkpt>
      <trkpt lat="32.05218931446467" lon="118.80442189644695">
        <ele>18.988043568097055</ele>
        <time>2026-08-15T10:55:10Z</time>
      </trkpt>
      <trkpt lat="32.05225441303703" lon="118.80446998574531">
        <ele>19.878485462628305</ele>
        <time>2026-08-15T10:55:13Z</time>
      </trkpt>
      <trkpt lat="32.05257165898463" lon="118.80457015521445">
        <ele>20.951254627667367</ele>
        <time>2026-08-15T10:55:28Z</time>
      </trkpt>
      <trkpt lat="32.05263669802332" lon="118.8045841770579">
        <ele>20.8984058117494</ele>
        <time>2026-08-15T10:55:31Z</time>
      </trkpt>
      <trkpt lat="32.05278573474447" lon="118.80458616733877">
        <ele>20.351454517804086</ele>
        <time>2026-08-15T10:55:37Z</time>
      </trkpt>
      <trkpt lat="32.05306095565857" lon="118.80467732295597">
        <ele>20.729300281964242</ele>
        <time>2026-08-15T10:55:49Z</time>
      </trkpt>
      <trkpt lat="32.05313197498796" lon="118.8046793204081">
        <ele>17.056540272198617</ele>
        <time>2026-08-15T10:55:52Z</time>
      </trkpt>
      <trkpt lat="32.05319095654859" lon="118.80466127919443">
        <ele>19.334181568585336</ele>
        <time>2026-08-15T10:55:55Z</time>
      </trkpt>
      <trkpt lat="32.05335676204713" lon="118.8045290016242">
        <ele>18.190077564679086</ele>
        <time>2026-08-15T10:56:04Z</time>
      </trkpt>
      <trkpt lat="32.053413533001326" lon="118.80439072244444">
        <ele>20.269545338116586</ele>
        <time>2026-08-15T10:56:10Z</time>
      </trkpt>
      <trkpt lat="32.05342334797576" lon="118.80428350933194">
        <ele>19.09109380003065</ele>
        <time>2026-08-15T10:56:13Z</time>
      </trkpt>
      <trkpt lat="32.053401909917206" lon="118.80403502016158">
        <ele>20.11100651975721</ele>
        <time>2026-08-15T10:56:22Z</time>
      </trkpt>
      <trkpt lat="32.05330479929702" lon="118.8039839282092">
        <ele>20.298605701886117</ele>
        <time>2026-08-15T10:56:28Z</time>
      </trkpt>
      <trkpt lat="32.05322565435155" lon="118.803910791165">
        <ele>21.014662525616586</ele>
        <time>2026-08-15T10:56:31Z</time>
      </trkpt>
      <trkpt lat="32.05292346676188" lon="118.80384168260636">
        <ele>20.919546863995492</ele>
        <time>2026-08-15T10:56:46Z</time>
      </trkpt>
      <trkpt lat="32.05259825318758" lon="118.80376055255536">
        <ele>20.005316517315805</ele>
        <time>2026-08-15T10:57:04Z</time>
      </trkpt>
      <trkpt lat="32.05234001633417" lon="118.80365737306767">
        <ele>19.62747075315565</ele>
        <time>2026-08-15T10:57:16Z</time>
      </trkpt>
      <trkpt lat="32.052216943659886" lon="118.80363133310782">
        <ele>18.451658985577524</ele>
        <time>2026-08-15T10:57:22Z</time>
      </trkpt>
      <trkpt lat="32.052060915822004" lon="118.80363535533344">
        <ele>19.468931934796274</ele>
        <time>2026-08-15T10:57:28Z</time>
      </trkpt>
      <trkpt lat="32.051945043115126" lon="118.80372353956183">
        <ele>21.25511052366346</ele>
        <time>2026-08-15T10:57:34Z</time>
      </trkpt>
      <trkpt lat="32.051865541306704" lon="118.8040201316676">
        <ele>20.8984058117494</ele>
        <time>2026-08-15T10:57:47Z</time>
      </trkpt>
      <trkpt lat="32.051861662635645" lon="118.80409027053167">
        <ele>21.18112828489393</ele>
        <time>2026-08-15T10:57:50Z</time>
      </trkpt>
      <trkpt lat="32.05189482724376" lon="118.80418044568293">
        <ele>20.824423572979867</ele>
        <time>2026-08-15T10:57:53Z</time>
      </trkpt>
      <trkpt lat="32.05198505716312" lon="118.80430067519485">
        <ele>20.015883228741586</ele>
        <time>2026-08-15T10:57:59Z</time>
      </trkpt>
      <trkpt lat="32.0520571624692" lon="118.8043517697062">
        <ele>20.729300281964242</ele>
        <time>2026-08-15T10:58:02Z</time>
      </trkpt>
      <trkpt lat="32.052114297735365" lon="118.80442190333964">
        <ele>19.994749805890024</ele>
        <time>2026-08-15T10:58:05Z</time>
      </trkpt>
      <trkpt lat="32.05224041692227" lon="118.80447399497294">
        <ele>20.142714283429086</ele>
        <time>2026-08-15T10:58:14Z</time>
      </trkpt>
      <trkpt lat="32.052385433492624" lon="118.80446496378022">
        <ele>21.03580357786268</ele>
        <time>2026-08-15T10:58:20Z</time>
      </trkpt>
      <trkpt lat="32.05270867725359" lon="118.80456312871661">
        <ele>19.786009571515024</ele>
        <time>2026-08-15T10:58:32Z</time>
      </trkpt>
      <trkpt lat="32.05299690805893" lon="118.80465829105849">
        <ele>21.212836048565805</ele>
        <time>2026-08-15T10:58:47Z</time>
      </trkpt>
      <trkpt lat="32.053139931149936" lon="118.80465326797571">
        <ele>21.078078052960336</ele>
        <time>2026-08-15T10:58:53Z</time>
      </trkpt>
      <trkpt lat="32.05327286781399" lon="118.80460015040312">
        <ele>21.19169499631971</ele>
        <time>2026-08-15T10:59:00Z</time>
      </trkpt>
      <trkpt lat="32.05338672141102" lon="118.80450194524595">
        <ele>20.594542286358774</ele>
        <time>2026-08-15T10:59:06Z</time>
      </trkpt>
      <trkpt lat="32.053422601545805" lon="118.80442879701997">
        <ele>21.25511052366346</ele>
        <time>2026-08-15T10:59:09Z</time>
      </trkpt>
      <trkpt lat="32.0534293930483" lon="118.80430855834187">
        <ele>19.63803746458143</ele>
        <time>2026-08-15T10:59:12Z</time>
      </trkpt>
      <trkpt lat="32.0534182349379" lon="118.80421938296033">
        <ele>21.086004993878305</ele>
        <time>2026-08-15T10:59:15Z</time>
      </trkpt>
      <trkpt lat="32.053349959444056" lon="118.804070094189">
        <ele>18.998610279522836</ele>
        <time>2026-08-15T10:59:21Z</time>
      </trkpt>
      <trkpt lat="32.0532657365211" lon="118.80395287050275">
        <ele>20.615683338604867</ele>
        <time>2026-08-15T10:59:27Z</time>
      </trkpt>
      <trkpt lat="32.05310655809243" lon="118.80387072306881">
        <ele>21.424216053448617</ele>
        <time>2026-08-15T10:59:33Z</time>
      </trkpt>
      <trkpt lat="32.05278638917336" lon="118.80381464187886">
        <ele>19.96304204221815</ele>
        <time>2026-08-15T10:59:51Z</time>
      </trkpt>
      <trkpt lat="32.05259019915736" lon="118.80373049408722">
        <ele>20.63681676145643</ele>
        <time>2026-08-15T11:00:03Z</time>
      </trkpt>
      <trkpt lat="32.05253611399462" lon="118.80368841619105">
        <ele>19.96304204221815</ele>
        <time>2026-08-15T11:00:06Z</time>
      </trkpt>
      <trkpt lat="32.05238400874437" lon="118.80364734930424">
        <ele>21.519339344464242</ele>
        <time>2026-08-15T11:00:15Z</time>
      </trkpt>
      <trkpt lat="32.05226989111475" lon="118.80359425530033">
        <ele>21.413649342022836</ele>
        <time>2026-08-15T11:00:18Z</time>
      </trkpt>
      <trkpt lat="32.05206587518281" lon="118.80361130756003">
        <ele>21.10978581663221</ele>
        <time>2026-08-15T11:00:27Z</time>
      </trkpt>
      <trkpt lat="32.05191815378653" lon="118.80379067427651">
        <ele>21.632956287823617</ele>
        <time>2026-08-15T11:00:37Z</time>
      </trkpt>
      <trkpt lat="32.05187040108252" lon="118.80393897104796">
        <ele>21.056944630108774</ele>
        <time>2026-08-15T11:00:43Z</time>
      </trkpt>
      <trkpt lat="32.051881859302135" lon="118.80420048649206">
        <ele>21.04637028928846</ele>
        <time>2026-08-15T11:00:52Z</time>
      </trkpt>
      <trkpt lat="32.05198010153972" lon="118.8043267272048">
        <ele>21.487631580792367</ele>
        <time>2026-08-15T11:00:55Z</time>
      </trkpt>
      <trkpt lat="32.052061235132975" lon="118.8043928506683">
        <ele>20.729300281964242</ele>
        <time>2026-08-15T11:00:58Z</time>
      </trkpt>
      <trkpt lat="32.052136313150356" lon="118.80442791322477">
        <ele>21.212836048565805</ele>
        <time>2026-08-15T11:01:01Z</time>
      </trkpt>
      <trkpt lat="32.0522973910953" lon="118.80445194606219">
        <ele>20.824423572979867</ele>
        <time>2026-08-15T11:01:07Z</time>
      </trkpt>
      <trkpt lat="32.05255963702381" lon="118.80455913446322">
        <ele>20.079298756085336</ele>
        <time>2026-08-15T11:01:22Z</time>
      </trkpt>
      <trkpt lat="32.052789712841474" lon="118.80457314114048">
        <ele>21.2339771008119</ele>
        <time>2026-08-15T11:01:31Z</time>
      </trkpt>
      <trkpt lat="32.053032921344624" lon="118.8046612937148">
        <ele>22.031943104229867</ele>
        <time>2026-08-15T11:01:43Z</time>
      </trkpt>
      <trkpt lat="32.05309995031064" lon="118.80466930346414">
        <ele>21.31852605100721</ele>
        <time>2026-08-15T11:01:46Z</time>
      </trkpt>
      <trkpt lat="32.053302858714055" lon="118.80459112976087">
        <ele>19.521780750714242</ele>
        <time>2026-08-15T11:01:55Z</time>
      </trkpt>
      <trkpt lat="32.053355791622664" lon="118.80454603548351">
        <ele>20.277472279034555</ele>
        <time>2026-08-15T11:01:58Z</time>
      </trkpt>
      <trkpt lat="32.05338168174918" lon="118.80447990202279">
        <ele>22.148199818097055</ele>
        <time>2026-08-15T11:02:01Z</time>
      </trkpt>
      <trkpt lat="32.053403221107004" lon="118.80421337245195">
        <ele>20.930113575421274</ele>
        <time>2026-08-15T11:02:10Z</time>
      </trkpt>
      <trkpt lat="32.05338502138024" lon="118.80410115232254">
        <ele>21.286818287335336</ele>
        <time>2026-08-15T11:02:13Z</time>
      </trkpt>
      <trkpt lat="32.05335588221452" lon="118.80402500460823">
        <ele>18.504507801495492</ele>
        <time>2026-08-15T11:02:16Z</time>
      </trkpt>
      <trkpt lat="32.05317259546248" lon="118.80388374268553">
        <ele>20.44657780881971</ele>
        <time>2026-08-15T11:02:26Z</time>
      </trkpt>
      <trkpt lat="32.052914400276926" lon="118.80380461036826">
        <ele>21.2339771008119</ele>
        <time>2026-08-15T11:02:38Z</time>
      </trkpt>
      <trkpt lat="32.05263019414474" lon="118.80372247462539">
        <ele>20.993529102765024</ele>
        <time>2026-08-15T11:02:53Z</time>
      </trkpt>
      <trkpt lat="32.05250112185799" lon="118.8036974371614">
        <ele>21.2339771008119</ele>
        <time>2026-08-15T11:02:59Z</time>
      </trkpt>
      <trkpt lat="32.05232594187315" lon="118.80361629351731">
        <ele>20.520560047589242</ele>
        <time>2026-08-15T11:03:05Z</time>
      </trkpt>
      <trkpt lat="32.052150876748435" lon="118.80360128003565">
        <ele>19.96304204221815</ele>
        <time>2026-08-15T11:03:15Z</time>
      </trkpt>
      <trkpt lat="32.052009965351765" lon="118.80367042903775">
        <ele>20.62625005003065</ele>
        <time>2026-08-15T11:03:21Z</time>
      </trkpt>
      <trkpt lat="32.05195602989879" lon="118.80371452079378">
        <ele>21.403082630597055</ele>
        <time>2026-08-15T11:03:24Z</time>
      </trkpt>
      <trkpt lat="32.0519023105614" lon="118.80388285744176">
        <ele>20.49941899534315</ele>
        <time>2026-08-15T11:03:30Z</time>
      </trkpt>
      <trkpt lat="32.05192283349111" lon="118.80418044310954">
        <ele>17.915282032452524</ele>
        <time>2026-08-15T11:03:42Z</time>
      </trkpt>
      <trkpt lat="32.0519490106455" lon="118.80427863489236">
        <ele>21.25511052366346</ele>
        <time>2026-08-15T11:03:45Z</time>
      </trkpt>
      <trkpt lat="32.05199614185992" lon="118.80434776737916">
        <ele>21.16263463255018</ele>
        <time>2026-08-15T11:03:48Z</time>
      </trkpt>
      <trkpt lat="32.0522823317046" lon="118.80441988393113">
        <ele>21.350233814679086</ele>
        <time>2026-08-15T11:04:00Z</time>
      </trkpt>
      <trkpt lat="32.05254057143625" lon="118.80452406668658">
        <ele>21.622389576397836</ele>
        <time>2026-08-15T11:04:12Z</time>
      </trkpt>
      <trkpt lat="32.05266367598835" lon="118.80456814278593">
        <ele>20.425436756573617</ele>
        <time>2026-08-15T11:04:18Z</time>
      </trkpt>
      <trkpt lat="32.0527577197359" lon="118.80458115997682">
        <ele>18.073813221417367</ele>
        <time>2026-08-15T11:04:24Z</time>
      </trkpt>
      <trkpt lat="32.05306895744114" lon="118.80467732222077">
        <ele>21.138853809796274</ele>
        <time>2026-08-15T11:04:39Z</time>
      </trkpt>
      <trkpt lat="32.053143961868834" lon="118.80467030140889">
        <ele>20.57340886350721</ele>
        <time>2026-08-15T11:04:42Z</time>
      </trkpt>
      <trkpt lat="32.05327488228968" lon="118.80460816611829">
        <ele>21.03580357786268</ele>
        <time>2026-08-15T11:04:48Z</time>
      </trkpt>
      <trkpt lat="32.05340657871846" lon="118.804417776661">
        <ele>21.24454381223768</ele>
        <time>2026-08-15T11:04:57Z</time>
      </trkpt>
      <trkpt lat="32.05343943202078" lon="118.80432959906216">
        <ele>20.552267811261117</ele>
        <time>2026-08-15T11:05:01Z</time>
      </trkpt>
      <trkpt lat="32.0534393340474" lon="118.80427348803964">
        <ele>21.43479039426893</ele>
        <time>2026-08-15T11:05:04Z</time>
      </trkpt>
      <trkpt lat="32.05338697816324" lon="118.80407610266126">
        <ele>20.23783757444471</ele>
        <time>2026-08-15T11:05:10Z</time>
      </trkpt>
      <trkpt lat="32.05334983549758" lon="118.80399895373567">
        <ele>19.733160755597055</ele>
        <time>2026-08-15T11:05:13Z</time>
      </trkpt>
      <trkpt lat="32.05322762515209" lon="118.80389375738834">
        <ele>20.29067876096815</ele>
        <time>2026-08-15T11:05:19Z</time>
      </trkpt>
      <trkpt lat="32.0530934941868" lon="118.80383565513038">
        <ele>21.138853809796274</ele>
        <time>2026-08-15T11:05:25Z</time>
      </trkpt>
      <trkpt lat="32.052878407936035" lon="118.80381363144787">
        <ele>19.468931934796274</ele>
        <time>2026-08-15T11:05:34Z</time>
      </trkpt>
      <trkpt lat="32.052578158176104" lon="118.80370845178383">
        <ele>21.276251575909555</ele>
        <time>2026-08-15T11:05:49Z</time>
      </trkpt>
      <trkpt lat="32.05227591680524" lon="118.80360828234343">
        <ele>20.721373341046274</ele>
        <time>2026-08-15T11:06:04Z</time>
      </trkpt>
      <trkpt lat="32.05215885070353" lon="118.80358524776574">
        <ele>20.25633122678846</ele>
        <time>2026-08-15T11:06:10Z</time>
      </trkpt>
      <trkpt lat="32.05194592496792" lon="118.80365540533948">
        <ele>17.505728504620492</ele>
        <time>2026-08-15T11:06:16Z</time>
      </trkpt>
      <trkpt lat="32.05186443114442" lon="118.80395700718125">
        <ele>21.392508289776742</ele>
        <time>2026-08-15T11:06:29Z</time>
      </trkpt>
      <trkpt lat="32.05187469348253" lon="118.80410630100441">
        <ele>20.277472279034555</ele>
        <time>2026-08-15T11:06:35Z</time>
      </trkpt>
      <trkpt lat="32.05195202181029" lon="118.80428464650979">
        <ele>21.03580357786268</ele>
        <time>2026-08-15T11:06:41Z</time>
      </trkpt>
      <trkpt lat="32.05201213317854" lon="118.8043407520263">
        <ele>21.685805103741586</ele>
        <time>2026-08-15T11:06:44Z</time>
      </trkpt>
      <trkpt lat="32.05228735208369" lon="118.80443090530119">
        <ele>20.887839100323617</ele>
        <time>2026-08-15T11:06:56Z</time>
      </trkpt>
      <trkpt lat="32.0525765461647" lon="118.80450502564534">
        <ele>17.82279851194471</ele>
        <time>2026-08-15T11:07:11Z</time>
      </trkpt>
      <trkpt lat="32.052645626395396" lon="118.80454209278903">
        <ele>20.647391102276742</ele>
        <time>2026-08-15T11:07:17Z</time>
      </trkpt>
      <trkpt lat="32.052923791805796" lon="118.80460118446432">
        <ele>22.264464161358774</ele>
        <time>2026-08-15T11:07:29Z</time>
      </trkpt>
      <trkpt lat="32.05303590095935" lon="118.80464926958098">
        <ele>21.477064869366586</ele>
        <time>2026-08-15T11:07:35Z</time>
      </trkpt>
      <trkpt lat="32.05319791073997" lon="118.80463422487347">
        <ele>20.993529102765024</ele>
        <time>2026-08-15T11:07:41Z</time>
      </trkpt>
      <trkpt lat="32.05333179328862" lon="118.80455004563515">
        <ele>20.330313465557992</ele>
        <time>2026-08-15T11:07:47Z</time>
      </trkpt>
      <trkpt lat="32.053377689618564" lon="118.80448491231762">
        <ele>21.548407337628305</ele>
        <time>2026-08-15T11:07:50Z</time>
      </trkpt>
      <trkpt lat="32.05342240548664" lon="118.80431657484702">
        <ele>23.482550404034555</ele>
        <time>2026-08-15T11:07:56Z</time>
      </trkpt>
      <trkpt lat="32.05342327976502" lon="118.80424443203631">
        <ele>21.957960865460336</ele>
        <time>2026-08-15T11:08:00Z</time>
      </trkpt>
      <trkpt lat="32.053377021345" lon="118.80410215503717">
        <ele>21.622389576397836</ele>
        <time>2026-08-15T11:08:06Z</time>
      </trkpt>
      <trkpt lat="32.05329480753965" lon="118.80398994099298">
        <ele>20.70815922971815</ele>
        <time>2026-08-15T11:08:12Z</time>
      </trkpt>
      <trkpt lat="32.05318563148898" lon="118.80390277903268">
        <ele>21.696371815167367</ele>
        <time>2026-08-15T11:08:18Z</time>
      </trkpt>
      <trkpt lat="32.05310960583711" lon="118.80389777613829">
        <ele>21.950033924542367</ele>
        <time>2026-08-15T11:08:21Z</time>
      </trkpt>
      <trkpt lat="32.05279235740473" lon="118.803795603813">
        <ele>20.457144520245492</ele>
        <time>2026-08-15T11:08:33Z</time>
      </trkpt>
      <trkpt lat="32.05258620000692" lon="118.8037314964281">
        <ele>21.749220631085336</ele>
        <time>2026-08-15T11:08:42Z</time>
      </trkpt>
      <trkpt lat="32.052469039879554" lon="118.80365435529423">
        <ele>21.9790942883119</ele>
        <time>2026-08-15T11:08:48Z</time>
      </trkpt>
      <trkpt lat="32.052262912166334" lon="118.80360728156724">
        <ele>21.70693852659315</ele>
        <time>2026-08-15T11:09:00Z</time>
      </trkpt>
      <trkpt lat="32.05213994040455" lon="118.80363935595847">
        <ele>22.494337818585336</ele>
        <time>2026-08-15T11:09:06Z</time>
      </trkpt>
      <trkpt lat="32.05208398360051" lon="118.80367142420806">
        <ele>21.865477344952524</ele>
        <time>2026-08-15T11:09:09Z</time>
      </trkpt>
      <trkpt lat="32.051977965174586" lon="118.80367443986802">
        <ele>21.519339344464242</ele>
        <time>2026-08-15T11:09:12Z</time>
      </trkpt>
      <trkpt lat="32.051881284954305" lon="118.80387083566472">
        <ele>21.928892872296274</ele>
        <time>2026-08-15T11:09:22Z</time>
      </trkpt>
      <trkpt lat="32.051859508550905" lon="118.80400209661865">
        <ele>21.2339771008119</ele>
        <time>2026-08-15T11:09:28Z</time>
      </trkpt>
      <trkpt lat="32.05190581396841" lon="118.8041714268476">
        <ele>15.238653919659555</ele>
        <time>2026-08-15T11:09:34Z</time>
      </trkpt>
      <trkpt lat="32.05196906234122" lon="118.80430568657802">
        <ele>21.854910633526742</ele>
        <time>2026-08-15T11:09:37Z</time>
      </trkpt>
      <trkpt lat="32.052014180882" lon="118.80436780539326">
        <ele>21.19169499631971</ele>
        <time>2026-08-15T11:09:40Z</time>
      </trkpt>
      <trkpt lat="32.05221534303089" lon="118.80443491985669">
        <ele>21.876044056378305</ele>
        <time>2026-08-15T11:09:49Z</time>
      </trkpt>
      <trkpt lat="32.052357393966446" lon="118.80444592863873">
        <ele>21.84433629270643</ele>
        <time>2026-08-15T11:09:55Z</time>
      </trkpt>
      <trkpt lat="32.0525004854146" lon="118.80447998299036">
        <ele>21.876044056378305</ele>
        <time>2026-08-15T11:10:01Z</time>
      </trkpt>
      <trkpt lat="32.05275570876965" lon="118.80457514823892">
        <ele>22.084784290753305</ele>
        <time>2026-08-15T11:10:13Z</time>
      </trkpt>
      <trkpt lat="32.053024912543826" lon="118.80465728649705">
        <ele>20.919546863995492</ele>
        <time>2026-08-15T11:10:25Z</time>
      </trkpt>
      <trkpt lat="32.053094959724866" lon="118.80467531585431">
        <ele>22.92503239866346</ele>
        <time>2026-08-15T11:10:28Z</time>
      </trkpt>
      <trkpt lat="32.05328286828795" lon="118.80459914749679">
        <ele>21.65409734006971</ele>
        <time>2026-08-15T11:10:37Z</time>
      </trkpt>
      <trkpt lat="32.05333579242662" lon="118.80454904328103">
        <ele>20.079298756085336</ele>
        <time>2026-08-15T11:10:40Z</time>
      </trkpt>
      <trkpt lat="32.05340158460955" lon="118.8044217850583">
        <ele>21.078078052960336</ele>
        <time>2026-08-15T11:10:46Z</time>
      </trkpt>
      <trkpt lat="32.053420471541415" lon="118.80435465038833">
        <ele>23.062430164776742</ele>
        <time>2026-08-15T11:10:49Z</time>
      </trkpt>
      <trkpt lat="32.05341020168785" lon="118.80420134803629">
        <ele>20.57340886350721</ele>
        <time>2026-08-15T11:10:55Z</time>
      </trkpt>
      <trkpt lat="32.0532747681855" lon="118.80396990328484">
        <ele>29.620550892315805</ele>
        <time>2026-08-15T11:11:10Z</time>
      </trkpt>
      <trkpt lat="32.05320168388656" lon="118.80393083289803">
        <ele>20.7715747570619</ele>
        <time>2026-08-15T11:11:13Z</time>
      </trkpt>
      <trkpt lat="32.05317951771675" lon="118.80386671332822">
        <ele>20.877264759503305</ele>
        <time>2026-08-15T11:11:16Z</time>
      </trkpt>
      <trkpt lat="32.05302149250174" lon="118.80383809835887">
        <ele>21.12827946897596</ele>
        <time>2026-08-15T11:11:22Z</time>
      </trkpt>
      <trkpt lat="32.052897264188886" lon="118.80375561466047">
        <ele>20.478285572491586</ele>
        <time>2026-08-15T11:11:25Z</time>
      </trkpt>
      <trkpt lat="32.052857175107235" lon="118.80368237485015">
        <ele>22.010802051983774</ele>
        <time>2026-08-15T11:11:28Z</time>
      </trkpt>
      <trkpt lat="32.05261416794311" lon="118.80370945044761">
        <ele>23.545965931378305</ele>
        <time>2026-08-15T11:11:41Z</time>
      </trkpt>
      <trkpt lat="32.05247910824853" lon="118.80369242932056">
        <ele>19.5640552258119</ele>
        <time>2026-08-15T11:11:47Z</time>
      </trkpt>
      <trkpt lat="32.052408040199786" lon="118.8036623766773">
        <ele>22.222182056866586</ele>
        <time>2026-08-15T11:11:50Z</time>
      </trkpt>
      <trkpt lat="32.05230786306652" lon="118.80357321042152">
        <ele>22.65287663694471</ele>
        <time>2026-08-15T11:11:56Z</time>
      </trkpt>
      <trkpt lat="32.05222089931981" lon="118.8036052814856">
        <ele>22.148199818097055</ele>
        <time>2026-08-15T11:12:02Z</time>
      </trkpt>
      <trkpt lat="32.052138894946204" lon="118.8036133047924">
        <ele>21.466490528546274</ele>
        <time>2026-08-15T11:12:05Z</time>
      </trkpt>
      <trkpt lat="32.05206593607775" lon="118.80364637656255">
        <ele>22.05307652708143</ele>
        <time>2026-08-15T11:12:08Z</time>
      </trkpt>
      <trkpt lat="32.051997021635685" lon="118.80370449729679">
        <ele>20.04759099241346</ele>
        <time>2026-08-15T11:12:11Z</time>
      </trkpt>
      <trkpt lat="32.05190029093705" lon="118.80387183589389">
        <ele>20.467711231671274</ele>
        <time>2026-08-15T11:12:20Z</time>
      </trkpt>
      <trkpt lat="32.05188040854693" lon="118.80394197605877">
        <ele>22.211615345440805</ele>
        <time>2026-08-15T11:12:23Z</time>
      </trkpt>
      <trkpt lat="32.05191297987499" lon="118.80426561243443">
        <ele>22.084784290753305</ele>
        <time>2026-08-15T11:12:33Z</time>
      </trkpt>
      <trkpt lat="32.05196913233587" lon="118.80434576589408">
        <ele>17.360403797589242</ele>
        <time>2026-08-15T11:12:36Z</time>
      </trkpt>
      <trkpt lat="32.052122266249235" lon="118.80440286490284">
        <ele>22.25388982053846</ele>
        <time>2026-08-15T11:12:42Z</time>
      </trkpt>
      <trkpt lat="32.052284339155534" lon="118.80442389168513">
        <ele>21.928892872296274</ele>
        <time>2026-08-15T11:12:48Z</time>
      </trkpt>
      <trkpt lat="32.05261660240196" lon="118.80453207559124">
        <ele>21.096579334698617</ele>
        <time>2026-08-15T11:13:03Z</time>
      </trkpt>
      <trkpt lat="32.05293185497768" lon="118.80463625329496">
        <ele>21.83376958128065</ele>
        <time>2026-08-15T11:13:18Z</time>
      </trkpt>
      <trkpt lat="32.053069938362164" lon="118.80466630025603">
        <ele>19.44779851194471</ele>
        <time>2026-08-15T11:13:24Z</time>
      </trkpt>
      <trkpt lat="32.05320196250842" lon="118.8046632821601">
        <ele>22.084784290753305</ele>
        <time>2026-08-15T11:13:30Z</time>
      </trkpt>
      <trkpt lat="32.05326592588892" lon="118.80463421862413">
        <ele>20.520560047589242</ele>
        <time>2026-08-15T11:13:33Z</time>
      </trkpt>
      <trkpt lat="32.05341853411498" lon="118.8043907219849">
        <ele>20.721373341046274</ele>
        <time>2026-08-15T11:13:46Z</time>
      </trkpt>
      <trkpt lat="32.05342633814858" lon="118.80427749716297">
        <ele>21.149420521222055</ele>
        <time>2026-08-15T11:13:49Z</time>
      </trkpt>
      <trkpt lat="32.05339900528597" lon="118.80409012926442">
        <ele>22.16934087034315</ele>
        <time>2026-08-15T11:13:55Z</time>
      </trkpt>
      <trkpt lat="32.053376907840246" lon="118.80403702641593">
        <ele>21.791495106182992</ele>
        <time>2026-08-15T11:13:58Z</time>
      </trkpt>
      <trkpt lat="32.05320461479703" lon="118.80389075357478">
        <ele>23.955519459210336</ele>
        <time>2026-08-15T11:14:07Z</time>
      </trkpt>
      <trkpt lat="32.05294041652598" lon="118.8038106198253">
        <ele>15.941496632061899</ele>
        <time>2026-08-15T11:14:22Z</time>
      </trkpt>
      <trkpt lat="32.05263823075554" lon="118.80374251335475">
        <ele>22.11649205442518</ele>
        <time>2026-08-15T11:14:34Z</time>
      </trkpt>
      <trkpt lat="32.052329972341745" lon="118.8036333266641">
        <ele>21.18112828489393</ele>
        <time>2026-08-15T11:14:49Z</time>
      </trkpt>
      <trkpt lat="32.0522039146636" lon="118.80361630473148">
        <ele>21.823202869854867</ele>
        <time>2026-08-15T11:14:55Z</time>
      </trkpt>
      <trkpt lat="32.05202395455183" lon="118.80366241197392">
        <ele>22.04250981565565</ele>
        <time>2026-08-15T11:15:04Z</time>
      </trkpt>
      <trkpt lat="32.05197999521175" lon="118.80369147321495">
        <ele>20.5628345226869</ele>
        <time>2026-08-15T11:15:07Z</time>
      </trkpt>
      <trkpt lat="32.05193409987133" lon="118.80375760766691">
        <ele>22.17990758176893</ele>
        <time>2026-08-15T11:15:10Z</time>
      </trkpt>
      <trkpt lat="32.05188930068674" lon="118.80387885073395">
        <ele>21.329092762432992</ele>
        <time>2026-08-15T11:15:14Z</time>
      </trkpt>
      <trkpt lat="32.05187860007134" lon="118.80405219377552">
        <ele>21.71751286741346</ele>
        <time>2026-08-15T11:15:20Z</time>
      </trkpt>
      <trkpt lat="32.05192891524402" lon="118.80422653368086">
        <ele>21.487631580792367</ele>
        <time>2026-08-15T11:15:26Z</time>
      </trkpt>
      <trkpt lat="32.05196404198114" lon="118.80429466523015">
        <ele>22.24332310911268</ele>
        <time>2026-08-15T11:15:29Z</time>
      </trkpt>
      <trkpt lat="32.05214126523463" lon="118.80439985720432">
        <ele>21.812628529034555</ele>
        <time>2026-08-15T11:15:38Z</time>
      </trkpt>
      <trkpt lat="32.052329338684096" lon="118.80441787564288">
        <ele>20.57340886350721</ele>
        <time>2026-08-15T11:15:50Z</time>
      </trkpt>
      <trkpt lat="32.05264969741447" lon="118.80458217188915">
        <ele>19.786009571515024</ele>
        <time>2026-08-15T11:16:02Z</time>
      </trkpt>
      <trkpt lat="32.052939855006315" lon="118.80463525057189">
        <ele>21.950033924542367</ele>
        <time>2026-08-15T11:16:18Z</time>
      </trkpt>
      <trkpt lat="32.05307994936369" lon="118.80467130927899">
        <ele>21.455923817120492</ele>
        <time>2026-08-15T11:16:24Z</time>
      </trkpt>
      <trkpt lat="32.05318490784371" lon="118.80463422606819">
        <ele>21.759787342511117</ele>
        <time>2026-08-15T11:16:30Z</time>
      </trkpt>
      <trkpt lat="32.05335469150398" lon="118.80448892237348">
        <ele>21.791495106182992</ele>
        <time>2026-08-15T11:16:39Z</time>
      </trkpt>
      <trkpt lat="32.05343635786841" lon="118.80428751606627">
        <ele>21.759787342511117</ele>
        <time>2026-08-15T11:16:48Z</time>
      </trkpt>
      <trkpt lat="32.053404037839336" lon="118.80410816443171">
        <ele>20.856131336651742</ele>
        <time>2026-08-15T11:16:57Z</time>
      </trkpt>
      <trkpt lat="32.05336387701425" lon="118.8040209959608">
        <ele>22.11649205442518</ele>
        <time>2026-08-15T11:17:00Z</time>
      </trkpt>
      <trkpt lat="32.05325766671231" lon="118.8039137941523">
        <ele>20.330313465557992</ele>
        <time>2026-08-15T11:17:06Z</time>
      </trkpt>
      <trkpt lat="32.05299047123544" lon="118.80383566459791">
        <ele>22.000235340557992</ele>
        <time>2026-08-15T11:17:21Z</time>
      </trkpt>
      <trkpt lat="32.05270326614484" lon="118.80375453106208">
        <ele>20.541701099835336</ele>
        <time>2026-08-15T11:17:33Z</time>
      </trkpt>
      <trkpt lat="32.052422083353456" lon="118.80368542075237">
        <ele>20.015883228741586</ele>
        <time>2026-08-15T11:17:48Z</time>
      </trkpt>
      <trkpt lat="32.05219692702012" lon="118.80362432114579">
        <ele>21.0252368664369</ele>
        <time>2026-08-15T11:18:00Z</time>
      </trkpt>
      <trkpt lat="32.05211191327968" lon="118.80362733487325">
        <ele>21.83376958128065</ele>
        <time>2026-08-15T11:18:03Z</time>
      </trkpt>
      <trkpt lat="32.052016986059385" lon="118.80368145008946">
        <ele>22.031943104229867</ele>
        <time>2026-08-15T11:18:09Z</time>
      </trkpt>
      <trkpt lat="32.05193610554282" lon="118.80376061340405">
        <ele>21.632956287823617</ele>
        <time>2026-08-15T11:18:13Z</time>
      </trkpt>
      <trkpt lat="32.05187231607281" lon="118.80388987402944">
        <ele>20.552267811261117</ele>
        <time>2026-08-15T11:18:19Z</time>
      </trkpt>
      <trkpt lat="32.05189359992629" lon="118.80405018843996">
        <ele>21.854910633526742</ele>
        <time>2026-08-15T11:18:25Z</time>
      </trkpt>
      <trkpt lat="32.05191874522608" lon="118.80413034446964">
        <ele>21.70693852659315</ele>
        <time>2026-08-15T11:18:28Z</time>
      </trkpt>
      <trkpt lat="32.05202605406377" lon="118.80429365754966">
        <ele>21.759787342511117</ele>
        <time>2026-08-15T11:18:34Z</time>
      </trkpt>
      <trkpt lat="32.05210216200646" lon="118.80434575367089">
        <ele>21.823202869854867</ele>
        <time>2026-08-15T11:18:40Z</time>
      </trkpt>
      <trkpt lat="32.05216719925862" lon="118.80435877348044">
        <ele>21.149420521222055</ele>
        <time>2026-08-15T11:18:43Z</time>
      </trkpt>
      <trkpt lat="32.05223733918089" lon="118.80442990791174">
        <ele>21.212836048565805</ele>
        <time>2026-08-15T11:18:49Z</time>
      </trkpt>
      <trkpt lat="32.052578650025744" lon="118.80456414265052">
        <ele>21.52726628538221</ele>
        <time>2026-08-15T11:19:01Z</time>
      </trkpt>
      <trkpt lat="32.052780782734" lon="118.80461422344266">
        <ele>21.569540760479867</ele>
        <time>2026-08-15T11:19:11Z</time>
      </trkpt>
      <trkpt lat="32.053105946383546" lon="118.8046662969476">
        <ele>22.610602161847055</ele>
        <time>2026-08-15T11:19:29Z</time>
      </trkpt>
      <trkpt lat="32.053258887494664" lon="118.80461317752611">
        <ele>21.455923817120492</ele>
        <time>2026-08-15T11:19:41Z</time>
      </trkpt>
      <trkpt lat="32.053339733723675" lon="118.80451497538161">
        <ele>20.951254627667367</ele>
        <time>2026-08-15T11:19:47Z</time>
      </trkpt>
      <trkpt lat="32.053419368077094" lon="118.80429553348779">
        <ele>22.010802051983774</ele>
        <time>2026-08-15T11:19:56Z</time>
      </trkpt>
      <trkpt lat="32.053426163301125" lon="118.8041772990281">
        <ele>22.31730534788221</ele>
        <time>2026-08-15T11:20:02Z</time>
      </trkpt>
      <trkpt lat="32.05339197927693" lon="118.80407610220169">
        <ele>21.9790942883119</ele>
        <time>2026-08-15T11:20:08Z</time>
      </trkpt>
      <trkpt lat="32.05321758456633" lon="118.80387171484152">
        <ele>21.056944630108774</ele>
        <time>2026-08-15T11:20:14Z</time>
      </trkpt>
      <trkpt lat="32.052905366910075" lon="118.8037865756584">
        <ele>20.488852283917367</ele>
        <time>2026-08-15T11:20:26Z</time>
      </trkpt>
      <trkpt lat="32.052625156467634" lon="118.80370143365423">
        <ele>20.541701099835336</ele>
        <time>2026-08-15T11:20:42Z</time>
      </trkpt>
      <trkpt lat="32.05252108454096" lon="118.80367338798419">
        <ele>22.16934087034315</ele>
        <time>2026-08-15T11:20:45Z</time>
      </trkpt>
      <trkpt lat="32.052468095351365" lon="118.80368641849657">
        <ele>21.30795933958143</ele>
        <time>2026-08-15T11:20:48Z</time>
      </trkpt>
      <trkpt lat="32.05227195418689" lon="118.80363032608074">
        <ele>19.849425098858774</ele>
        <time>2026-08-15T11:21:00Z</time>
      </trkpt>
      <trkpt lat="32.0520659534796" lon="118.80365639628133">
        <ele>21.43479039426893</ele>
        <time>2026-08-15T11:21:09Z</time>
      </trkpt>
      <trkpt lat="32.05187718645574" lon="118.80381472543013">
        <ele>18.409384510479867</ele>
        <time>2026-08-15T11:21:18Z</time>
      </trkpt>
      <trkpt lat="32.05183742511979" lon="118.80395700966285">
        <ele>20.068732044659555</ele>
        <time>2026-08-15T11:21:24Z</time>
      </trkpt>
      <trkpt lat="32.05190284126374" lon="118.80418745881197">
        <ele>18.515074512921274</ele>
        <time>2026-08-15T11:21:33Z</time>
      </trkpt>
      <trkpt lat="32.052033104614516" lon="118.8043217124195">
        <ele>22.010802051983774</ele>
        <time>2026-08-15T11:21:39Z</time>
      </trkpt>
      <trkpt lat="32.05220130488303" lon="118.80441488145338">
        <ele>20.38316228147596</ele>
        <time>2026-08-15T11:21:48Z</time>
      </trkpt>
      <trkpt lat="32.05247549035278" lon="118.8044859972005">
        <ele>20.29067876096815</ele>
        <time>2026-08-15T11:22:01Z</time>
      </trkpt>
      <trkpt lat="32.05273970344983" lon="118.80457414772243">
        <ele>21.78092839475721</ele>
        <time>2026-08-15T11:22:13Z</time>
      </trkpt>
      <trkpt lat="32.053061887455314" lon="118.8046382453236">
        <ele>20.62625005003065</ele>
        <time>2026-08-15T11:22:28Z</time>
      </trkpt>
      <trkpt lat="32.053197947580976" lon="118.80465526662177">
        <ele>19.722594044171274</ele>
        <time>2026-08-15T11:22:34Z</time>
      </trkpt>
      <trkpt lat="32.05325592716962" lon="118.80463622351888">
        <ele>21.939459583722055</ele>
        <time>2026-08-15T11:22:37Z</time>
      </trkpt>
      <trkpt lat="32.05335079927391" lon="118.8045510458755">
        <ele>20.940680286847055</ele>
        <time>2026-08-15T11:22:43Z</time>
      </trkpt>
      <trkpt lat="32.05341559998669" lon="118.80442879766332">
        <ele>23.73356511350721</ele>
        <time>2026-08-15T11:22:49Z</time>
      </trkpt>
      <trkpt lat="32.05344236095409" lon="118.80428851749713">
        <ele>21.212836048565805</ele>
        <time>2026-08-15T11:22:55Z</time>
      </trkpt>
      <trkpt lat="32.053441231319006" lon="118.80421437094047">
        <ele>20.57340886350721</ele>
        <time>2026-08-15T11:22:58Z</time>
      </trkpt>
      <trkpt lat="32.053390979054186" lon="118.80407610229359">
        <ele>19.70145299192518</ele>
        <time>2026-08-15T11:23:04Z</time>
      </trkpt>
      <trkpt lat="32.05334089982138" lon="118.80403702972485">
        <ele>21.212836048565805</ele>
        <time>2026-08-15T11:23:07Z</time>
      </trkpt>
      <trkpt lat="32.053232628009695" lon="118.80389475890468">
        <ele>22.031943104229867</ele>
        <time>2026-08-15T11:23:13Z</time>
      </trkpt>
      <trkpt lat="32.0531125175926" lon="118.8038466751094">
        <ele>21.58011510130018</ele>
        <time>2026-08-15T11:23:19Z</time>
      </trkpt>
      <trkpt lat="32.05302847970326" lon="118.80383566110504">
        <ele>21.6435229992494</ele>
        <time>2026-08-15T11:23:22Z</time>
      </trkpt>
      <trkpt lat="32.05272026122613" lon="118.80374951963167">
        <ele>20.940680286847055</ele>
        <time>2026-08-15T11:23:37Z</time>
      </trkpt>
      <trkpt lat="32.05249321758505" lon="118.80375354839123">
        <ele>21.16263463255018</ele>
        <time>2026-08-15T11:23:49Z</time>
      </trkpt>
      <trkpt lat="32.052298937591374" lon="118.80361729797043">
        <ele>21.067511341534555</ele>
        <time>2026-08-15T11:24:08Z</time>
      </trkpt>
      <trkpt lat="32.05224091247831" lon="118.80361028950297">
        <ele>21.339667103253305</ele>
        <time>2026-08-15T11:24:11Z</time>
      </trkpt>
      <trkpt lat="32.05202170920231" lon="118.80365214706288">
        <ele>21.223402759991586</ele>
        <time>2026-08-15T11:24:26Z</time>
      </trkpt>
      <trkpt lat="32.05182656786327" lon="118.80355947172797">
        <ele>20.83499028440565</ele>
        <time>2026-08-15T11:24:32Z</time>
      </trkpt>
      <trkpt lat="32.05189229912833" lon="118.80383016576549">
        <ele>21.096579334698617</ele>
        <time>2026-08-15T11:24:38Z</time>
      </trkpt>
      <trkpt lat="32.051876156496185" lon="118.80408294557782">
        <ele>21.44535710569471</ele>
        <time>2026-08-15T11:24:50Z</time>
      </trkpt>
      <trkpt lat="32.05194096163737" lon="118.80425158211561">
        <ele>20.750441334210336</ele>
        <time>2026-08-15T11:24:56Z</time>
      </trkpt>
      <trkpt lat="32.0520261940621" lon="118.80437381619217">
        <ele>21.950033924542367</ele>
        <time>2026-08-15T11:24:59Z</time>
      </trkpt>
      <trkpt lat="32.05210826487726" lon="118.80440386817362">
        <ele>19.542921802960336</ele>
        <time>2026-08-15T11:25:02Z</time>
      </trkpt>
      <trkpt lat="32.05226432243662" lon="118.80441687963221">
        <ele>21.455923817120492</ele>
        <time>2026-08-15T11:25:08Z</time>
      </trkpt>
      <trkpt lat="32.0525756458505" lon="118.8045621389528">
        <ele>22.021368763409555</ele>
        <time>2026-08-15T11:25:24Z</time>
      </trkpt>
      <trkpt lat="32.05279671089508" lon="118.80457113652346">
        <ele>21.9790942883119</ele>
        <time>2026-08-15T11:25:33Z</time>
      </trkpt>
      <trkpt lat="32.05297088472049" lon="118.80464827356647">
        <ele>22.158766529522836</ele>
        <time>2026-08-15T11:25:39Z</time>
      </trkpt>
      <trkpt lat="32.05312293087118" lon="118.80465527351437">
        <ele>21.360800526104867</ele>
        <time>2026-08-15T11:25:45Z</time>
      </trkpt>
      <trkpt lat="32.05320888863336" lon="118.80462019603424">
        <ele>21.43479039426893</ele>
        <time>2026-08-15T11:25:48Z</time>
      </trkpt>
      <trkpt lat="32.05335672173824" lon="118.80450595594623">
        <ele>22.78763463255018</ele>
        <time>2026-08-15T11:25:57Z</time>
      </trkpt>
      <trkpt lat="32.05336560811516" lon="118.80443982409005">
        <ele>21.43479039426893</ele>
        <time>2026-08-15T11:26:03Z</time>
      </trkpt>
      <trkpt lat="32.0533975066786" lon="118.80437769812464">
        <ele>20.993529102765024</ele>
        <time>2026-08-15T11:26:06Z</time>
      </trkpt>
      <trkpt lat="32.05340336626283" lon="118.8042965369408">
        <ele>21.2339771008119</ele>
        <time>2026-08-15T11:26:09Z</time>
      </trkpt>
      <trkpt lat="32.05338802030178" lon="118.8041001500675">
        <ele>20.83499028440565</ele>
        <time>2026-08-15T11:26:15Z</time>
      </trkpt>
      <trkpt lat="32.05322661795462" lon="118.80388974957675">
        <ele>21.360800526104867</ele>
        <time>2026-08-15T11:26:24Z</time>
      </trkpt>
      <trkpt lat="32.05308054358257" lon="118.80386571558124">
        <ele>21.477064869366586</ele>
        <time>2026-08-15T11:26:33Z</time>
      </trkpt>
      <trkpt lat="32.05280735029467" lon="118.80378959058883">
        <ele>21.212836048565805</ele>
        <time>2026-08-15T11:26:48Z</time>
      </trkpt>
      <trkpt lat="32.05249812989355" lon="118.80370244730062">
        <ele>21.03580357786268</ele>
        <time>2026-08-15T11:27:03Z</time>
      </trkpt>
      <trkpt lat="32.052267923718986" lon="118.80361329293481">
        <ele>21.18112828489393</ele>
        <time>2026-08-15T11:27:15Z</time>
      </trkpt>
      <trkpt lat="32.05208693032197" lon="118.80364036280181">
        <ele>21.19169499631971</ele>
        <time>2026-08-15T11:27:25Z</time>
      </trkpt>
      <trkpt lat="32.051976032619805" lon="118.80371351698254">
        <ele>21.823202869854867</ele>
        <time>2026-08-15T11:27:31Z</time>
      </trkpt>
      <trkpt lat="32.05189825562599" lon="118.80385179657063">
        <ele>21.622389576397836</ele>
        <time>2026-08-15T11:27:34Z</time>
      </trkpt>
      <trkpt lat="32.051868571651994" lon="118.80403716501937">
        <ele>21.83376958128065</ele>
        <time>2026-08-15T11:27:40Z</time>
      </trkpt>
      <trkpt lat="32.0518948220004" lon="118.80417743974132">
        <ele>20.739866993390024</ele>
        <time>2026-08-15T11:27:46Z</time>
      </trkpt>
      <trkpt lat="32.05194501325149" lon="118.80428063922429">
        <ele>21.067511341534555</ele>
        <time>2026-08-15T11:27:49Z</time>
      </trkpt>
      <trkpt lat="32.05200513511707" lon="118.80434275663595">
        <ele>21.9790942883119</ele>
        <time>2026-08-15T11:27:52Z</time>
      </trkpt>
      <trkpt lat="32.05218028268852" lon="118.80440486354078">
        <ele>19.281332752667367</ele>
        <time>2026-08-15T11:28:01Z</time>
      </trkpt>
      <trkpt lat="32.05224737468911" lon="118.80444894470257">
        <ele>21.25511052366346</ele>
        <time>2026-08-15T11:28:04Z</time>
      </trkpt>
      <trkpt lat="32.05251653804454" lon="118.8045080371169">
        <ele>21.29739262815565</ele>
        <time>2026-08-15T11:28:16Z</time>
      </trkpt>
      <trkpt lat="32.05281073154933" lon="118.80458115510604">
        <ele>18.660399219952524</ele>
        <time>2026-08-15T11:28:29Z</time>
      </trkpt>
      <trkpt lat="32.05297489262951" lon="118.80465228115125">
        <ele>20.78214909788221</ele>
        <time>2026-08-15T11:28:38Z</time>
      </trkpt>
      <trkpt lat="32.05304887403338" lon="118.80463223459117">
        <ele>19.439871571026742</ele>
        <time>2026-08-15T11:28:44Z</time>
      </trkpt>
      <trkpt lat="32.05310691327084" lon="118.80464725907986">
        <ele>19.77543523069471</ele>
        <time>2026-08-15T11:28:47Z</time>
      </trkpt>
      <trkpt lat="32.05322482380277" lon="118.80458111705845">
        <ele>18.232352039776742</ele>
        <time>2026-08-15T11:28:53Z</time>
      </trkpt>
      <trkpt lat="32.05330564379679" lon="118.80446788518398">
        <ele>21.43479039426893</ele>
        <time>2026-08-15T11:28:59Z</time>
      </trkpt>
      <trkpt lat="32.05332050003101" lon="118.80438371710441">
        <ele>19.680319569073617</ele>
        <time>2026-08-15T11:29:02Z</time>
      </trkpt>
      <trkpt lat="32.05338725251158" lon="118.80423341354822">
        <ele>21.223402759991586</ele>
        <time>2026-08-15T11:29:05Z</time>
      </trkpt>
      <trkpt lat="32.053373083344226" lon="118.80413822667082">
        <ele>22.021368763409555</ele>
        <time>2026-08-15T11:29:08Z</time>
      </trkpt>
      <trkpt lat="32.05323768841829" lon="118.80392882563605">
        <ele>14.776259205304086</ele>
        <time>2026-08-15T11:29:17Z</time>
      </trkpt>
      <trkpt lat="32.053181573059234" lon="118.8038697141995">
        <ele>20.04759099241346</ele>
        <time>2026-08-15T11:29:20Z</time>
      </trkpt>
      <trkpt lat="32.05291944669887" lon="118.80383066124953">
        <ele>17.233572742901742</ele>
        <time>2026-08-15T11:29:33Z</time>
      </trkpt>
      <trkpt lat="32.05278132185215" lon="118.80377656731572">
        <ele>20.195563099347055</ele>
        <time>2026-08-15T11:29:42Z</time>
      </trkpt>
      <trkpt lat="32.05247916570232" lon="118.80372549442433">
        <ele>21.004095814190805</ele>
        <time>2026-08-15T11:29:57Z</time>
      </trkpt>
      <trkpt lat="32.0522569891223" lon="118.80365237083723">
        <ele>20.393728992901742</ele>
        <time>2026-08-15T11:30:09Z</time>
      </trkpt>
    </trkseg>
  </trk>
</gpx>