<?xml version="1.0" encoding="UTF-8"?>
<gpx xmlns="http://www.topografix.com/GPX/1/1" xmlns:gpxtpx="http://www.garmin.com/xmlschemas/TrackPointExtension/v1" xmlns:xsi="http://www.w3.org/2001/XMLSchema-instance" xsi:schemaLocation="http://www.topografix.com/GPX/1/1 http://www.topografix.com/GPX/1/1/gpx.xsd" version="1.1" creator="gpx.py -- https://github.com/tkrajina/gpxpy">
  <trk>
    <name>gpx from keep</name>
    <type>Run</type>
    <trkseg>
      <trkpt lat="31.229726459687786" lon="121.39987086054411">
        <ele>16.156063529662788</ele>
        <time>2026-06-24T09:27:28Z</time>
      </trkpt>
      <trkpt lat="31.22973447032937" lon="121.4000178793892">
        <ele>16.98573729675263</ele>
        <time>2026-06-24T09:27:34Z</time>
      </trkpt>
      <trkpt lat="31.229802456120122" lon="121.40018389689408">
        <ele>19.88959929626435</ele>
        <time>2026-06-24T09:27:40Z</time>
      </trkpt>
      <trkpt lat="31.2299244148505" lon="121.40032190684099">
        <ele>16.755856010131538</ele>
        <time>2026-06-24T09:27:46Z</time>
      </trkpt>
      <trkpt lat="31.230096339756077" lon="121.40036289815342">
        <ele>-8.607326057739556</ele>
        <time>2026-06-24T09:27:52Z</time>
      </trkpt>
      <trkpt lat="31.23017630298752" lon="121.40036589164359">
        <ele>17.80219695251435</ele>
        <time>2026-06-24T09:27:55Z</time>
      </trkpt>
      <trkpt lat="31.230500142092612" lon="121.40027284919827">
        <ele>21.67049071472138</ele>
        <time>2026-06-24T09:28:07Z</time>
      </trkpt>
      <trkpt lat="31.230772004800475" lon="121.40017081043548">
        <ele>-10.406714943237603</ele>
        <time>2026-06-24T09:28:16Z</time>
      </trkpt>
      <trkpt lat="31.230988895167595" lon="121.40008477925323">
        <ele>20.6532101361081</ele>
        <time>2026-06-24T09:28:22Z</time>
      </trkpt>
      <trkpt lat="31.231100834225067" lon="121.39999575720724">
        <ele>5.568470451049507</ele>
        <time>2026-06-24T09:28:25Z</time>
      </trkpt>
      <trkpt lat="31.231180785980136" lon="121.39988073497987">
        <ele>-21.041869667358696</ele>
        <time>2026-06-24T09:28:28Z</time>
      </trkpt>
      <trkpt lat="31.231214758193016" lon="121.39974971548733">
        <ele>20.632076713256538</ele>
        <time>2026-06-24T09:28:31Z</time>
      </trkpt>
      <trkpt lat="31.231208751612208" lon="121.39964170306175">
        <ele>19.511753532104194</ele>
        <time>2026-06-24T09:28:34Z</time>
      </trkpt>
      <trkpt lat="31.231138769420674" lon="121.39945968872867">
        <ele>17.73878905456513</ele>
        <time>2026-06-24T09:28:40Z</time>
      </trkpt>
      <trkpt lat="31.231087788030823" lon="121.39939268608951">
        <ele>18.904026481322944</ele>
        <time>2026-06-24T09:28:43Z</time>
      </trkpt>
      <trkpt lat="31.230956842569288" lon="121.39930668876099">
        <ele>18.180042716674507</ele>
        <time>2026-06-24T09:28:49Z</time>
      </trkpt>
      <trkpt lat="31.230807909263927" lon="121.39927269839961">
        <ele>15.191631766967475</ele>
        <time>2026-06-24T09:28:55Z</time>
      </trkpt>
      <trkpt lat="31.230598009691466" lon="121.39931772115929">
        <ele>18.766628715209663</ele>
        <time>2026-06-24T09:29:04Z</time>
      </trkpt>
      <trkpt lat="31.230332139352875" lon="121.39940575336036">
        <ele>18.6186642376706</ele>
        <time>2026-06-24T09:29:16Z</time>
      </trkpt>
      <trkpt lat="31.230060272282707" lon="121.39949478659963">
        <ele>11.68269011657685</ele>
        <time>2026-06-24T09:29:28Z</time>
      </trkpt>
      <trkpt lat="31.229853378173637" lon="121.39961681837819">
        <ele>16.010738822631538</ele>
        <time>2026-06-24T09:29:37Z</time>
      </trkpt>
      <trkpt lat="31.22979741001491" lon="121.3996858313722">
        <ele>8.86603209655732</ele>
        <time>2026-06-24T09:29:40Z</time>
      </trkpt>
      <trkpt lat="31.22975543817672" lon="121.39978384698432">
        <ele>20.71662566345185</ele>
        <time>2026-06-24T09:29:43Z</time>
      </trkpt>
      <trkpt lat="31.229738462988575" lon="121.39996287159572">
        <ele>20.6532101361081</ele>
        <time>2026-06-24T09:29:49Z</time>
      </trkpt>
      <trkpt lat="31.229747467545224" lon="121.40004988266041">
        <ele>18.388782951049507</ele>
        <time>2026-06-24T09:29:52Z</time>
      </trkpt>
      <trkpt lat="31.229811452592198" lon="121.40018989698352">
        <ele>18.431057426147163</ele>
        <time>2026-06-24T09:29:58Z</time>
      </trkpt>
      <trkpt lat="31.229922413499743" lon="121.4003019039702">
        <ele>19.165615531615913</ele>
        <time>2026-06-24T09:30:04Z</time>
      </trkpt>
      <trkpt lat="31.230157314372807" lon="121.40038789672504">
        <ele>20.38106200378388</ele>
        <time>2026-06-24T09:30:13Z</time>
      </trkpt>
      <trkpt lat="31.23043317473388" lon="121.40028685714789">
        <ele>22.645489188842475</ele>
        <time>2026-06-24T09:30:25Z</time>
      </trkpt>
      <trkpt lat="31.230648062375742" lon="121.40017182139168">
        <ele>23.789593192748725</ele>
        <time>2026-06-24T09:30:31Z</time>
      </trkpt>
      <trkpt lat="31.230754012818775" lon="121.40016781157058">
        <ele>19.731060477904975</ele>
        <time>2026-06-24T09:30:34Z</time>
      </trkpt>
      <trkpt lat="31.230954913948107" lon="121.40011378630919">
        <ele>18.42049071472138</ele>
        <time>2026-06-24T09:30:40Z</time>
      </trkpt>
      <trkpt lat="31.231032873544443" lon="121.40007277373681">
        <ele>18.180042716674507</ele>
        <time>2026-06-24T09:30:43Z</time>
      </trkpt>
      <trkpt lat="31.23115480184831" lon="121.39992074247313">
        <ele>15.22333953063935</ele>
        <time>2026-06-24T09:30:49Z</time>
      </trkpt>
      <trkpt lat="31.23121975561114" lon="121.39974671468343">
        <ele>7.095707389526069</ele>
        <time>2026-06-24T09:30:55Z</time>
      </trkpt>
      <trkpt lat="31.231212749339463" lon="121.39963670212833">
        <ele>-0.4189219744876027</ele>
        <time>2026-06-24T09:30:58Z</time>
      </trkpt>
      <trkpt lat="31.231161760767055" lon="121.39948568953642">
        <ele>16.156063529662788</ele>
        <time>2026-06-24T09:31:05Z</time>
      </trkpt>
      <trkpt lat="31.23107079387006" lon="121.39936468468022">
        <ele>17.93959471862763</ele>
        <time>2026-06-24T09:31:11Z</time>
      </trkpt>
      <trkpt lat="31.23096883638743" lon="121.39929768682138">
        <ele>16.134922477416694</ele>
        <time>2026-06-24T09:31:17Z</time>
      </trkpt>
      <trkpt lat="31.230839894369" lon="121.39927169551189">
        <ele>17.45605895202607</ele>
        <time>2026-06-24T09:31:23Z</time>
      </trkpt>
      <trkpt lat="31.230771926149455" lon="121.39927570183177">
        <ele>16.880047294311225</ele>
        <time>2026-06-24T09:31:26Z</time>
      </trkpt>
      <trkpt lat="31.230505057444557" lon="121.39938273588308">
        <ele>14.554844352416694</ele>
        <time>2026-06-24T09:31:38Z</time>
      </trkpt>
      <trkpt lat="31.230313149426465" lon="121.39942275680411">
        <ele>16.092648002319038</ele>
        <time>2026-06-24T09:31:47Z</time>
      </trkpt>
      <trkpt lat="31.230171220082273" lon="121.39948577593992">
        <ele>15.21277281921357</ele>
        <time>2026-06-24T09:31:53Z</time>
      </trkpt>
      <trkpt lat="31.229959322221262" lon="121.39953379970997">
        <ele>14.879841300658882</ele>
        <time>2026-06-24T09:31:59Z</time>
      </trkpt>
      <trkpt lat="31.22989135691763" lon="121.39957281002293">
        <ele>14.689602348022163</ele>
        <time>2026-06-24T09:32:02Z</time>
      </trkpt>
      <trkpt lat="31.22979441279282" lon="121.39970183355041">
        <ele>14.993465873412788</ele>
        <time>2026-06-24T09:32:05Z</time>
      </trkpt>
      <trkpt lat="31.22973945535795" lon="121.3998888617427">
        <ele>14.502003165893257</ele>
        <time>2026-06-24T09:32:11Z</time>
      </trkpt>
      <trkpt lat="31.22974046205992" lon="121.39996287142134">
        <ele>18.032078239135444</ele>
        <time>2026-06-24T09:32:14Z</time>
      </trkpt>
      <trkpt lat="31.229762459457525" lon="121.40003887983248">
        <ele>18.703213187865913</ele>
        <time>2026-06-24T09:32:17Z</time>
      </trkpt>
      <trkpt lat="31.229910414453098" lon="121.40026089883958">
        <ele>17.93959471862763</ele>
        <time>2026-06-24T09:32:26Z</time>
      </trkpt>
      <trkpt lat="31.230024370735926" lon="121.40034190118864">
        <ele>18.671505424194038</ele>
        <time>2026-06-24T09:32:32Z</time>
      </trkpt>
      <trkpt lat="31.230147316093063" lon="121.40036289370693">
        <ele>21.313778373412788</ele>
        <time>2026-06-24T09:32:38Z</time>
      </trkpt>
      <trkpt lat="31.23045616328022" lon="121.40027985408727">
        <ele>17.92902800720185</ele>
        <time>2026-06-24T09:32:53Z</time>
      </trkpt>
      <trkpt lat="31.230515134465602" lon="121.40026684699016">
        <ele>20.9887814251706</ele>
        <time>2026-06-24T09:32:56Z</time>
      </trkpt>
      <trkpt lat="31.23059109358061" lon="121.40021583278778">
        <ele>-44.489406135864556</ele>
        <time>2026-06-24T09:32:59Z</time>
      </trkpt>
      <trkpt lat="31.23090193987134" lon="121.40012679277866">
        <ele>20.130039664916694</ele>
        <time>2026-06-24T09:33:11Z</time>
      </trkpt>
      <trkpt lat="31.23106985630499" lon="121.40007177037114">
        <ele>19.279232474975288</ele>
        <time>2026-06-24T09:33:17Z</time>
      </trkpt>
      <trkpt lat="31.231182789076747" lon="121.39992274029534">
        <ele>20.09833953063935</ele>
        <time>2026-06-24T09:33:23Z</time>
      </trkpt>
      <trkpt lat="31.231221760741715" lon="121.39981372283923">
        <ele>19.250164481811225</ele>
        <time>2026-06-24T09:33:26Z</time>
      </trkpt>
      <trkpt lat="31.231228748184837" lon="121.39970970939947">
        <ele>19.332073661498725</ele>
        <time>2026-06-24T09:33:29Z</time>
      </trkpt>
      <trkpt lat="31.231214745416587" lon="121.39960069778319">
        <ele>7.891033622436225</ele>
        <time>2026-06-24T09:33:32Z</time>
      </trkpt>
      <trkpt lat="31.231177754836445" lon="121.39950469021953">
        <ele>17.300167533569038</ele>
        <time>2026-06-24T09:33:35Z</time>
      </trkpt>
      <trkpt lat="31.231081788992032" lon="121.39936768402899">
        <ele>17.561756583862007</ele>
        <time>2026-06-24T09:33:41Z</time>
      </trkpt>
      <trkpt lat="31.23102781058928" lon="121.3993196838684">
        <ele>15.74914977233857</ele>
        <time>2026-06-24T09:33:44Z</time>
      </trkpt>
      <trkpt lat="31.23089786661844" lon="121.39925868918976">
        <ele>14.993465873412788</ele>
        <time>2026-06-24T09:33:50Z</time>
      </trkpt>
      <trkpt lat="31.230757931620815" lon="121.39926070159026">
        <ele>16.943462821654975</ele>
        <time>2026-06-24T09:33:56Z</time>
      </trkpt>
      <trkpt lat="31.23044608335314" lon="121.39936273896808">
        <ele>16.335735770873725</ele>
        <time>2026-06-24T09:34:11Z</time>
      </trkpt>
      <trkpt lat="31.230401105740096" lon="121.39938374505408">
        <ele>16.325169059447944</ele>
        <time>2026-06-24T09:34:14Z</time>
      </trkpt>
      <trkpt lat="31.230287158683726" lon="121.39938475509699">
        <ele>15.06744811218232</ele>
        <time>2026-06-24T09:34:17Z</time>
      </trkpt>
      <trkpt lat="31.230239184273756" lon="121.39942976399627">
        <ele>15.527203056029975</ele>
        <time>2026-06-24T09:34:23Z</time>
      </trkpt>
      <trkpt lat="31.2299723113445" lon="121.39947179177082">
        <ele>13.862568351440132</ele>
        <time>2026-06-24T09:34:35Z</time>
      </trkpt>
      <trkpt lat="31.2298064033549" lon="121.39965682714787">
        <ele>15.01459929626435</ele>
        <time>2026-06-24T09:34:44Z</time>
      </trkpt>
      <trkpt lat="31.229758434176386" lon="121.39975484313392">
        <ele>16.827198478393257</ele>
        <time>2026-06-24T09:34:47Z</time>
      </trkpt>
      <trkpt lat="31.229738459665825" lon="121.39992886707299">
        <ele>15.046307059936225</ele>
        <time>2026-06-24T09:34:53Z</time>
      </trkpt>
      <trkpt lat="31.229771460010756" lon="121.40008488544713">
        <ele>17.477200004272163</ele>
        <time>2026-06-24T09:34:59Z</time>
      </trkpt>
      <trkpt lat="31.229837443358818" lon="121.4002158985264">
        <ele>-10.750213173218071</ele>
        <time>2026-06-24T09:35:05Z</time>
      </trkpt>
      <trkpt lat="31.229882428569393" lon="121.40027090277917">
        <ele>9.505459281615913</ele>
        <time>2026-06-24T09:35:08Z</time>
      </trkpt>
      <trkpt lat="31.230002381522638" lon="121.40034690387657">
        <ele>-32.813197639770806</ele>
        <time>2026-06-24T09:35:14Z</time>
      </trkpt>
      <trkpt lat="31.23019329696809" lon="121.40038189264973">
        <ele>18.787769767455757</ele>
        <time>2026-06-24T09:35:23Z</time>
      </trkpt>
      <trkpt lat="31.230508138608073" lon="121.4002748488013">
        <ele>17.907886954955757</ele>
        <time>2026-06-24T09:35:38Z</time>
      </trkpt>
      <trkpt lat="31.23059009294943" lon="121.4002058314055">
        <ele>20.7800411907956</ele>
        <time>2026-06-24T09:35:41Z</time>
      </trkpt>
      <trkpt lat="31.230715030677334" lon="121.40016581468164">
        <ele>19.8261837689206</ele>
        <time>2026-06-24T09:35:44Z</time>
      </trkpt>
      <trkpt lat="31.230826978026094" lon="121.40015880390577">
        <ele>18.734920951537788</ele>
        <time>2026-06-24T09:35:47Z</time>
      </trkpt>
      <trkpt lat="31.23100588729341" lon="121.40008477777103">
        <ele>19.123333427123725</ele>
        <time>2026-06-24T09:35:53Z</time>
      </trkpt>
      <trkpt lat="31.231084845159792" lon="121.40003076338213">
        <ele>19.41663024108857</ele>
        <time>2026-06-24T09:35:56Z</time>
      </trkpt>
      <trkpt lat="31.231193779676605" lon="121.39987773345781">
        <ele>19.176182243041694</ele>
        <time>2026-06-24T09:36:02Z</time>
      </trkpt>
      <trkpt lat="31.23124374325931" lon="121.39973271088">
        <ele>19.02821776550263</ele>
        <time>2026-06-24T09:36:08Z</time>
      </trkpt>
      <trkpt lat="31.23122173988441" lon="121.39957269397593">
        <ele>15.455860587768257</ele>
        <time>2026-06-24T09:36:14Z</time>
      </trkpt>
      <trkpt lat="31.23111777413809" lon="121.39939268347382">
        <ele>14.88776824157685</ele>
        <time>2026-06-24T09:36:23Z</time>
      </trkpt>
      <trkpt lat="31.23101181688523" lon="121.39930368366733">
        <ele>15.244480582885444</ele>
        <time>2026-06-24T09:36:29Z</time>
      </trkpt>
      <trkpt lat="31.23089086992875" lon="121.3992596898971">
        <ele>16.671307059936225</ele>
        <time>2026-06-24T09:36:35Z</time>
      </trkpt>
      <trkpt lat="31.230694961765185" lon="121.39927470844744">
        <ele>16.314602348022163</ele>
        <time>2026-06-24T09:36:44Z</time>
      </trkpt>
      <trkpt lat="31.230371118636707" lon="121.39936974622542">
        <ele>16.219479057006538</ele>
        <time>2026-06-24T09:36:59Z</time>
      </trkpt>
      <trkpt lat="31.230058269832064" lon="121.39945078201335">
        <ele>14.657894584350288</ele>
        <time>2026-06-24T09:37:14Z</time>
      </trkpt>
      <trkpt lat="31.229913343333788" lon="121.39953080338657">
        <ele>15.498135062865913</ele>
        <time>2026-06-24T09:37:23Z</time>
      </trkpt>
      <trkpt lat="31.229825390674062" lon="121.39961082012583">
        <ele>18.296307059936225</ele>
        <time>2026-06-24T09:37:29Z</time>
      </trkpt>
      <trkpt lat="31.229762430896532" lon="121.39973884082403">
        <ele>15.717442008666694</ele>
        <time>2026-06-24T09:37:32Z</time>
      </trkpt>
      <trkpt lat="31.22974745107295" lon="121.39988286026599">
        <ele>19.30036589782685</ele>
        <time>2026-06-24T09:37:38Z</time>
      </trkpt>
      <trkpt lat="31.229768452933634" lon="121.40000187424276">
        <ele>12.763386222533882</ele>
        <time>2026-06-24T09:37:44Z</time>
      </trkpt>
      <trkpt lat="31.229841436395144" lon="121.40016889131684">
        <ele>18.431057426147163</ele>
        <time>2026-06-24T09:37:50Z</time>
      </trkpt>
      <trkpt lat="31.229953396287293" lon="121.40027689749056">
        <ele>16.042446586303413</ele>
        <time>2026-06-24T09:37:56Z</time>
      </trkpt>
      <trkpt lat="31.230148316327202" lon="121.40036889455033">
        <ele>12.96155211608857</ele>
        <time>2026-06-24T09:38:05Z</time>
      </trkpt>
      <trkpt lat="31.230209288027527" lon="121.40036888923196">
        <ele>2.949978324584663</ele>
        <time>2026-06-24T09:38:08Z</time>
      </trkpt>
      <trkpt lat="31.23043716795687" lon="121.4002428502085">
        <ele>21.210735770873725</ele>
        <time>2026-06-24T09:38:14Z</time>
      </trkpt>
      <trkpt lat="31.230654058626833" lon="121.40016281956662">
        <ele>23.535931083373725</ele>
        <time>2026-06-24T09:38:20Z</time>
      </trkpt>
      <trkpt lat="31.23090993510991" lon="121.40011679065847">
        <ele>19.458904716186225</ele>
        <time>2026-06-24T09:38:26Z</time>
      </trkpt>
      <trkpt lat="31.231110828398062" lon="121.39998375471134">
        <ele>18.724354240112007</ele>
        <time>2026-06-24T09:38:32Z</time>
      </trkpt>
      <trkpt lat="31.231177787369205" lon="121.39988073524144">
        <ele>17.98187682311982</ele>
        <time>2026-06-24T09:38:35Z</time>
      </trkpt>
      <trkpt lat="31.231224755083336" lon="121.39976671670944">
        <ele>11.79895445983857</ele>
        <time>2026-06-24T09:38:38Z</time>
      </trkpt>
      <trkpt lat="31.231225745350443" lon="121.39966070381318">
        <ele>14.311756583862007</ele>
        <time>2026-06-24T09:38:41Z</time>
      </trkpt>
      <trkpt lat="31.231202746105136" lon="121.39954069202926">
        <ele>19.63593718688935</ele>
        <time>2026-06-24T09:38:44Z</time>
      </trkpt>
      <trkpt lat="31.23114876267351" lon="121.3994316848669">
        <ele>13.947124931029975</ele>
        <time>2026-06-24T09:38:47Z</time>
      </trkpt>
      <trkpt lat="31.2310308097614" lon="121.39932768440993">
        <ele>17.58289000671357</ele>
        <time>2026-06-24T09:38:53Z</time>
      </trkpt>
      <trkpt lat="31.230849889735754" lon="121.39927169464">
        <ele>17.13106200378388</ele>
        <time>2026-06-24T09:39:02Z</time>
      </trkpt>
      <trkpt lat="31.23053504058799" lon="121.39934172906892">
        <ele>17.382076713256538</ele>
        <time>2026-06-24T09:39:18Z</time>
      </trkpt>
      <trkpt lat="31.230378113883287" lon="121.39934874346794">
        <ele>16.763782951049507</ele>
        <time>2026-06-24T09:39:27Z</time>
      </trkpt>
      <trkpt lat="31.23005926951975" lon="121.39945278214036">
        <ele>19.070492240600288</ele>
        <time>2026-06-24T09:39:42Z</time>
      </trkpt>
      <trkpt lat="31.2300062982" lon="121.39950579251371">
        <ele>14.134724113158882</ele>
        <time>2026-06-24T09:39:45Z</time>
      </trkpt>
    </trkseg>
  </trk>
</gpx>