<?xml version="1.0" encoding="UTF-8"?>
<gpx xmlns="http://www.topografix.com/GPX/1/1" xmlns:gpxtpx="http://www.garmin.com/xmlschemas/TrackPointExtension/v1" xmlns:xsi="http://www.w3.org/2001/XMLSchema-instance" xsi:schemaLocation="http://www.topografix.com/GPX/1/1 http://www.topografix.com/GPX/1/1/gpx.xsd" version="1.1" creator="gpx.py -- https://github.com/tkrajina/gpxpy">
  <trk>
    <name>gpx from keep</name>
    <type>Run</type>
    <trkseg>
      <trkpt lat="32.051871516464324" lon="118.80400510144875">
        <ele>3.7305798288434744</ele>
        <time>2026-08-03T10:36:08Z</time>
      </trkpt>
      <trkpt lat="32.05192376031888" lon="118.80413835984857">
        <ele>4.441349482163787</ele>
        <time>2026-08-03T10:36:11Z</time>
      </trkpt>
      <trkpt lat="32.05192087674452" lon="118.80420549281233">
        <ele>4.798058008775115</ele>
        <time>2026-08-03T10:36:14Z</time>
      </trkpt>
      <trkpt lat="32.05196804287356" lon="118.80429466486252">
        <ele>5.059643244370818</ele>
        <time>2026-08-03T10:36:17Z</time>
      </trkpt>
      <trkpt lat="32.05203517331401" lon="118.80436078957862">
        <ele>3.7517170663923025</ele>
        <time>2026-08-03T10:36:20Z</time>
      </trkpt>
      <trkpt lat="32.05211625615625" lon="118.80439785553374">
        <ele>5.123058771714568</ele>
        <time>2026-08-03T10:36:23Z</time>
      </trkpt>
      <trkpt lat="32.052330361673434" lon="118.80443090134936">
        <ele>4.462490534409881</ele>
        <time>2026-08-03T10:36:32Z</time>
      </trkpt>
      <trkpt lat="32.05258563054884" lon="118.80455211816766">
        <ele>4.430782770738006</ele>
        <time>2026-08-03T10:36:41Z</time>
      </trkpt>
      <trkpt lat="32.05289784038365" lon="118.80463224846824">
        <ele>5.080780481919646</ele>
        <time>2026-08-03T10:36:54Z</time>
      </trkpt>
      <trkpt lat="32.05307191248988" lon="118.80465127024874">
        <ele>-4.7828288320451975</ele>
        <time>2026-08-03T10:37:00Z</time>
      </trkpt>
      <trkpt lat="32.053151909262574" lon="118.80463923904038">
        <ele>4.642162775620818</ele>
        <time>2026-08-03T10:37:03Z</time>
      </trkpt>
      <trkpt lat="32.0532378635244" lon="118.80460215759436">
        <ele>4.882610773667693</ele>
        <time>2026-08-03T10:37:06Z</time>
      </trkpt>
      <trkpt lat="32.05331378051413" lon="118.80454503735704">
        <ele>4.422855829820037</ele>
        <time>2026-08-03T10:37:09Z</time>
      </trkpt>
      <trkpt lat="32.0534234827115" lon="118.80436066201331">
        <ele>4.473057245835662</ele>
        <time>2026-08-03T10:37:15Z</time>
      </trkpt>
      <trkpt lat="32.05342628043321" lon="118.80424443176058">
        <ele>4.932816004380584</ele>
        <time>2026-08-03T10:37:18Z</time>
      </trkpt>
      <trkpt lat="32.05338094714143" lon="118.8040590695739">
        <ele>4.692368006333709</ele>
        <time>2026-08-03T10:37:24Z</time>
      </trkpt>
      <trkpt lat="32.053334792020166" lon="118.80397590963314">
        <ele>5.9078144785016775</ele>
        <time>2026-08-03T10:37:27Z</time>
      </trkpt>
      <trkpt lat="32.0532686691628" lon="118.8039137931412">
        <ele>5.582813715562224</ele>
        <time>2026-08-03T10:37:30Z</time>
      </trkpt>
      <trkpt lat="32.0529454385513" lon="118.8038226430613">
        <ele>4.953953241929412</ele>
        <time>2026-08-03T10:37:42Z</time>
      </trkpt>
      <trkpt lat="32.05263118217949" lon="118.8037154607224">
        <ele>5.194397425279021</ele>
        <time>2026-08-03T10:37:54Z</time>
      </trkpt>
      <trkpt lat="32.052421081389795" lon="118.80368441887185">
        <ele>4.0238728281110525</ele>
        <time>2026-08-03T10:38:03Z</time>
      </trkpt>
      <trkpt lat="32.052288928402525" lon="118.80361329100451">
        <ele>4.264317011460662</ele>
        <time>2026-08-03T10:38:09Z</time>
      </trkpt>
      <trkpt lat="32.05218089735616" lon="118.80360929304695">
        <ele>3.2285465952008963</ele>
        <time>2026-08-03T10:38:12Z</time>
      </trkpt>
      <trkpt lat="32.052107936746516" lon="118.80364136284324">
        <ele>5.226105188950896</ele>
        <time>2026-08-03T10:38:15Z</time>
      </trkpt>
      <trkpt lat="32.05192029016935" lon="118.80386882812914">
        <ele>5.154766535386443</ele>
        <time>2026-08-03T10:38:24Z</time>
      </trkpt>
      <trkpt lat="32.05189938313364" lon="118.80392494071143">
        <ele>4.953953241929412</ele>
        <time>2026-08-03T10:38:27Z</time>
      </trkpt>
      <trkpt lat="32.05189359992629" lon="118.80405018843996">
        <ele>5.257812952622771</ele>
        <time>2026-08-03T10:38:30Z</time>
      </trkpt>
      <trkpt lat="32.0519077794639" lon="118.80415138705882">
        <ele>4.953953241929412</ele>
        <time>2026-08-03T10:38:33Z</time>
      </trkpt>
      <trkpt lat="32.05194796319915" lon="118.80425158147227">
        <ele>4.62102553807199</ele>
        <time>2026-08-03T10:38:36Z</time>
      </trkpt>
      <trkpt lat="32.05209220353389" lon="118.80437080417559">
        <ele>4.985661005601287</ele>
        <time>2026-08-03T10:38:42Z</time>
      </trkpt>
      <trkpt lat="32.05237240431783" lon="118.80444993519964">
        <ele>5.070213770493865</ele>
        <time>2026-08-03T10:38:54Z</time>
      </trkpt>
      <trkpt lat="32.0526936406016" lon="118.80454409235053">
        <ele>4.985661005601287</ele>
        <time>2026-08-03T10:39:06Z</time>
      </trkpt>
      <trkpt lat="32.05285174244097" lon="118.80458215332507">
        <ele>4.525902247056365</ele>
        <time>2026-08-03T10:39:12Z</time>
      </trkpt>
      <trkpt lat="32.05292674337545" lon="118.80457312854992">
        <ele>4.932816004380584</ele>
        <time>2026-08-03T10:39:15Z</time>
      </trkpt>
      <trkpt lat="32.05308688600894" lon="118.80463423507456">
        <ele>5.321228479966521</ele>
        <time>2026-08-03T10:39:21Z</time>
      </trkpt>
      <trkpt lat="32.05316190622785" lon="118.80463623215766">
        <ele>4.787487482652068</ele>
        <time>2026-08-03T10:39:24Z</time>
      </trkpt>
      <trkpt lat="32.05323285714935" lon="118.80459915209192">
        <ele>4.671230768784881</ele>
        <time>2026-08-03T10:39:27Z</time>
      </trkpt>
      <trkpt lat="32.05340756493234" lon="118.80440976069433">
        <ele>4.724075770005584</ele>
        <time>2026-08-03T10:39:36Z</time>
      </trkpt>
      <trkpt lat="32.05343043351612" lon="118.80433160385535">
        <ele>4.097855066880584</ele>
        <time>2026-08-03T10:39:39Z</time>
      </trkpt>
      <trkpt lat="32.05342627168981" lon="118.80423942185266">
        <ele>4.914318537339568</ele>
        <time>2026-08-03T10:39:42Z</time>
      </trkpt>
      <trkpt lat="32.053323768632296" lon="118.8039638869183">
        <ele>5.405781244859099</ele>
        <time>2026-08-03T10:39:51Z</time>
      </trkpt>
      <trkpt lat="32.053166536596194" lon="118.8038506780465">
        <ele>5.646229242905974</ele>
        <time>2026-08-03T10:39:57Z</time>
      </trkpt>
      <trkpt lat="32.05289130979024" lon="118.80375551575501">
        <ele>4.914318537339568</ele>
        <time>2026-08-03T10:40:06Z</time>
      </trkpt>
      <trkpt lat="32.05273821473783" lon="118.80372046075207">
        <ele>4.222042536363006</ele>
        <time>2026-08-03T10:40:12Z</time>
      </trkpt>
      <trkpt lat="32.05268313980409" lon="118.80368439478906">
        <ele>5.300091242417693</ele>
        <time>2026-08-03T10:40:16Z</time>
      </trkpt>
      <trkpt lat="32.052414986077174" lon="118.80363031293626">
        <ele>2.800499415025115</ele>
        <time>2026-08-03T10:40:25Z</time>
      </trkpt>
      <trkpt lat="32.05233991890188" lon="118.80360126266284">
        <ele>5.7307820077985525</ele>
        <time>2026-08-03T10:40:28Z</time>
      </trkpt>
      <trkpt lat="32.05222686760999" lon="118.80358624348597">
        <ele>4.451920008286834</ele>
        <time>2026-08-03T10:40:31Z</time>
      </trkpt>
      <trkpt lat="32.052069930009736" lon="118.80364236830785">
        <ele>5.519398188218474</ele>
        <time>2026-08-03T10:40:37Z</time>
      </trkpt>
      <trkpt lat="32.051978052218885" lon="118.80372453850167">
        <ele>0.13180205784738064</ele>
        <time>2026-08-03T10:40:40Z</time>
      </trkpt>
      <trkpt lat="32.0518903427577" lon="118.803902898062">
        <ele>5.278950190171599</ele>
        <time>2026-08-03T10:40:46Z</time>
      </trkpt>
      <trkpt lat="32.05188365007998" lon="118.80408024871959">
        <ele>2.1504978891462088</ele>
        <time>2026-08-03T10:40:52Z</time>
      </trkpt>
      <trkpt lat="32.05192289117652" lon="118.80421350847674">
        <ele>4.724075770005584</ele>
        <time>2026-08-03T10:40:55Z</time>
      </trkpt>
      <trkpt lat="32.0519870733555" lon="118.80430969285419">
        <ele>5.03850600682199</ele>
        <time>2026-08-03T10:40:58Z</time>
      </trkpt>
      <trkpt lat="32.052066213489" lon="118.80437982441839">
        <ele>5.123058771714568</ele>
        <time>2026-08-03T10:41:01Z</time>
      </trkpt>
      <trkpt lat="32.05215330643478" lon="118.80442189975545">
        <ele>5.006798243150115</ele>
        <time>2026-08-03T10:41:04Z</time>
      </trkpt>
      <trkpt lat="32.052469478502466" lon="118.80447998583934">
        <ele>5.236675715073943</ele>
        <time>2026-08-03T10:41:16Z</time>
      </trkpt>
      <trkpt lat="32.05276773599295" lon="118.80458917495429">
        <ele>5.059643244370818</ele>
        <time>2026-08-03T10:41:28Z</time>
      </trkpt>
      <trkpt lat="32.05300492036902" lon="118.8046643022529">
        <ele>-1.2183985952287912</ele>
        <time>2026-08-03T10:41:37Z</time>
      </trkpt>
      <trkpt lat="32.05314595003196" lon="118.80466328730657">
        <ele>5.448055719956756</ele>
        <time>2026-08-03T10:41:43Z</time>
      </trkpt>
      <trkpt lat="32.05332971397159" lon="118.80450495644186">
        <ele>4.755783533677459</ele>
        <time>2026-08-03T10:41:52Z</time>
      </trkpt>
      <trkpt lat="32.053386598781394" lon="118.80443180628244">
        <ele>5.091351008042693</ele>
        <time>2026-08-03T10:41:55Z</time>
      </trkpt>
      <trkpt lat="32.05342046454043" lon="118.80435064245489">
        <ele>4.525902247056365</ele>
        <time>2026-08-03T10:41:58Z</time>
      </trkpt>
      <trkpt lat="32.05343133226559" lon="118.80427348877492">
        <ele>5.593384241685271</ele>
        <time>2026-08-03T10:42:01Z</time>
      </trkpt>
      <trkpt lat="32.053416183795946" lon="118.80419032569559">
        <ele>5.498260950669646</ele>
        <time>2026-08-03T10:42:04Z</time>
      </trkpt>
      <trkpt lat="32.05330473648636" lon="118.80394785703383">
        <ele>4.568180536851287</ele>
        <time>2026-08-03T10:42:13Z</time>
      </trkpt>
      <trkpt lat="32.053240619329884" lon="118.80388874631409">
        <ele>5.593384241685271</ele>
        <time>2026-08-03T10:42:16Z</time>
      </trkpt>
      <trkpt lat="32.05299442333234" lon="118.80380760893819">
        <ele>0.530785059556365</ele>
        <time>2026-08-03T10:42:28Z</time>
      </trkpt>
      <trkpt lat="32.0527203187073" lon="118.80378258476681">
        <ele>3.6460270639508963</ele>
        <time>2026-08-03T10:42:40Z</time>
      </trkpt>
      <trkpt lat="32.05244811874477" lon="118.80370245189654">
        <ele>4.97509047947824</ele>
        <time>2026-08-03T10:42:52Z</time>
      </trkpt>
      <trkpt lat="32.05233796368657" lon="118.80362731409956">
        <ele>5.6039509531110525</ele>
        <time>2026-08-03T10:42:55Z</time>
      </trkpt>
      <trkpt lat="32.05227290917806" lon="118.80360427473468">
        <ele>5.384644007310271</ele>
        <time>2026-08-03T10:42:58Z</time>
      </trkpt>
      <trkpt lat="32.05212493879862" lon="118.80364035930893">
        <ele>4.504765009507537</ele>
        <time>2026-08-03T10:43:04Z</time>
      </trkpt>
      <trkpt lat="32.051997079095266" lon="118.80373756240682">
        <ele>4.964519953355193</ele>
        <time>2026-08-03T10:43:10Z</time>
      </trkpt>
      <trkpt lat="32.05192529477164" lon="118.80387083162056">
        <ele>5.688503718003631</ele>
        <time>2026-08-03T10:43:16Z</time>
      </trkpt>
      <trkpt lat="32.05189651331614" lon="118.8040000892627">
        <ele>5.8761067148298025</ele>
        <time>2026-08-03T10:43:19Z</time>
      </trkpt>
      <trkpt lat="32.051920868003876" lon="118.80420048290772">
        <ele>5.455982660874724</ele>
        <time>2026-08-03T10:43:25Z</time>
      </trkpt>
      <trkpt lat="32.05204616001528" lon="118.80435177071715">
        <ele>-7.594207311049104</ele>
        <time>2026-08-03T10:43:31Z</time>
      </trkpt>
      <trkpt lat="32.052117252877586" lon="118.80439585147376">
        <ele>5.204967951402068</ele>
        <time>2026-08-03T10:43:34Z</time>
      </trkpt>
      <trkpt lat="32.052388448176664" lon="118.80447297938615">
        <ele>5.331799006089568</ele>
        <time>2026-08-03T10:43:47Z</time>
      </trkpt>
      <trkpt lat="32.052507541295206" lon="118.80451104390158">
        <ele>4.0555805917829275</ele>
        <time>2026-08-03T10:43:53Z</time>
      </trkpt>
      <trkpt lat="32.05260965869022" lon="118.80456514178832">
        <ele>5.236675715073943</ele>
        <time>2026-08-03T10:43:56Z</time>
      </trkpt>
      <trkpt lat="32.05289387106932" lon="118.80465028461897">
        <ele>5.656795954331756</ele>
        <time>2026-08-03T10:44:08Z</time>
      </trkpt>
      <trkpt lat="32.0531049759915" lon="118.80468333084379">
        <ele>5.455982660874724</ele>
        <time>2026-08-03T10:44:17Z</time>
      </trkpt>
      <trkpt lat="32.053261893424725" lon="118.80461618321303">
        <ele>4.140133356675506</ele>
        <time>2026-08-03T10:44:23Z</time>
      </trkpt>
      <trkpt lat="32.05340167744393" lon="118.80447489025786">
        <ele>4.850903009995818</ele>
        <time>2026-08-03T10:44:29Z</time>
      </trkpt>
      <trkpt lat="32.053438549074485" lon="118.8043967320509">
        <ele>3.9815945383161306</ele>
        <time>2026-08-03T10:44:32Z</time>
      </trkpt>
      <trkpt lat="32.05345126501777" lon="118.80423240568447">
        <ele>16.545608973130584</ele>
        <time>2026-08-03T10:44:38Z</time>
      </trkpt>
      <trkpt lat="32.053435100648194" lon="118.80414022493206">
        <ele>4.610455011948943</ele>
        <time>2026-08-03T10:44:41Z</time>
      </trkpt>
      <trkpt lat="32.05323367706219" lon="118.80392281414511">
        <ele>4.787487482652068</ele>
        <time>2026-08-03T10:44:53Z</time>
      </trkpt>
      <trkpt lat="32.05293137096231" lon="118.8037855712944">
        <ele>5.614521479234099</ele>
        <time>2026-08-03T10:45:05Z</time>
      </trkpt>
      <trkpt lat="32.05269724913274" lon="118.80374551385185">
        <ele>4.430782770738006</ele>
        <time>2026-08-03T10:45:14Z</time>
      </trkpt>
      <trkpt lat="32.05263217892021" lon="118.80371345668462">
        <ele>3.39501235447824</ele>
        <time>2026-08-03T10:45:17Z</time>
      </trkpt>
      <trkpt lat="32.05248311610367" lon="118.8036964368433">
        <ele>5.7809834238141775</ele>
        <time>2026-08-03T10:45:23Z</time>
      </trkpt>
      <trkpt lat="32.0523078856753" lon="118.80358623604045">
        <ele>2.1716389413923025</ele>
        <time>2026-08-03T10:45:32Z</time>
      </trkpt>
      <trkpt lat="32.052190957265694" lon="118.80349150174891">
        <ele>6.240738367661834</ele>
        <time>2026-08-03T10:45:35Z</time>
      </trkpt>
      <trkpt lat="32.05208214689085" lon="118.80353079397452">
        <ele>4.264317011460662</ele>
        <time>2026-08-03T10:45:38Z</time>
      </trkpt>
      <trkpt lat="32.0519745142213" lon="118.80360549317632">
        <ele>5.10192153416574</ele>
        <time>2026-08-03T10:45:41Z</time>
      </trkpt>
      <trkpt lat="32.051987993515056" lon="118.80368946853459">
        <ele>5.374073481187224</ele>
        <time>2026-08-03T10:45:44Z</time>
      </trkpt>
      <trkpt lat="32.0519211649094" lon="118.80379668584618">
        <ele>5.310657953843474</ele>
        <time>2026-08-03T10:45:50Z</time>
      </trkpt>
      <trkpt lat="32.05188149251767" lon="118.80399007086595">
        <ele>5.405781244859099</ele>
        <time>2026-08-03T10:45:56Z</time>
      </trkpt>
      <trkpt lat="32.05188065639623" lon="118.80408425691117">
        <ele>5.123058771714568</ele>
        <time>2026-08-03T10:45:59Z</time>
      </trkpt>
      <trkpt lat="32.05190381876527" lon="118.80417443297273">
        <ele>3.154564356431365</ele>
        <time>2026-08-03T10:46:02Z</time>
      </trkpt>
      <trkpt lat="32.052010090734555" lon="118.8043167046193">
        <ele>5.049072718247771</ele>
        <time>2026-08-03T10:46:08Z</time>
      </trkpt>
      <trkpt lat="32.052087225176244" lon="118.80438383042365">
        <ele>5.656795954331756</ele>
        <time>2026-08-03T10:46:11Z</time>
      </trkpt>
      <trkpt lat="32.052366436263036" lon="118.80446897346707">
        <ele>5.551105951890349</ele>
        <time>2026-08-03T10:46:24Z</time>
      </trkpt>
      <trkpt lat="32.052649669360854" lon="118.804566140099">
        <ele>3.2602543588727713</ele>
        <time>2026-08-03T10:46:36Z</time>
      </trkpt>
      <trkpt lat="32.05296493075681" lon="118.80467532780138">
        <ele>0.2374920602887869</ele>
        <time>2026-08-03T10:46:48Z</time>
      </trkpt>
      <trkpt lat="32.0531000415725" lon="118.8047214068823">
        <ele>5.8443989511579275</ele>
        <time>2026-08-03T10:46:54Z</time>
      </trkpt>
      <trkpt lat="32.0531720365506" lon="118.80470937639595">
        <ele>3.1651310678571463</ele>
        <time>2026-08-03T10:46:57Z</time>
      </trkpt>
      <trkpt lat="32.05336482167652" lon="118.80456206644166">
        <ele>5.236675715073943</ele>
        <time>2026-08-03T10:47:06Z</time>
      </trkpt>
      <trkpt lat="32.05342855209988" lon="118.80439973892226">
        <ele>5.416351770982146</ele>
        <time>2026-08-03T10:47:12Z</time>
      </trkpt>
      <trkpt lat="32.05343931130993" lon="118.8042604622738">
        <ele>4.882610773667693</ele>
        <time>2026-08-03T10:47:18Z</time>
      </trkpt>
      <trkpt lat="32.053365926340234" lon="118.80404905116725">
        <ele>5.204967951402068</ele>
        <time>2026-08-03T10:47:27Z</time>
      </trkpt>
      <trkpt lat="32.05330774238815" lon="118.80395086268855">
        <ele>5.049072718247771</ele>
        <time>2026-08-03T10:47:30Z</time>
      </trkpt>
      <trkpt lat="32.053170567121825" lon="118.80386771125958">
        <ele>5.24724624119699</ele>
        <time>2026-08-03T10:47:36Z</time>
      </trkpt>
      <trkpt lat="32.05297149663215" lon="118.80385269992082">
        <ele>5.8126911874860525</ele>
        <time>2026-08-03T10:47:45Z</time>
      </trkpt>
      <trkpt lat="32.052895441350145" lon="118.80383066345556">
        <ele>5.416351770982146</ele>
        <time>2026-08-03T10:47:48Z</time>
      </trkpt>
      <trkpt lat="32.05276325165423" lon="118.80373849397147">
        <ele>5.049072718247771</ele>
        <time>2026-08-03T10:47:54Z</time>
      </trkpt>
      <trkpt lat="32.052537088108345" lon="118.8036733865135">
        <ele>4.953953241929412</ele>
        <time>2026-08-03T10:48:03Z</time>
      </trkpt>
      <trkpt lat="32.052407960159385" lon="118.80361628597988">
        <ele>5.677937006577849</ele>
        <time>2026-08-03T10:48:09Z</time>
      </trkpt>
      <trkpt lat="32.05218790935518" lon="118.80361530423089">
        <ele>-3.0997004751116037</ele>
        <time>2026-08-03T10:48:18Z</time>
      </trkpt>
      <trkpt lat="32.05205400649836" lon="118.80368846049555">
        <ele>5.865536188706756</ele>
        <time>2026-08-03T10:48:24Z</time>
      </trkpt>
      <trkpt lat="32.051987104729186" lon="118.80375359490098">
        <ele>6.031998133286834</ele>
        <time>2026-08-03T10:48:27Z</time>
      </trkpt>
      <trkpt lat="32.05191434985646" lon="118.80390389783216">
        <ele>5.416351770982146</ele>
        <time>2026-08-03T10:48:33Z</time>
      </trkpt>
      <trkpt lat="32.05190455349968" lon="118.80402213203907">
        <ele>5.971226191148162</ele>
        <time>2026-08-03T10:48:36Z</time>
      </trkpt>
      <trkpt lat="32.05192370965583" lon="118.80410930243906">
        <ele>5.448055719956756</ele>
        <time>2026-08-03T10:48:39Z</time>
      </trkpt>
      <trkpt lat="32.05200399318177" lon="118.80426159614346">
        <ele>5.437489008530974</ele>
        <time>2026-08-03T10:48:45Z</time>
      </trkpt>
      <trkpt lat="32.05206012988655" lon="118.80433273175028">
        <ele>5.384644007310271</ele>
        <time>2026-08-03T10:48:48Z</time>
      </trkpt>
      <trkpt lat="32.052317365779764" lon="118.80443491048261">
        <ele>5.7492756601423025</ele>
        <time>2026-08-03T10:49:00Z</time>
      </trkpt>
      <trkpt lat="32.05257859743568" lon="118.80453408305597">
        <ele>5.677937006577849</ele>
        <time>2026-08-03T10:49:12Z</time>
      </trkpt>
      <trkpt lat="32.05297091630163" lon="118.8046663093542">
        <ele>5.049072718247771</ele>
        <time>2026-08-03T10:49:30Z</time>
      </trkpt>
      <trkpt lat="32.05313798158929" lon="118.80468232582245">
        <ele>2.570621943101287</ele>
        <time>2026-08-03T10:49:36Z</time>
      </trkpt>
      <trkpt lat="32.05326389211634" lon="118.80461518104167">
        <ele>4.819195246323943</ele>
        <time>2026-08-03T10:49:42Z</time>
      </trkpt>
      <trkpt lat="32.053353694785585" lon="118.80449092643651">
        <ele>4.296024775132537</ele>
        <time>2026-08-03T10:49:48Z</time>
      </trkpt>
      <trkpt lat="32.0534353331565" lon="118.80427348840728">
        <ele>5.707001185044646</ele>
        <time>2026-08-03T10:49:57Z</time>
      </trkpt>
      <trkpt lat="32.05340508173599" lon="118.80413321383028">
        <ele>-13.935664677992463</ele>
        <time>2026-08-03T10:50:03Z</time>
      </trkpt>
      <trkpt lat="32.05339378945874" lon="118.80396688641542">
        <ele>4.642162775620818</ele>
        <time>2026-08-03T10:50:06Z</time>
      </trkpt>
      <trkpt lat="32.05338220219815" lon="118.8038966204827">
        <ele>4.724075770005584</ele>
        <time>2026-08-03T10:50:09Z</time>
      </trkpt>
      <trkpt lat="32.0531115400303" lon="118.80385970087943">
        <ele>3.062084650620818</ele>
        <time>2026-08-03T10:50:21Z</time>
      </trkpt>
      <trkpt lat="32.052927451967356" lon="118.80383266446395">
        <ele>5.823261713609099</ele>
        <time>2026-08-03T10:50:27Z</time>
      </trkpt>
      <trkpt lat="32.052850325037674" lon="118.80376954715601">
        <ele>5.9078144785016775</ele>
        <time>2026-08-03T10:50:33Z</time>
      </trkpt>
      <trkpt lat="32.052586112957556" lon="118.803681397788">
        <ele>5.300091242417693</ele>
        <time>2026-08-03T10:50:45Z</time>
      </trkpt>
      <trkpt lat="32.052385951774184" lon="118.80361428405955">
        <ele>5.342365717515349</ele>
        <time>2026-08-03T10:50:55Z</time>
      </trkpt>
      <trkpt lat="32.0521369031984" lon="118.80361831483266">
        <ele>3.175701593980193</ele>
        <time>2026-08-03T10:51:04Z</time>
      </trkpt>
      <trkpt lat="32.05204398512042" lon="118.80367743971831">
        <ele>5.886673426255584</ele>
        <time>2026-08-03T10:51:10Z</time>
      </trkpt>
      <trkpt lat="32.051949209490644" lon="118.80381872671074">
        <ele>5.582813715562224</ele>
        <time>2026-08-03T10:51:16Z</time>
      </trkpt>
      <trkpt lat="32.05190143416633" lon="118.80395399784986">
        <ele>3.8653340097516775</ele>
        <time>2026-08-03T10:51:22Z</time>
      </trkpt>
      <trkpt lat="32.05193884929593" lon="118.80418745550332">
        <ele>5.8126911874860525</ele>
        <time>2026-08-03T10:51:31Z</time>
      </trkpt>
      <trkpt lat="32.0520441210674" lon="118.80432972727176">
        <ele>4.76635024510324</ele>
        <time>2026-08-03T10:51:37Z</time>
      </trkpt>
      <trkpt lat="32.052098218876786" lon="118.80437881949372">
        <ele>2.507206415757537</ele>
        <time>2026-08-03T10:51:40Z</time>
      </trkpt>
      <trkpt lat="32.052285335876086" lon="118.80442188762429">
        <ele>5.823261713609099</ele>
        <time>2026-08-03T10:51:49Z</time>
      </trkpt>
      <trkpt lat="32.0525465675161" lon="118.80452106017698">
        <ele>5.696430658921599</ele>
        <time>2026-08-03T10:52:01Z</time>
      </trkpt>
      <trkpt lat="32.052858793103546" lon="118.8046102083244">
        <ele>5.4269184824079275</ele>
        <time>2026-08-03T10:52:16Z</time>
      </trkpt>
      <trkpt lat="32.05298187840004" lon="118.80464326261544">
        <ele>5.236675715073943</ele>
        <time>2026-08-03T10:52:22Z</time>
      </trkpt>
      <trkpt lat="32.05321085049446" lon="118.8045981521265">
        <ele>5.646229242905974</ele>
        <time>2026-08-03T10:52:31Z</time>
      </trkpt>
      <trkpt lat="32.05328081348443" lon="118.8045680860821">
        <ele>5.006798243150115</ele>
        <time>2026-08-03T10:52:34Z</time>
      </trkpt>
      <trkpt lat="32.053387621773005" lon="118.8044448319921">
        <ele>5.204967951402068</ele>
        <time>2026-08-03T10:52:40Z</time>
      </trkpt>
      <trkpt lat="32.05342450569009" lon="118.80437368770818">
        <ele>3.8362698312848806</ele>
        <time>2026-08-03T10:52:43Z</time>
      </trkpt>
      <trkpt lat="32.053432327241" lon="118.80427048273681">
        <ele>4.663303827866912</ele>
        <time>2026-08-03T10:52:46Z</time>
      </trkpt>
      <trkpt lat="32.05341316564898" lon="118.80418030616465">
        <ele>5.4269184824079275</ele>
        <time>2026-08-03T10:52:49Z</time>
      </trkpt>
      <trkpt lat="32.053336914642806" lon="118.8040460478975">
        <ele>5.707001185044646</ele>
        <time>2026-08-03T10:52:55Z</time>
      </trkpt>
      <trkpt lat="32.05322366436993" lon="118.80391680320626">
        <ele>5.384644007310271</ele>
        <time>2026-08-03T10:53:01Z</time>
      </trkpt>
      <trkpt lat="32.05316057535408" lon="118.80387372403193">
        <ele>5.979153132066131</ele>
        <time>2026-08-03T10:53:04Z</time>
      </trkpt>
      <trkpt lat="32.05303151697506" lon="118.80385670230685">
        <ele>2.861271357163787</ele>
        <time>2026-08-03T10:53:10Z</time>
      </trkpt>
      <trkpt lat="32.052754263580205" lon="118.80374651058597">
        <ele>4.819195246323943</ele>
        <time>2026-08-03T10:53:22Z</time>
      </trkpt>
      <trkpt lat="32.05248706999816" lon="118.80366938322057">
        <ele>4.525902247056365</ele>
        <time>2026-08-03T10:53:34Z</time>
      </trkpt>
      <trkpt lat="32.05243299357075" lon="118.8036323152248">
        <ele>3.6883015390485525</ele>
        <time>2026-08-03T10:53:37Z</time>
      </trkpt>
      <trkpt lat="32.052201879426995" lon="118.80359626549274">
        <ele>4.140133356675506</ele>
        <time>2026-08-03T10:53:50Z</time>
      </trkpt>
      <trkpt lat="32.052080928983514" lon="118.80364036335332">
        <ele>5.519398188218474</ele>
        <time>2026-08-03T10:53:56Z</time>
      </trkpt>
      <trkpt lat="32.051923296068786" lon="118.80387183377988">
        <ele>5.5405354257673025</ele>
        <time>2026-08-03T10:54:05Z</time>
      </trkpt>
      <trkpt lat="32.0518815466223" lon="118.804021132175">
        <ele>3.5746845956891775</ele>
        <time>2026-08-03T10:54:11Z</time>
      </trkpt>
      <trkpt lat="32.051928838325445" lon="118.80418244651925">
        <ele>5.519398188218474</ele>
        <time>2026-08-03T10:54:17Z</time>
      </trkpt>
      <trkpt lat="32.05204211012194" lon="118.80432371555806">
        <ele>5.8761067148298025</ele>
        <time>2026-08-03T10:54:23Z</time>
      </trkpt>
      <trkpt lat="32.05229740686065" lon="118.8044609639272">
        <ele>5.770416712388396</ele>
        <time>2026-08-03T10:54:35Z</time>
      </trkpt>
      <trkpt lat="32.05257462283735" lon="118.80454911321905">
        <ele>4.642162775620818</ele>
        <time>2026-08-03T10:54:47Z</time>
      </trkpt>
      <trkpt lat="32.05285183890254" lon="118.80463726263491">
        <ele>5.593384241685271</ele>
        <time>2026-08-03T10:54:59Z</time>
      </trkpt>
      <trkpt lat="32.05301893928073" lon="118.80467331886182">
        <ele>4.787487482652068</ele>
        <time>2026-08-03T10:55:08Z</time>
      </trkpt>
      <trkpt lat="32.05331586687075" lon="118.8045941345277">
        <ele>4.776920771226287</ele>
        <time>2026-08-03T10:55:20Z</time>
      </trkpt>
      <trkpt lat="32.05339069601841" lon="118.80448691509383">
        <ele>5.24724624119699</ele>
        <time>2026-08-03T10:55:26Z</time>
      </trkpt>
      <trkpt lat="32.05343947052247" lon="118.80435164269197">
        <ele>4.890537714585662</ele>
        <time>2026-08-03T10:55:29Z</time>
      </trkpt>
      <trkpt lat="32.05341917572458" lon="118.8041853155163">
        <ele>2.6631016489118338</ele>
        <time>2026-08-03T10:55:35Z</time>
      </trkpt>
      <trkpt lat="32.05332380352941" lon="118.8039839264628">
        <ele>5.551105951890349</ele>
        <time>2026-08-03T10:55:44Z</time>
      </trkpt>
      <trkpt lat="32.05317255885097" lon="118.80386270119857">
        <ele>4.264317011460662</ele>
        <time>2026-08-03T10:55:50Z</time>
      </trkpt>
      <trkpt lat="32.05310550383213" lon="118.80383966192731">
        <ele>4.745213007554412</ele>
        <time>2026-08-03T10:55:53Z</time>
      </trkpt>
      <trkpt lat="32.05296546740718" lon="118.80383666887082">
        <ele>4.70293471775949</ele>
        <time>2026-08-03T10:55:59Z</time>
      </trkpt>
      <trkpt lat="32.05276026840079" lon="118.80374851398143">
        <ele>2.3909458871930838</ele>
        <time>2026-08-03T10:56:08Z</time>
      </trkpt>
      <trkpt lat="32.052499102263525" lon="118.80368641564709">
        <ele>4.422855829820037</ele>
        <time>2026-08-03T10:56:20Z</time>
      </trkpt>
      <trkpt lat="32.052363049309555" lon="118.80367340250737">
        <ele>3.5746845956891775</ele>
        <time>2026-08-03T10:56:26Z</time>
      </trkpt>
      <trkpt lat="32.052223960880795" lon="118.80364035020898">
        <ele>4.536472773179412</ele>
        <time>2026-08-03T10:56:32Z</time>
      </trkpt>
      <trkpt lat="32.052074997257705" lon="118.80368044278589">
        <ele>3.7200093027204275</ele>
        <time>2026-08-03T10:56:38Z</time>
      </trkpt>
      <trkpt lat="32.05200904172316" lon="118.80371451592221">
        <ele>3.447857355698943</ele>
        <time>2026-08-03T10:56:41Z</time>
      </trkpt>
      <trkpt lat="32.05192426142709" lon="118.80385179418087">
        <ele>4.631596064195037</ele>
        <time>2026-08-03T10:56:47Z</time>
      </trkpt>
      <trkpt lat="32.05190363358693" lon="118.80406822313543">
        <ele>4.045010065659881</ele>
        <time>2026-08-03T10:56:56Z</time>
      </trkpt>
      <trkpt lat="32.05192480073156" lon="118.80416140529807">
        <ele>4.430782770738006</ele>
        <time>2026-08-03T10:56:59Z</time>
      </trkpt>
      <trkpt lat="32.051964958248064" lon="118.80424657000154">
        <ele>3.9393200632184744</ele>
        <time>2026-08-03T10:57:02Z</time>
      </trkpt>
      <trkpt lat="32.052095204203106" lon="118.80437080389989">
        <ele>3.4584240671247244</ele>
        <time>2026-08-03T10:57:09Z</time>
      </trkpt>
      <trkpt lat="32.05223634946611" lon="118.8044359199114">
        <ele>4.924889063462615</ele>
        <time>2026-08-03T10:57:15Z</time>
      </trkpt>
      <trkpt lat="32.05254255610887" lon="118.80451504862866">
        <ele>4.0238728281110525</ele>
        <time>2026-08-03T10:57:27Z</time>
      </trkpt>
      <trkpt lat="32.052844823309" lon="118.80462924737562">
        <ele>3.1968388315290213</ele>
        <time>2026-08-03T10:57:39Z</time>
      </trkpt>
      <trkpt lat="32.053050942901855" lon="118.8046713119441">
        <ele>4.882610773667693</ele>
        <time>2026-08-03T10:57:48Z</time>
      </trkpt>
      <trkpt lat="32.05327493841923" lon="118.80464022972438">
        <ele>3.7834248300641775</ele>
        <time>2026-08-03T10:57:57Z</time>
      </trkpt>
      <trkpt lat="32.053417645971166" lon="118.80445484908412">
        <ele>5.027935480698943</ele>
        <time>2026-08-03T10:58:06Z</time>
      </trkpt>
      <trkpt lat="32.053433553213516" lon="118.80439973846272">
        <ele>4.610455011948943</ele>
        <time>2026-08-03T10:58:09Z</time>
      </trkpt>
      <trkpt lat="32.05343132526919" lon="118.80426948084667">
        <ele>3.009239649400115</ele>
        <time>2026-08-03T10:58:12Z</time>
      </trkpt>
      <trkpt lat="32.05333090632285" lon="118.80404204053549">
        <ele>-7.647052312269807</ele>
        <time>2026-08-03T10:58:21Z</time>
      </trkpt>
      <trkpt lat="32.05322769316744" lon="118.80393283446129">
        <ele>4.861473536118865</ele>
        <time>2026-08-03T10:58:27Z</time>
      </trkpt>
      <trkpt lat="32.05314660361865" lon="118.80389176088184">
        <ele>4.1691975351423025</ele>
        <time>2026-08-03T10:58:30Z</time>
      </trkpt>
      <trkpt lat="32.05307757952654" lon="118.80388675734496">
        <ele>4.274887537583709</ele>
        <time>2026-08-03T10:58:33Z</time>
      </trkpt>
      <trkpt lat="32.052859367111225" lon="118.80379259173174">
        <ele>4.97509047947824</ele>
        <time>2026-08-03T10:58:42Z</time>
      </trkpt>
      <trkpt lat="32.05265723324972" lon="118.80374150963492">
        <ele>4.568180536851287</ele>
        <time>2026-08-03T10:58:51Z</time>
      </trkpt>
      <trkpt lat="32.052355992059816" lon="118.80364134004738">
        <ele>4.076717829331756</ele>
        <time>2026-08-03T10:59:06Z</time>
      </trkpt>
      <trkpt lat="32.05228694013423" lon="118.80362030498748">
        <ele>4.243179773911834</ele>
        <time>2026-08-03T10:59:09Z</time>
      </trkpt>
      <trkpt lat="32.052172933845824" lon="118.80363133715225">
        <ele>3.5112690683454275</ele>
        <time>2026-08-03T10:59:15Z</time>
      </trkpt>
      <trkpt lat="32.05207399703463" lon="118.8036804428778">
        <ele>3.447857355698943</ele>
        <time>2026-08-03T10:59:18Z</time>
      </trkpt>
      <trkpt lat="32.05198014845589" lon="118.80377964686281">
        <ele>4.264317011460662</ele>
        <time>2026-08-03T10:59:24Z</time>
      </trkpt>
      <trkpt lat="32.05190737794212" lon="118.80392093207071">
        <ele>2.5785488840192556</ele>
        <time>2026-08-03T10:59:30Z</time>
      </trkpt>
      <trkpt lat="32.05190364581073" lon="118.80407523698696">
        <ele>4.274887537583709</ele>
        <time>2026-08-03T10:59:36Z</time>
      </trkpt>
      <trkpt lat="32.052024086859" lon="118.80431269540173">
        <ele>1.093590235337615</ele>
        <time>2026-08-03T10:59:48Z</time>
      </trkpt>
      <trkpt lat="32.05214725956946" lon="118.80439584871667">
        <ele>5.971226191148162</ele>
        <time>2026-08-03T10:59:57Z</time>
      </trkpt>
      <trkpt lat="32.052471471940386" lon="118.80447597771413">
        <ele>3.5429768320173025</ele>
        <time>2026-08-03T11:00:09Z</time>
      </trkpt>
      <trkpt lat="32.052776739752595" lon="118.8045901761143">
        <ele>2.2456211801618338</ele>
        <time>2026-08-03T11:00:24Z</time>
      </trkpt>
      <trkpt lat="32.05294187474908" lon="118.8046462722555">
        <ele>1.9100537057965994</ele>
        <time>2026-08-03T11:00:33Z</time>
      </trkpt>
      <trkpt lat="32.05315888275583" lon="118.80462320659228">
        <ele>2.747654413804412</ele>
        <time>2026-08-03T11:00:42Z</time>
      </trkpt>
      <trkpt lat="32.05323885147132" lon="118.80459514359146">
        <ele>-3.736487889662385</ele>
        <time>2026-08-03T11:00:45Z</time>
      </trkpt>
      <trkpt lat="32.05332471811504" lon="118.80450796285886">
        <ele>4.388504480943084</ele>
        <time>2026-08-03T11:00:52Z</time>
      </trkpt>
      <trkpt lat="32.053416435647826" lon="118.80433461109124">
        <ele>10.909637903794646</ele>
        <time>2026-08-03T11:00:58Z</time>
      </trkpt>
      <trkpt lat="32.05342324304511" lon="118.80422339042576">
        <ele>3.9076122995465994</ele>
        <time>2026-08-03T11:01:01Z</time>
      </trkpt>
      <trkpt lat="32.05335690862271" lon="118.80404003418907">
        <ele>3.7305798288434744</ele>
        <time>2026-08-03T11:01:10Z</time>
      </trkpt>
      <trkpt lat="32.05327973091727" lon="118.80394785933174">
        <ele>3.5007023569196463</ele>
        <time>2026-08-03T11:01:16Z</time>
      </trkpt>
      <trkpt lat="32.05306751976738" lon="118.80385369307201">
        <ele>3.7517170663923025</ele>
        <time>2026-08-03T11:01:28Z</time>
      </trkpt>
      <trkpt lat="32.05279438398639" lon="118.80381063324526">
        <ele>3.7094425912946463</ele>
        <time>2026-08-03T11:01:43Z</time>
      </trkpt>
      <trkpt lat="32.05261322169913" lon="118.80374051170594">
        <ele>3.7728543039411306</ele>
        <time>2026-08-03T11:01:52Z</time>
      </trkpt>
      <trkpt lat="32.05249508570597" lon="118.80367739826322">
        <ele>2.4649319406598806</ele>
        <time>2026-08-03T11:01:58Z</time>
      </trkpt>
      <trkpt lat="32.052293915601076" lon="118.80360527477548">
        <ele>4.002731775864959</ele>
        <time>2026-08-03T11:02:07Z</time>
      </trkpt>
      <trkpt lat="32.05222488455696" lon="118.8035962633786">
        <ele>3.1968388315290213</ele>
        <time>2026-08-03T11:02:10Z</time>
      </trkpt>
      <trkpt lat="32.05202407815317" lon="118.803733552032">
        <ele>3.7517170663923025</ele>
        <time>2026-08-03T11:02:19Z</time>
      </trkpt>
      <trkpt lat="32.051930325526605" lon="118.80388786474693">
        <ele>3.5852551218122244</ele>
        <time>2026-08-03T11:02:25Z</time>
      </trkpt>
      <trkpt lat="32.05189659012022" lon="118.80404417629389">
        <ele>2.8718418832868338</ele>
        <time>2026-08-03T11:02:31Z</time>
      </trkpt>
      <trkpt lat="32.05193287767374" lon="118.8042044897285">
        <ele>2.737083887681365</ele>
        <time>2026-08-03T11:02:37Z</time>
      </trkpt>
      <trkpt lat="32.05200505987557" lon="118.80429967137427">
        <ele>3.7622875925153494</ele>
        <time>2026-08-03T11:02:43Z</time>
      </trkpt>
      <trkpt lat="32.0523323340997" lon="118.80441486941407">
        <ele>3.154564356431365</ele>
        <time>2026-08-03T11:02:58Z</time>
      </trkpt>
      <trkpt lat="32.05259760167164" lon="118.80453408130984">
        <ele>4.0555805917829275</ele>
        <time>2026-08-03T11:03:10Z</time>
      </trkpt>
      <trkpt lat="32.052921850994885" lon="118.8046352522261">
        <ele>4.034439539536834</ele>
        <time>2026-08-03T11:03:25Z</time>
      </trkpt>
      <trkpt lat="32.05310895933475" lon="118.80467331059076">
        <ele>3.0515141244977713</ele>
        <time>2026-08-03T11:03:34Z</time>
      </trkpt>
      <trkpt lat="32.05324392800479" lon="118.8046382285975">
        <ele>3.4901318307965994</ele>
        <time>2026-08-03T11:03:40Z</time>
      </trkpt>
      <trkpt lat="32.05329386372366" lon="118.8045951385368">
        <ele>2.83220717869699</ele>
        <time>2026-08-03T11:03:43Z</time>
      </trkpt>
      <trkpt lat="32.053383678690615" lon="118.8044778978682">
        <ele>2.475498652085662</ele>
        <time>2026-08-03T11:03:49Z</time>
      </trkpt>
      <trkpt lat="32.05341534094617" lon="118.80428050412053">
        <ele>3.363304590806365</ele>
        <time>2026-08-03T11:03:58Z</time>
      </trkpt>
      <trkpt lat="32.05341109180824" lon="118.80413822317813">
        <ele>2.892979120835662</ele>
        <time>2026-08-03T11:04:04Z</time>
      </trkpt>
      <trkpt lat="32.0533849550168" lon="118.80406307712084">
        <ele>3.6988720651715994</ele>
        <time>2026-08-03T11:04:08Z</time>
      </trkpt>
      <trkpt lat="32.053291747546766" lon="118.80395587404365">
        <ele>0.29826400242745876</ele>
        <time>2026-08-03T11:04:14Z</time>
      </trkpt>
      <trkpt lat="32.05317562228585" lon="118.80389877204777">
        <ele>3.8045620676130056</ele>
        <time>2026-08-03T11:04:20Z</time>
      </trkpt>
      <trkpt lat="32.05303156055875" lon="118.80388175169438">
        <ele>-5.712909245863557</ele>
        <time>2026-08-03T11:04:26Z</time>
      </trkpt>
      <trkpt lat="32.052907346451036" lon="118.80377455178613">
        <ele>3.3342365976423025</ele>
        <time>2026-08-03T11:04:32Z</time>
      </trkpt>
      <trkpt lat="32.05272425166835" lon="118.80374350742318">
        <ele>2.4543614145368338</ele>
        <time>2026-08-03T11:04:41Z</time>
      </trkpt>
      <trkpt lat="32.052412008027844" lon="118.80364333884336">
        <ele>2.91411635838449</ele>
        <time>2026-08-03T11:04:56Z</time>
      </trkpt>
      <trkpt lat="32.05220692055182" lon="118.80361931036967">
        <ele>2.9035496469587088</ele>
        <time>2026-08-03T11:05:05Z</time>
      </trkpt>
      <trkpt lat="32.052055015425246" lon="118.8036934702663">
        <ele>3.479565119370818</ele>
        <time>2026-08-03T11:05:14Z</time>
      </trkpt>
      <trkpt lat="32.051963158599996" lon="118.8037876642179">
        <ele>3.8151325937360525</ele>
        <time>2026-08-03T11:05:20Z</time>
      </trkpt>
      <trkpt lat="32.05194325869398" lon="118.8038477845339">
        <ele>3.5852551218122244</ele>
        <time>2026-08-03T11:05:23Z</time>
      </trkpt>
      <trkpt lat="32.05193460034458" lon="118.80404517477969">
        <ele>1.9523281808942556</ele>
        <time>2026-08-03T11:05:29Z</time>
      </trkpt>
      <trkpt lat="32.0519748800518" lon="118.80420047794478">
        <ele>3.9710278268903494</ele>
        <time>2026-08-03T11:05:35Z</time>
      </trkpt>
      <trkpt lat="32.052064115029765" lon="118.80432371353616">
        <ele>2.998669123277068</ele>
        <time>2026-08-03T11:05:41Z</time>
      </trkpt>
      <trkpt lat="32.05212420542065" lon="118.80436779528388">
        <ele>3.030376886948943</ele>
        <time>2026-08-03T11:05:44Z</time>
      </trkpt>
      <trkpt lat="32.052302322155946" lon="118.80441186621825">
        <ele>4.148060297593474</ele>
        <time>2026-08-03T11:05:53Z</time>
      </trkpt>
      <trkpt lat="32.05260661945382" lon="118.80454309835959">
        <ele>3.7939953561872244</ele>
        <time>2026-08-03T11:06:09Z</time>
      </trkpt>
      <trkpt lat="32.05285280579756" lon="118.804618224776">
        <ele>2.3803791757673025</ele>
        <time>2026-08-03T11:06:21Z</time>
      </trkpt>
      <trkpt lat="32.05308493994982" lon="118.80466529688918">
        <ele>3.6460270639508963</ele>
        <time>2026-08-03T11:06:33Z</time>
      </trkpt>
      <trkpt lat="32.05317995409789" lon="118.80466128020535">
        <ele>4.002731775864959</ele>
        <time>2026-08-03T11:06:36Z</time>
      </trkpt>
      <trkpt lat="32.05331486840163" lon="118.80459513660684">
        <ele>2.412083124741912</ele>
        <time>2026-08-03T11:06:42Z</time>
      </trkpt>
      <trkpt lat="32.05339668158621" lon="118.80447789667343">
        <ele>2.1927761789411306</ele>
        <time>2026-08-03T11:06:48Z</time>
      </trkpt>
      <trkpt lat="32.05342844882078" lon="118.80434062188708">
        <ele>3.7517170663923025</ele>
        <time>2026-08-03T11:06:54Z</time>
      </trkpt>
      <trkpt lat="32.053422291783654" lon="118.80425144599998">
        <ele>1.7541584726423025</ele>
        <time>2026-08-03T11:06:57Z</time>
      </trkpt>
      <trkpt lat="32.05333888890157" lon="118.80403101803944">
        <ele>3.2602543588727713</ele>
        <time>2026-08-03T11:07:06Z</time>
      </trkpt>
      <trkpt lat="32.05323466682051" lon="118.80391680219518">
        <ele>-1.56189682520926</ele>
        <time>2026-08-03T11:07:12Z</time>
      </trkpt>
      <trkpt lat="32.0529754365236" lon="118.8038176304303">
        <ele>3.12285659275949</ele>
        <time>2026-08-03T11:07:24Z</time>
      </trkpt>
      <trkpt lat="32.05284037507256" lon="118.80379960729822">
        <ele>1.5454182382673025</ele>
        <time>2026-08-03T11:07:30Z</time>
      </trkpt>
      <trkpt lat="32.05277428719637" lon="118.80375753045678">
        <ele>1.7858662363141775</ele>
        <time>2026-08-03T11:07:33Z</time>
      </trkpt>
      <trkpt lat="32.05244407433417" lon="118.80367740295108">
        <ele>3.030376886948943</ele>
        <time>2026-08-03T11:07:49Z</time>
      </trkpt>
      <trkpt lat="32.0522899408033" lon="118.80362030471173">
        <ele>3.656597590073943</ele>
        <time>2026-08-03T11:07:55Z</time>
      </trkpt>
      <trkpt lat="32.05213888972738" lon="118.80361029887874">
        <ele>2.652531122788787</ele>
        <time>2026-08-03T11:08:01Z</time>
      </trkpt>
      <trkpt lat="32.05194425891709" lon="118.80384778444198">
        <ele>3.3421635385602713</ele>
        <time>2026-08-03T11:08:13Z</time>
      </trkpt>
      <trkpt lat="32.051904518591606" lon="118.80400209248268">
        <ele>3.0515141244977713</ele>
        <time>2026-08-03T11:08:19Z</time>
      </trkpt>
      <trkpt lat="32.05192179831469" lon="118.80416040359356">
        <ele>3.7622875925153494</ele>
        <time>2026-08-03T11:08:25Z</time>
      </trkpt>
      <trkpt lat="32.05200906251745" lon="118.80430067298914">
        <ele>2.2456211801618338</ele>
        <time>2026-08-03T11:08:31Z</time>
      </trkpt>
      <trkpt lat="32.05214326392985" lon="118.80439885503642">
        <ele>3.7728543039411306</ele>
        <time>2026-08-03T11:08:37Z</time>
      </trkpt>
      <trkpt lat="32.05243948407767" lon="118.80448700249447">
        <ele>-1.7706332448869944</ele>
        <time>2026-08-03T11:08:52Z</time>
      </trkpt>
      <trkpt lat="32.05259161610968" lon="118.80454309973811">
        <ele>2.9880985971540213</ele>
        <time>2026-08-03T11:09:01Z</time>
      </trkpt>
      <trkpt lat="32.05265362817883" lon="118.80454209205382">
        <ele>2.76879165135324</ele>
        <time>2026-08-03T11:09:07Z</time>
      </trkpt>
      <trkpt lat="32.05295186469747" lon="118.80463925742065">
        <ele>1.4185909982770681</ele>
        <time>2026-08-03T11:09:19Z</time>
      </trkpt>
      <trkpt lat="32.05309998891684" lon="118.80469134721275">
        <ele>0.4462322946637869</ele>
        <time>2026-08-03T11:09:25Z</time>
      </trkpt>
      <trkpt lat="32.05328588649394" lon="118.80460916709481">
        <ele>-5.1051860097795725</ele>
        <time>2026-08-03T11:09:31Z</time>
      </trkpt>
      <trkpt lat="32.05339471618367" lon="118.80449793656783">
        <ele>3.1968388315290213</ele>
        <time>2026-08-03T11:09:37Z</time>
      </trkpt>
      <trkpt lat="32.05343160355036" lon="118.80442879619281">
        <ele>3.3130993600934744</ele>
        <time>2026-08-03T11:09:40Z</time>
      </trkpt>
      <trkpt lat="32.0534413152533" lon="118.80426246605377">
        <ele>2.853344416245818</ele>
        <time>2026-08-03T11:09:46Z</time>
      </trkpt>
      <trkpt lat="32.053373928122184" lon="118.80404905043194">
        <ele>1.6273312326520681</ele>
        <time>2026-08-03T11:09:55Z</time>
      </trkpt>
      <trkpt lat="32.05328872768878" lon="118.80394485257418">
        <ele>2.6102566476911306</ele>
        <time>2026-08-03T11:10:02Z</time>
      </trkpt>
      <trkpt lat="32.053234663332475" lon="118.80391479824264">
        <ele>-1.5724635366350412</ele>
        <time>2026-08-03T11:10:05Z</time>
      </trkpt>
      <trkpt lat="32.05315361738432" lon="118.80389877406995">
        <ele>-2.954371953383088</ele>
        <time>2026-08-03T11:10:08Z</time>
      </trkpt>
      <trkpt lat="32.053015454150426" lon="118.80382263662705">
        <ele>3.009239649400115</ele>
        <time>2026-08-03T11:10:14Z</time>
      </trkpt>
      <trkpt lat="32.05280635704068" lon="118.80379359857763">
        <ele>2.818993067368865</ele>
        <time>2026-08-03T11:10:23Z</time>
      </trkpt>
      <trkpt lat="32.05249611203905" lon="118.80369242775795">
        <ele>-0.3702311757951975</ele>
        <time>2026-08-03T11:10:38Z</time>
      </trkpt>
      <trkpt lat="32.052231945265596" lon="118.80363032975751">
        <ele>3.101719355210662</ele>
        <time>2026-08-03T11:10:50Z</time>
      </trkpt>
      <trkpt lat="32.0520450863208" lon="118.80373555404827">
        <ele>-3.694209599867463</ele>
        <time>2026-08-03T11:10:59Z</time>
      </trkpt>
      <trkpt lat="32.0519422741588" lon="118.80385680240259">
        <ele>3.2496838327497244</ele>
        <time>2026-08-03T11:11:05Z</time>
      </trkpt>
      <trkpt lat="32.051909395830016" lon="118.80393095165095">
        <ele>2.8401341196149588</ele>
        <time>2026-08-03T11:11:08Z</time>
      </trkpt>
      <trkpt lat="32.05191267052202" lon="118.80408826188619">
        <ele>2.945824122056365</ele>
        <time>2026-08-03T11:11:14Z</time>
      </trkpt>
      <trkpt lat="32.05201302317479" lon="118.8042776270283">
        <ele>1.7013134714215994</ele>
        <time>2026-08-03T11:11:23Z</time>
      </trkpt>
      <trkpt lat="32.05207112709059" lon="118.80432972479035">
        <ele>1.8889164682477713</ele>
        <time>2026-08-03T11:11:26Z</time>
      </trkpt>
      <trkpt lat="32.05217111615116" lon="118.80431067792641">
        <ele>2.1822056528180838</ele>
        <time>2026-08-03T11:11:32Z</time>
      </trkpt>
      <trkpt lat="32.05218463099251" lon="118.80438410534983">
        <ele>2.3698086496442556</ele>
        <time>2026-08-03T11:11:35Z</time>
      </trkpt>
      <trkpt lat="32.052479471972205" lon="118.8044749749936">
        <ele>2.861271357163787</ele>
        <time>2026-08-03T11:11:56Z</time>
      </trkpt>
      <trkpt lat="32.05257859042462" lon="118.80453007511112">
        <ele>2.0976528879255056</ele>
        <time>2026-08-03T11:12:02Z</time>
      </trkpt>
      <trkpt lat="32.05268666007737" lon="118.80455611683188">
        <ele>1.7964367624372244</ele>
        <time>2026-08-03T11:12:08Z</time>
      </trkpt>
      <trkpt lat="32.05283170116373" lon="118.80456111343929">
        <ele>3.112286066636443</ele>
        <time>2026-08-03T11:12:14Z</time>
      </trkpt>
      <trkpt lat="32.052893818443266" lon="118.80462022498327">
        <ele>3.0515141244977713</ele>
        <time>2026-08-03T11:12:17Z</time>
      </trkpt>
      <trkpt lat="32.053155839994616" lon="118.80459915916843">
        <ele>1.5533451791852713</ele>
        <time>2026-08-03T11:12:30Z</time>
      </trkpt>
      <trkpt lat="32.05322480626898" lon="118.80457109718918">
        <ele>3.39501235447824</ele>
        <time>2026-08-03T11:12:33Z</time>
      </trkpt>
      <trkpt lat="32.05330070751164" lon="118.8045049591071">
        <ele>3.8653340097516775</ele>
        <time>2026-08-03T11:12:36Z</time>
      </trkpt>
      <trkpt lat="32.05338241932504" lon="118.80432960430096">
        <ele>3.093792414292693</ele>
        <time>2026-08-03T11:12:45Z</time>
      </trkpt>
      <trkpt lat="32.05339724774482" lon="118.80422940470345">
        <ele>1.9946064706891775</ele>
        <time>2026-08-03T11:12:48Z</time>
      </trkpt>
      <trkpt lat="32.05339014130108" lon="118.80416928649315">
        <ele>3.18627212010324</ele>
        <time>2026-08-03T11:12:51Z</time>
      </trkpt>
      <trkpt lat="32.05335295836608" lon="118.80406909193448">
        <ele>2.652531122788787</ele>
        <time>2026-08-03T11:12:54Z</time>
      </trkpt>
      <trkpt lat="32.053271730879615" lon="118.80394886204388">
        <ele>2.652531122788787</ele>
        <time>2026-08-03T11:13:00Z</time>
      </trkpt>
      <trkpt lat="32.05306352759189" lon="118.80385870331612">
        <ele>1.9311909433454275</ele>
        <time>2026-08-03T11:13:12Z</time>
      </trkpt>
      <trkpt lat="32.052958486762805" lon="118.80384869321499">
        <ele>2.861271357163787</ele>
        <time>2026-08-03T11:13:15Z</time>
      </trkpt>
      <trkpt lat="32.05290140957695" lon="118.80381162538463">
        <ele>2.4332241769880056</ele>
        <time>2026-08-03T11:13:18Z</time>
      </trkpt>
      <trkpt lat="32.052856418716296" lon="118.80382265124194">
        <ele>1.011681055650115</ele>
        <time>2026-08-03T11:13:21Z</time>
      </trkpt>
      <trkpt lat="32.0525772241223" lon="118.80374652685549">
        <ele>1.5348515268415213</ele>
        <time>2026-08-03T11:13:36Z</time>
      </trkpt>
      <trkpt lat="32.052295018480734" lon="118.80366439100828">
        <ele>2.266758417710662</ele>
        <time>2026-08-03T11:13:51Z</time>
      </trkpt>
      <trkpt lat="32.0521699888607" lon="118.80366340052598">
        <ele>2.6102566476911306</ele>
        <time>2026-08-03T11:13:57Z</time>
      </trkpt>
      <trkpt lat="32.0520700309574" lon="118.80370048269597">
        <ele>3.4372868295758963</ele>
        <time>2026-08-03T11:14:03Z</time>
      </trkpt>
      <trkpt lat="32.0519312629889" lon="118.80385179353748">
        <ele>1.9628987070173025</ele>
        <time>2026-08-03T11:14:09Z</time>
      </trkpt>
      <trkpt lat="32.05189753273768" lon="118.80401111092561">
        <ele>3.1651310678571463</ele>
        <time>2026-08-03T11:14:15Z</time>
      </trkpt>
      <trkpt lat="32.05192578872227" lon="118.80415439134482">
        <ele>2.4860691782087088</ele>
        <time>2026-08-03T11:14:21Z</time>
      </trkpt>
      <trkpt lat="32.05204008168017" lon="118.804307684018">
        <ele>0.9376950021833181</ele>
        <time>2026-08-03T11:14:28Z</time>
      </trkpt>
      <trkpt lat="32.052294350142176" lon="118.80442890068872">
        <ele>1.6801762338727713</ele>
        <time>2026-08-03T11:14:40Z</time>
      </trkpt>
      <trkpt lat="32.05261960832913" lon="118.80453508127424">
        <ele>2.6313938852399588</ele>
        <time>2026-08-03T11:14:55Z</time>
      </trkpt>
      <trkpt lat="32.05291184525791" lon="118.80463324916944">
        <ele>2.6419644113630056</ele>
        <time>2026-08-03T11:15:07Z</time>
      </trkpt>
      <trkpt lat="32.05305596507342" lon="118.80468333534691">
        <ele>3.352734064683318</ele>
        <time>2026-08-03T11:15:13Z</time>
      </trkpt>
      <trkpt lat="32.05319498375976" lon="118.80467630865274">
        <ele>0.5598492380231619</ele>
        <time>2026-08-03T11:15:19Z</time>
      </trkpt>
      <trkpt lat="32.05331688112299" lon="118.80460215033403">
        <ele>3.143993830308318</ele>
        <time>2026-08-03T11:15:25Z</time>
      </trkpt>
      <trkpt lat="32.05335378591836" lon="118.80454302970803">
        <ele>1.8889164682477713</ele>
        <time>2026-08-03T11:15:28Z</time>
      </trkpt>
      <trkpt lat="32.05336723232029" lon="118.80422439755407">
        <ele>0.08952758274972439</ele>
        <time>2026-08-03T11:15:40Z</time>
      </trkpt>
      <trkpt lat="32.05336808048331" lon="118.80413722515048">
        <ele>1.2309880014508963</ele>
        <time>2026-08-03T11:15:43Z</time>
      </trkpt>
      <trkpt lat="32.05334793979085" lon="118.80405907260706">
        <ele>3.093792414292693</ele>
        <time>2026-08-03T11:15:46Z</time>
      </trkpt>
      <trkpt lat="32.05325270745838" lon="118.80393784204634">
        <ele>2.412083124741912</ele>
        <time>2026-08-03T11:15:52Z</time>
      </trkpt>
      <trkpt lat="32.0531185729701" lon="118.8038777357949">
        <ele>2.83220717869699</ele>
        <time>2026-08-03T11:15:58Z</time>
      </trkpt>
      <trkpt lat="32.05289844899002" lon="118.80383467107937">
        <ele>2.620823359116912</ele>
        <time>2026-08-03T11:16:07Z</time>
      </trkpt>
      <trkpt lat="32.05269725609908" lon="118.80374952174579">
        <ele>1.9311909433454275</ele>
        <time>2026-08-03T11:16:16Z</time>
      </trkpt>
      <trkpt lat="32.052579184515935" lon="118.80372348128633">
        <ele>-10.416156316176057</ele>
        <time>2026-08-03T11:16:19Z</time>
      </trkpt>
      <trkpt lat="32.0523949972768" lon="118.80363933251914">
        <ele>2.1399311777204275</ele>
        <time>2026-08-03T11:16:28Z</time>
      </trkpt>
      <trkpt lat="32.05235690008137" lon="118.803588235478">
        <ele>1.6167607065290213</ele>
        <time>2026-08-03T11:16:34Z</time>
      </trkpt>
      <trkpt lat="32.05224289552927" lon="118.80360026960803">
        <ele>1.7964367624372244</ele>
        <time>2026-08-03T11:16:37Z</time>
      </trkpt>
      <trkpt lat="32.05210598154631" lon="118.80366741429718">
        <ele>2.1504978891462088</ele>
        <time>2026-08-03T11:16:43Z</time>
      </trkpt>
      <trkpt lat="32.05197117780723" lon="118.80379768322473">
        <ele>2.1716389413923025</ele>
        <time>2026-08-03T11:16:52Z</time>
      </trkpt>
      <trkpt lat="32.0519224842155" lon="118.80398004732385">
        <ele>1.4502987619489431</ele>
        <time>2026-08-03T11:17:01Z</time>
      </trkpt>
      <trkpt lat="32.05193575251325" lon="118.80413234686672">
        <ele>1.6378979440778494</ele>
        <time>2026-08-03T11:17:07Z</time>
      </trkpt>
      <trkpt lat="32.05199800408626" lon="118.80426861056837">
        <ele>1.18871352635324</ele>
        <time>2026-08-03T11:17:13Z</time>
      </trkpt>
      <trkpt lat="32.05204910293452" lon="118.80431870500058">
        <ele>2.1610684152692556</ele>
        <time>2026-08-03T11:17:16Z</time>
      </trkpt>
      <trkpt lat="32.0523183292264" lon="118.8044138687164">
        <ele>2.9880985971540213</ele>
        <time>2026-08-03T11:17:28Z</time>
      </trkpt>
      <trkpt lat="32.052397378365995" lon="118.80443189717646">
        <ele>0.739525293931365</ele>
        <time>2026-08-03T11:17:31Z</time>
      </trkpt>
      <trkpt lat="32.0525575524432" lon="118.80451103930648">
        <ele>0.37225005589425564</ele>
        <time>2026-08-03T11:17:37Z</time>
      </trkpt>
      <trkpt lat="32.05279977469194" lon="118.80460720778426">
        <ele>-2.639941716566682</ele>
        <time>2026-08-03T11:17:46Z</time>
      </trkpt>
      <trkpt lat="32.05307891404961" lon="118.80465126960543">
        <ele>3.3130993600934744</ele>
        <time>2026-08-03T11:17:56Z</time>
      </trkpt>
      <trkpt lat="32.0532049000205" lon="118.80462721031562">
        <ele>2.507206415757537</ele>
        <time>2026-08-03T11:18:02Z</time>
      </trkpt>
      <trkpt lat="32.05339669034641" lon="118.80448290660047">
        <ele>3.2285465952008963</ele>
        <time>2026-08-03T11:18:11Z</time>
      </trkpt>
      <trkpt lat="32.05342556894149" lon="118.80440975904">
        <ele>2.1082234140485525</ele>
        <time>2026-08-03T11:18:14Z</time>
      </trkpt>
      <trkpt lat="32.05342306478057" lon="118.80412118841915">
        <ele>2.9035496469587088</ele>
        <time>2026-08-03T11:18:23Z</time>
      </trkpt>
      <trkpt lat="32.0533438289255" lon="118.80399594835434">
        <ele>0.9588322397321463</ele>
        <time>2026-08-03T11:18:29Z</time>
      </trkpt>
      <trkpt lat="32.05322765130924" lon="118.80390878702882">
        <ele>1.7541584726423025</ele>
        <time>2026-08-03T11:18:35Z</time>
      </trkpt>
      <trkpt lat="32.0530985824621" lon="118.8038857534389">
        <ele>1.3868832346051931</ele>
        <time>2026-08-03T11:18:41Z</time>
      </trkpt>
      <trkpt lat="32.05299046252131" lon="118.8038306547234">
        <ele>1.7330212350934744</ele>
        <time>2026-08-03T11:18:47Z</time>
      </trkpt>
      <trkpt lat="32.0527783629958" lon="118.80380061497146">
        <ele>3.1651310678571463</ele>
        <time>2026-08-03T11:18:56Z</time>
      </trkpt>
      <trkpt lat="32.05243709017966" lon="118.80368742331852">
        <ele>1.2204174753278494</ele>
        <time>2026-08-03T11:19:11Z</time>
      </trkpt>
      <trkpt lat="32.05222995177915" lon="118.8036343378276">
        <ele>0.07895705662667751</ele>
        <time>2026-08-03T11:19:20Z</time>
      </trkpt>
      <trkpt lat="32.05212099185412" lon="118.8036714208071">
        <ele>2.811069941148162</ele>
        <time>2026-08-03T11:19:26Z</time>
      </trkpt>
      <trkpt lat="32.052016139067604" lon="118.80376962381467">
        <ele>1.8360676523298025</ele>
        <time>2026-08-03T11:19:29Z</time>
      </trkpt>
      <trkpt lat="32.051951277909964" lon="118.80385780355066">
        <ele>1.9840359445661306</ele>
        <time>2026-08-03T11:19:32Z</time>
      </trkpt>
      <trkpt lat="32.05191541984504" lon="118.80394397679525">
        <ele>1.3763127084821463</ele>
        <time>2026-08-03T11:19:35Z</time>
      </trkpt>
      <trkpt lat="32.051909654134796" lon="118.80407924435104">
        <ele>-1.7177882436662912</ele>
        <time>2026-08-03T11:19:41Z</time>
      </trkpt>
      <trkpt lat="32.051959950137665" lon="118.80424256253471">
        <ele>1.2944035287946463</ele>
        <time>2026-08-03T11:19:47Z</time>
      </trkpt>
      <trkpt lat="32.051999055038024" lon="118.80429766796075">
        <ele>0.5598492380231619</ele>
        <time>2026-08-03T11:19:50Z</time>
      </trkpt>
      <trkpt lat="32.05225132479074" lon="118.80441988678012">
        <ele>2.0368809457868338</ele>
        <time>2026-08-03T11:20:02Z</time>
      </trkpt>
      <trkpt lat="32.052377449227585" lon="118.80447498436766">
        <ele>1.4820027109235525</ele>
        <time>2026-08-03T11:20:08Z</time>
      </trkpt>
      <trkpt lat="32.05263467653656" lon="118.80457215339835">
        <ele>1.6378979440778494</ele>
        <time>2026-08-03T11:20:20Z</time>
      </trkpt>
      <trkpt lat="32.05294390151168" lon="118.80466130189396">
        <ele>2.0685887094587088</ele>
        <time>2026-08-03T11:20:36Z</time>
      </trkpt>
      <trkpt lat="32.05307599760954" lon="118.80469936532884">
        <ele>0.821434473618865</ele>
        <time>2026-08-03T11:20:42Z</time>
      </trkpt>
      <trkpt lat="32.05316798300876" lon="118.80467931709967">
        <ele>1.3974499460309744</ele>
        <time>2026-08-03T11:20:48Z</time>
      </trkpt>
      <trkpt lat="32.05328584089884" lon="118.8045831154264">
        <ele>1.9206204172223806</ele>
        <time>2026-08-03T11:20:54Z</time>
      </trkpt>
      <trkpt lat="32.05339856292773" lon="118.8044097615215">
        <ele>1.4925732370465994</ele>
        <time>2026-08-03T11:21:03Z</time>
      </trkpt>
      <trkpt lat="32.05340425804666" lon="118.80423441396718">
        <ele>-0.4547839406877756</ele>
        <time>2026-08-03T11:21:09Z</time>
      </trkpt>
      <trkpt lat="32.05338289521106" lon="118.8040290100389">
        <ele>1.1675724741071463</ele>
        <time>2026-08-03T11:21:15Z</time>
      </trkpt>
      <trkpt lat="32.05333190305396" lon="118.80404003648694">
        <ele>1.0222477670758963</ele>
        <time>2026-08-03T11:21:18Z</time>
      </trkpt>
      <trkpt lat="32.05319565289991" lon="118.80391379985113">
        <ele>-0.44421341456472874</ele>
        <time>2026-08-03T11:21:27Z</time>
      </trkpt>
      <trkpt lat="32.05293948775782" lon="118.80385170088695">
        <ele>2.1399311777204275</ele>
        <time>2026-08-03T11:21:39Z</time>
      </trkpt>
      <trkpt lat="32.05270826900111" lon="118.80375553257609">
        <ele>2.591759180650115</ele>
        <time>2026-08-03T11:21:51Z</time>
      </trkpt>
      <trkpt lat="32.05242908839577" lon="118.80368742405386">
        <ele>1.4291577097028494</ele>
        <time>2026-08-03T11:22:00Z</time>
      </trkpt>
      <trkpt lat="32.05236802083808" lon="118.80365636852197">
        <ele>2.3592381235212088</ele>
        <time>2026-08-03T11:22:03Z</time>
      </trkpt>
      <trkpt lat="32.05214289931773" lon="118.80361530836724">
        <ele>1.1041607614606619</ele>
        <time>2026-08-03T11:22:12Z</time>
      </trkpt>
      <trkpt lat="32.05207695419322" lon="118.80365539329826">
        <ele>2.0157437082380056</ele>
        <time>2026-08-03T11:22:18Z</time>
      </trkpt>
      <trkpt lat="32.052005166228064" lon="118.80378665838334">
        <ele>2.0157437082380056</ele>
        <time>2026-08-03T11:22:21Z</time>
      </trkpt>
      <trkpt lat="32.05194824760863" lon="118.80384077024885">
        <ele>-10.720016026869416</ele>
        <time>2026-08-03T11:22:24Z</time>
      </trkpt>
      <trkpt lat="32.051887499091755" lon="118.80399307624693">
        <ele>3.6169628854840994</ele>
        <time>2026-08-03T11:22:30Z</time>
      </trkpt>
      <trkpt lat="32.051893636594386" lon="118.8040712299908">
        <ele>1.9628987070173025</ele>
        <time>2026-08-03T11:22:33Z</time>
      </trkpt>
      <trkpt lat="32.051977933170285" lon="118.80423053710281">
        <ele>0.9376950021833181</ele>
        <time>2026-08-03T11:22:39Z</time>
      </trkpt>
      <trkpt lat="32.052077133678885" lon="118.80433273018791">
        <ele>-1.6781535390764475</ele>
        <time>2026-08-03T11:22:45Z</time>
      </trkpt>
      <trkpt lat="32.05215424712448" lon="118.8043878322016">
        <ele>1.5850529428571463</ele>
        <time>2026-08-03T11:22:48Z</time>
      </trkpt>
      <trkpt lat="32.05245646333985" lon="118.80447297313678">
        <ele>1.1464352365583181</ele>
        <time>2026-08-03T11:23:03Z</time>
      </trkpt>
      <trkpt lat="32.05275670373253" lon="118.80457214218637">
        <ele>-6.841159367933869</ele>
        <time>2026-08-03T11:23:15Z</time>
      </trkpt>
      <trkpt lat="32.05308398008692" lon="118.804688342717">
        <ele>2.0157437082380056</ele>
        <time>2026-08-03T11:23:30Z</time>
      </trkpt>
      <trkpt lat="32.05320794279104" lon="118.80465125775015">
        <ele>1.7435879465192556</ele>
        <time>2026-08-03T11:23:36Z</time>
      </trkpt>
      <trkpt lat="32.053323802024934" lon="118.80455605828976">
        <ele>0.91655776463449</ele>
        <time>2026-08-03T11:23:42Z</time>
      </trkpt>
      <trkpt lat="32.05336871389703" lon="118.80449994292876">
        <ele>0.8425755258649588</ele>
        <time>2026-08-03T11:23:45Z</time>
      </trkpt>
      <trkpt lat="32.053406456171594" lon="118.80434763779166">
        <ele>2.2139134164899588</ele>
        <time>2026-08-03T11:23:51Z</time>
      </trkpt>
      <trkpt lat="32.05340122240982" lon="118.80421437461692">
        <ele>1.5137104745954275</ele>
        <time>2026-08-03T11:23:58Z</time>
      </trkpt>
      <trkpt lat="32.053278847607054" lon="118.8040149919059">
        <ele>1.2415585275739431</ele>
        <time>2026-08-03T11:24:07Z</time>
      </trkpt>
      <trkpt lat="32.053156637235105" lon="118.80390979553107">
        <ele>0.70781753025949</ele>
        <time>2026-08-03T11:24:13Z</time>
      </trkpt>
      <trkpt lat="32.052904403275605" lon="118.80380761721081">
        <ele>0.6655430551618338</ele>
        <time>2026-08-03T11:24:25Z</time>
      </trkpt>
      <trkpt lat="32.052780342534376" lon="118.80378859109645">
        <ele>2.0474514719098806</ele>
        <time>2026-08-03T11:24:31Z</time>
      </trkpt>
      <trkpt lat="32.05246405616768" lon="118.803664375474">
        <ele>1.7752957101911306</ele>
        <time>2026-08-03T11:24:46Z</time>
      </trkpt>
      <trkpt lat="32.05227194200811" lon="118.80362331228044">
        <ele>0.015541529282927513</ele>
        <time>2026-08-03T11:24:55Z</time>
      </trkpt>
      <trkpt lat="32.05212093790636" lon="118.80364035967659">
        <ele>1.1781430002301931</ele>
        <time>2026-08-03T11:25:01Z</time>
      </trkpt>
      <trkpt lat="32.05201509181837" lon="118.80374257061906">
        <ele>1.9100537057965994</ele>
        <time>2026-08-03T11:25:07Z</time>
      </trkpt>
      <trkpt lat="32.05193228064369" lon="118.8038618131983">
        <ele>1.2309880014508963</ele>
        <time>2026-08-03T11:25:13Z</time>
      </trkpt>
      <trkpt lat="32.05190939059737" lon="118.80392794572157">
        <ele>0.6126980539411306</ele>
        <time>2026-08-03T11:25:16Z</time>
      </trkpt>
      <trkpt lat="32.05194984825437" lon="118.80418545053104">
        <ele>-4.354777837172151</ele>
        <time>2026-08-03T11:25:25Z</time>
      </trkpt>
      <trkpt lat="32.05204011492535" lon="118.80432672169056">
        <ele>-0.2962451223284006</ele>
        <time>2026-08-03T11:25:31Z</time>
      </trkpt>
      <trkpt lat="32.05229838956669" lon="118.80445094398536">
        <ele>3.447857355698943</ele>
        <time>2026-08-03T11:25:44Z</time>
      </trkpt>
      <trkpt lat="32.05253052539473" lon="118.80449901795845">
        <ele>1.4820027109235525</ele>
        <time>2026-08-03T11:25:53Z</time>
      </trkpt>
      <trkpt lat="32.05265265600416" lon="118.80455812392977">
        <ele>2.1293606515973806</ele>
        <time>2026-08-03T11:25:59Z</time>
      </trkpt>
      <trkpt lat="32.05296190727757" lon="118.80466230222802">
        <ele>0.8002972360700369</ele>
        <time>2026-08-03T11:26:14Z</time>
      </trkpt>
      <trkpt lat="32.053015949140864" lon="118.80467933106857">
        <ele>1.7647289987653494</ele>
        <time>2026-08-03T11:26:17Z</time>
      </trkpt>
      <trkpt lat="32.05319785636684" lon="118.80460316325782">
        <ele>1.0407452341169119</ele>
        <time>2026-08-03T11:26:26Z</time>
      </trkpt>
      <trkpt lat="32.053256785346676" lon="118.80455506246072">
        <ele>1.4502987619489431</ele>
        <time>2026-08-03T11:26:29Z</time>
      </trkpt>
      <trkpt lat="32.053361498659946" lon="118.80437770143332">
        <ele>0.49907729588449</ele>
        <time>2026-08-03T11:26:38Z</time>
      </trkpt>
      <trkpt lat="32.05339833366127" lon="118.80427850171861">
        <ele>1.9100537057965994</ele>
        <time>2026-08-03T11:26:41Z</time>
      </trkpt>
      <trkpt lat="32.053377201330065" lon="118.8042053589932">
        <ele>1.0328182931989431</ele>
        <time>2026-08-03T11:26:44Z</time>
      </trkpt>
      <trkpt lat="32.05330095376783" lon="118.80407310462925">
        <ele>1.2838330026715994</ele>
        <time>2026-08-03T11:26:50Z</time>
      </trkpt>
      <trkpt lat="32.05321676747845" lon="118.80397692245646">
        <ele>2.0553784128278494</ele>
        <time>2026-08-03T11:26:56Z</time>
      </trkpt>
      <trkpt lat="32.053032539860276" lon="118.80386972789516">
        <ele>0.29826400242745876</ele>
        <time>2026-08-03T11:27:05Z</time>
      </trkpt>
      <trkpt lat="32.05273728069071" lon="118.8037585358314">
        <ele>-0.05580093897879124</ele>
        <time>2026-08-03T11:27:20Z</time>
      </trkpt>
      <trkpt lat="32.052422039841" lon="118.80366037144633">
        <ele>0.91655776463449</ele>
        <time>2026-08-03T11:27:35Z</time>
      </trkpt>
      <trkpt lat="32.052294934959605" lon="118.80361629636681">
        <ele>1.6378979440778494</ele>
        <time>2026-08-03T11:27:41Z</time>
      </trkpt>
      <trkpt lat="32.052148933712225" lon="118.80363434527301">
        <ele>0.6232647653669119</ele>
        <time>2026-08-03T11:27:47Z</time>
      </trkpt>
      <trkpt lat="32.05207300899617" lon="118.80368745677663">
        <ele>0.6549725290387869</ele>
        <time>2026-08-03T11:27:53Z</time>
      </trkpt>
      <trkpt lat="32.05193147400929" lon="118.80397303265599">
        <ele>5.642557614482939</ele>
        <time>2026-08-03T11:39:39Z</time>
      </trkpt>
      <trkpt lat="32.05193660777444" lon="118.80404918250943">
        <ele>5.6029229098930955</ele>
        <time>2026-08-03T11:39:42Z</time>
      </trkpt>
    </trkseg>
  </trk>
</gpx>