<?xml version="1.0" encoding="UTF-8"?>
<gpx xmlns="http://www.topografix.com/GPX/1/1" xmlns:gpxtpx="http://www.garmin.com/xmlschemas/TrackPointExtension/v1" xmlns:xsi="http://www.w3.org/2001/XMLSchema-instance" xsi:schemaLocation="http://www.topografix.com/GPX/1/1 http://www.topografix.com/GPX/1/1/gpx.xsd" version="1.1" creator="gpx.py -- https://github.com/tkrajina/gpxpy">
  <trk>
    <name>gpx from keep</name>
    <type>Run</type>
    <trkseg>
      <trkpt lat="31.229943416270416" lon="121.40040991883319">
        <ele>18.68652139045298</ele>
        <time>2026-05-16T11:09:46Z</time>
      </trkpt>
      <trkpt lat="31.22999639072716" lon="121.40040191295472">
        <ele>18.64424310065806</ele>
        <time>2026-05-16T11:09:52Z</time>
      </trkpt>
      <trkpt lat="31.23005536583385" lon="121.40042291111921">
        <ele>19.310098508372903</ele>
        <time>2026-05-16T11:09:58Z</time>
      </trkpt>
      <trkpt lat="31.230222285511324" lon="121.40039889277993">
        <ele>18.99830804206431</ele>
        <time>2026-05-16T11:10:07Z</time>
      </trkpt>
      <trkpt lat="31.230531131106925" lon="121.40030285102537">
        <ele>18.55440698005259</ele>
        <time>2026-05-16T11:10:19Z</time>
      </trkpt>
      <trkpt lat="31.23077001138759" lon="121.4002228182129">
        <ele>19.299527982249856</ele>
        <time>2026-05-16T11:10:29Z</time>
      </trkpt>
      <trkpt lat="31.23101688261439" lon="121.40008877737367">
        <ele>18.189771512523293</ele>
        <time>2026-05-16T11:10:38Z</time>
      </trkpt>
      <trkpt lat="31.231142810813704" lon="121.39995574816137">
        <ele>18.591398099437356</ele>
        <time>2026-05-16T11:10:44Z</time>
      </trkpt>
      <trkpt lat="31.231190780781695" lon="121.39987473333127">
        <ele>15.29384026862681</ele>
        <time>2026-05-16T11:10:47Z</time>
      </trkpt>
      <trkpt lat="31.23122175003497" lon="121.39969370808645">
        <ele>16.604410031810403</ele>
        <time>2026-05-16T11:10:53Z</time>
      </trkpt>
      <trkpt lat="31.23117975691407" lon="121.39954269425827">
        <ele>19.373510221019387</ele>
        <time>2026-05-16T11:10:56Z</time>
      </trkpt>
      <trkpt lat="31.23107579314944" lon="121.39938668651273">
        <ele>18.97717080451548</ele>
        <time>2026-05-16T11:11:02Z</time>
      </trkpt>
      <trkpt lat="31.230866883847163" lon="121.39930069601198">
        <ele>18.295465329661965</ele>
        <time>2026-05-16T11:11:11Z</time>
      </trkpt>
      <trkpt lat="31.230552031928546" lon="121.39933072647528">
        <ele>17.40237603522837</ele>
        <time>2026-05-16T11:11:20Z</time>
      </trkpt>
      <trkpt lat="31.230268167861702" lon="121.3993897572721">
        <ele>18.052373746410012</ele>
        <time>2026-05-16T11:11:32Z</time>
      </trkpt>
      <trkpt lat="31.23000729891462" lon="121.39952079408134">
        <ele>18.41700921393931</ele>
        <time>2026-05-16T11:11:44Z</time>
      </trkpt>
      <trkpt lat="31.22992733795082" lon="121.39954480372845">
        <ele>17.523919919505715</ele>
        <time>2026-05-16T11:11:47Z</time>
      </trkpt>
      <trkpt lat="31.22981140044016" lon="121.39964982588829">
        <ele>18.813348630443215</ele>
        <time>2026-05-16T11:11:54Z</time>
      </trkpt>
      <trkpt lat="31.229709460990502" lon="121.39979985299377">
        <ele>19.10400185920298</ele>
        <time>2026-05-16T11:12:00Z</time>
      </trkpt>
      <trkpt lat="31.229703485431564" lon="121.40002488305085">
        <ele>18.189771512523293</ele>
        <time>2026-05-16T11:12:09Z</time>
      </trkpt>
      <trkpt lat="31.22973048546734" lon="121.4001458976793">
        <ele>17.814569333568215</ele>
        <time>2026-05-16T11:12:12Z</time>
      </trkpt>
      <trkpt lat="31.229812461065404" lon="121.40027090888213">
        <ele>18.924325803294778</ele>
        <time>2026-05-16T11:12:18Z</time>
      </trkpt>
      <trkpt lat="31.229899429444092" lon="121.4003479130108">
        <ele>18.855626920238137</ele>
        <time>2026-05-16T11:12:24Z</time>
      </trkpt>
      <trkpt lat="31.229975393245898" lon="121.40033990515316">
        <ele>17.608472684398293</ele>
        <time>2026-05-16T11:12:27Z</time>
      </trkpt>
      <trkpt lat="31.230009382461027" lon="121.40038290884793">
        <ele>19.473916867747903</ele>
        <time>2026-05-16T11:12:30Z</time>
      </trkpt>
      <trkpt lat="31.23006835543325" lon="121.40038590417218">
        <ele>18.83448968268931</ele>
        <time>2026-05-16T11:12:33Z</time>
      </trkpt>
      <trkpt lat="31.230134320386334" lon="121.40034789252215">
        <ele>18.855626920238137</ele>
        <time>2026-05-16T11:12:36Z</time>
      </trkpt>
      <trkpt lat="31.23027325544148" lon="121.40034387978704">
        <ele>17.545057157054543</ele>
        <time>2026-05-16T11:12:39Z</time>
      </trkpt>
      <trkpt lat="31.230546120541856" lon="121.40027084488734">
        <ele>18.74993691779673</ele>
        <time>2026-05-16T11:12:51Z</time>
      </trkpt>
      <trkpt lat="31.23077900677742" lon="121.4002188168383">
        <ele>18.934896329417825</ele>
        <time>2026-05-16T11:13:01Z</time>
      </trkpt>
      <trkpt lat="31.23106285759197" lon="121.40005276833774">
        <ele>16.62554726935923</ele>
        <time>2026-05-16T11:13:13Z</time>
      </trkpt>
      <trkpt lat="31.231186785779048" lon="121.39990773797528">
        <ele>18.49099145270884</ele>
        <time>2026-05-16T11:13:19Z</time>
      </trkpt>
      <trkpt lat="31.231228752067786" lon="121.399753714758">
        <ele>17.856847623363137</ele>
        <time>2026-05-16T11:13:25Z</time>
      </trkpt>
      <trkpt lat="31.23121274502902" lon="121.39958469612571">
        <ele>17.84627709724009</ele>
        <time>2026-05-16T11:13:31Z</time>
      </trkpt>
      <trkpt lat="31.231177754914672" lon="121.39950569032943">
        <ele>18.427579740062356</ele>
        <time>2026-05-16T11:13:34Z</time>
      </trkpt>
      <trkpt lat="31.23098583081568" lon="121.39933068863546">
        <ele>18.887334683910012</ele>
        <time>2026-05-16T11:13:43Z</time>
      </trkpt>
      <trkpt lat="31.2307769210122" lon="121.39923369733151">
        <ele>18.78164086677134</ele>
        <time>2026-05-16T11:13:52Z</time>
      </trkpt>
      <trkpt lat="31.23070195676703" lon="121.39924870531156">
        <ele>19.008878568187356</ele>
        <time>2026-05-16T11:13:55Z</time>
      </trkpt>
      <trkpt lat="31.2305630255671" lon="121.39931272371116">
        <ele>19.140992978587747</ele>
        <time>2026-05-16T11:14:01Z</time>
      </trkpt>
      <trkpt lat="31.23030414884664" lon="121.39935775083718">
        <ele>18.295465329661965</ele>
        <time>2026-05-16T11:14:13Z</time>
      </trkpt>
      <trkpt lat="31.230088257820576" lon="121.39947578209024">
        <ele>17.28611550666392</ele>
        <time>2026-05-16T11:14:25Z</time>
      </trkpt>
      <trkpt lat="31.230039208209902" lon="121.3994482978484">
        <ele>19.13570580817759</ele>
        <time>2026-05-16T11:14:34Z</time>
      </trkpt>
      <trkpt lat="31.229770418127345" lon="121.3996338275899">
        <ele>19.156846860423684</ele>
        <time>2026-05-16T11:14:40Z</time>
      </trkpt>
      <trkpt lat="31.229724446428083" lon="121.39971484122053">
        <ele>14.633272031322122</ele>
        <time>2026-05-16T11:14:43Z</time>
      </trkpt>
      <trkpt lat="31.229687477514627" lon="121.39986786355732">
        <ele>17.090585568919778</ele>
        <time>2026-05-16T11:14:49Z</time>
      </trkpt>
      <trkpt lat="31.22973346295943" lon="121.39993886883283">
        <ele>18.601968625560403</ele>
        <time>2026-05-16T11:14:52Z</time>
      </trkpt>
      <trkpt lat="31.2297664801885" lon="121.40025090990113">
        <ele>18.49099145270884</ele>
        <time>2026-05-16T11:15:01Z</time>
      </trkpt>
      <trkpt lat="31.22987544127882" lon="121.40035391602912">
        <ele>16.673108914867043</ele>
        <time>2026-05-16T11:15:07Z</time>
      </trkpt>
      <trkpt lat="31.230014381902176" lon="121.40039791075783">
        <ele>17.566198209300637</ele>
        <time>2026-05-16T11:15:13Z</time>
      </trkpt>
      <trkpt lat="31.230204291982147" lon="121.40038289184666">
        <ele>18.242620328441262</ele>
        <time>2026-05-16T11:15:23Z</time>
      </trkpt>
      <trkpt lat="31.230302242683436" lon="121.40034987818323">
        <ele>18.115789273753762</ele>
        <time>2026-05-16T11:15:26Z</time>
      </trkpt>
      <trkpt lat="31.23049215204113" lon="121.40032785823675">
        <ele>18.792211392894387</ele>
        <time>2026-05-16T11:15:32Z</time>
      </trkpt>
      <trkpt lat="31.230781004099075" lon="121.40020281431275">
        <ele>19.48448739387095</ele>
        <time>2026-05-16T11:15:41Z</time>
      </trkpt>
      <trkpt lat="31.23092493016981" lon="121.40013579205825">
        <ele>17.78286156989634</ele>
        <time>2026-05-16T11:15:47Z</time>
      </trkpt>
      <trkpt lat="31.231116826615892" lon="121.39999375554102">
        <ele>10.764982083812356</ele>
        <time>2026-05-16T11:15:56Z</time>
      </trkpt>
      <trkpt lat="31.231215765458867" lon="121.39983472602182">
        <ele>18.232049802318215</ele>
        <time>2026-05-16T11:16:02Z</time>
      </trkpt>
      <trkpt lat="31.2312347489334" lon="121.39974971374353">
        <ele>15.917417386546731</ele>
        <time>2026-05-16T11:16:05Z</time>
      </trkpt>
      <trkpt lat="31.231186756495994" lon="121.39957769759545">
        <ele>18.179204801097512</ele>
        <time>2026-05-16T11:16:11Z</time>
      </trkpt>
      <trkpt lat="31.231081793774848" lon="121.39943269081468">
        <ele>19.81741319037974</ele>
        <time>2026-05-16T11:16:17Z</time>
      </trkpt>
      <trkpt lat="31.230958845027285" lon="121.39935469342271">
        <ele>15.108880857005715</ele>
        <time>2026-05-16T11:16:23Z</time>
      </trkpt>
      <trkpt lat="31.230702960953945" lon="121.39931671190449">
        <ele>19.75399957038462</ele>
        <time>2026-05-16T11:16:36Z</time>
      </trkpt>
      <trkpt lat="31.230459076536803" lon="121.3993517367111">
        <ele>18.90318856574595</ele>
        <time>2026-05-16T11:16:45Z</time>
      </trkpt>
      <trkpt lat="31.23016621896537" lon="121.39944077152943">
        <ele>17.941400388255715</ele>
        <time>2026-05-16T11:16:57Z</time>
      </trkpt>
      <trkpt lat="31.229903350860955" lon="121.399566808297">
        <ele>18.052373746410012</ele>
        <time>2026-05-16T11:17:09Z</time>
      </trkpt>
      <trkpt lat="31.229788411118392" lon="121.39964982789355">
        <ele>18.04180703498423</ele>
        <time>2026-05-16T11:17:15Z</time>
      </trkpt>
      <trkpt lat="31.229685478443372" lon="121.39986786373169">
        <ele>18.20034203864634</ele>
        <time>2026-05-16T11:17:24Z</time>
      </trkpt>
      <trkpt lat="31.22967449074658" lon="121.39994287450777">
        <ele>18.84505639411509</ele>
        <time>2026-05-16T11:17:27Z</time>
      </trkpt>
      <trkpt lat="31.229723490750953" lon="121.40016490102614">
        <ele>18.26375756599009</ele>
        <time>2026-05-16T11:17:33Z</time>
      </trkpt>
      <trkpt lat="31.229798468913955" lon="121.40028291190774">
        <ele>16.97432885505259</ele>
        <time>2026-05-16T11:17:39Z</time>
      </trkpt>
      <trkpt lat="31.230032375794554" lon="121.40041691217684">
        <ele>18.295465329661965</ele>
        <time>2026-05-16T11:17:48Z</time>
      </trkpt>
      <trkpt lat="31.230164312772096" lon="121.40040189830748">
        <ele>18.522699216380715</ele>
        <time>2026-05-16T11:17:54Z</time>
      </trkpt>
      <trkpt lat="31.230286248720148" lon="121.40033787773092">
        <ele>13.977987149730325</ele>
        <time>2026-05-16T11:18:00Z</time>
      </trkpt>
      <trkpt lat="31.230503143974836" lon="121.40030185331487">
        <ele>17.77757821418345</ele>
        <time>2026-05-16T11:18:09Z</time>
      </trkpt>
      <trkpt lat="31.23062208252163" lon="121.40024583452495">
        <ele>18.697088101878762</ele>
        <time>2026-05-16T11:18:16Z</time>
      </trkpt>
      <trkpt lat="31.23090294238641" lon="121.40015479670299">
        <ele>18.374730924144387</ele>
        <time>2026-05-16T11:18:25Z</time>
      </trkpt>
      <trkpt lat="31.231065855078118" lon="121.40004176655428">
        <ele>18.094652036204934</ele>
        <time>2026-05-16T11:18:31Z</time>
      </trkpt>
      <trkpt lat="31.231190786244788" lon="121.39993174078627">
        <ele>17.86741433478892</ele>
        <time>2026-05-16T11:18:37Z</time>
      </trkpt>
      <trkpt lat="31.23124774452484" lon="121.3997677148277">
        <ele>18.06294427253306</ele>
        <time>2026-05-16T11:18:43Z</time>
      </trkpt>
      <trkpt lat="31.231237740648027" lon="121.3996707039501">
        <ele>17.724733212962747</ele>
        <time>2026-05-16T11:18:46Z</time>
      </trkpt>
      <trkpt lat="31.23116776080257" lon="121.39952169296689">
        <ele>17.69302544929087</ele>
        <time>2026-05-16T11:18:52Z</time>
      </trkpt>
      <trkpt lat="31.231061801027842" lon="121.39940568971289">
        <ele>18.90318856574595</ele>
        <time>2026-05-16T11:18:58Z</time>
      </trkpt>
      <trkpt lat="31.230940851308475" lon="121.39932569205585">
        <ele>15.505224088206887</ele>
        <time>2026-05-16T11:19:04Z</time>
      </trkpt>
      <trkpt lat="31.230632992077965" lon="121.39929771611676">
        <ele>18.448716977611184</ele>
        <time>2026-05-16T11:19:16Z</time>
      </trkpt>
      <trkpt lat="31.230545033355394" lon="121.39930472448374">
        <ele>18.77107415534556</ele>
        <time>2026-05-16T11:19:19Z</time>
      </trkpt>
      <trkpt lat="31.230270167520366" lon="121.39939775793016">
        <ele>18.97717080451548</ele>
        <time>2026-05-16T11:19:31Z</time>
      </trkpt>
      <trkpt lat="31.230003299279616" lon="121.39950179233597">
        <ele>18.27432427741587</ele>
        <time>2026-05-16T11:19:43Z</time>
      </trkpt>
      <trkpt lat="31.229872365008244" lon="121.3995638106606">
        <ele>17.328389981761575</ele>
        <time>2026-05-16T11:19:49Z</time>
      </trkpt>
      <trkpt lat="31.229778416865056" lon="121.39966283029709">
        <ele>16.75766167975962</ele>
        <time>2026-05-16T11:19:55Z</time>
      </trkpt>
      <trkpt lat="31.229707465884378" lon="121.39984285860692">
        <ele>17.650750974193215</ele>
        <time>2026-05-16T11:20:01Z</time>
      </trkpt>
      <trkpt lat="31.22970847859937" lon="121.3999798764954">
        <ele>15.605630734935403</ele>
        <time>2026-05-16T11:20:07Z</time>
      </trkpt>
      <trkpt lat="31.22978646583214" lon="121.40020490135672">
        <ele>18.031236508861184</ele>
        <time>2026-05-16T11:20:16Z</time>
      </trkpt>
      <trkpt lat="31.229874437945213" lon="121.4003209110475">
        <ele>18.438146451488137</ele>
        <time>2026-05-16T11:20:23Z</time>
      </trkpt>
      <trkpt lat="31.229932416330065" lon="121.40036691307206">
        <ele>17.502782681956887</ele>
        <time>2026-05-16T11:20:26Z</time>
      </trkpt>
      <trkpt lat="31.230073353113116" lon="121.40038590373625">
        <ele>15.056035855785012</ele>
        <time>2026-05-16T11:20:32Z</time>
      </trkpt>
      <trkpt lat="31.23036021176334" lon="121.4003148677596">
        <ele>15.367826322093606</ele>
        <time>2026-05-16T11:20:44Z</time>
      </trkpt>
      <trkpt lat="31.2304201824597" lon="121.40030186055141">
        <ele>17.49221215583384</ele>
        <time>2026-05-16T11:20:47Z</time>
      </trkpt>
      <trkpt lat="31.23050014627524" lon="121.40030985479197">
        <ele>18.0048121009022</ele>
        <time>2026-05-16T11:20:50Z</time>
      </trkpt>
      <trkpt lat="31.230657061238457" lon="121.40019982468473">
        <ele>15.77473626472056</ele>
        <time>2026-05-16T11:21:02Z</time>
      </trkpt>
      <trkpt lat="31.2308859519797" lon="121.400170800496">
        <ele>17.814569333568215</ele>
        <time>2026-05-16T11:21:08Z</time>
      </trkpt>
      <trkpt lat="31.23108584735049" lon="121.40005676688739">
        <ele>17.212133267894387</ele>
        <time>2026-05-16T11:21:17Z</time>
      </trkpt>
      <trkpt lat="31.231230757588254" lon="121.39982472344468">
        <ele>18.51212869025767</ele>
        <time>2026-05-16T11:21:27Z</time>
      </trkpt>
      <trkpt lat="31.23123074866095" lon="121.39972571116189">
        <ele>18.025953153148293</ele>
        <time>2026-05-16T11:21:30Z</time>
      </trkpt>
      <trkpt lat="31.23115476493988" lon="121.39949769145706">
        <ele>15.71132073737681</ele>
        <time>2026-05-16T11:21:36Z</time>
      </trkpt>
      <trkpt lat="31.231100784377187" lon="121.39942468831097">
        <ele>19.12513909675181</ele>
        <time>2026-05-16T11:21:39Z</time>
      </trkpt>
      <trkpt lat="31.231040808486405" lon="121.39937468832387">
        <ele>18.179204801097512</ele>
        <time>2026-05-16T11:21:42Z</time>
      </trkpt>
      <trkpt lat="31.23084189619376" lon="121.39931169928585">
        <ele>17.90969262458384</ele>
        <time>2026-05-16T11:21:48Z</time>
      </trkpt>
      <trkpt lat="31.230683968508856" lon="121.39929871176922">
        <ele>17.4235132727772</ele>
        <time>2026-05-16T11:21:54Z</time>
      </trkpt>
      <trkpt lat="31.230495058143333" lon="121.39932773114296">
        <ele>15.626767972484231</ele>
        <time>2026-05-16T11:22:03Z</time>
      </trkpt>
      <trkpt lat="31.230410096994554" lon="121.39931973775082">
        <ele>15.71132073737681</ele>
        <time>2026-05-16T11:22:06Z</time>
      </trkpt>
      <trkpt lat="31.230190208132928" lon="121.39944476986342">
        <ele>17.27554498054087</ele>
        <time>2026-05-16T11:22:12Z</time>
      </trkpt>
      <trkpt lat="31.229907348923327" lon="121.39956580783516">
        <ele>16.239774564281106</ele>
        <time>2026-05-16T11:22:24Z</time>
      </trkpt>
      <trkpt lat="31.22978841610082" lon="121.39970783479572">
        <ele>17.307252744212747</ele>
        <time>2026-05-16T11:22:30Z</time>
      </trkpt>
      <trkpt lat="31.229730463186606" lon="121.39992686750632">
        <ele>17.41294656135142</ele>
        <time>2026-05-16T11:22:39Z</time>
      </trkpt>
      <trkpt lat="31.22972347432964" lon="121.40000687884657">
        <ele>17.587335446849465</ele>
        <time>2026-05-16T11:22:43Z</time>
      </trkpt>
      <trkpt lat="31.229797461271673" lon="121.40020990113149">
        <ele>14.279207089915872</ele>
        <time>2026-05-16T11:22:52Z</time>
      </trkpt>
      <trkpt lat="31.229880433563405" lon="121.4003069083913">
        <ele>17.185708859935403</ele>
        <time>2026-05-16T11:22:58Z</time>
      </trkpt>
      <trkpt lat="31.230025375035826" lon="121.40038290745296">
        <ele>16.683675626292825</ele>
        <time>2026-05-16T11:23:04Z</time>
      </trkpt>
      <trkpt lat="31.23009134440931" lon="121.40038290169869">
        <ele>17.243841031566262</ele>
        <time>2026-05-16T11:23:07Z</time>
      </trkpt>
      <trkpt lat="31.230225275866722" lon="121.40032788151566">
        <ele>16.176359036937356</ele>
        <time>2026-05-16T11:23:13Z</time>
      </trkpt>
      <trkpt lat="31.230497145623783" lon="121.40029185232329">
        <ele>17.20684609748423</ele>
        <time>2026-05-16T11:23:25Z</time>
      </trkpt>
      <trkpt lat="31.230646070621134" lon="121.4002388313922">
        <ele>16.810506680980325</ele>
        <time>2026-05-16T11:23:37Z</time>
      </trkpt>
      <trkpt lat="31.230938922308184" lon="121.40012278898298">
        <ele>15.182866910472512</ele>
        <time>2026-05-16T11:23:58Z</time>
      </trkpt>
      <trkpt lat="31.23103287426901" lon="121.40007977471595">
        <ele>17.19627938605845</ele>
        <time>2026-05-16T11:24:04Z</time>
      </trkpt>
      <trkpt lat="31.231100837142023" lon="121.40002476116314">
        <ele>17.307252744212747</ele>
        <time>2026-05-16T11:24:10Z</time>
      </trkpt>
      <trkpt lat="31.231202774564633" lon="121.39986773138122">
        <ele>17.682454923167825</ele>
        <time>2026-05-16T11:24:22Z</time>
      </trkpt>
      <trkpt lat="31.231218761671823" lon="121.399808722471">
        <ele>17.36009774543345</ele>
        <time>2026-05-16T11:24:25Z</time>
      </trkpt>
      <trkpt lat="31.23121874381218" lon="121.3996036977794">
        <ele>17.682454923167825</ele>
        <time>2026-05-16T11:24:34Z</time>
      </trkpt>
      <trkpt lat="31.231179752432524" lon="121.399485687967">
        <ele>17.212133267894387</ele>
        <time>2026-05-16T11:24:40Z</time>
      </trkpt>
      <trkpt lat="31.231091784577607" lon="121.39937068346539">
        <ele>17.523919919505715</ele>
        <time>2026-05-16T11:24:49Z</time>
      </trkpt>
      <trkpt lat="31.230972834396574" lon="121.39929568627468">
        <ele>17.080018857493997</ele>
        <time>2026-05-16T11:24:58Z</time>
      </trkpt>
      <trkpt lat="31.230813905200808" lon="121.39925369602939">
        <ele>16.747091153636575</ele>
        <time>2026-05-16T11:25:07Z</time>
      </trkpt>
      <trkpt lat="31.230566024805576" lon="121.39932172434999">
        <ele>19.051153043285012</ele>
        <time>2026-05-16T11:25:19Z</time>
      </trkpt>
      <trkpt lat="31.230271166324012" lon="121.39938775680295">
        <ele>18.364164212718606</ele>
        <time>2026-05-16T11:25:28Z</time>
      </trkpt>
      <trkpt lat="31.230003296727332" lon="121.39946878874386">
        <ele>17.55562768317759</ele>
        <time>2026-05-16T11:25:40Z</time>
      </trkpt>
      <trkpt lat="31.22988535768628" lon="121.3995478077264">
        <ele>16.667821744456887</ele>
        <time>2026-05-16T11:25:46Z</time>
      </trkpt>
      <trkpt lat="31.229737560813476" lon="121.39969900727607">
        <ele>17.86741433478892</ele>
        <time>2026-05-16T11:25:55Z</time>
      </trkpt>
      <trkpt lat="31.22970647049088" lon="121.39988686435986">
        <ele>17.682454923167825</ele>
        <time>2026-05-16T11:26:01Z</time>
      </trkpt>
      <trkpt lat="31.2297334757919" lon="121.40006688624284">
        <ele>17.7141626868397</ele>
        <time>2026-05-16T11:26:08Z</time>
      </trkpt>
      <trkpt lat="31.229786464416183" lon="121.40019189945494">
        <ele>17.835706571117043</ele>
        <time>2026-05-16T11:26:11Z</time>
      </trkpt>
      <trkpt lat="31.22986044341678" lon="121.40031191089564">
        <ele>17.97310815192759</ele>
        <time>2026-05-16T11:26:14Z</time>
      </trkpt>
      <trkpt lat="31.229970398576572" lon="121.40036590960389">
        <ele>18.232049802318215</ele>
        <time>2026-05-16T11:26:17Z</time>
      </trkpt>
      <trkpt lat="31.23017030426233" lon="121.40035289015486">
        <ele>19.495057919993997</ele>
        <time>2026-05-16T11:26:23Z</time>
      </trkpt>
      <trkpt lat="31.230548115054425" lon="121.40022983860295">
        <ele>18.22147927619517</ele>
        <time>2026-05-16T11:26:32Z</time>
      </trkpt>
      <trkpt lat="31.230814984875465" lon="121.40017080668639">
        <ele>6.981248715892434</ele>
        <time>2026-05-16T11:26:41Z</time>
      </trkpt>
      <trkpt lat="31.23097590516891" lon="121.40012278575699">
        <ele>14.971483090892434</ele>
        <time>2026-05-16T11:26:47Z</time>
      </trkpt>
      <trkpt lat="31.231100836434518" lon="121.40001776020422">
        <ele>17.97310815192759</ele>
        <time>2026-05-16T11:26:53Z</time>
      </trkpt>
      <trkpt lat="31.231215762420263" lon="121.39980172185307">
        <ele>17.877984860911965</ele>
        <time>2026-05-16T11:27:02Z</time>
      </trkpt>
      <trkpt lat="31.231228748972104" lon="121.39971871048728">
        <ele>18.20034203864634</ele>
        <time>2026-05-16T11:27:05Z</time>
      </trkpt>
      <trkpt lat="31.23119974998907" lon="121.3995716957807">
        <ele>17.77757821418345</ele>
        <time>2026-05-16T11:27:11Z</time>
      </trkpt>
      <trkpt lat="31.23100682144184" lon="121.39933568730889">
        <ele>17.48692880012095</ele>
        <time>2026-05-16T11:27:24Z</time>
      </trkpt>
      <trkpt lat="31.230818903489794" lon="121.39926269646602">
        <ele>18.665384152904153</ele>
        <time>2026-05-16T11:27:33Z</time>
      </trkpt>
      <trkpt lat="31.23075193494199" lon="121.39926870289173">
        <ele>17.317823270335793</ele>
        <time>2026-05-16T11:27:36Z</time>
      </trkpt>
      <trkpt lat="31.23053604198522" lon="121.399367731634">
        <ele>17.724733212962747</ele>
        <time>2026-05-16T11:27:45Z</time>
      </trkpt>
      <trkpt lat="31.230295155777657" lon="121.39939575554207">
        <ele>17.33896050788462</ele>
        <time>2026-05-16T11:27:54Z</time>
      </trkpt>
      <trkpt lat="31.230007296877858" lon="121.39949479122049">
        <ele>17.899122098460793</ele>
        <time>2026-05-16T11:28:03Z</time>
      </trkpt>
      <trkpt lat="31.2298853572863" lon="121.39954280716641">
        <ele>6.806856015697122</ele>
        <time>2026-05-16T11:28:09Z</time>
      </trkpt>
      <trkpt lat="31.229799402661943" lon="121.39960982227724">
        <ele>17.46579156257212</ele>
        <time>2026-05-16T11:28:12Z</time>
      </trkpt>
      <trkpt lat="31.229707466818244" lon="121.39985285988566">
        <ele>16.519857266917825</ele>
        <time>2026-05-16T11:28:21Z</time>
      </trkpt>
      <trkpt lat="31.22969948417221" lon="121.39999387917251">
        <ele>16.93205056525767</ele>
        <time>2026-05-16T11:28:27Z</time>
      </trkpt>
      <trkpt lat="31.2297784736175" lon="121.40024190751558">
        <ele>17.296686032786965</ele>
        <time>2026-05-16T11:28:36Z</time>
      </trkpt>
      <trkpt lat="31.229837454094007" lon="121.4003119129009">
        <ele>17.391805509105325</ele>
        <time>2026-05-16T11:28:39Z</time>
      </trkpt>
      <trkpt lat="31.230045365988943" lon="121.40038490602133">
        <ele>17.26497826911509</ele>
        <time>2026-05-16T11:28:48Z</time>
      </trkpt>
      <trkpt lat="31.230353214212197" lon="121.40030786730428">
        <ele>17.48692880012095</ele>
        <time>2026-05-16T11:29:00Z</time>
      </trkpt>
      <trkpt lat="31.230406186465252" lon="121.40027985844662">
        <ele>16.04424844123423</ele>
        <time>2026-05-16T11:29:03Z</time>
      </trkpt>
      <trkpt lat="31.23070104084551" lon="121.40019982084846">
        <ele>19.362943509593606</ele>
        <time>2026-05-16T11:29:15Z</time>
      </trkpt>
      <trkpt lat="31.231017878536132" lon="121.40005377239994">
        <ele>17.212133267894387</ele>
        <time>2026-05-16T11:29:27Z</time>
      </trkpt>
      <trkpt lat="31.23114580834736" lon="121.39994474643396">
        <ele>17.164571622386575</ele>
        <time>2026-05-16T11:29:33Z</time>
      </trkpt>
      <trkpt lat="31.23118078635988" lon="121.39988473549872">
        <ele>25.25521264411509</ele>
        <time>2026-05-16T11:29:36Z</time>
      </trkpt>
      <trkpt lat="31.23116776247039" lon="121.39954269530455">
        <ele>17.70359597541392</ele>
        <time>2026-05-16T11:29:57Z</time>
      </trkpt>
      <trkpt lat="31.23111777967968" lon="121.39946669131353">
        <ele>17.745870450511575</ele>
        <time>2026-05-16T11:30:03Z</time>
      </trkpt>
      <trkpt lat="31.231106780705847" lon="121.39941268652345">
        <ele>17.51334939338267</ele>
        <time>2026-05-16T11:30:06Z</time>
      </trkpt>
      <trkpt lat="31.230896831340953" lon="121.3992977222227">
        <ele>17.101156095042825</ele>
        <time>2026-05-16T11:30:21Z</time>
      </trkpt>
      <trkpt lat="31.230723949625833" lon="121.39929370778695">
        <ele>17.835706571117043</ele>
        <time>2026-05-16T11:30:30Z</time>
      </trkpt>
      <trkpt lat="31.23052704358912" lon="121.39933172875575">
        <ele>16.884488919749856</ele>
        <time>2026-05-16T11:30:39Z</time>
      </trkpt>
      <trkpt lat="31.230394110599672" lon="121.39940574795475">
        <ele>16.604410031810403</ele>
        <time>2026-05-16T11:30:51Z</time>
      </trkpt>
      <trkpt lat="31.230085260061422" lon="121.39948678354686">
        <ele>17.951967099681497</ele>
        <time>2026-05-16T11:31:03Z</time>
      </trkpt>
      <trkpt lat="31.229870365050374" lon="121.39955280959548">
        <ele>17.55562768317759</ele>
        <time>2026-05-16T11:31:12Z</time>
      </trkpt>
      <trkpt lat="31.229813395418372" lon="121.39960082002032">
        <ele>17.20684609748423</ele>
        <time>2026-05-16T11:31:15Z</time>
      </trkpt>
      <trkpt lat="31.229755429946806" lon="121.39969083563149">
        <ele>16.99546609260142</ele>
        <time>2026-05-16T11:31:18Z</time>
      </trkpt>
      <trkpt lat="31.229705472195462" lon="121.39989986614046">
        <ele>17.70359597541392</ele>
        <time>2026-05-16T11:31:27Z</time>
      </trkpt>
      <trkpt lat="31.229740479124242" lon="121.40012989451768">
        <ele>17.97310815192759</ele>
        <time>2026-05-16T11:31:33Z</time>
      </trkpt>
      <trkpt lat="31.22977947006682" lon="121.40021390328883">
        <ele>19.114568570628762</ele>
        <time>2026-05-16T11:31:36Z</time>
      </trkpt>
      <trkpt lat="31.22993441447203" lon="121.40035891165817">
        <ele>16.799936154857278</ele>
        <time>2026-05-16T11:31:46Z</time>
      </trkpt>
      <trkpt lat="31.230031372837505" lon="121.40038790771048">
        <ele>17.36009774543345</ele>
        <time>2026-05-16T11:31:49Z</time>
      </trkpt>
      <trkpt lat="31.23014631725512" lon="121.40036889472469">
        <ele>17.566198209300637</ele>
        <time>2026-05-16T11:31:52Z</time>
      </trkpt>
      <trkpt lat="31.23023427031901" lon="121.40031587889757">
        <ele>17.04831109382212</ele>
        <time>2026-05-16T11:31:55Z</time>
      </trkpt>
      <trkpt lat="31.230520128256153" lon="121.4002318413402">
        <ele>17.34953103400767</ele>
        <time>2026-05-16T11:32:04Z</time>
      </trkpt>
      <trkpt lat="31.23082198346932" lon="121.40018780854602">
        <ele>18.633676389232278</ele>
        <time>2026-05-16T11:32:13Z</time>
      </trkpt>
      <trkpt lat="31.23096391062191" lon="121.40012178666097">
        <ele>16.75766167975962</ele>
        <time>2026-05-16T11:32:19Z</time>
      </trkpt>
      <trkpt lat="31.231058859444484" lon="121.4000527686865">
        <ele>17.175138333812356</ele>
        <time>2026-05-16T11:32:25Z</time>
      </trkpt>
      <trkpt lat="31.231151806646245" lon="121.39995574737667">
        <ele>17.27554498054087</ele>
        <time>2026-05-16T11:32:28Z</time>
      </trkpt>
      <trkpt lat="31.23120377504656" lon="121.3998777325859">
        <ele>18.20034203864634</ele>
        <time>2026-05-16T11:32:31Z</time>
      </trkpt>
      <trkpt lat="31.231227754233984" lon="121.39977271719054">
        <ele>17.671888211742043</ele>
        <time>2026-05-16T11:32:34Z</time>
      </trkpt>
      <trkpt lat="31.231225745350443" lon="121.39966070381318">
        <ele>17.951967099681497</ele>
        <time>2026-05-16T11:32:37Z</time>
      </trkpt>
      <trkpt lat="31.231202748600065" lon="121.39957169551913">
        <ele>16.155221799388528</ele>
        <time>2026-05-16T11:32:40Z</time>
      </trkpt>
      <trkpt lat="31.231113778880793" lon="121.39943168791854">
        <ele>17.164571622386575</ele>
        <time>2026-05-16T11:32:46Z</time>
      </trkpt>
      <trkpt lat="31.230924856356147" lon="121.39929169006452">
        <ele>17.70359597541392</ele>
        <time>2026-05-16T11:32:55Z</time>
      </trkpt>
      <trkpt lat="31.230795914824295" lon="121.39927269944587">
        <ele>18.179204801097512</ele>
        <time>2026-05-16T11:33:01Z</time>
      </trkpt>
      <trkpt lat="31.23067697127059" lon="121.3992917116873">
        <ele>17.328389981761575</ele>
        <time>2026-05-16T11:33:07Z</time>
      </trkpt>
      <trkpt lat="31.23040610371324" lon="121.3993877450327">
        <ele>16.768228391185403</ele>
        <time>2026-05-16T11:33:19Z</time>
      </trkpt>
      <trkpt lat="31.23023218544139" lon="121.39940176166074">
        <ele>17.0060328040272</ele>
        <time>2026-05-16T11:33:28Z</time>
      </trkpt>
      <trkpt lat="31.22992233876009" lon="121.39952580204637">
        <ele>16.810506680980325</ele>
        <time>2026-05-16T11:33:44Z</time>
      </trkpt>
      <trkpt lat="31.229795404187985" lon="121.39960582216487">
        <ele>16.086522916331887</ele>
        <time>2026-05-16T11:33:50Z</time>
      </trkpt>
      <trkpt lat="31.22971145942406" lon="121.3997928519432">
        <ele>16.953187802806497</ele>
        <time>2026-05-16T11:33:56Z</time>
      </trkpt>
      <trkpt lat="31.229688478849425" lon="121.39988686592918">
        <ele>15.806440213695168</ele>
        <time>2026-05-16T11:33:59Z</time>
      </trkpt>
      <trkpt lat="31.229762477084442" lon="121.40020590359582">
        <ele>16.593839505687356</ele>
        <time>2026-05-16T11:34:11Z</time>
      </trkpt>
      <trkpt lat="31.229810461993925" lon="121.4002709090565">
        <ele>16.07066903449595</ele>
        <time>2026-05-16T11:34:14Z</time>
      </trkpt>
      <trkpt lat="31.229924419113576" lon="121.40035891253002">
        <ele>14.115384915843606</ele>
        <time>2026-05-16T11:34:20Z</time>
      </trkpt>
      <trkpt lat="31.229996388494175" lon="121.40038290998135">
        <ele>16.20806680060923</ele>
        <time>2026-05-16T11:34:23Z</time>
      </trkpt>
      <trkpt lat="31.230149313311365" lon="121.40034689106024">
        <ele>16.40359673835337</ele>
        <time>2026-05-16T11:34:33Z</time>
      </trkpt>
      <trkpt lat="31.230356216599652" lon="121.40034087208895">
        <ele>15.795873502269387</ele>
        <time>2026-05-16T11:34:39Z</time>
      </trkpt>
      <trkpt lat="31.230500144685482" lon="121.40029585266697">
        <ele>17.381238797679543</ele>
        <time>2026-05-16T11:34:45Z</time>
      </trkpt>
      <trkpt lat="31.23072602871502" lon="121.40019481793757">
        <ele>14.464166501536965</ele>
        <time>2026-05-16T11:34:51Z</time>
      </trkpt>
      <trkpt lat="31.231011885555432" lon="121.40009477865377">
        <ele>18.052373746410012</ele>
        <time>2026-05-16T11:35:00Z</time>
      </trkpt>
      <trkpt lat="31.231155802450754" lon="121.39993174383791">
        <ele>16.85278115607798</ele>
        <time>2026-05-16T11:35:06Z</time>
      </trkpt>
      <trkpt lat="31.231217757517832" lon="121.39975771620928">
        <ele>16.054815152660012</ele>
        <time>2026-05-16T11:35:12Z</time>
      </trkpt>
      <trkpt lat="31.231202751468025" lon="121.39960669951988">
        <ele>16.62554726935923</ele>
        <time>2026-05-16T11:35:18Z</time>
      </trkpt>
      <trkpt lat="31.231097784429657" lon="121.3994066866788">
        <ele>16.176359036937356</ele>
        <time>2026-05-16T11:35:27Z</time>
      </trkpt>
      <trkpt lat="31.23104380473005" lon="121.39934168468992">
        <ele>16.07066903449595</ele>
        <time>2026-05-16T11:35:30Z</time>
      </trkpt>
      <trkpt lat="31.230982829902544" lon="121.39929768560073">
        <ele>12.519452909007668</ele>
        <time>2026-05-16T11:35:33Z</time>
      </trkpt>
      <trkpt lat="31.230781919359714" lon="121.39924369785489">
        <ele>15.875142911449075</ele>
        <time>2026-05-16T11:35:42Z</time>
      </trkpt>
      <trkpt lat="31.230674972473043" lon="121.39929571225693">
        <ele>16.90562997199595</ele>
        <time>2026-05-16T11:35:48Z</time>
      </trkpt>
      <trkpt lat="31.23060600424855" lon="121.39929271797638">
        <ele>16.63083062507212</ele>
        <time>2026-05-16T11:35:51Z</time>
      </trkpt>
      <trkpt lat="31.230314144927778" lon="121.39936775098961">
        <ele>16.46701226569712</ele>
        <time>2026-05-16T11:36:06Z</time>
      </trkpt>
      <trkpt lat="31.22999030445671" lon="121.39949079226567">
        <ele>16.604410031810403</ele>
        <time>2026-05-16T11:36:21Z</time>
      </trkpt>
      <trkpt lat="31.229870365855867" lon="121.39956281072203">
        <ele>16.64668450690806</ele>
        <time>2026-05-16T11:36:27Z</time>
      </trkpt>
      <trkpt lat="31.229785412342085" lon="121.39964782792023">
        <ele>16.260911801829934</ele>
        <time>2026-05-16T11:36:34Z</time>
      </trkpt>
      <trkpt lat="31.229706465141323" lon="121.39982985703959">
        <ele>15.130018094554543</ele>
        <time>2026-05-16T11:36:40Z</time>
      </trkpt>
      <trkpt lat="31.229695482365372" lon="121.39995687454213">
        <ele>15.526361325755715</ele>
        <time>2026-05-16T11:36:46Z</time>
      </trkpt>
      <trkpt lat="31.229761473752067" lon="121.40017089858124">
        <ele>16.229207852855325</ele>
        <time>2026-05-16T11:36:52Z</time>
      </trkpt>
      <trkpt lat="31.22981345781162" lon="121.40024590505882">
        <ele>16.75766167975962</ele>
        <time>2026-05-16T11:36:55Z</time>
      </trkpt>
      <trkpt lat="31.229877434728632" lon="121.40030490834897">
        <ele>16.509286740794778</ele>
        <time>2026-05-16T11:36:58Z</time>
      </trkpt>
      <trkpt lat="31.22996439915866" lon="121.40034690718963">
        <ele>17.06944833137095</ele>
        <time>2026-05-16T11:37:01Z</time>
      </trkpt>
      <trkpt lat="31.230050361101206" lon="121.40036290216396">
        <ele>16.445871213451028</ele>
        <time>2026-05-16T11:37:04Z</time>
      </trkpt>
      <trkpt lat="31.23033322554296" lon="121.40032587179341">
        <ele>16.435304502025247</ele>
        <time>2026-05-16T11:37:16Z</time>
      </trkpt>
      <trkpt lat="31.230406191574197" lon="121.40032486527579">
        <ele>16.85278115607798</ele>
        <time>2026-05-16T11:37:19Z</time>
      </trkpt>
      <trkpt lat="31.230643069257635" lon="121.4002138279597">
        <ele>17.04831109382212</ele>
        <time>2026-05-16T11:37:28Z</time>
      </trkpt>
      <trkpt lat="31.23084997006251" lon="121.40018380552222">
        <ele>16.953187802806497</ele>
        <time>2026-05-16T11:37:34Z</time>
      </trkpt>
      <trkpt lat="31.231027874520365" lon="121.40005977236117">
        <ele>17.51334939338267</ele>
        <time>2026-05-16T11:37:43Z</time>
      </trkpt>
      <trkpt lat="31.231199774544553" lon="121.39985272971482">
        <ele>16.614976743236184</ele>
        <time>2026-05-16T11:37:52Z</time>
      </trkpt>
      <trkpt lat="31.231230752665017" lon="121.39977071668119">
        <ele>16.789369443431497</ele>
        <time>2026-05-16T11:37:55Z</time>
      </trkpt>
      <trkpt lat="31.231240741498343" lon="121.39969670678944">
        <ele>16.509286740794778</ele>
        <time>2026-05-16T11:37:58Z</time>
      </trkpt>
      <trkpt lat="31.23115476285287" lon="121.39947068851947">
        <ele>18.300748685374856</ele>
        <time>2026-05-16T11:38:07Z</time>
      </trkpt>
      <trkpt lat="31.231104781335837" lon="121.39940868627804">
        <ele>16.736524442210793</ele>
        <time>2026-05-16T11:38:10Z</time>
      </trkpt>
      <trkpt lat="31.230849887652045" lon="121.3992406916377">
        <ele>15.262132504954934</ele>
        <time>2026-05-16T11:38:22Z</time>
      </trkpt>
      <trkpt lat="31.230688967652252" lon="121.39931971342541">
        <ele>17.20684609748423</ele>
        <time>2026-05-16T11:38:37Z</time>
      </trkpt>
      <trkpt lat="31.230140229380588" lon="121.39941877146555">
        <ele>17.328389981761575</ele>
        <time>2026-05-16T11:39:01Z</time>
      </trkpt>
      <trkpt lat="31.230090285363598" lon="121.3994904133702">
        <ele>16.667821744456887</ele>
        <time>2026-05-16T11:39:04Z</time>
      </trkpt>
      <trkpt lat="31.230054272601198" lon="121.39946278365039">
        <ele>16.5515650305897</ele>
        <time>2026-05-16T11:39:10Z</time>
      </trkpt>
      <trkpt lat="31.229932334991677" lon="121.39953680239842">
        <ele>16.477578977122903</ele>
        <time>2026-05-16T11:39:16Z</time>
      </trkpt>
      <trkpt lat="31.229778423202287" lon="121.39973583906284">
        <ele>17.06944833137095</ele>
        <time>2026-05-16T11:39:25Z</time>
      </trkpt>
      <trkpt lat="31.22973445767959" lon="121.39988886217861">
        <ele>15.29384026862681</ele>
        <time>2026-05-16T11:39:31Z</time>
      </trkpt>
      <trkpt lat="31.229753464554747" lon="121.40004788186043">
        <ele>16.239774564281106</ele>
        <time>2026-05-16T11:39:37Z</time>
      </trkpt>
      <trkpt lat="31.229813452751323" lon="121.4001998982702">
        <ele>16.99546609260142</ele>
        <time>2026-05-16T11:39:43Z</time>
      </trkpt>
      <trkpt lat="31.22996939764769" lon="121.40035390783368">
        <ele>16.218637326732278</ele>
        <time>2026-05-16T11:39:52Z</time>
      </trkpt>
      <trkpt lat="31.230106339210835" lon="121.40039790273673">
        <ele>16.69424615241587</ele>
        <time>2026-05-16T11:39:58Z</time>
      </trkpt>
      <trkpt lat="31.230373206191175" lon="121.40031886723627">
        <ele>16.90562997199595</ele>
        <time>2026-05-16T11:40:10Z</time>
      </trkpt>
      <trkpt lat="31.230698043437407" lon="121.40021082272327">
        <ele>16.477578977122903</ele>
        <time>2026-05-16T11:40:25Z</time>
      </trkpt>
      <trkpt lat="31.230777005407578" lon="121.40019781392952">
        <ele>16.509286740794778</ele>
        <time>2026-05-16T11:40:28Z</time>
      </trkpt>
      <trkpt lat="31.23104086788349" lon="121.40005377039459">
        <ele>17.233270505443215</ele>
        <time>2026-05-16T11:40:37Z</time>
      </trkpt>
      <trkpt lat="31.231182782696767" lon="121.3998557315817">
        <ele>16.414163449779153</ele>
        <time>2026-05-16T11:40:46Z</time>
      </trkpt>
      <trkpt lat="31.231231747846394" lon="121.39972171058926">
        <ele>16.821073392406106</ele>
        <time>2026-05-16T11:40:49Z</time>
      </trkpt>
      <trkpt lat="31.231215745449095" lon="121.3996066983864">
        <ele>17.835706571117043</ele>
        <time>2026-05-16T11:40:52Z</time>
      </trkpt>
      <trkpt lat="31.231076786158816" lon="121.3992946771081">
        <ele>16.63083062507212</ele>
        <time>2026-05-16T11:41:04Z</time>
      </trkpt>
      <trkpt lat="31.2310278117153" lon="121.39933568547792">
        <ele>17.61904321052134</ele>
        <time>2026-05-16T11:41:07Z</time>
      </trkpt>
      <trkpt lat="31.230967495636474" lon="121.39946845837441">
        <ele>17.587335446849465</ele>
        <time>2026-05-16T11:41:13Z</time>
      </trkpt>
      <trkpt lat="31.230904692394752" lon="121.39945201442944">
        <ele>16.667821744456887</ele>
        <time>2026-05-16T11:41:16Z</time>
      </trkpt>
      <trkpt lat="31.230718133266656" lon="121.39928652757442">
        <ele>17.212133267894387</ele>
        <time>2026-05-16T11:41:22Z</time>
      </trkpt>
      <trkpt lat="31.23058900967965" lon="121.39925671593716">
        <ele>17.877984860911965</ele>
        <time>2026-05-16T11:41:31Z</time>
      </trkpt>
      <trkpt lat="31.23041209811639" lon="121.39934874050357">
        <ele>18.179204801097512</ele>
        <time>2026-05-16T11:41:38Z</time>
      </trkpt>
      <trkpt lat="31.23021119459529" lon="121.39939376265754">
        <ele>15.441808560863137</ele>
        <time>2026-05-16T11:41:47Z</time>
      </trkpt>
      <trkpt lat="31.229946327304326" lon="121.39952179951041">
        <ele>17.122293332591653</ele>
        <time>2026-05-16T11:41:59Z</time>
      </trkpt>
      <trkpt lat="31.229823393520835" lon="121.39963382296908">
        <ele>16.033677915111184</ele>
        <time>2026-05-16T11:42:05Z</time>
      </trkpt>
      <trkpt lat="31.229728452259245" lon="121.39980085146264">
        <ele>13.201158383861184</ele>
        <time>2026-05-16T11:42:11Z</time>
      </trkpt>
      <trkpt lat="31.229709483456674" lon="121.40003288362679">
        <ele>15.441808560863137</ele>
        <time>2026-05-16T11:42:20Z</time>
      </trkpt>
      <trkpt lat="31.229756474463095" lon="121.40015589685042">
        <ele>16.40359673835337</ele>
        <time>2026-05-16T11:42:26Z</time>
      </trkpt>
      <trkpt lat="31.22991142782836" lon="121.40038191723616">
        <ele>17.735303739085793</ele>
        <time>2026-05-16T11:42:35Z</time>
      </trkpt>
      <trkpt lat="31.23001538273625" lon="121.40040891239843">
        <ele>17.233270505443215</ele>
        <time>2026-05-16T11:42:38Z</time>
      </trkpt>
      <trkpt lat="31.230304242914414" lon="121.40035987955406">
        <ele>16.19750008918345</ele>
        <time>2026-05-16T11:42:50Z</time>
      </trkpt>
      <trkpt lat="31.23057310457022" lon="121.40023983790536">
        <ele>16.107660153880715</ele>
        <time>2026-05-16T11:43:02Z</time>
      </trkpt>
      <trkpt lat="31.23082398319415" lon="121.40019380924703">
        <ele>16.509286740794778</ele>
        <time>2026-05-16T11:43:15Z</time>
      </trkpt>
      <trkpt lat="31.23095491457994" lon="121.40011978716123">
        <ele>17.86741433478892</ele>
        <time>2026-05-16T11:43:21Z</time>
      </trkpt>
      <trkpt lat="31.23112382118831" lon="121.39997175196146">
        <ele>16.77879891730845</ele>
        <time>2026-05-16T11:43:27Z</time>
      </trkpt>
      <trkpt lat="31.231208767681583" lon="121.39982372523622">
        <ele>16.414163449779153</ele>
        <time>2026-05-16T11:43:33Z</time>
      </trkpt>
      <trkpt lat="31.23123074552224" lon="121.399689706823">
        <ele>16.1340845618397</ele>
        <time>2026-05-16T11:43:39Z</time>
      </trkpt>
      <trkpt lat="31.23122774147289" lon="121.39962569953887">
        <ele>16.799936154857278</ele>
        <time>2026-05-16T11:43:42Z</time>
      </trkpt>
      <trkpt lat="31.231126773537376" lon="121.39944068774163">
        <ele>16.98489556647837</ele>
        <time>2026-05-16T11:43:48Z</time>
      </trkpt>
      <trkpt lat="31.231037807508933" lon="121.39934168521306">
        <ele>18.04180703498423</ele>
        <time>2026-05-16T11:43:51Z</time>
      </trkpt>
      <trkpt lat="31.230956842569288" lon="121.39930668876099">
        <ele>18.83448968268931</ele>
        <time>2026-05-16T11:43:54Z</time>
      </trkpt>
      <trkpt lat="31.230634989234836" lon="121.3992697131903">
        <ele>17.28611550666392</ele>
        <time>2026-05-16T11:44:06Z</time>
      </trkpt>
      <trkpt lat="31.230501055150565" lon="121.39932473031828">
        <ele>17.434083798900247</ele>
        <time>2026-05-16T11:44:12Z</time>
      </trkpt>
      <trkpt lat="31.23037111806025" lon="121.39936174540473">
        <ele>21.714567044749856</ele>
        <time>2026-05-16T11:44:18Z</time>
      </trkpt>
      <trkpt lat="31.23031314395752" lon="121.39934774903344">
        <ele>16.604410031810403</ele>
        <time>2026-05-16T11:44:24Z</time>
      </trkpt>
      <trkpt lat="31.230233019093518" lon="121.39930210637282">
        <ele>16.477578977122903</ele>
        <time>2026-05-16T11:44:30Z</time>
      </trkpt>
      <trkpt lat="31.230140406994256" lon="121.39931947825906">
        <ele>16.884488919749856</ele>
        <time>2026-05-16T11:44:33Z</time>
      </trkpt>
      <trkpt lat="31.230000296899465" lon="121.39945278728435">
        <ele>16.789369443431497</ele>
        <time>2026-05-16T11:44:39Z</time>
      </trkpt>
      <trkpt lat="31.229941325579098" lon="121.3994697942574">
        <ele>16.99546609260142</ele>
        <time>2026-05-16T11:44:42Z</time>
      </trkpt>
      <trkpt lat="31.229740436998036" lon="121.39969183705892">
        <ele>16.64668450690806</ele>
        <time>2026-05-16T11:44:54Z</time>
      </trkpt>
      <trkpt lat="31.2297104579882" lon="121.39977184941725">
        <ele>16.176359036937356</ele>
        <time>2026-05-16T11:44:57Z</time>
      </trkpt>
      <trkpt lat="31.229634504593715" lon="121.3998938715479">
        <ele>15.700750211253762</ele>
        <time>2026-05-16T11:45:00Z</time>
      </trkpt>
      <trkpt lat="31.22971129547232" lon="121.39980329030881">
        <ele>16.33489785529673</ele>
        <time>2026-05-16T11:45:03Z</time>
      </trkpt>
      <trkpt lat="31.22962724328886" lon="121.39986452403777">
        <ele>16.27148232795298</ele>
        <time>2026-05-16T11:45:06Z</time>
      </trkpt>
      <trkpt lat="31.229628088337435" lon="121.39983526584145">
        <ele>16.736524442210793</ele>
        <time>2026-05-16T11:45:09Z</time>
      </trkpt>
      <trkpt lat="31.229763573092086" lon="121.39984326314897">
        <ele>16.736524442210793</ele>
        <time>2026-05-16T11:45:12Z</time>
      </trkpt>
      <trkpt lat="31.229846436452178" lon="121.40019089407791">
        <ele>17.51334939338267</ele>
        <time>2026-05-16T11:45:18Z</time>
      </trkpt>
      <trkpt lat="31.229907417413646" lon="121.40027490120036">
        <ele>16.93205056525767</ele>
        <time>2026-05-16T11:45:21Z</time>
      </trkpt>
      <trkpt lat="31.229999382222665" lon="121.40034090321447">
        <ele>17.080018857493997</ele>
        <time>2026-05-16T11:45:24Z</time>
      </trkpt>
      <trkpt lat="31.23019229848734" lon="121.40039089414252">
        <ele>16.93205056525767</ele>
        <time>2026-05-16T11:45:30Z</time>
      </trkpt>
      <trkpt lat="31.23040019264359" lon="121.40030986351069">
        <ele>16.614976743236184</ele>
        <time>2026-05-16T11:45:39Z</time>
      </trkpt>
      <trkpt lat="31.2305511199109" lon="121.40028584670887">
        <ele>16.604410031810403</ele>
        <time>2026-05-16T11:45:45Z</time>
      </trkpt>
      <trkpt lat="31.230612087490233" lon="121.40024883584343">
        <ele>16.456441739574075</ele>
        <time>2026-05-16T11:45:48Z</time>
      </trkpt>
      <trkpt lat="31.2307360271435" lon="121.4002228211773">
        <ele>16.92148003913462</ele>
        <time>2026-05-16T11:45:54Z</time>
      </trkpt>
      <trkpt lat="31.23101488312483" lon="121.40008477698632">
        <ele>17.101156095042825</ele>
        <time>2026-05-16T11:46:03Z</time>
      </trkpt>
      <trkpt lat="31.2311158286823" lon="121.40000975780363">
        <ele>16.519857266917825</ele>
        <time>2026-05-16T11:46:10Z</time>
      </trkpt>
      <trkpt lat="31.23122775513684" lon="121.39978271843253">
        <ele>17.51334939338267</ele>
        <time>2026-05-16T11:46:19Z</time>
      </trkpt>
      <trkpt lat="31.231209750896618" lon="121.39963870262362">
        <ele>16.667821744456887</ele>
        <time>2026-05-16T11:46:25Z</time>
      </trkpt>
      <trkpt lat="31.231145768873834" lon="121.39949469191347">
        <ele>13.438962796702981</ele>
        <time>2026-05-16T11:46:31Z</time>
      </trkpt>
      <trkpt lat="31.23094784743503" lon="121.39931669054326">
        <ele>16.77879891730845</ele>
        <time>2026-05-16T11:46:40Z</time>
      </trkpt>
      <trkpt lat="31.230638988745888" lon="121.39928971480313">
        <ele>17.476358273997903</ele>
        <time>2026-05-16T11:46:52Z</time>
      </trkpt>
      <trkpt lat="31.230511049187584" lon="121.39930572754756">
        <ele>16.218637326732278</ele>
        <time>2026-05-16T11:46:58Z</time>
      </trkpt>
      <trkpt lat="31.23045007971411" lon="121.39933773607497">
        <ele>17.36009774543345</ele>
        <time>2026-05-16T11:47:01Z</time>
      </trkpt>
      <trkpt lat="31.230168216687932" lon="121.39942276944619">
        <ele>17.243841031566262</ele>
        <time>2026-05-16T11:47:13Z</time>
      </trkpt>
      <trkpt lat="31.229905346492767" lon="121.39952380330666">
        <ele>13.127176145091653</ele>
        <time>2026-05-16T11:47:25Z</time>
      </trkpt>
      <trkpt lat="31.229832383981815" lon="121.39956881471352">
        <ele>16.414163449779153</ele>
        <time>2026-05-16T11:47:28Z</time>
      </trkpt>
      <trkpt lat="31.229770418379278" lon="121.39963682794006">
        <ele>16.540994504466653</ele>
        <time>2026-05-16T11:47:32Z</time>
      </trkpt>
      <trkpt lat="31.22973644024468" lon="121.39970783932935">
        <ele>16.963758328929543</ele>
        <time>2026-05-16T11:47:35Z</time>
      </trkpt>
      <trkpt lat="31.229720459289645" lon="121.39983685670879">
        <ele>15.753595212474465</ele>
        <time>2026-05-16T11:47:41Z</time>
      </trkpt>
      <trkpt lat="31.229678489671226" lon="121.39995087522362">
        <ele>16.810506680980325</ele>
        <time>2026-05-16T11:47:44Z</time>
      </trkpt>
      <trkpt lat="31.229685493284574" lon="121.40001988393496">
        <ele>16.93205056525767</ele>
        <time>2026-05-16T11:47:50Z</time>
      </trkpt>
      <trkpt lat="31.229819454139285" lon="121.40023790334709">
        <ele>17.597902158275247</ele>
        <time>2026-05-16T11:47:59Z</time>
      </trkpt>
      <trkpt lat="31.229952406930835" lon="121.40036591117324">
        <ele>17.254407742992043</ele>
        <time>2026-05-16T11:48:02Z</time>
      </trkpt>
      <trkpt lat="31.230023378905425" lon="121.4004079115436">
        <ele>14.4271753821522</ele>
        <time>2026-05-16T11:48:05Z</time>
      </trkpt>
      <trkpt lat="31.23016731126235" lon="121.40040089788894">
        <ele>16.736524442210793</ele>
        <time>2026-05-16T11:48:11Z</time>
      </trkpt>
      <trkpt lat="31.230466160449705" lon="121.40029585563134">
        <ele>16.519857266917825</ele>
        <time>2026-05-16T11:48:23Z</time>
      </trkpt>
      <trkpt lat="31.23069404726896" lon="121.40022882572562">
        <ele>16.382459500804543</ele>
        <time>2026-05-16T11:48:36Z</time>
      </trkpt>
      <trkpt lat="31.230762009973493" lon="121.40017581203226">
        <ele>16.91619668342173</ele>
        <time>2026-05-16T11:48:39Z</time>
      </trkpt>
      <trkpt lat="31.23086096464141" lon="121.40018080412679">
        <ele>16.91619668342173</ele>
        <time>2026-05-16T11:48:42Z</time>
      </trkpt>
      <trkpt lat="31.231018881272153" lon="121.40008477663757">
        <ele>14.147092679515481</ele>
        <time>2026-05-16T11:48:48Z</time>
      </trkpt>
      <trkpt lat="31.23114880823182" lon="121.39995774790543">
        <ele>15.721891263499856</ele>
        <time>2026-05-16T11:48:54Z</time>
      </trkpt>
      <trkpt lat="31.231244746724098" lon="121.39977671620447">
        <ele>16.7153833899647</ele>
        <time>2026-05-16T11:49:00Z</time>
      </trkpt>
      <trkpt lat="31.231243738986098" lon="121.39968370497299">
        <ele>15.262132504954934</ele>
        <time>2026-05-16T11:49:03Z</time>
      </trkpt>
      <trkpt lat="31.23120274714622" lon="121.39955369348662">
        <ele>16.086522916331887</ele>
        <time>2026-05-16T11:49:09Z</time>
      </trkpt>
      <trkpt lat="31.231106780261836" lon="121.39940668589409">
        <ele>16.477578977122903</ele>
        <time>2026-05-16T11:49:15Z</time>
      </trkpt>
      <trkpt lat="31.230978832170447" lon="121.39930368654457">
        <ele>16.64668450690806</ele>
        <time>2026-05-16T11:49:21Z</time>
      </trkpt>
      <trkpt lat="31.230749934455407" lon="121.3992477010301">
        <ele>17.36009774543345</ele>
        <time>2026-05-16T11:49:30Z</time>
      </trkpt>
      <trkpt lat="31.230644983654678" lon="121.39925571095777">
        <ele>25.413749555125833</ele>
        <time>2026-05-16T11:49:36Z</time>
      </trkpt>
      <trkpt lat="31.230597010085102" lon="121.39931672114643">
        <ele>16.165792325511575</ele>
        <time>2026-05-16T11:49:39Z</time>
      </trkpt>
      <trkpt lat="31.23037711981929" lon="121.39942375132975">
        <ele>16.456441739574075</ele>
        <time>2026-05-16T11:49:51Z</time>
      </trkpt>
      <trkpt lat="31.230172217698062" lon="121.39946077314715">
        <ele>16.250345090404153</ele>
        <time>2026-05-16T11:50:00Z</time>
      </trkpt>
      <trkpt lat="31.230083258231417" lon="121.3994507798337">
        <ele>16.75766167975962</ele>
        <time>2026-05-16T11:50:06Z</time>
      </trkpt>
      <trkpt lat="31.229946325890275" lon="121.39950379752513">
        <ele>16.345464566722512</ele>
        <time>2026-05-16T11:50:15Z</time>
      </trkpt>
      <trkpt lat="31.229897351875902" lon="121.39954480634401">
        <ele>16.99546609260142</ele>
        <time>2026-05-16T11:50:18Z</time>
      </trkpt>
      <trkpt lat="31.22981940223245" lon="121.39971383281707">
        <ele>17.22269997932017</ele>
        <time>2026-05-16T11:50:21Z</time>
      </trkpt>
      <trkpt lat="31.22975244011377" lon="121.3997898479939">
        <ele>16.40359673835337</ele>
        <time>2026-05-16T11:50:24Z</time>
      </trkpt>
      <trkpt lat="31.229715465173534" lon="121.3998748620199">
        <ele>16.5515650305897</ele>
        <time>2026-05-16T11:50:27Z</time>
      </trkpt>
      <trkpt lat="31.22969848795591" lon="121.40002688376123">
        <ele>15.980832913890481</ele>
        <time>2026-05-16T11:50:33Z</time>
      </trkpt>
      <trkpt lat="31.229758475576148" lon="121.4001748994226">
        <ele>16.509286740794778</ele>
        <time>2026-05-16T11:50:39Z</time>
      </trkpt>
      <trkpt lat="31.22985644641541" lon="121.4003219127696">
        <ele>16.123514035716653</ele>
        <time>2026-05-16T11:50:46Z</time>
      </trkpt>
      <trkpt lat="31.230015382499825" lon="121.40040691208381">
        <ele>16.62554726935923</ele>
        <time>2026-05-16T11:50:52Z</time>
      </trkpt>
      <trkpt lat="31.230137326717426" lon="121.4004139025492">
        <ele>15.06660638190806</ele>
        <time>2026-05-16T11:50:58Z</time>
      </trkpt>
      <trkpt lat="31.23025126749791" lon="121.40035988417496">
        <ele>16.519857266917825</ele>
        <time>2026-05-16T11:51:01Z</time>
      </trkpt>
      <trkpt lat="31.23050714177997" lon="121.40029885251114">
        <ele>16.054815152660012</ele>
        <time>2026-05-16T11:51:13Z</time>
      </trkpt>
      <trkpt lat="31.230830980931028" lon="121.40020280995333">
        <ele>16.06538567878306</ele>
        <time>2026-05-16T11:51:28Z</time>
      </trkpt>
      <trkpt lat="31.231046869762565" lon="121.40009877616598">
        <ele>16.414163449779153</ele>
        <time>2026-05-16T11:51:40Z</time>
      </trkpt>
      <trkpt lat="31.2311398174681" lon="121.40000875557473">
        <ele>17.28611550666392</ele>
        <time>2026-05-16T11:51:43Z</time>
      </trkpt>
      <trkpt lat="31.231246750643148" lon="121.39982972268363">
        <ele>16.863351682201028</ele>
        <time>2026-05-16T11:51:49Z</time>
      </trkpt>
      <trkpt lat="31.231209748558264" lon="121.39961069937087">
        <ele>10.828397611156106</ele>
        <time>2026-05-16T11:51:55Z</time>
      </trkpt>
      <trkpt lat="31.231132771212007" lon="121.39944668785854">
        <ele>16.97432885505259</ele>
        <time>2026-05-16T11:52:01Z</time>
      </trkpt>
      <trkpt lat="31.231077792004456" lon="121.3993836860275">
        <ele>16.414163449779153</ele>
        <time>2026-05-16T11:52:04Z</time>
      </trkpt>
      <trkpt lat="31.230918859549185" lon="121.39929769118083">
        <ele>17.33896050788462</ele>
        <time>2026-05-16T11:52:10Z</time>
      </trkpt>
      <trkpt lat="31.230703957594073" lon="121.39927470766274">
        <ele>16.445871213451028</ele>
        <time>2026-05-16T11:52:19Z</time>
      </trkpt>
      <trkpt lat="31.230455076408575" lon="121.3993237342285">
        <ele>16.324327329173684</ele>
        <time>2026-05-16T11:52:31Z</time>
      </trkpt>
      <trkpt lat="31.230202199137448" lon="121.39939876396315">
        <ele>15.658475736156106</ele>
        <time>2026-05-16T11:52:46Z</time>
      </trkpt>
      <trkpt lat="31.230017287876482" lon="121.39943778420086">
        <ele>16.155221799388528</ele>
        <time>2026-05-16T11:52:56Z</time>
      </trkpt>
      <trkpt lat="31.229967310705675" lon="121.399432788029">
        <ele>15.42067132331431</ele>
        <time>2026-05-16T11:52:59Z</time>
      </trkpt>
      <trkpt lat="31.22991933426618" lon="121.39944979402519">
        <ele>16.123514035716653</ele>
        <time>2026-05-16T11:53:02Z</time>
      </trkpt>
      <trkpt lat="31.229751436269822" lon="121.39974184214975">
        <ele>16.456441739574075</ele>
        <time>2026-05-16T11:53:11Z</time>
      </trkpt>
      <trkpt lat="31.229719465503265" lon="121.39989786465877">
        <ele>15.949125150218606</ele>
        <time>2026-05-16T11:53:17Z</time>
      </trkpt>
      <trkpt lat="31.229743469709714" lon="121.40005288342483">
        <ele>16.086522916331887</ele>
        <time>2026-05-16T11:53:23Z</time>
      </trkpt>
      <trkpt lat="31.229870434813435" lon="121.40027690472695">
        <ele>15.93855462409556</ele>
        <time>2026-05-16T11:53:32Z</time>
      </trkpt>
      <trkpt lat="31.229946407513022" lon="121.40034690875896">
        <ele>16.530423978343606</ele>
        <time>2026-05-16T11:53:35Z</time>
      </trkpt>
      <trkpt lat="31.230090344873318" lon="121.40038290178587">
        <ele>16.239774564281106</ele>
        <time>2026-05-16T11:53:41Z</time>
      </trkpt>
      <trkpt lat="31.230274256017793" lon="121.40035288108747">
        <ele>16.218637326732278</ele>
        <time>2026-05-16T11:53:50Z</time>
      </trkpt>
      <trkpt lat="31.230375202081667" lon="121.40029086280894">
        <ele>15.832864621654153</ele>
        <time>2026-05-16T11:53:56Z</time>
      </trkpt>
      <trkpt lat="31.230690049233107" lon="121.40022982622229">
        <ele>14.860509732738137</ele>
        <time>2026-05-16T11:54:08Z</time>
      </trkpt>
      <trkpt lat="31.230928930020845" lon="121.40015179400432">
        <ele>15.531644681468606</ele>
        <time>2026-05-16T11:54:20Z</time>
      </trkpt>
      <trkpt lat="31.231107835525698" lon="121.40004076275429">
        <ele>15.108880857005715</ele>
        <time>2026-05-16T11:54:27Z</time>
      </trkpt>
      <trkpt lat="31.231193777603615" lon="121.3998557306226">
        <ele>15.20400414802134</ele>
        <time>2026-05-16T11:54:39Z</time>
      </trkpt>
      <trkpt lat="31.23116476799113" lon="121.3995937013396">
        <ele>14.601564267650247</ele>
        <time>2026-05-16T11:54:48Z</time>
      </trkpt>
      <trkpt lat="31.231112780246754" lon="121.39944368928207">
        <ele>15.764165738597512</ele>
        <time>2026-05-16T11:54:54Z</time>
      </trkpt>
      <trkpt lat="31.23101481816162" lon="121.39934168721841">
        <ele>15.864572385326028</ele>
        <time>2026-05-16T11:55:00Z</time>
      </trkpt>
      <trkpt lat="31.230957842106065" lon="121.39930668867379">
        <ele>16.176359036937356</ele>
        <time>2026-05-16T11:55:03Z</time>
      </trkpt>
      <trkpt lat="31.230957842106065" lon="121.39930668867379">
        <ele>15.575711971148849</ele>
        <time>2026-05-16T11:55:05Z</time>
      </trkpt>
    </trkseg>
  </trk>
</gpx>