<?xml version="1.0" encoding="UTF-8"?>
<gpx xmlns="http://www.topografix.com/GPX/1/1" xmlns:gpxtpx="http://www.garmin.com/xmlschemas/TrackPointExtension/v1" xmlns:xsi="http://www.w3.org/2001/XMLSchema-instance" xsi:schemaLocation="http://www.topografix.com/GPX/1/1 http://www.topografix.com/GPX/1/1/gpx.xsd" version="1.1" creator="gpx.py -- https://github.com/tkrajina/gpxpy">
  <trk>
    <name>gpx from keep</name>
    <type>Run</type>
    <trkseg>
      <trkpt lat="32.051959975083335" lon="118.80368245730111">
        <ele>14.240955783985555</ele>
        <time>2026-10-04T10:26:10Z</time>
      </trkpt>
      <trkpt lat="32.051931118361914" lon="118.80376862965365">
        <ele>17.68648190703243</ele>
        <time>2026-10-04T10:26:43Z</time>
      </trkpt>
      <trkpt lat="32.05189960650294" lon="118.8040531938239">
        <ele>13.934452488087118</ele>
        <time>2026-10-04T10:26:52Z</time>
      </trkpt>
      <trkpt lat="32.051918848329485" lon="118.80418946130283">
        <ele>14.378353550098836</ele>
        <time>2026-10-04T10:26:55Z</time>
      </trkpt>
      <trkpt lat="32.05197002057841" lon="118.80428163890886">
        <ele>12.729576542042196</ele>
        <time>2026-10-04T10:26:58Z</time>
      </trkpt>
      <trkpt lat="32.05204918343876" lon="118.80436479622597">
        <ele>14.013721897266805</ele>
        <time>2026-10-04T10:27:01Z</time>
      </trkpt>
      <trkpt lat="32.05214030528625" lon="118.80442290293465">
        <ele>14.20396466460079</ele>
        <time>2026-10-04T10:27:04Z</time>
      </trkpt>
      <trkpt lat="32.052471536773226" lon="118.80451305118184">
        <ele>13.226322605274618</ele>
        <time>2026-10-04T10:27:16Z</time>
      </trkpt>
      <trkpt lat="32.05278078624184" lon="118.80461622741772">
        <ele>13.363720371387899</ele>
        <time>2026-10-04T10:27:28Z</time>
      </trkpt>
      <trkpt lat="32.05302096780387" lon="118.80468935049542">
        <ele>13.839333011768758</ele>
        <time>2026-10-04T10:27:37Z</time>
      </trkpt>
      <trkpt lat="32.05310099966979" lon="118.80469735905362">
        <ele>11.910473301075399</ele>
        <time>2026-10-04T10:27:40Z</time>
      </trkpt>
      <trkpt lat="32.053177988746356" lon="118.80468132015781">
        <ele>11.487709476612508</ele>
        <time>2026-10-04T10:27:43Z</time>
      </trkpt>
      <trkpt lat="32.053305838340286" lon="118.8045791056403">
        <ele>13.569820835255086</ele>
        <time>2026-10-04T10:27:49Z</time>
      </trkpt>
      <trkpt lat="32.05339058566192" lon="118.80442379003826">
        <ele>13.950306369923055</ele>
        <time>2026-10-04T10:27:55Z</time>
      </trkpt>
      <trkpt lat="32.05341042381174" lon="118.80432859974452">
        <ele>13.881607486866415</ele>
        <time>2026-10-04T10:27:58Z</time>
      </trkpt>
      <trkpt lat="32.05340621128581" lon="118.80420736028978">
        <ele>13.26860089506954</ele>
        <time>2026-10-04T10:28:01Z</time>
      </trkpt>
      <trkpt lat="32.05338001153332" lon="118.80409614288581">
        <ele>13.236893131397665</ele>
        <time>2026-10-04T10:28:04Z</time>
      </trkpt>
      <trkpt lat="32.05333686925451" lon="118.80401999646452">
        <ele>14.20396466460079</ele>
        <time>2026-10-04T10:28:07Z</time>
      </trkpt>
      <trkpt lat="32.05320065401385" lon="118.80391379939155">
        <ele>14.367786838673055</ele>
        <time>2026-10-04T10:28:13Z</time>
      </trkpt>
      <trkpt lat="32.0528723909165" lon="118.80380461422881">
        <ele>13.881607486866415</ele>
        <time>2026-10-04T10:28:25Z</time>
      </trkpt>
      <trkpt lat="32.05271926971147" lon="118.80375452959139">
        <ele>12.903965427540243</ele>
        <time>2026-10-04T10:28:31Z</time>
      </trkpt>
      <trkpt lat="32.0525381649277" lon="118.80371747321676">
        <ele>12.782421543262899</ele>
        <time>2026-10-04T10:28:40Z</time>
      </trkpt>
      <trkpt lat="32.05243404599751" lon="118.80366237428741">
        <ele>11.535267307423055</ele>
        <time>2026-10-04T10:28:43Z</time>
      </trkpt>
      <trkpt lat="32.05221390645626" lon="118.8036102919848">
        <ele>14.33607907500118</ele>
        <time>2026-10-04T10:28:52Z</time>
      </trkpt>
      <trkpt lat="32.05204591421572" lon="118.80363635868383">
        <ele>13.041363193653524</ele>
        <time>2026-10-04T10:28:58Z</time>
      </trkpt>
      <trkpt lat="32.051978982803625" lon="118.80368445949951">
        <ele>13.453560306690633</ele>
        <time>2026-10-04T10:29:01Z</time>
      </trkpt>
      <trkpt lat="32.051883205220825" lon="118.80382474462525">
        <ele>13.464127018116415</ele>
        <time>2026-10-04T10:29:07Z</time>
      </trkpt>
      <trkpt lat="32.05185633691516" lon="118.80390390316306">
        <ele>12.158844425342977</ele>
        <time>2026-10-04T10:29:10Z</time>
      </trkpt>
      <trkpt lat="32.05185550416789" lon="118.80400009303101">
        <ele>13.485268070362508</ele>
        <time>2026-10-04T10:29:13Z</time>
      </trkpt>
      <trkpt lat="32.05190385547058" lon="118.80419547456593">
        <ele>12.243397190235555</ele>
        <time>2026-10-04T10:29:19Z</time>
      </trkpt>
      <trkpt lat="32.05195001086861" lon="118.80427863480044">
        <ele>13.701931430958211</ele>
        <time>2026-10-04T10:29:22Z</time>
      </trkpt>
      <trkpt lat="32.05201815726931" lon="118.8043537772571">
        <ele>13.601528598926961</ele>
        <time>2026-10-04T10:29:26Z</time>
      </trkpt>
      <trkpt lat="32.05209325627837" lon="118.80440086359977">
        <ele>11.059658481739461</ele>
        <time>2026-10-04T10:29:29Z</time>
      </trkpt>
      <trkpt lat="32.05238746372167" lon="118.80448199734612">
        <ele>12.687298252247274</ele>
        <time>2026-10-04T10:29:41Z</time>
      </trkpt>
      <trkpt lat="32.05268971685248" lon="118.80458818013545">
        <ele>13.432423069141805</ele>
        <time>2026-10-04T10:29:53Z</time>
      </trkpt>
      <trkpt lat="32.05295790989536" lon="118.80466430657223">
        <ele>12.655594303272665</ele>
        <time>2026-10-04T10:30:05Z</time>
      </trkpt>
      <trkpt lat="32.05332803620153" lon="118.8046893222819">
        <ele>-0.6826053122058511</ele>
        <time>2026-10-04T10:30:17Z</time>
      </trkpt>
      <trkpt lat="32.053453263447416" lon="118.80467415529046">
        <ele>13.860470249317586</ele>
        <time>2026-10-04T10:30:20Z</time>
      </trkpt>
      <trkpt lat="32.053424875367604" lon="118.80458510662592">
        <ele>13.173477604053915</ele>
        <time>2026-10-04T10:30:23Z</time>
      </trkpt>
      <trkpt lat="32.05345053949144" lon="118.80438971705989">
        <ele>13.797054721973836</ele>
        <time>2026-10-04T10:30:29Z</time>
      </trkpt>
      <trkpt lat="32.053435153071675" lon="118.80417028433752">
        <ele>12.095432712696493</ele>
        <time>2026-10-04T10:30:35Z</time>
      </trkpt>
      <trkpt lat="32.05339597842156" lon="118.80407509985514">
        <ele>12.428356601856649</ele>
        <time>2026-10-04T10:30:38Z</time>
      </trkpt>
      <trkpt lat="32.05334384114206" lon="118.80400296219784">
        <ele>13.643803074024618</ele>
        <time>2026-10-04T10:30:41Z</time>
      </trkpt>
      <trkpt lat="32.05327071321261" lon="118.80393884236848">
        <ele>12.534046604298055</ele>
        <time>2026-10-04T10:30:44Z</time>
      </trkpt>
      <trkpt lat="32.0531796249208" lon="118.8038997736561">
        <ele>14.024292423389852</ele>
        <time>2026-10-04T10:30:47Z</time>
      </trkpt>
      <trkpt lat="32.053073571660974" lon="118.80388274980959">
        <ele>13.390144779346883</ele>
        <time>2026-10-04T10:30:50Z</time>
      </trkpt>
      <trkpt lat="32.052869374566754" lon="118.80379559673533">
        <ele>13.664940311573446</ele>
        <time>2026-10-04T10:30:56Z</time>
      </trkpt>
      <trkpt lat="32.05255417197732" lon="118.80371947569208">
        <ele>13.432423069141805</ele>
        <time>2026-10-04T10:31:08Z</time>
      </trkpt>
      <trkpt lat="32.0522639471831" lon="118.80362732090158">
        <ele>12.296242191456258</ele>
        <time>2026-10-04T10:31:20Z</time>
      </trkpt>
      <trkpt lat="32.05217791408344" lon="118.80361931303533">
        <ele>13.871036960743368</ele>
        <time>2026-10-04T10:31:23Z</time>
      </trkpt>
      <trkpt lat="32.0520359728926" lon="118.8036714286201">
        <ele>11.651527835987508</ele>
        <time>2026-10-04T10:31:29Z</time>
      </trkpt>
      <trkpt lat="32.05191314047581" lon="118.80378366091723">
        <ele>12.814129306934774</ele>
        <time>2026-10-04T10:31:35Z</time>
      </trkpt>
      <trkpt lat="32.05187824767733" lon="118.80384979445854">
        <ele>13.083641483448446</ele>
        <time>2026-10-04T10:31:39Z</time>
      </trkpt>
      <trkpt lat="32.05186137291067" lon="118.80392394222768">
        <ele>11.63039059843868</ele>
        <time>2026-10-04T10:31:42Z</time>
      </trkpt>
      <trkpt lat="32.051861524705096" lon="118.80401111423437">
        <ele>13.26860089506954</ele>
        <time>2026-10-04T10:31:45Z</time>
      </trkpt>
      <trkpt lat="32.05191484918496" lon="118.80419046365117">
        <ele>11.186489536426961</ele>
        <time>2026-10-04T10:31:51Z</time>
      </trkpt>
      <trkpt lat="32.05202912122096" lon="118.80433173261629">
        <ele>12.893398716114461</ele>
        <time>2026-10-04T10:31:57Z</time>
      </trkpt>
      <trkpt lat="32.052281392781936" lon="118.80445495348748">
        <ele>11.360878421925008</ele>
        <time>2026-10-04T10:32:09Z</time>
      </trkpt>
      <trkpt lat="32.05260670711721" lon="118.80459319769896">
        <ele>13.20518536772579</ele>
        <time>2026-10-04T10:32:24Z</time>
      </trkpt>
      <trkpt lat="32.05289489410071" lon="118.80466331037364">
        <ele>12.803558780811727</ele>
        <time>2026-10-04T10:32:36Z</time>
      </trkpt>
      <trkpt lat="32.053074014715506" lon="118.80470938540216">
        <ele>12.91453595366329</ele>
        <time>2026-10-04T10:32:42Z</time>
      </trkpt>
      <trkpt lat="32.053212977241536" lon="118.80467029506772">
        <ele>12.740147068165243</ele>
        <time>2026-10-04T10:32:48Z</time>
      </trkpt>
      <trkpt lat="32.05335374560496" lon="118.80451998402494">
        <ele>9.416164829395711</ele>
        <time>2026-10-04T10:32:57Z</time>
      </trkpt>
      <trkpt lat="32.05340156359593" lon="118.80440976124578">
        <ele>12.903965427540243</ele>
        <time>2026-10-04T10:33:00Z</time>
      </trkpt>
      <trkpt lat="32.0534112700975" lon="118.80424042521287">
        <ele>13.49583478178829</ele>
        <time>2026-10-04T10:33:06Z</time>
      </trkpt>
      <trkpt lat="32.053372943613425" lon="118.8040580683306">
        <ele>12.327949955128133</ele>
        <time>2026-10-04T10:33:12Z</time>
      </trkpt>
      <trkpt lat="32.05325670660515" lon="118.80393683970203">
        <ele>12.534046604298055</ele>
        <time>2026-10-04T10:33:18Z</time>
      </trkpt>
      <trkpt lat="32.05297246025291" lon="118.80383165835278">
        <ele>12.655594303272665</ele>
        <time>2026-10-04T10:33:30Z</time>
      </trkpt>
      <trkpt lat="32.05268127691638" lon="118.80376355084736">
        <ele>12.85112042631954</ele>
        <time>2026-10-04T10:33:42Z</time>
      </trkpt>
      <trkpt lat="32.05240507085939" lon="118.80368041245295">
        <ele>-8.070399806834757</ele>
        <time>2026-10-04T10:33:54Z</time>
      </trkpt>
      <trkpt lat="32.05226094999371" lon="118.80362932512033">
        <ele>12.803558780811727</ele>
        <time>2026-10-04T10:34:00Z</time>
      </trkpt>
      <trkpt lat="32.05206696066383" lon="118.80366040407736">
        <ele>13.083641483448446</ele>
        <time>2026-10-04T10:34:09Z</time>
      </trkpt>
      <trkpt lat="32.051938154764436" lon="118.8037886684899">
        <ele>13.69136471953243</ele>
        <time>2026-10-04T10:34:15Z</time>
      </trkpt>
      <trkpt lat="32.0518693851608" lon="118.80392995335094">
        <ele>10.99095959868282</ele>
        <time>2026-10-04T10:34:21Z</time>
      </trkpt>
      <trkpt lat="32.05187463060876" lon="118.80407022975828">
        <ele>12.327949955128133</ele>
        <time>2026-10-04T10:34:27Z</time>
      </trkpt>
      <trkpt lat="32.05190784762313" lon="118.8041904642945">
        <ele>12.56575436796993</ele>
        <time>2026-10-04T10:34:30Z</time>
      </trkpt>
      <trkpt lat="32.05202413060548" lon="118.80433774497409">
        <ele>11.28160901274532</ele>
        <time>2026-10-04T10:34:36Z</time>
      </trkpt>
      <trkpt lat="32.05229841058724" lon="118.80446296780549">
        <ele>12.428356601856649</ele>
        <time>2026-10-04T10:34:48Z</time>
      </trkpt>
      <trkpt lat="32.0525025822437" lon="118.80453509202674">
        <ele>12.449493839405477</ele>
        <time>2026-10-04T10:34:57Z</time>
      </trkpt>
      <trkpt lat="32.05277283357437" lon="118.80464428381065">
        <ele>12.481201603077352</ele>
        <time>2026-10-04T10:35:09Z</time>
      </trkpt>
      <trkpt lat="32.05304401680713" lon="118.80471439810451">
        <ele>12.222259952686727</ele>
        <time>2026-10-04T10:35:21Z</time>
      </trkpt>
      <trkpt lat="32.05313101863984" lon="118.80470437021891">
        <ele>12.872257663868368</ele>
        <time>2026-10-04T10:35:24Z</time>
      </trkpt>
      <trkpt lat="32.05325192627853" lon="118.80463622388649">
        <ele>11.297462894581258</ele>
        <time>2026-10-04T10:35:31Z</time>
      </trkpt>
      <trkpt lat="32.053357728970695" lon="118.80450996379771">
        <ele>12.069008304737508</ele>
        <time>2026-10-04T10:35:37Z</time>
      </trkpt>
      <trkpt lat="32.05342638363217" lon="118.80430354870451">
        <ele>13.363720371387899</ele>
        <time>2026-10-04T10:35:43Z</time>
      </trkpt>
      <trkpt lat="32.05341110928103" lon="118.80414824297799">
        <ele>12.803558780811727</ele>
        <time>2026-10-04T10:35:46Z</time>
      </trkpt>
      <trkpt lat="32.05335689465674" lon="118.80403201836315">
        <ele>12.602749302051961</ele>
        <time>2026-10-04T10:35:49Z</time>
      </trkpt>
      <trkpt lat="32.05329176150399" lon="118.8039638898596">
        <ele>11.82592053618282</ele>
        <time>2026-10-04T10:35:52Z</time>
      </trkpt>
      <trkpt lat="32.05299652312159" lon="118.80386472132683">
        <ele>11.027950718067586</ele>
        <time>2026-10-04T10:36:04Z</time>
      </trkpt>
      <trkpt lat="32.05292950993399" lon="118.8038657294607">
        <ele>12.999088718555868</ele>
        <time>2026-10-04T10:36:07Z</time>
      </trkpt>
      <trkpt lat="32.05260220705676" lon="118.80373349890387">
        <ele>9.881206943653524</ele>
        <time>2026-10-04T10:36:19Z</time>
      </trkpt>
      <trkpt lat="32.05233297475071" lon="118.80363432835993">
        <ele>11.456001712940633</ele>
        <time>2026-10-04T10:36:28Z</time>
      </trkpt>
      <trkpt lat="32.05218791631393" lon="118.80361931211613">
        <ele>12.687298252247274</ele>
        <time>2026-10-04T10:36:34Z</time>
      </trkpt>
      <trkpt lat="32.052041970750196" lon="118.80366942412422">
        <ele>11.878765537403524</ele>
        <time>2026-10-04T10:36:40Z</time>
      </trkpt>
      <trkpt lat="32.051975046325886" lon="118.80372153285822">
        <ele>12.33323712553829</ele>
        <time>2026-10-04T10:36:43Z</time>
      </trkpt>
      <trkpt lat="32.051881237888566" lon="118.80384378233217">
        <ele>11.725513889454305</ele>
        <time>2026-10-04T10:36:49Z</time>
      </trkpt>
      <trkpt lat="32.051858468190595" lon="118.80397905122885">
        <ele>10.63689465727657</ele>
        <time>2026-10-04T10:36:55Z</time>
      </trkpt>
      <trkpt lat="32.05187973827142" lon="118.80413135003378">
        <ele>12.97795148100704</ele>
        <time>2026-10-04T10:37:01Z</time>
      </trkpt>
      <trkpt lat="32.0519459714972" lon="118.80425659156482">
        <ele>12.771854831837118</ele>
        <time>2026-10-04T10:37:04Z</time>
      </trkpt>
      <trkpt lat="32.05203116191975" lon="118.80435477804572">
        <ele>10.732017948292196</ele>
        <time>2026-10-04T10:37:07Z</time>
      </trkpt>
      <trkpt lat="32.052131284015964" lon="118.80441188193365">
        <ele>12.645023777149618</ele>
        <time>2026-10-04T10:37:10Z</time>
      </trkpt>
      <trkpt lat="32.05240650300265" lon="118.80450203531143">
        <ele>10.002750827930868</ele>
        <time>2026-10-04T10:37:19Z</time>
      </trkpt>
      <trkpt lat="32.05269476181011" lon="118.8046132293586">
        <ele>10.388523533008993</ele>
        <time>2026-10-04T10:37:31Z</time>
      </trkpt>
      <trkpt lat="32.0529899924873" lon="118.80470738914372">
        <ele>12.306812717579305</ele>
        <time>2026-10-04T10:37:43Z</time>
      </trkpt>
      <trkpt lat="32.05314004697404" lon="118.80471939922788">
        <ele>11.508846714161336</ele>
        <time>2026-10-04T10:37:49Z</time>
      </trkpt>
      <trkpt lat="32.053299858045776" lon="118.80459113003658">
        <ele>10.91697735991329</ele>
        <time>2026-10-04T10:37:58Z</time>
      </trkpt>
      <trkpt lat="32.05339763100666" lon="118.80444883901254">
        <ele>11.995026065967977</ele>
        <time>2026-10-04T10:38:04Z</time>
      </trkpt>
      <trkpt lat="32.0534203665504" lon="118.80429453141345">
        <ele>11.413723423145711</ele>
        <time>2026-10-04T10:38:10Z</time>
      </trkpt>
      <trkpt lat="32.05339905943498" lon="118.80412119062505">
        <ele>11.836487247608602</ele>
        <time>2026-10-04T10:38:16Z</time>
      </trkpt>
      <trkpt lat="32.05326671755465" lon="118.80394184866616">
        <ele>12.005592777393758</ele>
        <time>2026-10-04T10:38:25Z</time>
      </trkpt>
      <trkpt lat="32.05319762544349" lon="118.80389776804961">
        <ele>10.885269596241415</ele>
        <time>2026-10-04T10:38:28Z</time>
      </trkpt>
      <trkpt lat="32.05300655498789" lon="118.80388175399229">
        <ele>12.11656995024532</ele>
        <time>2026-10-04T10:38:37Z</time>
      </trkpt>
      <trkpt lat="32.05289838102997" lon="118.80379559406971">
        <ele>11.899902774952352</ele>
        <time>2026-10-04T10:38:40Z</time>
      </trkpt>
      <trkpt lat="32.05279236785869" lon="118.80380161565898">
        <ele>11.836487247608602</ele>
        <time>2026-10-04T10:38:46Z</time>
      </trkpt>
      <trkpt lat="32.052678272764005" lon="118.80376154717564">
        <ele>12.148277713917196</ele>
        <time>2026-10-04T10:38:52Z</time>
      </trkpt>
      <trkpt lat="32.052605247781194" lon="118.80375654401726">
        <ele>13.971443607471883</ele>
        <time>2026-10-04T10:38:55Z</time>
      </trkpt>
      <trkpt lat="32.052423064429846" lon="118.80367439896452">
        <ele>12.037300541065633</ele>
        <time>2026-10-04T10:39:01Z</time>
      </trkpt>
      <trkpt lat="32.05228297751976" lon="118.8036423487292">
        <ele>11.598682834766805</ele>
        <time>2026-10-04T10:39:07Z</time>
      </trkpt>
      <trkpt lat="32.05213995432509" lon="118.80364737173241">
        <ele>10.769009067676961</ele>
        <time>2026-10-04T10:39:13Z</time>
      </trkpt>
      <trkpt lat="32.0519960179307" lon="118.80370249344324">
        <ele>11.318603946827352</ele>
        <time>2026-10-04T10:39:19Z</time>
      </trkpt>
      <trkpt lat="32.051868357031935" lon="118.80391392182139">
        <ele>10.62632794585079</ele>
        <time>2026-10-04T10:39:28Z</time>
      </trkpt>
      <trkpt lat="32.0518776400095" lon="118.80407523937659">
        <ele>11.588116123341024</ele>
        <time>2026-10-04T10:39:34Z</time>
      </trkpt>
      <trkpt lat="32.05194295333969" lon="118.80424657202346">
        <ele>9.178360416553915</ele>
        <time>2026-10-04T10:39:40Z</time>
      </trkpt>
      <trkpt lat="32.05199907078383" lon="118.80430668580347">
        <ele>9.63283200468868</ele>
        <time>2026-10-04T10:39:43Z</time>
      </trkpt>
      <trkpt lat="32.052240359115515" lon="118.80444092946736">
        <ele>11.640961124561727</ele>
        <time>2026-10-04T10:39:55Z</time>
      </trkpt>
      <trkpt lat="32.05254262797421" lon="118.80455613006568">
        <ele>9.669823124073446</ele>
        <time>2026-10-04T10:40:11Z</time>
      </trkpt>
      <trkpt lat="32.05266374788406" lon="118.80460922425763">
        <ele>10.769009067676961</ele>
        <time>2026-10-04T10:40:17Z</time>
      </trkpt>
      <trkpt lat="32.052987949920755" lon="118.80468334159612">
        <ele>12.396648838184774</ele>
        <time>2026-10-04T10:40:32Z</time>
      </trkpt>
      <trkpt lat="32.053123029143855" lon="118.80471138487717">
        <ele>11.40315671171993</ele>
        <time>2026-10-04T10:40:38Z</time>
      </trkpt>
      <trkpt lat="32.05320600200393" lon="118.80468532553908">
        <ele>9.944618656300008</ele>
        <time>2026-10-04T10:40:41Z</time>
      </trkpt>
      <trkpt lat="32.053303869458595" lon="118.80459714159225">
        <ele>12.201122715137899</ele>
        <time>2026-10-04T10:40:47Z</time>
      </trkpt>
      <trkpt lat="32.05341754439719" lon="118.80439673398097">
        <ele>11.662098362110555</ele>
        <time>2026-10-04T10:40:56Z</time>
      </trkpt>
      <trkpt lat="32.05343341143615" lon="118.80431857780162">
        <ele>11.609253360889852</ele>
        <time>2026-10-04T10:40:59Z</time>
      </trkpt>
      <trkpt lat="32.05340313196346" lon="118.80416227143583">
        <ele>11.815350010059774</ele>
        <time>2026-10-04T10:41:05Z</time>
      </trkpt>
      <trkpt lat="32.05326473804288" lon="118.80395387257155">
        <ele>10.045025303028524</ele>
        <time>2026-10-04T10:41:14Z</time>
      </trkpt>
      <trkpt lat="32.05320865056424" lon="118.80391079272759">
        <ele>10.79014630522579</ele>
        <time>2026-10-04T10:41:17Z</time>
      </trkpt>
      <trkpt lat="32.05293945115603" lon="118.80383065941119">
        <ele>11.952747776173055</ele>
        <time>2026-10-04T10:41:29Z</time>
      </trkpt>
      <trkpt lat="32.052647206640884" lon="118.80372748292834">
        <ele>11.836487247608602</ele>
        <time>2026-10-04T10:41:41Z</time>
      </trkpt>
      <trkpt lat="32.05236401820582" lon="118.80365536691767">
        <ele>10.488926365040243</ele>
        <time>2026-10-04T10:41:53Z</time>
      </trkpt>
      <trkpt lat="32.052158923763606" lon="118.80362733055308">
        <ele>11.329170658253133</ele>
        <time>2026-10-04T10:42:02Z</time>
      </trkpt>
      <trkpt lat="32.052090929474254" lon="118.80363936046247">
        <ele>10.11901135649532</ele>
        <time>2026-10-04T10:42:06Z</time>
      </trkpt>
      <trkpt lat="32.05207204184923" lon="118.8037064943486">
        <ele>11.286896183155477</ele>
        <time>2026-10-04T10:42:09Z</time>
      </trkpt>
      <trkpt lat="32.05197025948885" lon="118.80384477612692">
        <ele>9.537708713673055</ele>
        <time>2026-10-04T10:42:15Z</time>
      </trkpt>
      <trkpt lat="32.05189928025387" lon="118.80386582413298">
        <ele>11.28160901274532</ele>
        <time>2026-10-04T10:42:18Z</time>
      </trkpt>
      <trkpt lat="32.051878376703876" lon="118.80392394066519">
        <ele>11.382015659473836</ele>
        <time>2026-10-04T10:42:21Z</time>
      </trkpt>
      <trkpt lat="32.05188664900298" lon="118.80407924646494">
        <ele>11.112503482960165</ele>
        <time>2026-10-04T10:42:27Z</time>
      </trkpt>
      <trkpt lat="32.05190981835627" lon="118.80417343044083">
        <ele>10.192993595264852</ele>
        <time>2026-10-04T10:42:30Z</time>
      </trkpt>
      <trkpt lat="32.052081195828634" lon="118.80436779923573">
        <ele>10.002750827930868</ele>
        <time>2026-10-04T10:42:39Z</time>
      </trkpt>
      <trkpt lat="32.05237946193769" lon="118.80448199808134">
        <ele>12.084862186573446</ele>
        <time>2026-10-04T10:42:54Z</time>
      </trkpt>
      <trkpt lat="32.05258066800446" lon="118.80457416233473">
        <ele>11.20762677397579</ele>
        <time>2026-10-04T10:43:00Z</time>
      </trkpt>
      <trkpt lat="32.05291491961408" lon="118.80467533239639">
        <ele>12.903965427540243</ele>
        <time>2026-10-04T10:43:12Z</time>
      </trkpt>
      <trkpt lat="32.053099029062246" lon="118.80471439305002">
        <ele>10.420227481983602</ele>
        <time>2026-10-04T10:43:18Z</time>
      </trkpt>
      <trkpt lat="32.05317803437693" lon="118.80470737186651">
        <ele>10.584049656055868</ele>
        <time>2026-10-04T10:43:21Z</time>
      </trkpt>
      <trkpt lat="32.05323999904935" lon="118.8046793104828">
        <ele>10.251121952198446</ele>
        <time>2026-10-04T10:43:24Z</time>
      </trkpt>
      <trkpt lat="32.05332785200821" lon="118.8045841135535">
        <ele>12.47063489165157</ele>
        <time>2026-10-04T10:43:30Z</time>
      </trkpt>
      <trkpt lat="32.053399599925626" lon="118.80443080310302">
        <ele>11.260471775196493</ele>
        <time>2026-10-04T10:43:36Z</time>
      </trkpt>
      <trkpt lat="32.05341121589588" lon="118.80420936379231">
        <ele>10.63689465727657</ele>
        <time>2026-10-04T10:43:45Z</time>
      </trkpt>
      <trkpt lat="32.053369014323046" lon="118.80409914983458">
        <ele>8.327549411915243</ele>
        <time>2026-10-04T10:43:48Z</time>
      </trkpt>
      <trkpt lat="32.0532106701941" lon="118.80392181428282">
        <ele>11.04909177031368</ele>
        <time>2026-10-04T10:43:57Z</time>
      </trkpt>
      <trkpt lat="32.052894411501946" lon="118.80381362997718">
        <ele>10.63689465727657</ele>
        <time>2026-10-04T10:44:09Z</time>
      </trkpt>
      <trkpt lat="32.052636237275834" lon="118.80374652143233">
        <ele>10.63689465727657</ele>
        <time>2026-10-04T10:44:21Z</time>
      </trkpt>
      <trkpt lat="32.052339932817965" lon="118.80360927843175">
        <ele>11.56697507109493</ele>
        <time>2026-10-04T10:44:31Z</time>
      </trkpt>
      <trkpt lat="32.05223982529439" lon="118.80356019105602">
        <ele>10.399090244434774</ele>
        <time>2026-10-04T10:44:37Z</time>
      </trkpt>
      <trkpt lat="32.052174803841254" lon="118.80355618914953">
        <ele>10.99095959868282</ele>
        <time>2026-10-04T10:44:40Z</time>
      </trkpt>
      <trkpt lat="32.0520378915525" lon="118.80362433576087">
        <ele>11.20762677397579</ele>
        <time>2026-10-04T10:44:46Z</time>
      </trkpt>
      <trkpt lat="32.05197497842991" lon="118.80368245592234">
        <ele>11.228764011524618</ele>
        <time>2026-10-04T10:44:49Z</time>
      </trkpt>
      <trkpt lat="32.05187441069698" lon="118.80394398056362">
        <ele>11.392586185596883</ele>
        <time>2026-10-04T10:44:58Z</time>
      </trkpt>
      <trkpt lat="32.05187153915448" lon="118.80401812716028">
        <ele>11.529983951710165</ele>
        <time>2026-10-04T10:45:01Z</time>
      </trkpt>
      <trkpt lat="32.05197199303854" lon="118.80426560701204">
        <ele>9.976326419971883</ele>
        <time>2026-10-04T10:45:10Z</time>
      </trkpt>
      <trkpt lat="32.052027126024704" lon="118.80433473874918">
        <ele>10.63689465727657</ele>
        <time>2026-10-04T10:45:13Z</time>
      </trkpt>
      <trkpt lat="32.052288394343094" lon="118.80445495284415">
        <ele>9.870636417530477</ele>
        <time>2026-10-04T10:45:25Z</time>
      </trkpt>
      <trkpt lat="32.052604662835265" lon="118.8045681482081">
        <ele>11.28160901274532</ele>
        <time>2026-10-04T10:45:40Z</time>
      </trkpt>
      <trkpt lat="32.052874868589235" lon="118.80465128835318">
        <ele>9.268196537159383</ele>
        <time>2026-10-04T10:45:52Z</time>
      </trkpt>
      <trkpt lat="32.05315795095097" lon="118.80466228421547">
        <ele>11.20762677397579</ele>
        <time>2026-10-04T10:46:04Z</time>
      </trkpt>
      <trkpt lat="32.05328284549103" lon="118.8045861216633">
        <ele>11.239334537647665</ele>
        <time>2026-10-04T10:46:10Z</time>
      </trkpt>
      <trkpt lat="32.05337662983238" lon="118.80445084491242">
        <ele>10.605186893604696</ele>
        <time>2026-10-04T10:46:16Z</time>
      </trkpt>
      <trkpt lat="32.05341335449498" lon="118.80428852016252">
        <ele>10.097870304249227</ele>
        <time>2026-10-04T10:46:22Z</time>
      </trkpt>
      <trkpt lat="32.05338306984735" lon="118.80412920793322">
        <ele>9.114944889210165</ele>
        <time>2026-10-04T10:46:28Z</time>
      </trkpt>
      <trkpt lat="32.053310837281735" lon="118.80400496918647">
        <ele>11.228764011524618</ele>
        <time>2026-10-04T10:46:34Z</time>
      </trkpt>
      <trkpt lat="32.05305056827958" lon="118.8038837538994">
        <ele>11.027950718067586</ele>
        <time>2026-10-04T10:46:46Z</time>
      </trkpt>
      <trkpt lat="32.05276431109497" lon="118.8037725609826">
        <ele>10.615757419727743</ele>
        <time>2026-10-04T10:46:58Z</time>
      </trkpt>
      <trkpt lat="32.05254713211427" lon="118.80369743293315">
        <ele>10.229984714649618</ele>
        <time>2026-10-04T10:47:10Z</time>
      </trkpt>
      <trkpt lat="32.0524229774221" lon="118.80362430037201">
        <ele>10.91697735991329</ele>
        <time>2026-10-04T10:47:13Z</time>
      </trkpt>
      <trkpt lat="32.05222087670741" lon="118.80359225586255">
        <ele>11.091366245411336</ele>
        <time>2026-10-04T10:47:25Z</time>
      </trkpt>
      <trkpt lat="32.05199298418638" lon="118.80368345624024">
        <ele>11.33974118437618</ele>
        <time>2026-10-04T10:47:34Z</time>
      </trkpt>
      <trkpt lat="32.05189722925807" lon="118.80383676703656">
        <ele>11.165348484180868</ele>
        <time>2026-10-04T10:47:40Z</time>
      </trkpt>
      <trkpt lat="32.051859443986125" lon="118.80396502345666">
        <ele>11.836487247608602</ele>
        <time>2026-10-04T10:47:43Z</time>
      </trkpt>
      <trkpt lat="32.05186668121725" lon="118.80410028986385">
        <ele>11.382015659473836</ele>
        <time>2026-10-04T10:47:46Z</time>
      </trkpt>
      <trkpt lat="32.05191491386886" lon="118.80422753694886">
        <ele>13.538113071583211</ele>
        <time>2026-10-04T10:47:49Z</time>
      </trkpt>
      <trkpt lat="32.05199710533241" lon="118.80432672564243">
        <ele>11.197056247852743</ele>
        <time>2026-10-04T10:47:53Z</time>
      </trkpt>
      <trkpt lat="32.0520802428731" lon="118.80439485289014">
        <ele>10.356815769337118</ele>
        <time>2026-10-04T10:47:56Z</time>
      </trkpt>
      <trkpt lat="32.05237850902552" lon="118.80450905178519">
        <ele>11.006813480518758</ele>
        <time>2026-10-04T10:48:08Z</time>
      </trkpt>
      <trkpt lat="32.052659743484696" lon="118.80460722065038">
        <ele>10.05559582915157</ele>
        <time>2026-10-04T10:48:20Z</time>
      </trkpt>
      <trkpt lat="32.05284982793166" lon="118.80463125089167">
        <ele>11.85762448515743</ele>
        <time>2026-10-04T10:48:29Z</time>
      </trkpt>
      <trkpt lat="32.05298794816589" lon="118.80468233960751">
        <ele>11.04909177031368</ele>
        <time>2026-10-04T10:48:35Z</time>
      </trkpt>
      <trkpt lat="32.05311997582394" lon="118.80468132548805">
        <ele>11.059658481739461</ele>
        <time>2026-10-04T10:48:41Z</time>
      </trkpt>
      <trkpt lat="32.05323788632422" lon="118.80461518343114">
        <ele>10.034458591602743</ele>
        <time>2026-10-04T10:48:47Z</time>
      </trkpt>
      <trkpt lat="32.05336560811516" lon="118.80443982409005">
        <ele>-10.717959926463664</ele>
        <time>2026-10-04T10:48:56Z</time>
      </trkpt>
      <trkpt lat="32.05340937109816" lon="118.80429854035431">
        <ele>9.934051944874227</ele>
        <time>2026-10-04T10:49:02Z</time>
      </trkpt>
      <trkpt lat="32.05339614962821" lon="118.80417329386343">
        <ele>9.960472538135946</ele>
        <time>2026-10-04T10:49:08Z</time>
      </trkpt>
      <trkpt lat="32.05334091553381" lon="118.80404604752984">
        <ele>10.710880710743368</ele>
        <time>2026-10-04T10:49:14Z</time>
      </trkpt>
      <trkpt lat="32.05326273934192" lon="118.80395487473231">
        <ele>9.416164829395711</ele>
        <time>2026-10-04T10:49:20Z</time>
      </trkpt>
      <trkpt lat="32.05310854110509" lon="118.80386070313052">
        <ele>23.47306103911251</ele>
        <time>2026-10-04T10:49:26Z</time>
      </trkpt>
      <trkpt lat="32.0529124242264" lon="118.80381863819578">
        <ele>10.615757419727743</ele>
        <time>2026-10-04T10:49:41Z</time>
      </trkpt>
      <trkpt lat="32.052834300569785" lon="118.80375752494167">
        <ele>10.56291241850704</ele>
        <time>2026-10-04T10:49:47Z</time>
      </trkpt>
      <trkpt lat="32.05275428099663" lon="118.80375653032148">
        <ele>10.721447422169149</ele>
        <time>2026-10-04T10:49:50Z</time>
      </trkpt>
      <trkpt lat="32.052451042826966" lon="118.80365836483664">
        <ele>12.095432712696493</ele>
        <time>2026-10-04T10:50:06Z</time>
      </trkpt>
      <trkpt lat="32.0523209685947" lon="118.80363232551979">
        <ele>10.229984714649618</ele>
        <time>2026-10-04T10:50:12Z</time>
      </trkpt>
      <trkpt lat="32.052256971721036" lon="118.80364235111908">
        <ele>10.895840122364461</ele>
        <time>2026-10-04T10:50:15Z</time>
      </trkpt>
      <trkpt lat="32.05217993018757" lon="118.80362833059426">
        <ele>8.21128888335079</ele>
        <time>2026-10-04T10:50:18Z</time>
      </trkpt>
      <trkpt lat="32.05211294482213" lon="118.80364537027062">
        <ele>10.842991306446493</ele>
        <time>2026-10-04T10:50:21Z</time>
      </trkpt>
      <trkpt lat="32.05204701015901" lon="118.80369146705652">
        <ele>7.894215061329305</ele>
        <time>2026-10-04T10:50:24Z</time>
      </trkpt>
      <trkpt lat="32.051923273406004" lon="118.80385880809953">
        <ele>9.495434238575399</ele>
        <time>2026-10-04T10:50:30Z</time>
      </trkpt>
      <trkpt lat="32.05189042298931" lon="118.80394898897676">
        <ele>9.125515415333211</ele>
        <time>2026-10-04T10:50:33Z</time>
      </trkpt>
      <trkpt lat="32.051883557542006" lon="118.80402714385926">
        <ele>10.034458591602743</ele>
        <time>2026-10-04T10:50:36Z</time>
      </trkpt>
      <trkpt lat="32.05195086945305" lon="118.80419747420797">
        <ele>10.874699070118368</ele>
        <time>2026-10-04T10:50:42Z</time>
      </trkpt>
      <trkpt lat="32.05205313357494" lon="118.80433573834273">
        <ele>10.28282971587032</ele>
        <time>2026-10-04T10:50:48Z</time>
      </trkpt>
      <trkpt lat="32.05231338590555" lon="118.80444693466728">
        <ele>10.800716831348836</ele>
        <time>2026-10-04T10:51:00Z</time>
      </trkpt>
      <trkpt lat="32.0525806434589" lon="118.80456013451995">
        <ele>10.21413083281368</ele>
        <time>2026-10-04T10:51:12Z</time>
      </trkpt>
      <trkpt lat="32.052724808840814" lon="118.80463627231838">
        <ele>8.708034946583211</ele>
        <time>2026-10-04T10:51:18Z</time>
      </trkpt>
      <trkpt lat="32.053042993766574" lon="118.80470137233932">
        <ele>9.722668125294149</ele>
        <time>2026-10-04T10:51:27Z</time>
      </trkpt>
      <trkpt lat="32.05318597473568" lon="118.80467230152593">
        <ele>10.70031018462032</ele>
        <time>2026-10-04T10:51:33Z</time>
      </trkpt>
      <trkpt lat="32.0533147842428" lon="118.80454704123805">
        <ele>8.887711002491415</ele>
        <time>2026-10-04T10:51:39Z</time>
      </trkpt>
      <trkpt lat="32.053362675765044" lon="118.80447890178361">
        <ele>10.034458591602743</ele>
        <time>2026-10-04T10:51:42Z</time>
      </trkpt>
      <trkpt lat="32.053420427788964" lon="118.80432960080843">
        <ele>8.72917218413204</ele>
        <time>2026-10-04T10:51:49Z</time>
      </trkpt>
      <trkpt lat="32.05340016100564" lon="118.80417930537891">
        <ele>9.976326419971883</ele>
        <time>2026-10-04T10:51:55Z</time>
      </trkpt>
      <trkpt lat="32.05334389874388" lon="118.80403602747087">
        <ele>9.712101413868368</ele>
        <time>2026-10-04T10:52:01Z</time>
      </trkpt>
      <trkpt lat="32.05325869658501" lon="118.8039308276588">
        <ele>8.998684360645711</ele>
        <time>2026-10-04T10:52:07Z</time>
      </trkpt>
      <trkpt lat="32.05299847650392" lon="118.8038376678125">
        <ele>10.28282971587032</ele>
        <time>2026-10-04T10:52:16Z</time>
      </trkpt>
      <trkpt lat="32.052936460944466" lon="118.80383667153642">
        <ele>10.510067417286336</ele>
        <time>2026-10-04T10:52:19Z</time>
      </trkpt>
      <trkpt lat="32.05276329519511" lon="118.80376354331008">
        <ele>10.013317539356649</ele>
        <time>2026-10-04T10:52:28Z</time>
      </trkpt>
      <trkpt lat="32.05243405643984" lon="118.80366838612011">
        <ele>10.224701358936727</ele>
        <time>2026-10-04T10:52:43Z</time>
      </trkpt>
      <trkpt lat="32.052213862971236" lon="118.80358524271014">
        <ele>8.887711002491415</ele>
        <time>2026-10-04T10:52:52Z</time>
      </trkpt>
      <trkpt lat="32.0520409827106" lon="118.80367643802177">
        <ele>9.92348141875118</ele>
        <time>2026-10-04T10:52:58Z</time>
      </trkpt>
      <trkpt lat="32.05192226098087" lon="118.8038517943647">
        <ele>5.44746823515743</ele>
        <time>2026-10-04T10:53:05Z</time>
      </trkpt>
      <trkpt lat="32.05187746196076" lon="118.80397303761917">
        <ele>10.15071530546993</ele>
        <time>2026-10-04T10:53:08Z</time>
      </trkpt>
      <trkpt lat="32.05187860880141" lon="118.80405720366808">
        <ele>8.190151645801961</ele>
        <time>2026-10-04T10:53:11Z</time>
      </trkpt>
      <trkpt lat="32.05193888950157" lon="118.80421050106304">
        <ele>7.994621708057821</ele>
        <time>2026-10-04T10:53:17Z</time>
      </trkpt>
      <trkpt lat="32.05199103051133" lon="118.8042846429255">
        <ele>11.456001712940633</ele>
        <time>2026-10-04T10:53:20Z</time>
      </trkpt>
      <trkpt lat="32.052255281907456" lon="118.80439483680709">
        <ele>9.86006589140743</ele>
        <time>2026-10-04T10:53:32Z</time>
      </trkpt>
      <trkpt lat="32.05253553001416" lon="118.80450102147033">
        <ele>9.05153317656368</ele>
        <time>2026-10-04T10:53:47Z</time>
      </trkpt>
      <trkpt lat="32.05258861719377" lon="118.80454410200021">
        <ele>10.023888065479696</ele>
        <time>2026-10-04T10:53:50Z</time>
      </trkpt>
      <trkpt lat="32.05277672046412" lon="118.80457915425671">
        <ele>10.335674717091024</ele>
        <time>2026-10-04T10:53:59Z</time>
      </trkpt>
      <trkpt lat="32.0529188748865" lon="118.80464928033338">
        <ele>10.584049656055868</ele>
        <time>2026-10-04T10:54:05Z</time>
      </trkpt>
      <trkpt lat="32.05311496769064" lon="118.80467731799334">
        <ele>7.79909177031368</ele>
        <time>2026-10-04T10:54:11Z</time>
      </trkpt>
      <trkpt lat="32.05317395100658" lon="118.8046602787685">
        <ele>10.108440830372274</ele>
        <time>2026-10-04T10:54:14Z</time>
      </trkpt>
      <trkpt lat="32.05325987544051" lon="118.804606163522">
        <ele>9.643398716114461</ele>
        <time>2026-10-04T10:54:17Z</time>
      </trkpt>
      <trkpt lat="32.05340652969142" lon="118.80438972110383">
        <ele>10.679172947071493</ele>
        <time>2026-10-04T10:54:26Z</time>
      </trkpt>
      <trkpt lat="32.05343428221503" lon="118.8042444310253">
        <ele>10.171856357716024</ele>
        <time>2026-10-04T10:54:32Z</time>
      </trkpt>
      <trkpt lat="32.05339799982374" lon="118.80408712341902">
        <ele>9.405594303272665</ele>
        <time>2026-10-04T10:54:38Z</time>
      </trkpt>
      <trkpt lat="32.05331577731878" lon="118.80396989951629">
        <ele>10.045025303028524</ele>
        <time>2026-10-04T10:54:41Z</time>
      </trkpt>
      <trkpt lat="32.05317960574" lon="118.80388875192104">
        <ele>9.50600095000118</ele>
        <time>2026-10-04T10:54:50Z</time>
      </trkpt>
      <trkpt lat="32.05311160279524" lon="118.80389577200255">
        <ele>-10.654544399119914</ele>
        <time>2026-10-04T10:54:53Z</time>
      </trkpt>
      <trkpt lat="32.05285138972098" lon="118.80380662010798">
        <ele>9.796654178760946</ele>
        <time>2026-10-04T10:55:05Z</time>
      </trkpt>
      <trkpt lat="32.05254120042244" lon="118.80373751240401">
        <ele>10.462505771778524</ele>
        <time>2026-10-04T10:55:21Z</time>
      </trkpt>
      <trkpt lat="32.052400050598614" lon="118.80366939121753">
        <ele>10.388523533008993</ele>
        <time>2026-10-04T10:55:27Z</time>
      </trkpt>
      <trkpt lat="32.05212485877302" lon="118.80359426862866">
        <ele>7.15437741484493</ele>
        <time>2026-10-04T10:55:39Z</time>
      </trkpt>
      <trkpt lat="32.05198303418151" lon="118.80371351633912">
        <ele>9.516571476124227</ele>
        <time>2026-10-04T10:55:48Z</time>
      </trkpt>
      <trkpt lat="32.05192315490211" lon="118.80379067381695">
        <ele>9.548279239796102</ele>
        <time>2026-10-04T10:55:51Z</time>
      </trkpt>
      <trkpt lat="32.051881359932615" lon="118.80391392062653">
        <ele>6.8267368813976645</ele>
        <time>2026-10-04T10:55:57Z</time>
      </trkpt>
      <trkpt lat="32.0518705878107" lon="118.80404618264025">
        <ele>9.453155948780477</ele>
        <time>2026-10-04T10:56:03Z</time>
      </trkpt>
      <trkpt lat="32.051915978795336" lon="118.8042646101768">
        <ele>9.622261478565633</ele>
        <time>2026-10-04T10:56:12Z</time>
      </trkpt>
      <trkpt lat="32.051984088433535" lon="118.80431871097434">
        <ele>9.167789890430868</ele>
        <time>2026-10-04T10:56:15Z</time>
      </trkpt>
      <trkpt lat="32.05209014182883" lon="118.80433573494227">
        <ele>8.69746823515743</ele>
        <time>2026-10-04T10:56:18Z</time>
      </trkpt>
      <trkpt lat="32.05237138482793" lon="118.80443891345861">
        <ele>7.878361179493368</ele>
        <time>2026-10-04T10:56:33Z</time>
      </trkpt>
      <trkpt lat="32.05267364315503" lon="118.80454810213432">
        <ele>9.247059299610555</ele>
        <time>2026-10-04T10:56:48Z</time>
      </trkpt>
      <trkpt lat="32.052992917694944" lon="118.80466430335571">
        <ele>10.229984714649618</ele>
        <time>2026-10-04T10:57:04Z</time>
      </trkpt>
      <trkpt lat="32.053057949725805" lon="118.80467431726616">
        <ele>9.178360416553915</ele>
        <time>2026-10-04T10:57:07Z</time>
      </trkpt>
      <trkpt lat="32.05321491803572" lon="118.80463622728686">
        <ele>9.21535153593868</ele>
        <time>2026-10-04T10:57:13Z</time>
      </trkpt>
      <trkpt lat="32.05332681496523" lon="118.80456307192073">
        <ele>5.320640995167196</ele>
        <time>2026-10-04T10:57:19Z</time>
      </trkpt>
      <trkpt lat="32.053376705165334" lon="118.80449393027949">
        <ele>11.714943363331258</ele>
        <time>2026-10-04T10:57:22Z</time>
      </trkpt>
      <trkpt lat="32.05343637536238" lon="118.80429753589024">
        <ele>9.796654178760946</ele>
        <time>2026-10-04T10:57:28Z</time>
      </trkpt>
      <trkpt lat="32.05341012828001" lon="118.80415926485163">
        <ele>9.395027591846883</ele>
        <time>2026-10-04T10:57:34Z</time>
      </trkpt>
      <trkpt lat="32.05336594903858" lon="118.80406207688854">
        <ele>9.062099887989461</ele>
        <time>2026-10-04T10:57:37Z</time>
      </trkpt>
      <trkpt lat="32.05319955092076" lon="118.80385468291414">
        <ele>8.887711002491415</ele>
        <time>2026-10-04T10:57:46Z</time>
      </trkpt>
      <trkpt lat="32.05298239103856" lon="118.80379057647735">
        <ele>9.669823124073446</ele>
        <time>2026-10-04T10:57:55Z</time>
      </trkpt>
      <trkpt lat="32.052700230645264" lon="118.80373449186914">
        <ele>9.643398716114461</ele>
        <time>2026-10-04T10:58:07Z</time>
      </trkpt>
      <trkpt lat="32.052529100249174" lon="118.80368140302738">
        <ele>9.299904300831258</ele>
        <time>2026-10-04T10:58:16Z</time>
      </trkpt>
      <trkpt lat="32.05242808121005" lon="118.80368341625598">
        <ele>7.931206180714071</ele>
        <time>2026-10-04T10:58:19Z</time>
      </trkpt>
      <trkpt lat="32.05230596698937" lon="118.80363332887016">
        <ele>9.537708713673055</ele>
        <time>2026-10-04T10:58:25Z</time>
      </trkpt>
      <trkpt lat="32.052223929562736" lon="118.80362231472117">
        <ele>10.097870304249227</ele>
        <time>2026-10-04T10:58:28Z</time>
      </trkpt>
      <trkpt lat="32.05202198195305" lon="118.80367844371283">
        <ele>7.143810703419149</ele>
        <time>2026-10-04T10:58:37Z</time>
      </trkpt>
      <trkpt lat="32.05191709085324" lon="118.80375460330863">
        <ele>9.807220890186727</ele>
        <time>2026-10-04T10:58:43Z</time>
      </trkpt>
      <trkpt lat="32.051881232659696" lon="118.80384077640707">
        <ele>9.178360416553915</ele>
        <time>2026-10-04T10:58:46Z</time>
      </trkpt>
      <trkpt lat="32.05189273942495" lon="118.80413034685924">
        <ele>8.14787335600704</ele>
        <time>2026-10-04T10:58:59Z</time>
      </trkpt>
      <trkpt lat="32.05191690382449" lon="118.80422152487742">
        <ele>9.178360416553915</ele>
        <time>2026-10-04T10:59:02Z</time>
      </trkpt>
      <trkpt lat="32.0519640227383" lon="118.8042836434247">
        <ele>8.845432712696493</ele>
        <time>2026-10-04T10:59:05Z</time>
      </trkpt>
      <trkpt lat="32.0522243170176" lon="118.8044188872771">
        <ele>9.891773655079305</ele>
        <time>2026-10-04T10:59:17Z</time>
      </trkpt>
      <trkpt lat="32.05251555534657" lon="118.8045180570679">
        <ele>9.548279239796102</ele>
        <time>2026-10-04T10:59:29Z</time>
      </trkpt>
      <trkpt lat="32.05278578911026" lon="118.80461722894579">
        <ele>9.579987003467977</ele>
        <time>2026-10-04T10:59:41Z</time>
      </trkpt>
      <trkpt lat="32.05303498671864" lon="118.80469836710787">
        <ele>7.164947940967977</ele>
        <time>2026-10-04T10:59:53Z</time>
      </trkpt>
      <trkpt lat="32.053166965238525" lon="118.80466929730676">
        <ele>7.994621708057821</ele>
        <time>2026-10-04T10:59:59Z</time>
      </trkpt>
      <trkpt lat="32.053326715055725" lon="118.80450595870339">
        <ele>9.527142002247274</ele>
        <time>2026-10-04T11:00:08Z</time>
      </trkpt>
      <trkpt lat="32.05341245400766" lon="118.80434563327368">
        <ele>8.380394413135946</ele>
        <time>2026-10-04T11:00:14Z</time>
      </trkpt>
      <trkpt lat="32.0534353331565" lon="118.80427348840728">
        <ele>9.754375888966024</ele>
        <time>2026-10-04T11:00:17Z</time>
      </trkpt>
      <trkpt lat="32.05339804698385" lon="118.80411417685997">
        <ele>7.703972293995321</ele>
        <time>2026-10-04T11:00:24Z</time>
      </trkpt>
      <trkpt lat="32.053302777912535" lon="118.80397190466554">
        <ele>7.0539707681164145</ele>
        <time>2026-10-04T11:00:30Z</time>
      </trkpt>
      <trkpt lat="32.05324467253638" lon="118.8039188052286">
        <ele>8.98811764921993</ele>
        <time>2026-10-04T11:00:33Z</time>
      </trkpt>
      <trkpt lat="32.05300649397325" lon="118.80384668485266">
        <ele>9.14665265288204</ele>
        <time>2026-10-04T11:00:42Z</time>
      </trkpt>
      <trkpt lat="32.05275825750566" lon="118.80374250232454">
        <ele>8.491367771290243</ele>
        <time>2026-10-04T11:00:54Z</time>
      </trkpt>
      <trkpt lat="32.05249210070273" lon="118.80368641629052">
        <ele>8.34868664946407</ele>
        <time>2026-10-04T11:01:06Z</time>
      </trkpt>
      <trkpt lat="32.05220390770503" lon="118.80361229684642">
        <ele>7.196655704639852</ele>
        <time>2026-10-04T11:01:18Z</time>
      </trkpt>
      <trkpt lat="32.05202401373202" lon="118.80369647903353">
        <ele>9.579987003467977</ele>
        <time>2026-10-04T11:01:27Z</time>
      </trkpt>
      <trkpt lat="32.05194811518737" lon="118.80376462019595">
        <ele>8.132019474171102</ele>
        <time>2026-10-04T11:01:30Z</time>
      </trkpt>
      <trkpt lat="32.05189033403872" lon="118.80389788818206">
        <ele>8.232426120899618</ele>
        <time>2026-10-04T11:01:36Z</time>
      </trkpt>
      <trkpt lat="32.05186661834656" lon="118.80406421862126">
        <ele>7.746246769092977</ele>
        <time>2026-10-04T11:01:43Z</time>
      </trkpt>
      <trkpt lat="32.05187472492637" lon="118.80412433663541">
        <ele>7.529583408497274</ele>
        <time>2026-10-04T11:01:46Z</time>
      </trkpt>
      <trkpt lat="32.05197006431391" lon="118.8043066884687">
        <ele>9.178360416553915</ele>
        <time>2026-10-04T11:01:52Z</time>
      </trkpt>
      <trkpt lat="32.052087253189015" lon="118.80439986216707">
        <ele>8.813724949024618</ele>
        <time>2026-10-04T11:01:58Z</time>
      </trkpt>
      <trkpt lat="32.05235147847163" lon="118.8044950264663">
        <ele>10.34624524321407</ele>
        <time>2026-10-04T11:02:10Z</time>
      </trkpt>
      <trkpt lat="32.0526346905636" lon="118.80458016929366">
        <ele>7.672264530323446</ele>
        <time>2026-10-04T11:02:22Z</time>
      </trkpt>
      <trkpt lat="32.052905940421354" lon="118.80468835907521">
        <ele>9.21535153593868</ele>
        <time>2026-10-04T11:02:34Z</time>
      </trkpt>
      <trkpt lat="32.053042999031994" lon="118.80470437830611">
        <ele>9.474293186329305</ele>
        <time>2026-10-04T11:02:40Z</time>
      </trkpt>
      <trkpt lat="32.05316196236988" lon="118.80466829577789">
        <ele>9.114944889210165</ele>
        <time>2026-10-04T11:02:46Z</time>
      </trkpt>
      <trkpt lat="32.05329482712298" lon="118.80457409671655">
        <ele>6.525516941212118</ele>
        <time>2026-10-04T11:02:52Z</time>
      </trkpt>
      <trkpt lat="32.05342151202419" lon="118.80437769591884">
        <ele>8.92998547758907</ele>
        <time>2026-10-04T11:03:01Z</time>
      </trkpt>
      <trkpt lat="32.053408089392846" lon="118.80413722147398">
        <ele>9.14665265288204</ele>
        <time>2026-10-04T11:03:10Z</time>
      </trkpt>
      <trkpt lat="32.05336693354683" lon="118.80405305898928">
        <ele>6.335274173878133</ele>
        <time>2026-10-04T11:03:13Z</time>
      </trkpt>
      <trkpt lat="32.05314352972873" lon="118.80384967818541">
        <ele>9.236488773487508</ele>
        <time>2026-10-04T11:03:22Z</time>
      </trkpt>
      <trkpt lat="32.05306750582286" lon="118.80384567727057">
        <ele>7.894215061329305</ele>
        <time>2026-10-04T11:03:25Z</time>
      </trkpt>
      <trkpt lat="32.052873349325644" lon="118.80378056675528">
        <ele>8.72917218413204</ele>
        <time>2026-10-04T11:03:34Z</time>
      </trkpt>
      <trkpt lat="32.05280934899827" lon="118.80378858843083">
        <ele>6.1186069985851645</ele>
        <time>2026-10-04T11:03:37Z</time>
      </trkpt>
      <trkpt lat="32.05250410860051" lon="118.80368942110498">
        <ele>8.132019474171102</ele>
        <time>2026-10-04T11:03:52Z</time>
      </trkpt>
      <trkpt lat="32.05220992296067" lon="118.80362031206526">
        <ele>8.380394413135946</ele>
        <time>2026-10-04T11:04:04Z</time>
      </trkpt>
      <trkpt lat="32.05205001953229" lon="118.8036964766437">
        <ele>9.21535153593868</ele>
        <time>2026-10-04T11:04:10Z</time>
      </trkpt>
      <trkpt lat="32.05193016517515" lon="118.80379568304465">
        <ele>7.434460117481649</ele>
        <time>2026-10-04T11:04:16Z</time>
      </trkpt>
      <trkpt lat="32.051889272792806" lon="118.80386281912592">
        <ele>6.2454380532726645</ele>
        <time>2026-10-04T11:04:19Z</time>
      </trkpt>
      <trkpt lat="32.05187556273958" lon="118.80403115250694">
        <ele>9.405594303272665</ele>
        <time>2026-10-04T11:04:25Z</time>
      </trkpt>
      <trkpt lat="32.05191387693086" lon="118.80420649543665">
        <ele>8.068603946827352</ele>
        <time>2026-10-04T11:04:32Z</time>
      </trkpt>
      <trkpt lat="32.05200313292078" lon="118.80434175483659">
        <ele>9.432018711231649</ele>
        <time>2026-10-04T11:04:38Z</time>
      </trkpt>
      <trkpt lat="32.05206222660217" lon="118.80438784065669">
        <ele>8.945839359425008</ele>
        <time>2026-10-04T11:04:41Z</time>
      </trkpt>
      <trkpt lat="32.0523394652823" lon="118.80448901565569">
        <ele>8.63933606352657</ele>
        <time>2026-10-04T11:04:53Z</time>
      </trkpt>
      <trkpt lat="32.05260570514066" lon="118.80459219580369">
        <ele>7.608849002979696</ele>
        <time>2026-10-04T11:05:05Z</time>
      </trkpt>
      <trkpt lat="32.0529019676107" lon="118.80470439126397">
        <ele>8.813724949024618</ele>
        <time>2026-10-04T11:05:20Z</time>
      </trkpt>
      <trkpt lat="32.05300404124701" lon="118.80473343957641">
        <ele>8.760879947803915</ele>
        <time>2026-10-04T11:05:23Z</time>
      </trkpt>
      <trkpt lat="32.05315003515955" lon="118.80471138239587">
        <ele>8.200718357227743</ele>
        <time>2026-10-04T11:05:29Z</time>
      </trkpt>
      <trkpt lat="32.053282927921806" lon="118.80463321507395">
        <ele>7.952343418262899</ele>
        <time>2026-10-04T11:05:35Z</time>
      </trkpt>
      <trkpt lat="32.05338667235092" lon="118.80447388965115">
        <ele>8.803158237598836</ele>
        <time>2026-10-04T11:05:41Z</time>
      </trkpt>
      <trkpt lat="32.05341351374357" lon="118.80437970062168">
        <ele>-6.9923549154773355</ele>
        <time>2026-10-04T11:05:44Z</time>
      </trkpt>
      <trkpt lat="32.05341324606312" lon="118.80422639728882">
        <ele>8.110882236622274</ele>
        <time>2026-10-04T11:05:50Z</time>
      </trkpt>
      <trkpt lat="32.053364992473306" lon="118.80408712645219">
        <ele>7.672264530323446</ele>
        <time>2026-10-04T11:05:56Z</time>
      </trkpt>
      <trkpt lat="32.053292777429746" lon="118.80397290756191">
        <ele>6.604786350391805</ele>
        <time>2026-10-04T11:06:02Z</time>
      </trkpt>
      <trkpt lat="32.05324468648934" lon="118.80392682103971">
        <ele>8.406815006397665</ele>
        <time>2026-10-04T11:06:05Z</time>
      </trkpt>
      <trkpt lat="32.05298447861288" lon="118.80384067502436">
        <ele>7.487305118702352</ele>
        <time>2026-10-04T11:06:17Z</time>
      </trkpt>
      <trkpt lat="32.05286040392432" lon="118.80381363310238">
        <ele>8.427956058643758</ele>
        <time>2026-10-04T11:06:23Z</time>
      </trkpt>
      <trkpt lat="32.05274824308639" lon="118.80373548943032">
        <ele>8.512508823536336</ele>
        <time>2026-10-04T11:06:26Z</time>
      </trkpt>
      <trkpt lat="32.052651202308795" lon="118.80372447664128">
        <ele>6.192589237354696</ele>
        <time>2026-10-04T11:06:33Z</time>
      </trkpt>
      <trkpt lat="32.05235197724795" lon="118.80363332464188">
        <ele>6.129177524708211</ele>
        <time>2026-10-04T11:06:48Z</time>
      </trkpt>
      <trkpt lat="32.05226890306753" lon="118.80360126918914">
        <ele>8.459660007618368</ele>
        <time>2026-10-04T11:06:51Z</time>
      </trkpt>
      <trkpt lat="32.052066911940706" lon="118.80363234886717">
        <ele>8.56535382475704</ele>
        <time>2026-10-04T11:07:00Z</time>
      </trkpt>
      <trkpt lat="32.05195106186687" lon="118.80373355874187">
        <ele>8.935272647999227</ele>
        <time>2026-10-04T11:07:06Z</time>
      </trkpt>
      <trkpt lat="32.05192923639786" lon="118.80383676409532">
        <ele>7.001125766895711</ele>
        <time>2026-10-04T11:07:09Z</time>
      </trkpt>
      <trkpt lat="32.05188440071763" lon="118.80393696580798">
        <ele>8.597061588428915</ele>
        <time>2026-10-04T11:07:12Z</time>
      </trkpt>
      <trkpt lat="32.05187471269766" lon="118.80411732277828">
        <ele>8.586491062305868</ele>
        <time>2026-10-04T11:07:18Z</time>
      </trkpt>
      <trkpt lat="32.0519520445522" lon="118.80429767228027">
        <ele>8.427956058643758</ele>
        <time>2026-10-04T11:07:24Z</time>
      </trkpt>
      <trkpt lat="32.052122252242064" lon="118.80439484903022">
        <ele>8.655189945362508</ele>
        <time>2026-10-04T11:07:30Z</time>
      </trkpt>
      <trkpt lat="32.052325376321065" lon="118.80443991967088">
        <ele>9.63283200468868</ele>
        <time>2026-10-04T11:07:40Z</time>
      </trkpt>
      <trkpt lat="32.05258065573134" lon="118.80456714842695">
        <ele>7.21779294218868</ele>
        <time>2026-10-04T11:07:52Z</time>
      </trkpt>
      <trkpt lat="32.05293300435911" lon="118.8047214222295">
        <ele>7.725109531544149</ele>
        <time>2026-10-04T11:08:07Z</time>
      </trkpt>
      <trkpt lat="32.05304205849266" lon="118.8047384460315">
        <ele>7.640556766651571</ele>
        <time>2026-10-04T11:08:13Z</time>
      </trkpt>
      <trkpt lat="32.05330390453482" lon="118.80461718134069">
        <ele>10.34624524321407</ele>
        <time>2026-10-04T11:08:25Z</time>
      </trkpt>
      <trkpt lat="32.05336180347715" lon="118.80455204685109">
        <ele>8.34868664946407</ele>
        <time>2026-10-04T11:08:28Z</time>
      </trkpt>
      <trkpt lat="32.05342250874575" lon="118.80437569185943">
        <ele>5.15681882109493</ele>
        <time>2026-10-04T11:08:34Z</time>
      </trkpt>
      <trkpt lat="32.05341121239947" lon="118.80420735983023">
        <ele>6.678768589161336</ele>
        <time>2026-10-04T11:08:40Z</time>
      </trkpt>
      <trkpt lat="32.0533549518268" lon="118.80406508383565">
        <ele>6.277142002247274</ele>
        <time>2026-10-04T11:08:46Z</time>
      </trkpt>
      <trkpt lat="32.05326474327665" lon="118.80395687850233">
        <ele>8.079174472950399</ele>
        <time>2026-10-04T11:08:52Z</time>
      </trkpt>
      <trkpt lat="32.05309046563441" lon="118.80381962380908">
        <ele>7.270637943409383</ele>
        <time>2026-10-04T11:08:58Z</time>
      </trkpt>
      <trkpt lat="32.05298438277339" lon="118.80378556642273">
        <ele>5.188526584766805</ele>
        <time>2026-10-04T11:09:04Z</time>
      </trkpt>
      <trkpt lat="32.05285431373622" lon="118.80376253297176">
        <ele>8.544216587208211</ele>
        <time>2026-10-04T11:09:10Z</time>
      </trkpt>
      <trkpt lat="32.052809342029654" lon="118.8037845805343">
        <ele>8.966976596973836</ele>
        <time>2026-10-04T11:09:13Z</time>
      </trkpt>
      <trkpt lat="32.05248010498996" lon="118.80369042528355">
        <ele>7.767387821339071</ele>
        <time>2026-10-04T11:09:29Z</time>
      </trkpt>
      <trkpt lat="32.05228699233274" lon="118.8036503641359">
        <ele>8.200718357227743</ele>
        <time>2026-10-04T11:09:38Z</time>
      </trkpt>
      <trkpt lat="32.052143040278" lon="118.8036964680954">
        <ele>7.746246769092977</ele>
        <time>2026-10-04T11:09:44Z</time>
      </trkpt>
      <trkpt lat="32.05199020643996" lon="118.80381170912015">
        <ele>8.63933606352657</ele>
        <time>2026-10-04T11:09:53Z</time>
      </trkpt>
      <trkpt lat="32.05191345080078" lon="118.80396201256241">
        <ele>8.649906589649618</ele>
        <time>2026-10-04T11:09:59Z</time>
      </trkpt>
      <trkpt lat="32.05189268527189" lon="118.804099285495">
        <ele>8.834866001270711</ele>
        <time>2026-10-04T11:10:05Z</time>
      </trkpt>
      <trkpt lat="32.05194396405553" lon="118.80425258382161">
        <ele>8.380394413135946</ele>
        <time>2026-10-04T11:10:11Z</time>
      </trkpt>
      <trkpt lat="32.052001093975974" lon="118.80431971139477">
        <ele>7.57185788359493</ele>
        <time>2026-10-04T11:10:14Z</time>
      </trkpt>
      <trkpt lat="32.052118242595775" lon="118.80438983947796">
        <ele>8.089744999073446</ele>
        <time>2026-10-04T11:10:20Z</time>
      </trkpt>
      <trkpt lat="32.05241252011226" lon="118.80451105263225">
        <ele>7.603565647266805</ele>
        <time>2026-10-04T11:10:35Z</time>
      </trkpt>
      <trkpt lat="32.05268874293433" lon="118.80460321003576">
        <ele>8.190151645801961</ele>
        <time>2026-10-04T11:10:47Z</time>
      </trkpt>
      <trkpt lat="32.05296495532479" lon="118.80468935564183">
        <ele>7.767387821339071</ele>
        <time>2026-10-04T11:10:59Z</time>
      </trkpt>
      <trkpt lat="32.05309800953198" lon="118.80470337126266">
        <ele>8.43852277006954</ele>
        <time>2026-10-04T11:11:05Z</time>
      </trkpt>
      <trkpt lat="32.053275882512445" lon="118.80460816602638">
        <ele>8.655189945362508</ele>
        <time>2026-10-04T11:11:15Z</time>
      </trkpt>
      <trkpt lat="32.05338571943595" lon="118.8045009433521">
        <ele>7.984051181934774</ele>
        <time>2026-10-04T11:11:21Z</time>
      </trkpt>
      <trkpt lat="32.05341861641732" lon="118.8044378152495">
        <ele>8.327549411915243</ele>
        <time>2026-10-04T11:11:24Z</time>
      </trkpt>
      <trkpt lat="32.053441460466786" lon="118.80434563060834">
        <ele>6.060478641651571</ele>
        <time>2026-10-04T11:11:27Z</time>
      </trkpt>
      <trkpt lat="32.05343824988288" lon="118.8042253930097">
        <ele>8.27470441069454</ele>
        <time>2026-10-04T11:11:30Z</time>
      </trkpt>
      <trkpt lat="32.0534130730353" lon="118.80412720121633">
        <ele>7.809662296436727</ele>
        <time>2026-10-04T11:11:33Z</time>
      </trkpt>
      <trkpt lat="32.05322363472344" lon="118.80389976961176">
        <ele>7.8572239419445395</ele>
        <time>2026-10-04T11:11:45Z</time>
      </trkpt>
      <trkpt lat="32.053087585241954" lon="118.80388876037739">
        <ele>5.415760471485555</ele>
        <time>2026-10-04T11:11:51Z</time>
      </trkpt>
      <trkpt lat="32.05302549995015" lon="118.80384768508138">
        <ele>7.894215061329305</ele>
        <time>2026-10-04T11:11:54Z</time>
      </trkpt>
      <trkpt lat="32.052927458938754" lon="118.80383667236367">
        <ele>7.941776706837118</ele>
        <time>2026-10-04T11:12:00Z</time>
      </trkpt>
      <trkpt lat="32.052652209496834" lon="118.8037284844419">
        <ele>7.899498417042196</ele>
        <time>2026-10-04T11:12:09Z</time>
      </trkpt>
      <trkpt lat="32.052333995854" lon="118.80364635192839">
        <ele>7.592995121143758</ele>
        <time>2026-10-04T11:12:24Z</time>
      </trkpt>
      <trkpt lat="32.0521669446871" lon="118.80363835150499">
        <ele>8.803158237598836</ele>
        <time>2026-10-04T11:12:33Z</time>
      </trkpt>
      <trkpt lat="32.05204600471369" lon="118.80368846123088">
        <ele>7.34462399687618</ele>
        <time>2026-10-04T11:12:39Z</time>
      </trkpt>
      <trkpt lat="32.051917245920976" lon="118.80384377902328">
        <ele>8.242996647022665</ele>
        <time>2026-10-04T11:12:45Z</time>
      </trkpt>
      <trkpt lat="32.051880375406" lon="118.80392293850501">
        <ele>2.0072292825207114</ele>
        <time>2026-10-04T11:12:48Z</time>
      </trkpt>
      <trkpt lat="32.05186958933347" lon="118.80404718471054">
        <ele>6.298283054493368</ele>
        <time>2026-10-04T11:12:54Z</time>
      </trkpt>
      <trkpt lat="32.05191886231343" lon="118.80419747714897">
        <ele>7.809662296436727</ele>
        <time>2026-10-04T11:13:00Z</time>
      </trkpt>
      <trkpt lat="32.0520791516254" lon="118.80434274983507">
        <ele>7.592995121143758</ele>
        <time>2026-10-04T11:13:09Z</time>
      </trkpt>
      <trkpt lat="32.052384464804746" lon="118.80448299960725">
        <ele>7.270637943409383</ele>
        <time>2026-10-04T11:13:25Z</time>
      </trkpt>
      <trkpt lat="32.05260969726457" lon="118.80458718550044">
        <ele>7.899498417042196</ele>
        <time>2026-10-04T11:13:37Z</time>
      </trkpt>
      <trkpt lat="32.05289487480105" lon="118.80465228850329">
        <ele>7.878361179493368</ele>
        <time>2026-10-04T11:13:49Z</time>
      </trkpt>
      <trkpt lat="32.05306102586112" lon="118.80471740250962">
        <ele>7.9206394692882895</ele>
        <time>2026-10-04T11:13:55Z</time>
      </trkpt>
      <trkpt lat="32.05319000194915" lon="118.80468733098682">
        <ele>7.21779294218868</ele>
        <time>2026-10-04T11:14:01Z</time>
      </trkpt>
      <trkpt lat="32.05329888062084" lon="118.804604155963">
        <ele>7.788525058887899</ele>
        <time>2026-10-04T11:14:07Z</time>
      </trkpt>
      <trkpt lat="32.05342460199127" lon="118.80442879683615">
        <ele>7.561287357471883</ele>
        <time>2026-10-04T11:14:16Z</time>
      </trkpt>
      <trkpt lat="32.053450366234586" lon="118.80429052072655">
        <ele>8.047466709278524</ele>
        <time>2026-10-04T11:14:22Z</time>
      </trkpt>
      <trkpt lat="32.05342007983563" lon="118.8041302065122">
        <ele>8.401531650684774</ele>
        <time>2026-10-04T11:14:28Z</time>
      </trkpt>
      <trkpt lat="32.053356882437264" lon="118.80402500451632">
        <ele>7.672264530323446</ele>
        <time>2026-10-04T11:14:34Z</time>
      </trkpt>
      <trkpt lat="32.05316654008238" lon="118.80385268199693">
        <ele>7.746246769092977</ele>
        <time>2026-10-04T11:14:43Z</time>
      </trkpt>
      <trkpt lat="32.053063510160655" lon="118.80384868356366">
        <ele>7.164947940967977</ele>
        <time>2026-10-04T11:14:46Z</time>
      </trkpt>
      <trkpt lat="32.05275329819162" lon="118.80376655015058">
        <ele>5.458038761280477</ele>
        <time>2026-10-04T11:15:01Z</time>
      </trkpt>
      <trkpt lat="32.0524360603667" lon="118.80367038988064">
        <ele>8.21128888335079</ele>
        <time>2026-10-04T11:15:16Z</time>
      </trkpt>
      <trkpt lat="32.05224095771245" lon="118.80363634075971">
        <ele>8.63933606352657</ele>
        <time>2026-10-04T11:15:26Z</time>
      </trkpt>
      <trkpt lat="32.052172958205745" lon="118.80364536475552">
        <ele>8.369823887012899</ele>
        <time>2026-10-04T11:15:29Z</time>
      </trkpt>
      <trkpt lat="32.05206701984303" lon="118.80369447113587">
        <ele>5.838528110645711</ele>
        <time>2026-10-04T11:15:35Z</time>
      </trkpt>
      <trkpt lat="32.05192020650563" lon="118.8038207333256">
        <ele>7.44502682890743</ele>
        <time>2026-10-04T11:15:41Z</time>
      </trkpt>
      <trkpt lat="32.051883485983694" lon="118.80398606277242">
        <ele>6.060478641651571</ele>
        <time>2026-10-04T11:15:47Z</time>
      </trkpt>
      <trkpt lat="32.0518947416183" lon="118.80413134865518">
        <ele>7.8572239419445395</ele>
        <time>2026-10-04T11:15:53Z</time>
      </trkpt>
      <trkpt lat="32.05192488113334" lon="118.80420749640666">
        <ele>8.21128888335079</ele>
        <time>2026-10-04T11:15:56Z</time>
      </trkpt>
      <trkpt lat="32.05202211090975" lon="118.80432672334483">
        <ele>7.9206394692882895</ele>
        <time>2026-10-04T11:16:02Z</time>
      </trkpt>
      <trkpt lat="32.05227936956517" lon="118.80444192786791">
        <ele>9.775513126514852</ele>
        <time>2026-10-04T11:16:14Z</time>
      </trkpt>
      <trkpt lat="32.052499520235145" lon="118.8045000227931">
        <ele>6.256004764698446</ele>
        <time>2026-10-04T11:16:26Z</time>
      </trkpt>
      <trkpt lat="32.05264369432343" lon="118.80458117045356">
        <ele>8.089744999073446</ele>
        <time>2026-10-04T11:16:32Z</time>
      </trkpt>
      <trkpt lat="32.05299291944956" lon="118.80466530534405">
        <ele>7.371044590137899</ele>
        <time>2026-10-04T11:16:47Z</time>
      </trkpt>
      <trkpt lat="32.05312997454235" lon="118.8046793205919">
        <ele>7.402752353809774</ele>
        <time>2026-10-04T11:16:53Z</time>
      </trkpt>
      <trkpt lat="32.05325690809686" lon="118.80462520156125">
        <ele>7.962913944385946</ele>
        <time>2026-10-04T11:16:59Z</time>
      </trkpt>
      <trkpt lat="32.053357765775345" lon="118.8045310055047">
        <ele>5.611290409229696</ele>
        <time>2026-10-04T11:17:05Z</time>
      </trkpt>
      <trkpt lat="32.05340960390432" lon="118.80443180416857">
        <ele>7.011696293018758</ele>
        <time>2026-10-04T11:17:08Z</time>
      </trkpt>
      <trkpt lat="32.05342633290109" lon="118.80427449121657">
        <ele>8.015758945606649</ele>
        <time>2026-10-04T11:17:14Z</time>
      </trkpt>
      <trkpt lat="32.05339604479152" lon="118.8041131750643">
        <ele>7.392181827686727</ele>
        <time>2026-10-04T11:17:20Z</time>
      </trkpt>
      <trkpt lat="32.053303825250865" lon="118.80399895796377">
        <ele>6.958851291798055</ele>
        <time>2026-10-04T11:17:26Z</time>
      </trkpt>
      <trkpt lat="32.053122603502416" lon="118.80389476901554">
        <ele>6.721046878956258</ele>
        <time>2026-10-04T11:17:36Z</time>
      </trkpt>
      <trkpt lat="32.0530045266476" lon="118.80386572256693">
        <ele>8.158443882130086</ele>
        <time>2026-10-04T11:17:42Z</time>
      </trkpt>
      <trkpt lat="32.05292343713383" lon="118.80382464903299">
        <ele>8.190151645801961</ele>
        <time>2026-10-04T11:17:45Z</time>
      </trkpt>
      <trkpt lat="32.05261122125325" lon="118.80374051188977">
        <ele>7.8572239419445395</ele>
        <time>2026-10-04T11:18:00Z</time>
      </trkpt>
      <trkpt lat="32.05240407585829" lon="118.80368341846203">
        <ele>8.116165592335165</ele>
        <time>2026-10-04T11:18:09Z</time>
      </trkpt>
      <trkpt lat="32.05236098795479" lon="118.80363833367271">
        <ele>7.50844235625118</ele>
        <time>2026-10-04T11:18:12Z</time>
      </trkpt>
      <trkpt lat="32.05228390641292" lon="118.80360126781035">
        <ele>8.158443882130086</ele>
        <time>2026-10-04T11:18:15Z</time>
      </trkpt>
      <trkpt lat="32.05214289931773" lon="118.80361530836724">
        <ele>7.8572239419445395</ele>
        <time>2026-10-04T11:18:21Z</time>
      </trkpt>
      <trkpt lat="32.05207594352894" lon="118.80364938155883">
        <ele>8.406815006397665</ele>
        <time>2026-10-04T11:18:24Z</time>
      </trkpt>
      <trkpt lat="32.05196014922002" lon="118.80378265462318">
        <ele>7.973484470508993</ele>
        <time>2026-10-04T11:18:30Z</time>
      </trkpt>
      <trkpt lat="32.05191341416559" lon="118.80394097104903">
        <ele>7.693401767872274</ele>
        <time>2026-10-04T11:18:36Z</time>
      </trkpt>
      <trkpt lat="32.051906702369266" lon="118.80410730004273">
        <ele>6.805599643848836</ele>
        <time>2026-10-04T11:18:42Z</time>
      </trkpt>
      <trkpt lat="32.05192786956569" lon="118.80420048226438">
        <ele>5.029991581104696</ele>
        <time>2026-10-04T11:18:45Z</time>
      </trkpt>
      <trkpt lat="32.05201111720532" lon="118.80433173427056">
        <ele>5.817387058399618</ele>
        <time>2026-10-04T11:18:51Z</time>
      </trkpt>
      <trkpt lat="32.05229039829254" lon="118.80445695663035">
        <ele>7.809662296436727</ele>
        <time>2026-10-04T11:19:04Z</time>
      </trkpt>
      <trkpt lat="32.05247751883444" lon="118.8045020287864">
        <ele>8.57592053618282</ele>
        <time>2026-10-04T11:19:13Z</time>
      </trkpt>
      <trkpt lat="32.052660727923886" lon="118.80459820267245">
        <ele>8.132019474171102</ele>
        <time>2026-10-04T11:19:22Z</time>
      </trkpt>
      <trkpt lat="32.05296992134274" lon="118.80466931541122">
        <ele>8.232426120899618</ele>
        <time>2026-10-04T11:19:34Z</time>
      </trkpt>
      <trkpt lat="32.053043965909275" lon="118.80468534042697">
        <ele>7.941776706837118</ele>
        <time>2026-10-04T11:19:37Z</time>
      </trkpt>
      <trkpt lat="32.053170966129706" lon="118.80466929693917">
        <ele>8.43852277006954</ele>
        <time>2026-10-04T11:19:43Z</time>
      </trkpt>
      <trkpt lat="32.05332775383466" lon="118.80452800230327">
        <ele>5.727550937794149</ele>
        <time>2026-10-04T11:19:52Z</time>
      </trkpt>
      <trkpt lat="32.05339860670839" lon="118.80443481113353">
        <ele>5.664135410450399</ele>
        <time>2026-10-04T11:19:55Z</time>
      </trkpt>
      <trkpt lat="32.05342046104002" lon="118.80434863848824">
        <ele>8.089744999073446</ele>
        <time>2026-10-04T11:19:58Z</time>
      </trkpt>
      <trkpt lat="32.05341213921077" lon="118.80416527654958">
        <ele>7.746246769092977</ele>
        <time>2026-10-04T11:20:04Z</time>
      </trkpt>
      <trkpt lat="32.05338699737363" lon="118.80408712443008">
        <ele>7.629986240528524</ele>
        <time>2026-10-04T11:20:07Z</time>
      </trkpt>
      <trkpt lat="32.05329377416286" lon="118.8039709035156">
        <ele>7.735680057667196</ele>
        <time>2026-10-04T11:20:13Z</time>
      </trkpt>
      <trkpt lat="32.05316264380375" lon="118.80391280090815">
        <ele>5.870232059620321</ele>
        <time>2026-10-04T11:20:19Z</time>
      </trkpt>
      <trkpt lat="32.05294552918995" lon="118.80387474576966">
        <ele>7.34462399687618</ele>
        <time>2026-10-04T11:20:28Z</time>
      </trkpt>
      <trkpt lat="32.05267328384227" lon="118.80376856145166">
        <ele>7.402752353809774</ele>
        <time>2026-10-04T11:20:46Z</time>
      </trkpt>
      <trkpt lat="32.05257721367314" lon="118.803740515015">
        <ele>9.14665265288204</ele>
        <time>2026-10-04T11:20:52Z</time>
      </trkpt>
      <trkpt lat="32.05247107513299" lon="118.8036743945524">
        <ele>7.423889591358602</ele>
        <time>2026-10-04T11:20:55Z</time>
      </trkpt>
      <trkpt lat="32.05224595186788" lon="118.80363233241373">
        <ele>8.27470441069454</ele>
        <time>2026-10-04T11:21:07Z</time>
      </trkpt>
      <trkpt lat="32.052145948703064" lon="118.80364336329379">
        <ele>5.341778232716024</ele>
        <time>2026-10-04T11:21:13Z</time>
      </trkpt>
      <trkpt lat="32.051947094063316" lon="118.80375259660404">
        <ele>8.169010593555868</ele>
        <time>2026-10-04T11:21:22Z</time>
      </trkpt>
      <trkpt lat="32.05190448368928" lon="118.80398205293285">
        <ele>7.830799533985555</ele>
        <time>2026-10-04T11:21:31Z</time>
      </trkpt>
      <trkpt lat="32.05194379448575" lon="118.80415539167065">
        <ele>7.561287357471883</ele>
        <time>2026-10-04T11:21:37Z</time>
      </trkpt>
      <trkpt lat="32.051975930975566" lon="118.80422953530527">
        <ele>7.788525058887899</ele>
        <time>2026-10-04T11:21:40Z</time>
      </trkpt>
      <trkpt lat="32.05207012161782" lon="118.80432671893344">
        <ele>7.133240177296102</ele>
        <time>2026-10-04T11:21:46Z</time>
      </trkpt>
      <trkpt lat="32.052355386514314" lon="118.8044419208833">
        <ele>7.21779294218868</ele>
        <time>2026-10-04T11:22:01Z</time>
      </trkpt>
      <trkpt lat="32.052605661304945" lon="118.80456714612941">
        <ele>6.710476352833211</ele>
        <time>2026-10-04T11:22:14Z</time>
      </trkpt>
      <trkpt lat="32.05280681308529" lon="118.80462824888009">
        <ele>6.6999058267101645</ele>
        <time>2026-10-04T11:22:23Z</time>
      </trkpt>
      <trkpt lat="32.053093952483124" lon="118.80467130799238">
        <ele>7.080395176075399</ele>
        <time>2026-10-04T11:22:35Z</time>
      </trkpt>
      <trkpt lat="32.05316195535134" lon="118.80466428782447">
        <ele>7.270637943409383</ele>
        <time>2026-10-04T11:22:38Z</time>
      </trkpt>
      <trkpt lat="32.05323991308018" lon="118.80463021306231">
        <ele>6.319420292042196</ele>
        <time>2026-10-04T11:22:41Z</time>
      </trkpt>
      <trkpt lat="32.053387690093864" lon="118.80448390941308">
        <ele>5.780395939014852</ele>
        <time>2026-10-04T11:22:50Z</time>
      </trkpt>
      <trkpt lat="32.05341756365758" lon="118.80440775580674">
        <ele>6.7316135903820395</ele>
        <time>2026-10-04T11:22:53Z</time>
      </trkpt>
      <trkpt lat="32.053425427152696" lon="118.8043285983659">
        <ele>7.714539005421102</ele>
        <time>2026-10-04T11:22:56Z</time>
      </trkpt>
      <trkpt lat="32.05339509698071" lon="118.80414323454846">
        <ele>7.746246769092977</ele>
        <time>2026-10-04T11:23:02Z</time>
      </trkpt>
      <trkpt lat="32.053363946846986" lon="118.8040610750937">
        <ele>5.790966465137899</ele>
        <time>2026-10-04T11:23:05Z</time>
      </trkpt>
      <trkpt lat="32.05326272015239" lon="118.80394385298727">
        <ele>7.402752353809774</ele>
        <time>2026-10-04T11:23:11Z</time>
      </trkpt>
      <trkpt lat="32.0531946160565" lon="118.80389275844571">
        <ele>8.34868664946407</ele>
        <time>2026-10-04T11:23:14Z</time>
      </trkpt>
      <trkpt lat="32.05291837677601" lon="118.80379058236014">
        <ele>7.50844235625118</ele>
        <time>2026-10-04T11:23:26Z</time>
      </trkpt>
      <trkpt lat="32.05279127008588" lon="118.80374550521151">
        <ele>7.809662296436727</ele>
        <time>2026-10-04T11:23:32Z</time>
      </trkpt>
      <trkpt lat="32.05246408053435" lon="118.80367840308504">
        <ele>7.360477878712118</ele>
        <time>2026-10-04T11:23:47Z</time>
      </trkpt>
      <trkpt lat="32.05222191867836" lon="118.80361630307692">
        <ele>8.14787335600704</ele>
        <time>2026-10-04T11:24:00Z</time>
      </trkpt>
      <trkpt lat="32.05222191867836" lon="118.80361630307692">
        <ele>3.4764428839419454</ele>
        <time>2026-10-04T11:24:02Z</time>
      </trkpt>
    </trkseg>
  </trk>
</gpx>