<?xml version="1.0" encoding="UTF-8"?>
<gpx xmlns="http://www.topografix.com/GPX/1/1" xmlns:gpxtpx="http://www.garmin.com/xmlschemas/TrackPointExtension/v1" xmlns:xsi="http://www.w3.org/2001/XMLSchema-instance" xsi:schemaLocation="http://www.topografix.com/GPX/1/1 http://www.topografix.com/GPX/1/1/gpx.xsd" version="1.1" creator="gpx.py -- https://github.com/tkrajina/gpxpy">
  <trk>
    <name>gpx from keep</name>
    <type>Run</type>
    <trkseg>
      <trkpt lat="31.230030374830555" lon="121.40040090983344">
        <ele>18.038964457809925</ele>
        <time>2026-05-23T10:59:23Z</time>
      </trkpt>
      <trkpt lat="31.230351213551224" lon="121.40029386535512">
        <ele>16.25014228373766</ele>
        <time>2026-05-23T10:59:35Z</time>
      </trkpt>
      <trkpt lat="31.23071803405896" lon="121.40020982083259">
        <ele>21.418431468307972</ele>
        <time>2026-05-23T10:59:44Z</time>
      </trkpt>
      <trkpt lat="31.23089294605807" lon="121.40014579628098">
        <ele>23.186112590134144</ele>
        <time>2026-05-23T10:59:50Z</time>
      </trkpt>
      <trkpt lat="31.23108784407515" lon="121.40003376353327">
        <ele>22.16090888530016</ele>
        <time>2026-05-23T10:59:56Z</time>
      </trkpt>
      <trkpt lat="31.2312087654786" lon="121.39979972221258">
        <ele>20.28753776103258</ele>
        <time>2026-05-23T11:00:02Z</time>
      </trkpt>
      <trkpt lat="31.231227744424487" lon="121.3996607036388">
        <ele>19.965180583298206</ele>
        <time>2026-05-23T11:00:05Z</time>
      </trkpt>
      <trkpt lat="31.231152761271964" lon="121.39943768515536">
        <ele>20.025952525436878</ele>
        <time>2026-05-23T11:00:11Z</time>
      </trkpt>
      <trkpt lat="31.23110077947387" lon="121.39935768134809">
        <ele>16.773312754929066</ele>
        <time>2026-05-23T11:00:14Z</time>
      </trkpt>
      <trkpt lat="31.230879874823003" lon="121.39925669056532">
        <ele>19.473717875778675</ele>
        <time>2026-05-23T11:00:23Z</time>
      </trkpt>
      <trkpt lat="31.230799910619798" lon="121.39923769570927">
        <ele>10.68023032695055</ele>
        <time>2026-05-23T11:00:26Z</time>
      </trkpt>
      <trkpt lat="31.230585015020537" lon="121.39930772129465">
        <ele>20.64424628764391</ele>
        <time>2026-05-23T11:00:35Z</time>
      </trkpt>
      <trkpt lat="31.230270170344227" lon="121.39943576193006">
        <ele>20.00481528788805</ele>
        <time>2026-05-23T11:00:44Z</time>
      </trkpt>
      <trkpt lat="31.23000230322168" lon="121.3995457973015">
        <ele>13.782258220016956</ele>
        <time>2026-05-23T11:00:53Z</time>
      </trkpt>
      <trkpt lat="31.22993433744644" lon="121.39957880695553">
        <ele>19.912335582077503</ele>
        <time>2026-05-23T11:00:56Z</time>
      </trkpt>
      <trkpt lat="31.22985138229411" lon="121.39965482298894">
        <ele>20.41436881572008</ele>
        <time>2026-05-23T11:00:59Z</time>
      </trkpt>
      <trkpt lat="31.22978841873637" lon="121.39973783843509">
        <ele>-9.82645683735609</ele>
        <time>2026-05-23T11:01:02Z</time>
      </trkpt>
      <trkpt lat="31.229754441929614" lon="121.39981985158803">
        <ele>20.541196055710316</ele>
        <time>2026-05-23T11:01:05Z</time>
      </trkpt>
      <trkpt lat="31.22974246340806" lon="121.3999858743409">
        <ele>16.543435283005238</ele>
        <time>2026-05-23T11:01:11Z</time>
      </trkpt>
      <trkpt lat="31.229761471393385" lon="121.40014889540738">
        <ele>-22.316485218703747</ele>
        <time>2026-05-23T11:01:17Z</time>
      </trkpt>
      <trkpt lat="31.22982845352524" lon="121.40026990733709">
        <ele>19.106442637741566</ele>
        <time>2026-05-23T11:01:23Z</time>
      </trkpt>
      <trkpt lat="31.229965399735892" lon="121.40035590849146">
        <ele>21.983876414597034</ele>
        <time>2026-05-23T11:01:29Z</time>
      </trkpt>
      <trkpt lat="31.230086346027537" lon="121.4003769011996">
        <ele>-0.7158954665064812</ele>
        <time>2026-05-23T11:01:35Z</time>
      </trkpt>
      <trkpt lat="31.230232275847506" lon="121.40035588521279">
        <ele>-8.209385685622692</ele>
        <time>2026-05-23T11:01:41Z</time>
      </trkpt>
      <trkpt lat="31.230531124595398" lon="121.40024484231026">
        <ele>19.671887584030628</ele>
        <time>2026-05-23T11:01:50Z</time>
      </trkpt>
      <trkpt lat="31.230855963626848" lon="121.40014980008151">
        <ele>21.104001231491566</ele>
        <time>2026-05-23T11:02:05Z</time>
      </trkpt>
      <trkpt lat="31.231116826915652" lon="121.39999675594788">
        <ele>20.58083076030016</ele>
        <time>2026-05-23T11:02:20Z</time>
      </trkpt>
      <trkpt lat="31.231190783830975" lon="121.39990673749551">
        <ele>19.420872874557972</ele>
        <time>2026-05-23T11:02:23Z</time>
      </trkpt>
      <trkpt lat="31.231227753784218" lon="121.3997677165715">
        <ele>18.218636699020863</ele>
        <time>2026-05-23T11:02:29Z</time>
      </trkpt>
      <trkpt lat="31.231201749632323" lon="121.39957869640132">
        <ele>12.194253154098988</ele>
        <time>2026-05-23T11:02:38Z</time>
      </trkpt>
      <trkpt lat="31.231142768409462" lon="121.39947068956575">
        <ele>22.80033988505602</ele>
        <time>2026-05-23T11:02:41Z</time>
      </trkpt>
      <trkpt lat="31.23093585084851" lon="121.39928568851413">
        <ele>18.939976878464222</ele>
        <time>2026-05-23T11:02:50Z</time>
      </trkpt>
      <trkpt lat="31.23085488600298" lon="121.39925069216474">
        <ele>8.923119731247425</ele>
        <time>2026-05-23T11:02:53Z</time>
      </trkpt>
      <trkpt lat="31.230509051090834" lon="121.39931972911924">
        <ele>8.89141196757555</ele>
        <time>2026-05-23T11:03:05Z</time>
      </trkpt>
      <trkpt lat="31.230323145461433" lon="121.39943175688454">
        <ele>17.349328227341175</ele>
        <time>2026-05-23T11:03:14Z</time>
      </trkpt>
      <trkpt lat="31.230009299095563" lon="121.39953479546209">
        <ele>18.300549693405628</ele>
        <time>2026-05-23T11:03:26Z</time>
      </trkpt>
      <trkpt lat="31.229897354783635" lon="121.39958081040902">
        <ele>15.341202922165394</ele>
        <time>2026-05-23T11:03:32Z</time>
      </trkpt>
      <trkpt lat="31.229799405842197" lon="121.39964782669965">
        <ele>18.699532695114613</ele>
        <time>2026-05-23T11:03:35Z</time>
      </trkpt>
      <trkpt lat="31.229739439550617" lon="121.39971584003366">
        <ele>21.764569468796253</ele>
        <time>2026-05-23T11:03:38Z</time>
      </trkpt>
      <trkpt lat="31.22971546003848" lon="121.39981985498825">
        <ele>20.37209052592516</ele>
        <time>2026-05-23T11:03:41Z</time>
      </trkpt>
      <trkpt lat="31.229731474463314" lon="121.4000448833636">
        <ele>19.99688834697008</ele>
        <time>2026-05-23T11:03:47Z</time>
      </trkpt>
      <trkpt lat="31.229785464337862" lon="121.40018689881305">
        <ele>21.93103141337633</ele>
        <time>2026-05-23T11:03:53Z</time>
      </trkpt>
      <trkpt lat="31.229878434719357" lon="121.40030890886977">
        <ele>19.986317820847034</ele>
        <time>2026-05-23T11:03:59Z</time>
      </trkpt>
      <trkpt lat="31.229997387328257" lon="121.40037690895916">
        <ele>20.874123759567738</ele>
        <time>2026-05-23T11:04:05Z</time>
      </trkpt>
      <trkpt lat="31.230310237818745" lon="121.40033987594579">
        <ele>21.325951762497425</ele>
        <time>2026-05-23T11:04:17Z</time>
      </trkpt>
      <trkpt lat="31.230626081557155" lon="121.40025383536818">
        <ele>20.768429942429066</ele>
        <time>2026-05-23T11:04:32Z</time>
      </trkpt>
      <trkpt lat="31.230852965016798" lon="121.40014980034307">
        <ele>19.534489817917347</ele>
        <time>2026-05-23T11:04:44Z</time>
      </trkpt>
      <trkpt lat="31.231083842898737" lon="121.40000375977634">
        <ele>7.816006846725941</ele>
        <time>2026-05-23T11:04:53Z</time>
      </trkpt>
      <trkpt lat="31.231163797391286" lon="121.39991774129352">
        <ele>21.867619700729847</ele>
        <time>2026-05-23T11:04:56Z</time>
      </trkpt>
      <trkpt lat="31.23120975953115" lon="121.39973871457644">
        <ele>20.94810599833727</ele>
        <time>2026-05-23T11:05:02Z</time>
      </trkpt>
      <trkpt lat="31.231183759029438" lon="121.399591699454">
        <ele>6.917630381882191</ele>
        <time>2026-05-23T11:05:05Z</time>
      </trkpt>
      <trkpt lat="31.231151766640945" lon="121.39950169215707">
        <ele>16.754819102585316</ele>
        <time>2026-05-23T11:05:08Z</time>
      </trkpt>
      <trkpt lat="31.231043807605232" lon="121.399381688785">
        <ele>19.01131934672594</ele>
        <time>2026-05-23T11:05:14Z</time>
      </trkpt>
      <trkpt lat="31.230968838338168" lon="121.39932568961456">
        <ele>20.173920817673206</ele>
        <time>2026-05-23T11:05:17Z</time>
      </trkpt>
      <trkpt lat="31.230830898335498" lon="121.39926869600383">
        <ele>12.363358683884144</ele>
        <time>2026-05-23T11:05:23Z</time>
      </trkpt>
      <trkpt lat="31.230755933156146" lon="121.39926970264051">
        <ele>21.01152152568102</ele>
        <time>2026-05-23T11:05:26Z</time>
      </trkpt>
      <trkpt lat="31.23053504360881" lon="121.39938373337095">
        <ele>16.38754004985094</ele>
        <time>2026-05-23T11:05:38Z</time>
      </trkpt>
      <trkpt lat="31.230218196969528" lon="121.39946876999879">
        <ele>20.403798289597034</ele>
        <time>2026-05-23T11:05:53Z</time>
      </trkpt>
      <trkpt lat="31.229951328338835" lon="121.39956380377292">
        <ele>19.106442637741566</ele>
        <time>2026-05-23T11:06:05Z</time>
      </trkpt>
      <trkpt lat="31.229854378877988" lon="121.39963081991662">
        <ele>21.973309703171253</ele>
        <time>2026-05-23T11:06:11Z</time>
      </trkpt>
      <trkpt lat="31.229788417413612" lon="121.3997228366095">
        <ele>16.564572520554066</ele>
        <time>2026-05-23T11:06:14Z</time>
      </trkpt>
      <trkpt lat="31.229713478271158" lon="121.39999987876612">
        <ele>20.821278758347034</ele>
        <time>2026-05-23T11:06:23Z</time>
      </trkpt>
      <trkpt lat="31.229730486428462" lon="121.40015489897318">
        <ele>18.342824168503284</ele>
        <time>2026-05-23T11:06:29Z</time>
      </trkpt>
      <trkpt lat="31.229810469261434" lon="121.40033491877075">
        <ele>16.14709586650133</ele>
        <time>2026-05-23T11:06:38Z</time>
      </trkpt>
      <trkpt lat="31.22990842457399" lon="121.40034191130218">
        <ele>20.131642527878284</ele>
        <time>2026-05-23T11:06:44Z</time>
      </trkpt>
      <trkpt lat="31.230073359030435" lon="121.40043591160958">
        <ele>20.697091288864613</ele>
        <time>2026-05-23T11:06:50Z</time>
      </trkpt>
      <trkpt lat="31.230380204319285" lon="121.40033086846127">
        <ele>19.965180583298206</ele>
        <time>2026-05-23T11:07:05Z</time>
      </trkpt>
      <trkpt lat="31.230455169885406" lon="121.40033386238223">
        <ele>-0.6974018141627312</ele>
        <time>2026-05-23T11:07:09Z</time>
      </trkpt>
      <trkpt lat="31.230782002329462" lon="121.40019081247102">
        <ele>22.401356883347034</ele>
        <time>2026-05-23T11:07:18Z</time>
      </trkpt>
      <trkpt lat="31.230999892054356" lon="121.40010378096981">
        <ele>15.309495158493519</ele>
        <time>2026-05-23T11:07:24Z</time>
      </trkpt>
      <trkpt lat="31.231119826127134" lon="121.40000275650146">
        <ele>19.22270316630602</ele>
        <time>2026-05-23T11:07:30Z</time>
      </trkpt>
      <trkpt lat="31.231185787687693" lon="121.39992274003376">
        <ele>21.082863993942738</ele>
        <time>2026-05-23T11:07:33Z</time>
      </trkpt>
      <trkpt lat="31.231209767588236" lon="121.3998277256559">
        <ele>20.393227763473988</ele>
        <time>2026-05-23T11:07:36Z</time>
      </trkpt>
      <trkpt lat="31.231215756046147" lon="121.39973071307776">
        <ele>21.796277232468128</ele>
        <time>2026-05-23T11:07:39Z</time>
      </trkpt>
      <trkpt lat="31.231180759681816" lon="121.39958269868775">
        <ele>-3.358170323073864</ele>
        <time>2026-05-23T11:07:45Z</time>
      </trkpt>
      <trkpt lat="31.23101282138245" lon="121.39937369066215">
        <ele>19.36802787333727</ele>
        <time>2026-05-23T11:07:57Z</time>
      </trkpt>
      <trkpt lat="31.23093185782123" lon="121.39935869618527">
        <ele>17.402173228561878</ele>
        <time>2026-05-23T11:08:00Z</time>
      </trkpt>
      <trkpt lat="31.23085588915132" lon="121.39930369726882">
        <ele>21.34444922953844</ele>
        <time>2026-05-23T11:08:03Z</time>
      </trkpt>
      <trkpt lat="31.230708955617548" lon="121.39927970771654">
        <ele>20.340382762253284</ele>
        <time>2026-05-23T11:08:09Z</time>
      </trkpt>
      <trkpt lat="31.230568027006132" lon="121.3993657286387">
        <ele>11.808480449020863</ele>
        <time>2026-05-23T11:08:18Z</time>
      </trkpt>
      <trkpt lat="31.23031115177903" lon="121.39944175899387">
        <ele>7.950761027634144</ele>
        <time>2026-05-23T11:08:30Z</time>
      </trkpt>
      <trkpt lat="31.230208199782552" lon="121.39944476829406">
        <ele>9.67616767436266</ele>
        <time>2026-05-23T11:08:36Z</time>
      </trkpt>
      <trkpt lat="31.230017296902023" lon="121.3995537968916">
        <ele>19.410302348434925</ele>
        <time>2026-05-23T11:08:45Z</time>
      </trkpt>
      <trkpt lat="31.229903352652503" lon="121.39958881079848">
        <ele>21.30217093974352</ele>
        <time>2026-05-23T11:08:51Z</time>
      </trkpt>
      <trkpt lat="31.229850381322425" lon="121.39963782108205">
        <ele>-9.263653568923473</ele>
        <time>2026-05-23T11:08:54Z</time>
      </trkpt>
      <trkpt lat="31.229815404878345" lon="121.3997228342555">
        <ele>9.68673438578844</ele>
        <time>2026-05-23T11:08:57Z</time>
      </trkpt>
      <trkpt lat="31.229739450467292" lon="121.39983685505227">
        <ele>8.39202231913805</ele>
        <time>2026-05-23T11:09:00Z</time>
      </trkpt>
      <trkpt lat="31.22971847635026" lon="121.40000387887406">
        <ele>20.58083076030016</ele>
        <time>2026-05-23T11:09:06Z</time>
      </trkpt>
      <trkpt lat="31.22974148100007" lon="121.40015189758239">
        <ele>16.960915751755238</ele>
        <time>2026-05-23T11:09:12Z</time>
      </trkpt>
      <trkpt lat="31.229798466222707" lon="121.40025890830529">
        <ele>21.000950999557972</ele>
        <time>2026-05-23T11:09:18Z</time>
      </trkpt>
      <trkpt lat="31.22991942039183" lon="121.4003499115755">
        <ele>13.010716624557972</ele>
        <time>2026-05-23T11:09:24Z</time>
      </trkpt>
      <trkpt lat="31.230171306823483" lon="121.40037889410024">
        <ele>5.046902842819691</ele>
        <time>2026-05-23T11:09:36Z</time>
      </trkpt>
      <trkpt lat="31.230358214636755" lon="121.40033187053265">
        <ele>18.971684642136097</ele>
        <time>2026-05-23T11:09:45Z</time>
      </trkpt>
      <trkpt lat="31.230503146711847" lon="121.4003258569716">
        <ele>18.604409404098988</ele>
        <time>2026-05-23T11:09:51Z</time>
      </trkpt>
      <trkpt lat="31.230531127047723" lon="121.40026684559517">
        <ele>11.787343211472034</ele>
        <time>2026-05-23T11:09:54Z</time>
      </trkpt>
      <trkpt lat="31.230800994286547" lon="121.400197811837">
        <ele>7.271695323288441</ele>
        <time>2026-05-23T11:10:06Z</time>
      </trkpt>
      <trkpt lat="31.230938923048267" lon="121.40012978998053">
        <ele>20.49892158061266</ele>
        <time>2026-05-23T11:10:12Z</time>
      </trkpt>
      <trkpt lat="31.23113581425154" lon="121.39995774903889">
        <ele>17.6531917527318</ele>
        <time>2026-05-23T11:10:21Z</time>
      </trkpt>
      <trkpt lat="31.23120377027374" lon="121.39982672605224">
        <ele>20.623105235397816</ele>
        <time>2026-05-23T11:10:27Z</time>
      </trkpt>
      <trkpt lat="31.231224752763545" lon="121.399740713513">
        <ele>17.087742991745472</ele>
        <time>2026-05-23T11:10:30Z</time>
      </trkpt>
      <trkpt lat="31.231215746778215" lon="121.39962270023673">
        <ele>11.420067973434925</ele>
        <time>2026-05-23T11:10:33Z</time>
      </trkpt>
      <trkpt lat="31.231087788765535" lon="121.39940268713217">
        <ele>19.880627818405628</ele>
        <time>2026-05-23T11:10:42Z</time>
      </trkpt>
      <trkpt lat="31.230827899387226" lon="121.39926369577854">
        <ele>21.114567942917347</ele>
        <time>2026-05-23T11:10:54Z</time>
      </trkpt>
      <trkpt lat="31.230691962140032" lon="121.39925970724762">
        <ele>8.141003794968128</ele>
        <time>2026-05-23T11:11:00Z</time>
      </trkpt>
      <trkpt lat="31.230646989668113" lon="121.3993557207276">
        <ele>17.412743754684925</ele>
        <time>2026-05-23T11:11:03Z</time>
      </trkpt>
      <trkpt lat="31.23058402052951" lon="121.39937872858177">
        <ele>21.104001231491566</ele>
        <time>2026-05-23T11:11:09Z</time>
      </trkpt>
      <trkpt lat="31.230445085264154" lon="121.39938274111434">
        <ele>17.568638987839222</ele>
        <time>2026-05-23T11:11:15Z</time>
      </trkpt>
      <trkpt lat="31.230349128550934" lon="121.39936574773277">
        <ele>12.738560862839222</ele>
        <time>2026-05-23T11:11:18Z</time>
      </trkpt>
      <trkpt lat="31.230052275839583" lon="121.39949278707853">
        <ele>14.10725898295641</ele>
        <time>2026-05-23T11:11:33Z</time>
      </trkpt>
      <trkpt lat="31.229905348322504" lon="121.39954680587057">
        <ele>1.7678386643528938</ele>
        <time>2026-05-23T11:11:39Z</time>
      </trkpt>
      <trkpt lat="31.229817394636957" lon="121.39961382116984">
        <ele>19.986317820847034</ele>
        <time>2026-05-23T11:11:42Z</time>
      </trkpt>
      <trkpt lat="31.229761428375387" lon="121.39970483678839">
        <ele>19.965180583298206</ele>
        <time>2026-05-23T11:11:45Z</time>
      </trkpt>
      <trkpt lat="31.229728452991104" lon="121.39980885246757">
        <ele>18.332253642380238</ele>
        <time>2026-05-23T11:11:48Z</time>
      </trkpt>
      <trkpt lat="31.22972248017906" lon="121.40005988622752">
        <ele>20.43550605326891</ele>
        <time>2026-05-23T11:11:57Z</time>
      </trkpt>
      <trkpt lat="31.22976547766526" lon="121.40022390598311">
        <ele>10.220475383102894</ele>
        <time>2026-05-23T11:12:03Z</time>
      </trkpt>
      <trkpt lat="31.229903427471843" lon="121.40034691250794">
        <ele>20.025952525436878</ele>
        <time>2026-05-23T11:12:12Z</time>
      </trkpt>
      <trkpt lat="31.22998939232893" lon="121.40038791137228">
        <ele>18.58327216655016</ele>
        <time>2026-05-23T11:12:15Z</time>
      </trkpt>
      <trkpt lat="31.23010834017284" lon="121.4004139050776">
        <ele>9.351166911423206</ele>
        <time>2026-05-23T11:12:21Z</time>
      </trkpt>
      <trkpt lat="31.230247270516426" lon="121.40036988607417">
        <ele>9.68673438578844</ele>
        <time>2026-05-23T11:12:27Z</time>
      </trkpt>
      <trkpt lat="31.23037920215445" lon="121.40030786503742">
        <ele>12.39242286235094</ele>
        <time>2026-05-23T11:12:33Z</time>
      </trkpt>
      <trkpt lat="31.23050814052379" lon="121.40029185136423">
        <ele>2.885522074997425</ele>
        <time>2026-05-23T11:12:39Z</time>
      </trkpt>
      <trkpt lat="31.23071803231377" lon="121.40019381848899">
        <ele>19.764367289841175</ele>
        <time>2026-05-23T11:12:51Z</time>
      </trkpt>
      <trkpt lat="31.23092292982574" lon="121.40012379052035">
        <ele>18.86599463969469</ele>
        <time>2026-05-23T11:13:00Z</time>
      </trkpt>
      <trkpt lat="31.231078847431547" lon="121.40002576321851">
        <ele>5.163163371384144</ele>
        <time>2026-05-23T11:13:06Z</time>
      </trkpt>
      <trkpt lat="31.23120277175643" lon="121.3998377275371">
        <ele>16.45095557719469</ele>
        <time>2026-05-23T11:13:15Z</time>
      </trkpt>
      <trkpt lat="31.231221748655567" lon="121.39967770617652">
        <ele>12.844250865280628</ele>
        <time>2026-05-23T11:13:21Z</time>
      </trkpt>
      <trkpt lat="31.231174758830317" lon="121.39953769413553">
        <ele>6.4578754380345345</ele>
        <time>2026-05-23T11:13:27Z</time>
      </trkpt>
      <trkpt lat="31.230971833898646" lon="121.39928168498216">
        <ele>19.431439585983753</ele>
        <time>2026-05-23T11:13:36Z</time>
      </trkpt>
      <trkpt lat="31.230806906319536" lon="121.3992216935716">
        <ele>20.842415995895863</ele>
        <time>2026-05-23T11:13:45Z</time>
      </trkpt>
      <trkpt lat="31.230600005322884" lon="121.39926771604688">
        <ele>12.070065684616566</ele>
        <time>2026-05-23T11:13:51Z</time>
      </trkpt>
      <trkpt lat="31.230415099466764" lon="121.3993867441443">
        <ele>22.047291941940784</ele>
        <time>2026-05-23T11:14:00Z</time>
      </trkpt>
      <trkpt lat="31.230119242593233" lon="121.39946477819873">
        <ele>20.549122996628284</ele>
        <time>2026-05-23T11:14:12Z</time>
      </trkpt>
      <trkpt lat="31.22987336666018" lon="121.39958981352835">
        <ele>13.940797038376331</ele>
        <time>2026-05-23T11:14:24Z</time>
      </trkpt>
      <trkpt lat="31.229839385423073" lon="121.39962582064264">
        <ele>23.122697062790394</ele>
        <time>2026-05-23T11:14:27Z</time>
      </trkpt>
      <trkpt lat="31.229721465821143" lon="121.39991086618534">
        <ele>19.817212291061878</ele>
        <time>2026-05-23T11:14:33Z</time>
      </trkpt>
      <trkpt lat="31.22974547083933" lon="121.40007288603384">
        <ele>20.403798289597034</ele>
        <time>2026-05-23T11:14:39Z</time>
      </trkpt>
      <trkpt lat="31.229811458629136" lon="121.40024490508442">
        <ele>20.749936290085316</ele>
        <time>2026-05-23T11:14:45Z</time>
      </trkpt>
      <trkpt lat="31.229959406369698" lon="121.40038891414413">
        <ele>17.38103599101305</ele>
        <time>2026-05-23T11:14:51Z</time>
      </trkpt>
      <trkpt lat="31.230123332030473" lon="121.4004039021962">
        <ele>18.01782340556383</ele>
        <time>2026-05-23T11:14:57Z</time>
      </trkpt>
      <trkpt lat="31.230377205022553" lon="121.40032486780422">
        <ele>19.693024821579456</ele>
        <time>2026-05-23T11:15:09Z</time>
      </trkpt>
      <trkpt lat="31.230514130376257" lon="121.40022584097596">
        <ele>20.488351054489613</ele>
        <time>2026-05-23T11:15:18Z</time>
      </trkpt>
      <trkpt lat="31.230740018661976" lon="121.40016181192405">
        <ele>18.406239695847034</ele>
        <time>2026-05-23T11:15:27Z</time>
      </trkpt>
      <trkpt lat="31.231018877663267" lon="121.40004977175839">
        <ele>17.484086222946644</ele>
        <time>2026-05-23T11:15:36Z</time>
      </trkpt>
      <trkpt lat="31.231088839582455" lon="121.39999375798233">
        <ele>18.572701640427113</ele>
        <time>2026-05-23T11:15:39Z</time>
      </trkpt>
      <trkpt lat="31.231177781481737" lon="121.39981772718036">
        <ele>20.152783580124378</ele>
        <time>2026-05-23T11:15:45Z</time>
      </trkpt>
      <trkpt lat="31.23118676736905" lon="121.3997067126998">
        <ele>14.212948985397816</ele>
        <time>2026-05-23T11:15:48Z</time>
      </trkpt>
      <trkpt lat="31.231155766043557" lon="121.3995176935705">
        <ele>18.614979930222034</ele>
        <time>2026-05-23T11:15:57Z</time>
      </trkpt>
      <trkpt lat="31.231087790248225" lon="121.39942268923316">
        <ele>17.558068461716175</ele>
        <time>2026-05-23T11:16:03Z</time>
      </trkpt>
      <trkpt lat="31.230933853710887" lon="121.39931369146407">
        <ele>19.180424876511097</ele>
        <time>2026-05-23T11:16:12Z</time>
      </trkpt>
      <trkpt lat="31.230700959666986" lon="121.3992847089051">
        <ele>20.570260234177113</ele>
        <time>2026-05-23T11:16:21Z</time>
      </trkpt>
      <trkpt lat="31.23043109322088" lon="121.39940274441501">
        <ele>18.155221171677113</ele>
        <time>2026-05-23T11:16:36Z</time>
      </trkpt>
      <trkpt lat="31.23029516018425" lon="121.39945476177871">
        <ele>19.619042582809925</ele>
        <time>2026-05-23T11:16:45Z</time>
      </trkpt>
      <trkpt lat="31.23016422194446" lon="121.3994677745989">
        <ele>20.520058818161488</ele>
        <time>2026-05-23T11:16:51Z</time>
      </trkpt>
      <trkpt lat="31.22987936265047" lon="121.39957481129613">
        <ele>18.091809459030628</ele>
        <time>2026-05-23T11:17:06Z</time>
      </trkpt>
      <trkpt lat="31.229823391685475" lon="121.39961182041566">
        <ele>7.554421611130238</ele>
        <time>2026-05-23T11:17:09Z</time>
      </trkpt>
      <trkpt lat="31.229775419712656" lon="121.399679832575">
        <ele>21.680016703903675</ele>
        <time>2026-05-23T11:17:12Z</time>
      </trkpt>
      <trkpt lat="31.229749437731407" lon="121.39974784305893">
        <ele>20.570260234177113</ele>
        <time>2026-05-23T11:17:15Z</time>
      </trkpt>
      <trkpt lat="31.22973746081006" lon="121.39993586808637">
        <ele>18.08123893290758</ele>
        <time>2026-05-23T11:17:24Z</time>
      </trkpt>
      <trkpt lat="31.229766465679365" lon="121.40011689040035">
        <ele>20.340382762253284</ele>
        <time>2026-05-23T11:17:30Z</time>
      </trkpt>
      <trkpt lat="31.229827451867763" lon="121.40025090458283">
        <ele>21.701153941452503</ele>
        <time>2026-05-23T11:17:36Z</time>
      </trkpt>
      <trkpt lat="31.229901427362442" lon="121.40033791129754">
        <ele>20.88469047099352</ele>
        <time>2026-05-23T11:17:42Z</time>
      </trkpt>
      <trkpt lat="31.2300133789696" lon="121.40036890632044">
        <ele>21.30217093974352</ele>
        <time>2026-05-23T11:17:48Z</time>
      </trkpt>
      <trkpt lat="31.230276250380722" lon="121.40031187462627">
        <ele>22.380219645798206</ele>
        <time>2026-05-23T11:18:06Z</time>
      </trkpt>
      <trkpt lat="31.23033022182339" lon="121.40028086522344">
        <ele>21.743432231247425</ele>
        <time>2026-05-23T11:18:09Z</time>
      </trkpt>
      <trkpt lat="31.230609083814464" lon="121.40020282930911">
        <ele>-14.582548908889294</ele>
        <time>2026-05-23T11:18:18Z</time>
      </trkpt>
      <trkpt lat="31.230898941896456" lon="121.40013279389639">
        <ele>15.111323542892933</ele>
        <time>2026-05-23T11:18:27Z</time>
      </trkpt>
      <trkpt lat="31.23098989522439" lon="121.40008977986834">
        <ele>18.657256312668324</ele>
        <time>2026-05-23T11:18:30Z</time>
      </trkpt>
      <trkpt lat="31.231152801042434" lon="121.39990274028526">
        <ele>18.498721309006214</ele>
        <time>2026-05-23T11:18:36Z</time>
      </trkpt>
      <trkpt lat="31.231190764908085" lon="121.39969971150903">
        <ele>19.32575149089098</ele>
        <time>2026-05-23T11:18:42Z</time>
      </trkpt>
      <trkpt lat="31.231170760602787" lon="121.39953669437271">
        <ele>21.3655883744359</ele>
        <time>2026-05-23T11:18:48Z</time>
      </trkpt>
      <trkpt lat="31.231036808755704" lon="121.39935268641803">
        <ele>18.229209132492542</ele>
        <time>2026-05-23T11:18:57Z</time>
      </trkpt>
      <trkpt lat="31.23086388196721" lon="121.39925269157327">
        <ele>18.739165492355824</ele>
        <time>2026-05-23T11:19:06Z</time>
      </trkpt>
      <trkpt lat="31.230812906337427" lon="121.39926369708637">
        <ele>19.81721419841051</ele>
        <time>2026-05-23T11:19:09Z</time>
      </trkpt>
      <trkpt lat="31.230761932984542" lon="121.39930770586233">
        <ele>13.134906001389027</ele>
        <time>2026-05-23T11:19:15Z</time>
      </trkpt>
      <trkpt lat="31.230670977972768" lon="121.39934771782026">
        <ele>19.212134547531605</ele>
        <time>2026-05-23T11:19:21Z</time>
      </trkpt>
      <trkpt lat="31.23034413564693" lon="121.39943075494759">
        <ele>19.169856257736683</ele>
        <time>2026-05-23T11:19:33Z</time>
      </trkpt>
      <trkpt lat="31.23006027376817" lon="121.39951378868676">
        <ele>19.431441493332386</ele>
        <time>2026-05-23T11:19:48Z</time>
      </trkpt>
      <trkpt lat="31.229915347903862" lon="121.39959881089769">
        <ele>11.451777644455433</ele>
        <time>2026-05-23T11:19:57Z</time>
      </trkpt>
      <trkpt lat="31.229813409087676" lon="121.39975983895434">
        <ele>15.719046778976917</ele>
        <time>2026-05-23T11:20:06Z</time>
      </trkpt>
      <trkpt lat="31.229780445466126" lon="121.39998287062274">
        <ele>19.5767700150609</ele>
        <time>2026-05-23T11:20:15Z</time>
      </trkpt>
      <trkpt lat="31.22995639658591" lon="121.4002918994912">
        <ele>17.579207606613636</ele>
        <time>2026-05-23T11:20:30Z</time>
      </trkpt>
      <trkpt lat="31.230166303008396" lon="121.40032588635357">
        <ele>14.04648894816637</ele>
        <time>2026-05-23T11:20:43Z</time>
      </trkpt>
      <trkpt lat="31.230225274379848" lon="121.4003148795298">
        <ele>20.916400142014027</ele>
        <time>2026-05-23T11:20:46Z</time>
      </trkpt>
      <trkpt lat="31.23053112084766" lon="121.40021083728364">
        <ele>20.88469237834215</ele>
        <time>2026-05-23T11:21:01Z</time>
      </trkpt>
      <trkpt lat="31.23073201895845" lon="121.40012980802855">
        <ele>18.739165492355824</ele>
        <time>2026-05-23T11:21:10Z</time>
      </trkpt>
      <trkpt lat="31.230978899591907" lon="121.4000827798446">
        <ele>9.269255824387074</ele>
        <time>2026-05-23T11:21:22Z</time>
      </trkpt>
      <trkpt lat="31.231158803601367" lon="121.39995774703353">
        <ele>19.764369197189808</ele>
        <time>2026-05-23T11:21:31Z</time>
      </trkpt>
      <trkpt lat="31.231189765024123" lon="121.39969571111621">
        <ele>19.201564021408558</ele>
        <time>2026-05-23T11:21:43Z</time>
      </trkpt>
      <trkpt lat="31.231151770921258" lon="121.3995556981583">
        <ele>21.199122615158558</ele>
        <time>2026-05-23T11:21:49Z</time>
      </trkpt>
      <trkpt lat="31.231067799435948" lon="121.3994216908714">
        <ele>-17.34636764973402</ele>
        <time>2026-05-23T11:21:55Z</time>
      </trkpt>
      <trkpt lat="31.23096284274578" lon="121.39934869246284">
        <ele>21.492415614426136</ele>
        <time>2026-05-23T11:22:01Z</time>
      </trkpt>
      <trkpt lat="31.23070695784927" lon="121.39929870976388">
        <ele>19.745875544846058</ele>
        <time>2026-05-23T11:22:13Z</time>
      </trkpt>
      <trkpt lat="31.23048306815544" lon="121.39938973852685">
        <ele>20.675955958664417</ele>
        <time>2026-05-23T11:22:25Z</time>
      </trkpt>
      <trkpt lat="31.230293159076215" lon="121.39942775907637">
        <ele>19.555628962814808</ele>
        <time>2026-05-23T11:22:37Z</time>
      </trkpt>
      <trkpt lat="31.230225193952336" lon="121.39947176971268">
        <ele>4.116824336349964</ele>
        <time>2026-05-23T11:22:40Z</time>
      </trkpt>
      <trkpt lat="31.230154226583917" lon="121.39946777547077">
        <ele>9.300963588058949</ele>
        <time>2026-05-23T11:22:43Z</time>
      </trkpt>
      <trkpt lat="31.229965321276428" lon="121.39955680176283">
        <ele>20.979815669357777</ele>
        <time>2026-05-23T11:22:52Z</time>
      </trkpt>
      <trkpt lat="31.229846384530425" lon="121.39965382330713">
        <ele>20.549124903976917</ele>
        <time>2026-05-23T11:22:58Z</time>
      </trkpt>
      <trkpt lat="31.229799412394446" lon="121.3997238357718">
        <ele>20.654814906418324</ele>
        <time>2026-05-23T11:23:01Z</time>
      </trkpt>
      <trkpt lat="31.22976745011516" lon="121.39996886987177">
        <ele>18.25827331095934</ele>
        <time>2026-05-23T11:23:10Z</time>
      </trkpt>
      <trkpt lat="31.22979345177831" lon="121.4001038862047">
        <ele>20.789572902023792</ele>
        <time>2026-05-23T11:23:16Z</time>
      </trkpt>
      <trkpt lat="31.229823445074537" lon="121.40017189332063">
        <ele>16.762747950851917</ele>
        <time>2026-05-23T11:23:19Z</time>
      </trkpt>
      <trkpt lat="31.229958400215803" lon="121.40033190540716">
        <ele>18.551566310226917</ele>
        <time>2026-05-23T11:23:28Z</time>
      </trkpt>
      <trkpt lat="31.230093339409837" lon="121.40034789609678">
        <ele>14.995066829025745</ele>
        <time>2026-05-23T11:23:34Z</time>
      </trkpt>
      <trkpt lat="31.230311234146846" lon="121.40031187157473">
        <ele>16.168235011398792</ele>
        <time>2026-05-23T11:23:43Z</time>
      </trkpt>
      <trkpt lat="31.230437169625255" lon="121.40025785244389">
        <ele>20.078799434006214</ele>
        <time>2026-05-23T11:23:49Z</time>
      </trkpt>
      <trkpt lat="31.230734025225196" lon="121.40019681753239">
        <ele>4.8381645157933235</ele>
        <time>2026-05-23T11:24:04Z</time>
      </trkpt>
      <trkpt lat="31.23085996316533" lon="121.40016280160583">
        <ele>19.190997309982777</ele>
        <time>2026-05-23T11:24:10Z</time>
      </trkpt>
      <trkpt lat="31.231043864554312" lon="121.40003476750728">
        <ele>18.657256312668324</ele>
        <time>2026-05-23T11:24:22Z</time>
      </trkpt>
      <trkpt lat="31.231158795977212" lon="121.39987873663893">
        <ele>19.38916701823473</ele>
        <time>2026-05-23T11:24:31Z</time>
      </trkpt>
      <trkpt lat="31.23120576280574" lon="121.39975471688635">
        <ele>18.855426020920277</ele>
        <time>2026-05-23T11:24:37Z</time>
      </trkpt>
      <trkpt lat="31.231158763165627" lon="121.39949869121783">
        <ele>11.642020411789417</ele>
        <time>2026-05-23T11:24:52Z</time>
      </trkpt>
      <trkpt lat="31.231004822438948" lon="121.39933668758431">
        <ele>20.142214961349964</ele>
        <time>2026-05-23T11:24:58Z</time>
      </trkpt>
      <trkpt lat="31.23077592382043" lon="121.39926870079921">
        <ele>18.30055160075426</ele>
        <time>2026-05-23T11:25:10Z</time>
      </trkpt>
      <trkpt lat="31.230608004011977" lon="121.39930271879224">
        <ele>20.142214961349964</ele>
        <time>2026-05-23T11:25:16Z</time>
      </trkpt>
      <trkpt lat="31.23027216859254" lon="121.39942476059004">
        <ele>21.5743286088109</ele>
        <time>2026-05-23T11:25:31Z</time>
      </trkpt>
      <trkpt lat="31.230038282491705" lon="121.39949478851773">
        <ele>20.990386195480824</ele>
        <time>2026-05-23T11:25:40Z</time>
      </trkpt>
      <trkpt lat="31.22980240847127" lon="121.39969483201274">
        <ele>19.859492488205433</ele>
        <time>2026-05-23T11:25:52Z</time>
      </trkpt>
      <trkpt lat="31.229759438964123" lon="121.39981285026856">
        <ele>12.97901076823473</ele>
        <time>2026-05-23T11:25:58Z</time>
      </trkpt>
      <trkpt lat="31.229751454894068" lon="121.3999418676617">
        <ele>10.14649123698473</ele>
        <time>2026-05-23T11:26:04Z</time>
      </trkpt>
      <trkpt lat="31.229786453046405" lon="121.40008488413936">
        <ele>5.004626460373402</ele>
        <time>2026-05-23T11:26:10Z</time>
      </trkpt>
      <trkpt lat="31.229840439998767" lon="121.40019789562358">
        <ele>16.921282954514027</ele>
        <time>2026-05-23T11:26:16Z</time>
      </trkpt>
      <trkpt lat="31.22995040312606" lon="121.40032490503276">
        <ele>21.3127433732152</ele>
        <time>2026-05-23T11:26:25Z</time>
      </trkpt>
      <trkpt lat="31.230093339641027" lon="121.40034989640519">
        <ele>19.682460017502308</ele>
        <time>2026-05-23T11:26:34Z</time>
      </trkpt>
      <trkpt lat="31.23017429952614" lon="121.40032788596217">
        <ele>19.650752253830433</ele>
        <time>2026-05-23T11:26:40Z</time>
      </trkpt>
      <trkpt lat="31.230397184957248" lon="121.40022885162033">
        <ele>13.084700770676136</ele>
        <time>2026-05-23T11:26:52Z</time>
      </trkpt>
      <trkpt lat="31.23051213174442" lon="121.4002298417417">
        <ele>19.25176925212145</ele>
        <time>2026-05-23T11:26:55Z</time>
      </trkpt>
      <trkpt lat="31.230841966719463" lon="121.40011779672933">
        <ele>21.66944808512926</ele>
        <time>2026-05-23T11:27:10Z</time>
      </trkpt>
      <trkpt lat="31.230995888418725" lon="121.40005077390225">
        <ele>20.287539668381214</ele>
        <time>2026-05-23T11:27:16Z</time>
      </trkpt>
      <trkpt lat="31.23106484999933" lon="121.39998675912736">
        <ele>20.52798766642809</ele>
        <time>2026-05-23T11:27:22Z</time>
      </trkpt>
      <trkpt lat="31.231078837913667" lon="121.39992975028703">
        <ele>18.699534602463245</ele>
        <time>2026-05-23T11:27:25Z</time>
      </trkpt>
      <trkpt lat="31.23114580161814" lon="121.3998747372548">
        <ele>12.91559524089098</ele>
        <time>2026-05-23T11:27:28Z</time>
      </trkpt>
      <trkpt lat="31.23116778464478" lon="121.39980172603818">
        <ele>17.69546813517809</ele>
        <time>2026-05-23T11:27:31Z</time>
      </trkpt>
      <trkpt lat="31.23116076499447" lon="121.39953369491018">
        <ele>-6.896174244582653</ele>
        <time>2026-05-23T11:27:43Z</time>
      </trkpt>
      <trkpt lat="31.231063800101584" lon="121.39940568953851">
        <ele>14.379416652023792</ele>
        <time>2026-05-23T11:27:52Z</time>
      </trkpt>
      <trkpt lat="31.230919861036668" lon="121.39932569388682">
        <ele>21.273108668625355</ele>
        <time>2026-05-23T11:28:01Z</time>
      </trkpt>
      <trkpt lat="31.2308408970759" lon="121.39931769997251">
        <ele>20.036524958908558</ele>
        <time>2026-05-23T11:28:04Z</time>
      </trkpt>
      <trkpt lat="31.230742940065802" lon="121.39928270504662">
        <ele>18.83428878337145</ele>
        <time>2026-05-23T11:28:07Z</time>
      </trkpt>
      <trkpt lat="31.23051604932569" lon="121.39934073062419">
        <ele>16.984698481857777</ele>
        <time>2026-05-23T11:28:16Z</time>
      </trkpt>
      <trkpt lat="31.23037012276742" lon="121.39941975151795">
        <ele>9.446288295090199</ele>
        <time>2026-05-23T11:28:25Z</time>
      </trkpt>
      <trkpt lat="31.230311151102065" lon="121.39943275803685">
        <ele>20.04709167033434</ele>
        <time>2026-05-23T11:28:28Z</time>
      </trkpt>
      <trkpt lat="31.230139236641367" lon="121.3995077811379">
        <ele>20.488352961838245</ele>
        <time>2026-05-23T11:28:37Z</time>
      </trkpt>
      <trkpt lat="31.230033286691025" lon="121.39951879159317">
        <ele>16.91071242839098</ele>
        <time>2026-05-23T11:28:43Z</time>
      </trkpt>
      <trkpt lat="31.22992933911679" lon="121.3995708064831">
        <ele>20.697093196213245</ele>
        <time>2026-05-23T11:28:49Z</time>
      </trkpt>
      <trkpt lat="31.229876367579937" lon="121.39961781648869">
        <ele>20.760508723556995</ele>
        <time>2026-05-23T11:28:52Z</time>
      </trkpt>
      <trkpt lat="31.229803412926696" lon="121.39975083871904">
        <ele>19.502783961594105</ele>
        <time>2026-05-23T11:28:59Z</time>
      </trkpt>
      <trkpt lat="31.229788432416747" lon="121.39988685721067">
        <ele>19.003394313156605</ele>
        <time>2026-05-23T11:29:05Z</time>
      </trkpt>
      <trkpt lat="31.22981842594382" lon="121.39996386475485">
        <ele>19.30461425334215</ele>
        <time>2026-05-23T11:29:08Z</time>
      </trkpt>
      <trkpt lat="31.22982043560475" lon="121.4000688789366">
        <ele>20.329817958176136</ele>
        <time>2026-05-23T11:29:11Z</time>
      </trkpt>
      <trkpt lat="31.229925407490622" lon="121.4002608975318">
        <ele>12.508685298264027</ele>
        <time>2026-05-23T11:29:17Z</time>
      </trkpt>
      <trkpt lat="31.229996384307185" lon="121.40034690439968">
        <ele>18.939978785812855</ele>
        <time>2026-05-23T11:29:20Z</time>
      </trkpt>
      <trkpt lat="31.230082346950315" lon="121.40036890030461">
        <ele>12.445269770920277</ele>
        <time>2026-05-23T11:29:23Z</time>
      </trkpt>
      <trkpt lat="31.230283249306986" lon="121.40033087691839">
        <ele>18.342826075851917</ele>
        <time>2026-05-23T11:29:32Z</time>
      </trkpt>
      <trkpt lat="31.230579101014573" lon="121.40023283634422">
        <ele>-7.897595219314098</ele>
        <time>2026-05-23T11:29:47Z</time>
      </trkpt>
      <trkpt lat="31.230856961991762" lon="121.40013879841635">
        <ele>17.3704711869359</ele>
        <time>2026-05-23T11:29:56Z</time>
      </trkpt>
      <trkpt lat="31.23102987390258" lon="121.40006277260406">
        <ele>16.942420192062855</ele>
        <time>2026-05-23T11:30:02Z</time>
      </trkpt>
      <trkpt lat="31.23119078049815" lon="121.39987173294362">
        <ele>16.617423243820667</ele>
        <time>2026-05-23T11:30:11Z</time>
      </trkpt>
      <trkpt lat="31.231214762062915" lon="121.39979272081324">
        <ele>10.408076472580433</ele>
        <time>2026-05-23T11:30:14Z</time>
      </trkpt>
      <trkpt lat="31.231205752580426" lon="121.39963670273868">
        <ele>17.32819289714098</ele>
        <time>2026-05-23T11:30:20Z</time>
      </trkpt>
      <trkpt lat="31.23115576549319" lon="121.3995106927979">
        <ele>-6.227679066359997</ele>
        <time>2026-05-23T11:30:26Z</time>
      </trkpt>
      <trkpt lat="31.23110978246924" lon="121.39945469072025">
        <ele>19.60847396403551</ele>
        <time>2026-05-23T11:30:32Z</time>
      </trkpt>
      <trkpt lat="31.23089187123205" lon="121.39928569235045">
        <ele>18.239775843918324</ele>
        <time>2026-05-23T11:30:41Z</time>
      </trkpt>
      <trkpt lat="31.23056203022074" lon="121.3993717297783">
        <ele>17.75624007731676</ele>
        <time>2026-05-23T11:30:56Z</time>
      </trkpt>
      <trkpt lat="31.230435092179384" lon="121.39941374521922">
        <ele>17.988761134445667</ele>
        <time>2026-05-23T11:31:02Z</time>
      </trkpt>
      <trkpt lat="31.23025017857352" lon="121.39942176219134">
        <ele>19.053599543869495</ele>
        <time>2026-05-23T11:31:11Z</time>
      </trkpt>
      <trkpt lat="31.230166223411427" lon="121.3994987777957">
        <ele>17.96498031169176</ele>
        <time>2026-05-23T11:31:20Z</time>
      </trkpt>
      <trkpt lat="31.22993033768233" lon="121.39955880503965">
        <ele>15.84323424845934</ele>
        <time>2026-05-23T11:31:32Z</time>
      </trkpt>
      <trkpt lat="31.22982440008619" lon="121.39971583262292">
        <ele>19.0324584916234</ele>
        <time>2026-05-23T11:31:41Z</time>
      </trkpt>
      <trkpt lat="31.229765448979844" lon="121.39994786723892">
        <ele>18.070670314133167</ele>
        <time>2026-05-23T11:31:50Z</time>
      </trkpt>
      <trkpt lat="31.229768453033863" lon="121.40000287437876">
        <ele>-8.58458786457777</ele>
        <time>2026-05-23T11:31:53Z</time>
      </trkpt>
      <trkpt lat="31.22985643311617" lon="121.40020289496059">
        <ele>15.885512538254261</ele>
        <time>2026-05-23T11:31:59Z</time>
      </trkpt>
      <trkpt lat="31.22995839804183" lon="121.40031290250376">
        <ele>19.22270507365465</ele>
        <time>2026-05-23T11:32:05Z</time>
      </trkpt>
      <trkpt lat="31.230024371659624" lon="121.40034990242101">
        <ele>18.197501368820667</ele>
        <time>2026-05-23T11:32:08Z</time>
      </trkpt>
      <trkpt lat="31.23017230333446" lon="121.4003528899805">
        <ele>19.053599543869495</ele>
        <time>2026-05-23T11:32:14Z</time>
      </trkpt>
      <trkpt lat="31.230483149078225" lon="121.40026484948048">
        <ele>17.893637843430042</ele>
        <time>2026-05-23T11:32:29Z</time>
      </trkpt>
      <trkpt lat="31.230796992248465" lon="121.40016180695432">
        <ele>17.798518367111683</ele>
        <time>2026-05-23T11:32:44Z</time>
      </trkpt>
      <trkpt lat="31.230912933720113" lon="121.40011679039691">
        <ele>16.48002166301012</ele>
        <time>2026-05-23T11:32:50Z</time>
      </trkpt>
      <trkpt lat="31.231074847367847" lon="121.40000676096948">
        <ele>20.488352961838245</ele>
        <time>2026-05-23T11:32:59Z</time>
      </trkpt>
      <trkpt lat="31.231190773174934" lon="121.3997927229058">
        <ele>11.745066829025745</ele>
        <time>2026-05-23T11:33:08Z</time>
      </trkpt>
      <trkpt lat="31.231189760746695" lon="121.39964570518703">
        <ele>5.163165278732777</ele>
        <time>2026-05-23T11:33:14Z</time>
      </trkpt>
      <trkpt lat="31.23113977243198" lon="121.39950469353275">
        <ele>16.649127192795277</ele>
        <time>2026-05-23T11:33:20Z</time>
      </trkpt>
      <trkpt lat="31.230995826183754" lon="121.39933068776357">
        <ele>-6.34393959492445</ele>
        <time>2026-05-23T11:33:29Z</time>
      </trkpt>
      <trkpt lat="31.23092885533175" lon="121.39930369090402">
        <ele>21.01152343302965</ele>
        <time>2026-05-23T11:33:35Z</time>
      </trkpt>
      <trkpt lat="31.230597010645642" lon="121.39932472194825">
        <ele>-0.5600021407008171</ele>
        <time>2026-05-23T11:33:44Z</time>
      </trkpt>
      <trkpt lat="31.23045308039541" lon="121.3993667387679">
        <ele>11.745066829025745</ele>
        <time>2026-05-23T11:33:50Z</time>
      </trkpt>
      <trkpt lat="31.230194207720704" lon="121.39946377155199">
        <ele>19.1064445450902</ele>
        <time>2026-05-23T11:34:02Z</time>
      </trkpt>
      <trkpt lat="31.230060273062538" lon="121.39950478769576">
        <ele>-5.289671711623669</ele>
        <time>2026-05-23T11:34:08Z</time>
      </trkpt>
      <trkpt lat="31.229846383095268" lon="121.39963682131396">
        <ele>19.922904200851917</ele>
        <time>2026-05-23T11:34:20Z</time>
      </trkpt>
      <trkpt lat="31.22979641264836" lon="121.39971083446005">
        <ele>18.060103602707386</ele>
        <time>2026-05-23T11:34:23Z</time>
      </trkpt>
      <trkpt lat="31.229765447809235" lon="121.39993586564519">
        <ele>19.53449172526598</ele>
        <time>2026-05-23T11:34:32Z</time>
      </trkpt>
      <trkpt lat="31.22978145818896" lon="121.40011188838321">
        <ele>20.226767726242542</ele>
        <time>2026-05-23T11:34:38Z</time>
      </trkpt>
      <trkpt lat="31.229852438266597" lon="121.40023289972879">
        <ele>19.24384231120348</ele>
        <time>2026-05-23T11:34:44Z</time>
      </trkpt>
      <trkpt lat="31.229959395986075" lon="121.40029890028936">
        <ele>18.268843837082386</ele>
        <time>2026-05-23T11:34:50Z</time>
      </trkpt>
      <trkpt lat="31.23016730426807" lon="121.40034088856721">
        <ele>20.467215724289417</ele>
        <time>2026-05-23T11:34:59Z</time>
      </trkpt>
      <trkpt lat="31.23020228322978" lon="121.40029887910316">
        <ele>20.068232722580433</ele>
        <time>2026-05-23T11:35:02Z</time>
      </trkpt>
      <trkpt lat="31.230535119870435" lon="121.40021883811217">
        <ele>18.646689601242542</ele>
        <time>2026-05-23T11:35:17Z</time>
      </trkpt>
      <trkpt lat="31.230806984521745" lon="121.40013280191775">
        <ele>21.24140090495348</ele>
        <time>2026-05-23T11:35:32Z</time>
      </trkpt>
      <trkpt lat="31.23103686739002" lon="121.40003076756723">
        <ele>16.5645744279027</ele>
        <time>2026-05-23T11:35:47Z</time>
      </trkpt>
      <trkpt lat="31.231068847749018" lon="121.39998275823831">
        <ele>-10.65084534138441</ele>
        <time>2026-05-23T11:35:50Z</time>
      </trkpt>
      <trkpt lat="31.231091829673577" lon="121.39990674612729">
        <ele>20.29811019450426</ele>
        <time>2026-05-23T11:35:53Z</time>
      </trkpt>
      <trkpt lat="31.231129807613357" lon="121.39985973671635">
        <ele>20.39322967082262</ele>
        <time>2026-05-23T11:35:56Z</time>
      </trkpt>
      <trkpt lat="31.231164777991864" lon="121.399711715221">
        <ele>18.363963313400745</ele>
        <time>2026-05-23T11:36:02Z</time>
      </trkpt>
      <trkpt lat="31.2311677676736" lon="121.39960670257152">
        <ele>19.650752253830433</ele>
        <time>2026-05-23T11:36:05Z</time>
      </trkpt>
      <trkpt lat="31.231135776570717" lon="121.39953369708992">
        <ele>8.35767287760973</ele>
        <time>2026-05-23T11:36:08Z</time>
      </trkpt>
      <trkpt lat="31.231036813198344" lon="121.39941369273178">
        <ele>7.8160087540745735</ele>
        <time>2026-05-23T11:36:14Z</time>
      </trkpt>
      <trkpt lat="31.23087988091112" lon="121.39934469929317">
        <ele>20.131644435226917</ele>
        <time>2026-05-23T11:36:20Z</time>
      </trkpt>
      <trkpt lat="31.23073195020193" lon="121.39935471321456">
        <ele>7.932265467941761</ele>
        <time>2026-05-23T11:36:26Z</time>
      </trkpt>
      <trkpt lat="31.23049405988092" lon="121.39934573304936">
        <ele>20.340384669601917</ele>
        <time>2026-05-23T11:36:35Z</time>
      </trkpt>
      <trkpt lat="31.230299153775697" lon="121.3993937549851">
        <ele>18.739165492355824</ele>
        <time>2026-05-23T11:36:44Z</time>
      </trkpt>
      <trkpt lat="31.22997831372132" lon="121.39953779849944">
        <ele>22.00501937419176</ele>
        <time>2026-05-23T11:36:59Z</time>
      </trkpt>
      <trkpt lat="31.229888359451515" lon="121.39958681187781">
        <ele>18.646689601242542</ele>
        <time>2026-05-23T11:37:02Z</time>
      </trkpt>
      <trkpt lat="31.229793412649727" lon="121.39969483279741">
        <ele>19.399737544357777</ele>
        <time>2026-05-23T11:37:08Z</time>
      </trkpt>
      <trkpt lat="31.229755439996623" lon="121.3998038494851">
        <ele>18.844859309494495</ele>
        <time>2026-05-23T11:37:11Z</time>
      </trkpt>
      <trkpt lat="31.229752465019057" lon="121.40004788194761">
        <ele>16.554007716476917</ele>
        <time>2026-05-23T11:37:20Z</time>
      </trkpt>
      <trkpt lat="31.229823450627194" lon="121.40022290077877">
        <ele>12.727996058762074</ele>
        <time>2026-05-23T11:37:29Z</time>
      </trkpt>
      <trkpt lat="31.229870435488642" lon="121.4002829056304">
        <ele>-19.201243214309216</ele>
        <time>2026-05-23T11:37:32Z</time>
      </trkpt>
      <trkpt lat="31.230117328620796" lon="121.400350894467">
        <ele>-2.877276234328747</ele>
        <time>2026-05-23T11:37:47Z</time>
      </trkpt>
      <trkpt lat="31.230386194953244" lon="121.40027285913762">
        <ele>15.729617305099964</ele>
        <time>2026-05-23T11:37:59Z</time>
      </trkpt>
      <trkpt lat="31.230512136641266" lon="121.40027384830228">
        <ele>22.15034408122301</ele>
        <time>2026-05-23T11:38:02Z</time>
      </trkpt>
      <trkpt lat="31.230655063695597" lon="121.40021382691344">
        <ele>19.053599543869495</ele>
        <time>2026-05-23T11:38:05Z</time>
      </trkpt>
      <trkpt lat="31.230805983294545" lon="121.40011679972609">
        <ele>17.80908889323473</ele>
        <time>2026-05-23T11:38:11Z</time>
      </trkpt>
      <trkpt lat="31.231050863867928" lon="121.40005977035582">
        <ele>19.053599543869495</ele>
        <time>2026-05-23T11:38:20Z</time>
      </trkpt>
      <trkpt lat="31.23113581771772" lon="121.3999927537489">
        <ele>17.526362605392933</ele>
        <time>2026-05-23T11:38:23Z</time>
      </trkpt>
      <trkpt lat="31.231211768147908" lon="121.39984372751744">
        <ele>11.932669825851917</ele>
        <time>2026-05-23T11:38:29Z</time>
      </trkpt>
      <trkpt lat="31.231228747575" lon="121.39970270855635">
        <ele>18.62554854899645</ele>
        <time>2026-05-23T11:38:35Z</time>
      </trkpt>
      <trkpt lat="31.231148766246164" lon="121.39947868990902">
        <ele>17.653193660080433</ele>
        <time>2026-05-23T11:38:44Z</time>
      </trkpt>
      <trkpt lat="31.231044804266904" lon="121.39934168460273">
        <ele>10.188769526779652</ele>
        <time>2026-05-23T11:38:50Z</time>
      </trkpt>
      <trkpt lat="31.23077992115684" lon="121.3992566992842">
        <ele>18.134085841476917</ele>
        <time>2026-05-23T11:39:02Z</time>
      </trkpt>
      <trkpt lat="31.230656979923033" lon="121.39928271254482">
        <ele>17.777381129562855</ele>
        <time>2026-05-23T11:39:08Z</time>
      </trkpt>
      <trkpt lat="31.23060800547643" lon="121.39932372088877">
        <ele>19.064166255295277</ele>
        <time>2026-05-23T11:39:11Z</time>
      </trkpt>
      <trkpt lat="31.230427092957186" lon="121.39937374175454">
        <ele>17.225142665207386</ele>
        <time>2026-05-23T11:39:20Z</time>
      </trkpt>
      <trkpt lat="31.230322142523146" lon="121.39938575214904">
        <ele>16.313559718430042</ele>
        <time>2026-05-23T11:39:26Z</time>
      </trkpt>
      <trkpt lat="31.230043280249227" lon="121.39949578819117">
        <ele>19.545062251389027</ele>
        <time>2026-05-23T11:39:41Z</time>
      </trkpt>
      <trkpt lat="31.229877363416357" lon="121.39957281124353">
        <ele>20.131644435226917</ele>
        <time>2026-05-23T11:39:50Z</time>
      </trkpt>
      <trkpt lat="31.22981839601001" lon="121.39963582363839">
        <ele>18.739165492355824</ele>
        <time>2026-05-23T11:39:53Z</time>
      </trkpt>
      <trkpt lat="31.22977042958938" lon="121.39976584344377">
        <ele>4.378409571945667</ele>
        <time>2026-05-23T11:39:59Z</time>
      </trkpt>
      <trkpt lat="31.2297324742033" lon="121.40004688355296">
        <ele>15.613356776535511</ele>
        <time>2026-05-23T11:40:12Z</time>
      </trkpt>
      <trkpt lat="31.229737478513453" lon="121.40011089207763">
        <ele>20.83184737712145</ele>
        <time>2026-05-23T11:40:15Z</time>
      </trkpt>
      <trkpt lat="31.229799462209844" lon="121.40022690346194">
        <ele>19.053599543869495</ele>
        <time>2026-05-23T11:40:21Z</time>
      </trkpt>
      <trkpt lat="31.230048361332795" lon="121.40035690140964">
        <ele>21.983878321945667</ele>
        <time>2026-05-23T11:40:30Z</time>
      </trkpt>
      <trkpt lat="31.23015631203372" lon="121.40036389307723">
        <ele>18.070670314133167</ele>
        <time>2026-05-23T11:40:36Z</time>
      </trkpt>
      <trkpt lat="31.230439170151868" lon="121.40027085421639">
        <ele>17.90420836955309</ele>
        <time>2026-05-23T11:40:51Z</time>
      </trkpt>
      <trkpt lat="31.230717031367607" lon="121.40018081668192">
        <ele>20.04709167033434</ele>
        <time>2026-05-23T11:41:06Z</time>
      </trkpt>
      <trkpt lat="31.230978901572072" lon="121.40010178251825">
        <ele>19.04302901774645</ele>
        <time>2026-05-23T11:41:18Z</time>
      </trkpt>
      <trkpt lat="31.23111782456083" lon="121.39997775329186">
        <ele>20.916400142014027</ele>
        <time>2026-05-23T11:41:27Z</time>
      </trkpt>
      <trkpt lat="31.23117178573847" lon="121.399833729731">
        <ele>3.239588923752308</ele>
        <time>2026-05-23T11:41:33Z</time>
      </trkpt>
      <trkpt lat="31.231193757465533" lon="121.39962870285224">
        <ele>14.234091944992542</ele>
        <time>2026-05-23T11:41:42Z</time>
      </trkpt>
      <trkpt lat="31.23112677331146" lon="121.39943768742229">
        <ele>20.654814906418324</ele>
        <time>2026-05-23T11:41:51Z</time>
      </trkpt>
      <trkpt lat="31.231039808083285" lon="121.39936268717814">
        <ele>12.373931117355824</ele>
        <time>2026-05-23T11:41:57Z</time>
      </trkpt>
      <trkpt lat="31.230825904797886" lon="121.3993287023843">
        <ele>20.905833430588245</ele>
        <time>2026-05-23T11:42:09Z</time>
      </trkpt>
      <trkpt lat="31.230636992174656" lon="121.39932571856119">
        <ele>18.802581019699574</ele>
        <time>2026-05-23T11:42:18Z</time>
      </trkpt>
      <trkpt lat="31.230552033062356" lon="121.39934672809403">
        <ele>7.313975520431995</ele>
        <time>2026-05-23T11:42:21Z</time>
      </trkpt>
      <trkpt lat="31.23051005118881" lon="121.39932772983515">
        <ele>-3.4321525618433952</ele>
        <time>2026-05-23T11:42:24Z</time>
      </trkpt>
      <trkpt lat="31.23037511830836" lon="121.39939074804695">
        <ele>20.216197200119495</ele>
        <time>2026-05-23T11:42:27Z</time>
      </trkpt>
      <trkpt lat="31.23017321662548" lon="121.39945277220112">
        <ele>20.308676905930042</ele>
        <time>2026-05-23T11:42:36Z</time>
      </trkpt>
      <trkpt lat="31.229901352763864" lon="121.39957880983266">
        <ele>20.612540431320667</ele>
        <time>2026-05-23T11:42:48Z</time>
      </trkpt>
      <trkpt lat="31.229798405043475" lon="121.3996328250321">
        <ele>20.329817958176136</ele>
        <time>2026-05-23T11:42:54Z</time>
      </trkpt>
      <trkpt lat="31.229765423926445" lon="121.39967483285223">
        <ele>-12.70653610676527</ele>
        <time>2026-05-23T11:42:57Z</time>
      </trkpt>
      <trkpt lat="31.22973644430215" lon="121.39975384492902">
        <ele>18.918839640915394</ele>
        <time>2026-05-23T11:43:00Z</time>
      </trkpt>
      <trkpt lat="31.22974444703407" lon="121.39982485309257">
        <ele>17.904206462204456</ele>
        <time>2026-05-23T11:43:06Z</time>
      </trkpt>
      <trkpt lat="31.229723473828038" lon="121.4000018781661">
        <ele>19.51335258036852</ele>
        <time>2026-05-23T11:43:09Z</time>
      </trkpt>
      <trkpt lat="31.22981845053905" lon="121.4002008979807">
        <ele>-17.346369557082653</ele>
        <time>2026-05-23T11:43:18Z</time>
      </trkpt>
      <trkpt lat="31.22994540763084" lon="121.40034390838409">
        <ele>19.8594905808568</ele>
        <time>2026-05-23T11:43:24Z</time>
      </trkpt>
      <trkpt lat="31.230012378155052" lon="121.40035790470299">
        <ele>11.4517757371068</ele>
        <time>2026-05-23T11:43:27Z</time>
      </trkpt>
      <trkpt lat="31.230231273427606" lon="121.40033088145209">
        <ele>17.16172904521227</ele>
        <time>2026-05-23T11:43:36Z</time>
      </trkpt>
      <trkpt lat="31.230411180568268" lon="121.40024785321918">
        <ele>16.125954814255238</ele>
        <time>2026-05-23T11:43:45Z</time>
      </trkpt>
      <trkpt lat="31.230651065111523" lon="121.40020982667419">
        <ele>15.843232341110706</ele>
        <time>2026-05-23T11:43:57Z</time>
      </trkpt>
      <trkpt lat="31.23092892536205" lon="121.40010778772596">
        <ele>17.579205699265003</ele>
        <time>2026-05-23T11:44:12Z</time>
      </trkpt>
      <trkpt lat="31.231125823248462" lon="121.40000175584234">
        <ele>19.619042582809925</ele>
        <time>2026-05-23T11:44:24Z</time>
      </trkpt>
      <trkpt lat="31.231193778449065" lon="121.3998647317794">
        <ele>17.93591422587633</ele>
        <time>2026-05-23T11:44:30Z</time>
      </trkpt>
      <trkpt lat="31.231199758755587" lon="121.39967670797577">
        <ele>18.86599463969469</ele>
        <time>2026-05-23T11:44:36Z</time>
      </trkpt>
      <trkpt lat="31.23116176421384" lon="121.39952969437782">
        <ele>18.10237617045641</ele>
        <time>2026-05-23T11:44:42Z</time>
      </trkpt>
      <trkpt lat="31.231080792081006" lon="121.39940368784704">
        <ele>19.502782054245472</ele>
        <time>2026-05-23T11:44:48Z</time>
      </trkpt>
      <trkpt lat="31.230972837190418" lon="121.39933569027333">
        <ele>21.355015940964222</ele>
        <time>2026-05-23T11:44:54Z</time>
      </trkpt>
      <trkpt lat="31.230764930694676" lon="121.39929470431109">
        <ele>18.509286113083363</ele>
        <time>2026-05-23T11:45:03Z</time>
      </trkpt>
      <trkpt lat="31.230632992701214" lon="121.39930671701009">
        <ele>18.80257911235094</ele>
        <time>2026-05-23T11:45:09Z</time>
      </trkpt>
      <trkpt lat="31.23048806416717" lon="121.39936673571633">
        <ele>12.466408915817738</ele>
        <time>2026-05-23T11:45:15Z</time>
      </trkpt>
      <trkpt lat="31.230427095666645" lon="121.39941074560164">
        <ele>17.476159282028675</ele>
        <time>2026-05-23T11:45:18Z</time>
      </trkpt>
      <trkpt lat="31.230251178932196" lon="121.39943276326807">
        <ele>18.08123893290758</ele>
        <time>2026-05-23T11:45:27Z</time>
      </trkpt>
      <trkpt lat="31.230030289350047" lon="121.39953479363118">
        <ele>18.65725440531969</ele>
        <time>2026-05-23T11:45:39Z</time>
      </trkpt>
      <trkpt lat="31.229927339478312" lon="121.39956380586538">
        <ele>18.79201240092516</ele>
        <time>2026-05-23T11:45:42Z</time>
      </trkpt>
      <trkpt lat="31.229876365924703" lon="121.39959781418314">
        <ele>20.319245524704456</ele>
        <time>2026-05-23T11:45:48Z</time>
      </trkpt>
      <trkpt lat="31.229745440748882" lon="121.39976084500621">
        <ele>17.904206462204456</ele>
        <time>2026-05-23T11:45:51Z</time>
      </trkpt>
      <trkpt lat="31.229718463685934" lon="121.39987386162909">
        <ele>20.821278758347034</ele>
        <time>2026-05-23T11:45:54Z</time>
      </trkpt>
      <trkpt lat="31.229719473491528" lon="121.39997987553636">
        <ele>21.534691996872425</ele>
        <time>2026-05-23T11:45:57Z</time>
      </trkpt>
      <trkpt lat="31.229738473676527" lon="121.40006888608578">
        <ele>21.188553996384144</ele>
        <time>2026-05-23T11:46:00Z</time>
      </trkpt>
      <trkpt lat="31.22986143966655" lon="121.40028290641507">
        <ele>18.918839640915394</ele>
        <time>2026-05-23T11:46:09Z</time>
      </trkpt>
      <trkpt lat="31.229932415864845" lon="121.40036291245188">
        <ele>14.736119456589222</ele>
        <time>2026-05-23T11:46:15Z</time>
      </trkpt>
    </trkseg>
  </trk>
</gpx>