<?xml version="1.0" encoding="UTF-8"?>
<gpx xmlns="http://www.topografix.com/GPX/1/1" xmlns:gpxtpx="http://www.garmin.com/xmlschemas/TrackPointExtension/v1" xmlns:xsi="http://www.w3.org/2001/XMLSchema-instance" xsi:schemaLocation="http://www.topografix.com/GPX/1/1 http://www.topografix.com/GPX/1/1/gpx.xsd" version="1.1" creator="gpx.py -- https://github.com/tkrajina/gpxpy">
  <trk>
    <name>gpx from keep</name>
    <type>Run</type>
    <trkseg>
      <trkpt lat="31.229701469885413" lon="121.39985586079341">
        <ele>16.9388964773508</ele>
        <time>2026-07-07T09:29:48Z</time>
      </trkpt>
      <trkpt lat="31.229724477917987" lon="121.40004688425044">
        <ele>21.19031554473361</ele>
        <time>2026-07-07T09:29:48Z</time>
      </trkpt>
      <trkpt lat="31.229763474227315" lon="121.4001839002943">
        <ele>6.824272453913299</ele>
        <time>2026-07-07T09:29:48Z</time>
      </trkpt>
      <trkpt lat="31.22983445073978" lon="121.40026990681399">
        <ele>21.148041069635955</ele>
        <time>2026-07-07T09:29:48Z</time>
      </trkpt>
      <trkpt lat="31.229987391152456" lon="121.40036990874256">
        <ele>17.160843193659392</ele>
        <time>2026-07-07T09:29:48Z</time>
      </trkpt>
      <trkpt lat="31.23013632564491" lon="121.40040090059172">
        <ele>17.779136955866424</ele>
        <time>2026-07-07T09:29:48Z</time>
      </trkpt>
      <trkpt lat="31.230407191568947" lon="121.40032886580079">
        <ele>17.528122246393767</ele>
        <time>2026-07-07T09:29:48Z</time>
      </trkpt>
      <trkpt lat="31.230708041111587" lon="121.40023182494889">
        <ele>16.243980705866424</ele>
        <time>2026-07-07T09:29:48Z</time>
      </trkpt>
      <trkpt lat="31.23085296597951" lon="121.40015880163887">
        <ele>16.29682189238986</ele>
        <time>2026-07-07T09:29:48Z</time>
      </trkpt>
      <trkpt lat="31.231001892914783" lon="121.40012078320552">
        <ele>15.319183647760955</ele>
        <time>2026-07-07T09:29:48Z</time>
      </trkpt>
      <trkpt lat="31.231087846835212" lon="121.40006076726884">
        <ele>16.03259307158908</ele>
        <time>2026-07-07T09:29:48Z</time>
      </trkpt>
      <trkpt lat="31.231145812787926" lon="121.39998975247076">
        <ele>14.793365776667205</ele>
        <time>2026-07-07T09:29:48Z</time>
      </trkpt>
      <trkpt lat="31.231215765923466" lon="121.39983972665843">
        <ele>18.12792235625705</ele>
        <time>2026-07-07T09:29:48Z</time>
      </trkpt>
      <trkpt lat="31.23121275359697" lon="121.3996867080339">
        <ele>9.273659050592986</ele>
        <time>2026-07-07T09:29:48Z</time>
      </trkpt>
      <trkpt lat="31.231107780020555" lon="121.39940968612133">
        <ele>18.925888359675017</ele>
        <time>2026-07-07T09:29:48Z</time>
      </trkpt>
      <trkpt lat="31.23102581264162" lon="121.3993356856523">
        <ele>17.1476367117258</ele>
        <time>2026-07-07T09:29:48Z</time>
      </trkpt>
      <trkpt lat="31.230770926340885" lon="121.39927170152791">
        <ele>17.591537773737517</ele>
        <time>2026-07-07T09:29:48Z</time>
      </trkpt>
      <trkpt lat="31.23068197089654" lon="121.39931971403573">
        <ele>17.28503447783908</ele>
        <time>2026-07-07T09:29:48Z</time>
      </trkpt>
      <trkpt lat="31.230398107569194" lon="121.39938974593778">
        <ele>16.9388964773508</ele>
        <time>2026-07-07T09:29:49Z</time>
      </trkpt>
      <trkpt lat="31.230089258826055" lon="121.39949478407122">
        <ele>16.465927422175017</ele>
        <time>2026-07-07T09:29:49Z</time>
      </trkpt>
      <trkpt lat="31.229940331437824" lon="121.39953880192414">
        <ele>16.843773186335174</ele>
        <time>2026-07-07T09:29:49Z</time>
      </trkpt>
      <trkpt lat="31.229881361884765" lon="121.39957681134896">
        <ele>16.706375420221892</ele>
        <time>2026-07-07T09:29:49Z</time>
      </trkpt>
      <trkpt lat="31.229787416826866" lon="121.39971083524472">
        <ele>15.43280059112033</ele>
        <time>2026-07-07T09:29:49Z</time>
      </trkpt>
      <trkpt lat="31.2297524422143" lon="121.39981285087886">
        <ele>16.864914238581267</ele>
        <time>2026-07-07T09:29:49Z</time>
      </trkpt>
      <trkpt lat="31.22975646316181" lon="121.40004788159888">
        <ele>17.160843193659392</ele>
        <time>2026-07-07T09:29:49Z</time>
      </trkpt>
      <trkpt lat="31.22982345128803" lon="121.40022890166519">
        <ele>18.34722930205783</ele>
        <time>2026-07-07T09:29:49Z</time>
      </trkpt>
      <trkpt lat="31.22993940720263" lon="121.40031590461744">
        <ele>16.41308623565158</ele>
        <time>2026-07-07T09:29:49Z</time>
      </trkpt>
      <trkpt lat="31.230081347880617" lon="121.40037290101324">
        <ele>13.530365288385955</ele>
        <time>2026-07-07T09:29:49Z</time>
      </trkpt>
      <trkpt lat="31.230391197843765" lon="121.40031886566689">
        <ele>17.369583428034392</ele>
        <time>2026-07-07T09:29:49Z</time>
      </trkpt>
      <trkpt lat="31.23071004018469" lon="121.40023182477452">
        <ele>19.66307860625705</ele>
        <time>2026-07-07T09:29:49Z</time>
      </trkpt>
      <trkpt lat="31.230989898684104" lon="121.40012278453635">
        <ele>21.46247130645236</ele>
        <time>2026-07-07T09:29:50Z</time>
      </trkpt>
      <trkpt lat="31.23106885676811" lon="121.40007177045833">
        <ele>-10.228965461125764</ele>
        <time>2026-07-07T09:29:50Z</time>
      </trkpt>
      <trkpt lat="31.231171795528258" lon="121.39993674310496">
        <ele>16.769790947565642</ele>
        <time>2026-07-07T09:29:50Z</time>
      </trkpt>
      <trkpt lat="31.23122575515994" lon="121.39977271736493">
        <ele>19.557388603815642</ele>
        <time>2026-07-07T09:29:50Z</time>
      </trkpt>
      <trkpt lat="31.231218750216325" lon="121.39967970667608">
        <ele>19.242958366999236</ele>
        <time>2026-07-07T09:29:50Z</time>
      </trkpt>
      <trkpt lat="31.231142770029905" lon="121.39949169184723">
        <ele>12.563286125788299</ele>
        <time>2026-07-07T09:29:50Z</time>
      </trkpt>
      <trkpt lat="31.23102281660604" lon="121.39937168958434">
        <ele>17.67608672393283</ele>
        <time>2026-07-07T09:29:50Z</time>
      </trkpt>
      <trkpt lat="31.230813908265322" lon="121.39929870043471">
        <ele>17.94824248565158</ele>
        <time>2026-07-07T09:29:50Z</time>
      </trkpt>
      <trkpt lat="31.230611008159034" lon="121.39938072643432">
        <ele>17.9376757742258</ele>
        <time>2026-07-07T09:29:50Z</time>
      </trkpt>
      <trkpt lat="31.230337139494267" lon="121.39943875640753">
        <ele>17.517555534967986</ele>
        <time>2026-07-07T09:29:50Z</time>
      </trkpt>
      <trkpt lat="31.230205202465008" lon="121.39946177037758">
        <ele>18.241539299616424</ele>
        <time>2026-07-07T09:29:50Z</time>
      </trkpt>
      <trkpt lat="31.229978316617903" lon="121.39957380255123">
        <ele>19.306373894342986</ele>
        <time>2026-07-07T09:29:50Z</time>
      </trkpt>
      <trkpt lat="31.229918345689946" lon="121.3995888094907">
        <ele>20.12548095000705</ele>
        <time>2026-07-07T09:29:50Z</time>
      </trkpt>
      <trkpt lat="31.229806407482535" lon="121.39970483286505">
        <ele>18.968162834772674</ele>
        <time>2026-07-07T09:29:50Z</time>
      </trkpt>
      <trkpt lat="31.229727460739607" lon="121.39988686252897">
        <ele>-15.558433234563264</ele>
        <time>2026-07-07T09:29:50Z</time>
      </trkpt>
      <trkpt lat="31.22971447354259" lon="121.39995687288561">
        <ele>18.925888359675017</ele>
        <time>2026-07-07T09:29:50Z</time>
      </trkpt>
      <trkpt lat="31.22977247037364" lon="121.40018689994645">
        <ele>23.999054253229705</ele>
        <time>2026-07-07T09:29:50Z</time>
      </trkpt>
      <trkpt lat="31.22989242958968" lon="121.40032090947817">
        <ele>21.938080132135955</ele>
        <time>2026-07-07T09:29:50Z</time>
      </trkpt>
      <trkpt lat="31.23001937770317" lon="121.40038190782012">
        <ele>18.53746825469455</ele>
        <time>2026-07-07T09:29:51Z</time>
      </trkpt>
      <trkpt lat="31.230170306586658" lon="121.40037289325369">
        <ele>21.264297783503142</ele>
        <time>2026-07-07T09:29:51Z</time>
      </trkpt>
      <trkpt lat="31.230525130726477" lon="121.40027484731912">
        <ele>19.948448479303924</ele>
        <time>2026-07-07T09:29:51Z</time>
      </trkpt>
      <trkpt lat="31.23089694367255" lon="121.40014079521522">
        <ele>17.6021044851633</ele>
        <time>2026-07-07T09:29:51Z</time>
      </trkpt>
      <trkpt lat="31.23099889251754" lon="121.400103781057">
        <ele>16.317962944635955</ele>
        <time>2026-07-07T09:29:51Z</time>
      </trkpt>
      <trkpt lat="31.23105986000825" lon="121.40006276998838">
        <ele>11.271217644342986</ele>
        <time>2026-07-07T09:29:51Z</time>
      </trkpt>
      <trkpt lat="31.231182782509375" lon="121.39985373132522">
        <ele>18.67486602080783</ele>
        <time>2026-07-07T09:29:51Z</time>
      </trkpt>
      <trkpt lat="31.231205764509806" lon="121.39977371923268">
        <ele>18.28381377471408</ele>
        <time>2026-07-07T09:29:51Z</time>
      </trkpt>
      <trkpt lat="31.231193757298243" lon="121.39962670261959">
        <ele>-20.055579841008576</ele>
        <time>2026-07-07T09:29:51Z</time>
      </trkpt>
      <trkpt lat="31.23104180701323" lon="121.399360686799">
        <ele>-48.80088013397733</ele>
        <time>2026-07-07T09:29:51Z</time>
      </trkpt>
      <trkpt lat="31.230983752168225" lon="121.39929353640174">
        <ele>0.25821715606173257</ele>
        <time>2026-07-07T09:29:51Z</time>
      </trkpt>
      <trkpt lat="31.23083789268112" lon="121.39923269191736">
        <ele>18.97872954619845</ele>
        <time>2026-07-07T09:29:51Z</time>
      </trkpt>
      <trkpt lat="31.230720947294923" lon="121.39923870269307">
        <ele>21.462471306452358</ele>
        <time>2026-07-07T09:29:51Z</time>
      </trkpt>
      <trkpt lat="31.23044008357465" lon="121.3993267358377">
        <ele>20.178322136530483</ele>
        <time>2026-07-07T09:29:51Z</time>
      </trkpt>
      <trkpt lat="31.230176213799485" lon="121.3994337699132">
        <ele>20.661857903132045</ele>
        <time>2026-07-07T09:29:52Z</time>
      </trkpt>
      <trkpt lat="31.2299493253603" lon="121.39951479847478">
        <ele>20.136047661432826</ele>
        <time>2026-07-07T09:29:52Z</time>
      </trkpt>
      <trkpt lat="31.22981739546944" lon="121.3996238223284">
        <ele>22.125679314264858</ele>
        <time>2026-07-07T09:29:52Z</time>
      </trkpt>
      <trkpt lat="31.229739444162647" lon="121.39976784639377">
        <ele>21.988281548151576</ele>
        <time>2026-07-07T09:29:52Z</time>
      </trkpt>
      <trkpt lat="31.22971946839124" lon="121.3999278685974">
        <ele>20.35799437774142</ele>
        <time>2026-07-07T09:29:52Z</time>
      </trkpt>
      <trkpt lat="31.229726473238113" lon="121.40000987899393">
        <ele>20.53767424834689</ele>
        <time>2026-07-07T09:29:52Z</time>
      </trkpt>
      <trkpt lat="31.229790469156782" lon="121.40025190795775">
        <ele>18.318161308893764</ele>
        <time>2026-07-07T09:29:52Z</time>
      </trkpt>
      <trkpt lat="31.22983745477853" lon="121.4003179138154">
        <ele>7.033012688288295</ele>
        <time>2026-07-07T09:29:52Z</time>
      </trkpt>
      <trkpt lat="31.230006388572935" lon="121.40042291539132">
        <ele>17.77121001494845</ele>
        <time>2026-07-07T09:29:52Z</time>
      </trkpt>
      <trkpt lat="31.230254268787977" lon="121.40038288748732">
        <ele>20.125480950007045</ele>
        <time>2026-07-07T09:29:52Z</time>
      </trkpt>
      <trkpt lat="31.230327230741565" lon="121.40034687554103">
        <ele>18.82283812774142</ele>
        <time>2026-07-07T09:29:52Z</time>
      </trkpt>
      <trkpt lat="31.230474160386894" lon="121.40032785980613">
        <ele>17.147636711725795</ele>
        <time>2026-07-07T09:29:52Z</time>
      </trkpt>
      <trkpt lat="31.230782005826935" lon="121.40022281716664">
        <ele>18.63259154571017</ele>
        <time>2026-07-07T09:29:52Z</time>
      </trkpt>
      <trkpt lat="31.231052864695293" lon="121.40007677255223">
        <ele>18.064506828913295</ele>
        <time>2026-07-07T09:29:53Z</time>
      </trkpt>
      <trkpt lat="31.231110832815013" lon="121.400027760703">
        <ele>19.369789421686733</ele>
        <time>2026-07-07T09:29:53Z</time>
      </trkpt>
      <trkpt lat="31.23116180201582" lon="121.39995574650477">
        <ele>19.63137084258517</ele>
        <time>2026-07-07T09:29:53Z</time>
      </trkpt>
      <trkpt lat="31.23121276371791" lon="121.39980072198921">
        <ele>19.401497185358608</ele>
        <time>2026-07-07T09:29:53Z</time>
      </trkpt>
      <trkpt lat="31.231209752248397" lon="121.3996547045008">
        <ele>18.717148125300014</ele>
        <time>2026-07-07T09:29:53Z</time>
      </trkpt>
      <trkpt lat="31.231119777762466" lon="121.39945368974112">
        <ele>18.56917601836642</ele>
        <time>2026-07-07T09:29:53Z</time>
      </trkpt>
      <trkpt lat="31.23103281032274" lon="121.39934868635959">
        <ele>20.400276482233608</ele>
        <time>2026-07-07T09:29:53Z</time>
      </trkpt>
      <trkpt lat="31.230869879590546" lon="121.39925869163106">
        <ele>22.704338371882045</ele>
        <time>2026-07-07T09:29:53Z</time>
      </trkpt>
      <trkpt lat="31.230763929856607" lon="121.39927570252928">
        <ele>-2.9336468576101424</ele>
        <time>2026-07-07T09:29:53Z</time>
      </trkpt>
      <trkpt lat="31.23043808836446" lon="121.3993807415178">
        <ele>18.22303801787814</ele>
        <time>2026-07-07T09:29:53Z</time>
      </trkpt>
      <trkpt lat="31.23015822275231" lon="121.39944177233346">
        <ele>19.116127312311733</ele>
        <time>2026-07-07T09:29:53Z</time>
      </trkpt>
      <trkpt lat="31.229867366202217" lon="121.39954980952011">
        <ele>-24.970214545598424</ele>
        <time>2026-07-07T09:29:53Z</time>
      </trkpt>
      <trkpt lat="31.22975742875908" lon="121.39968783509845">
        <ele>8.811264336237514</ele>
        <time>2026-07-07T09:29:53Z</time>
      </trkpt>
      <trkpt lat="31.229705468497237" lon="121.3998608610868">
        <ele>21.914299309382045</ele>
        <time>2026-07-07T09:29:54Z</time>
      </trkpt>
      <trkpt lat="31.229726477091535" lon="121.40004788421443">
        <ele>21.768974602350795</ele>
        <time>2026-07-07T09:29:54Z</time>
      </trkpt>
      <trkpt lat="31.22981445337915" lon="121.40020989964934">
        <ele>21.399055779108608</ele>
        <time>2026-07-07T09:29:54Z</time>
      </trkpt>
      <trkpt lat="31.22993441043784" lon="121.4003239062748">
        <ele>-23.67021149384061</ele>
        <time>2026-07-07T09:29:54Z</time>
      </trkpt>
      <trkpt lat="31.230004381056844" lon="121.40035090431901">
        <ele>20.001289665827358</ele>
        <time>2026-07-07T09:29:54Z</time>
      </trkpt>
      <trkpt lat="31.230134321428086" lon="121.40035689391163">
        <ele>19.69478636992892</ele>
        <time>2026-07-07T09:29:54Z</time>
      </trkpt>
      <trkpt lat="31.23040818768396" lon="121.40029886114269">
        <ele>7.434639275202358</ele>
        <time>2026-07-07T09:29:54Z</time>
      </trkpt>
      <trkpt lat="31.230686049546904" lon="121.40021582450493">
        <ele>19.969581902155483</ele>
        <time>2026-07-07T09:29:54Z</time>
      </trkpt>
      <trkpt lat="31.23103787351321" lon="121.40009477638685">
        <ele>18.780563652643764</ele>
        <time>2026-07-07T09:29:54Z</time>
      </trkpt>
      <trkpt lat="31.231170791942592" lon="121.39989473767142">
        <ele>18.75942260039767</ele>
        <time>2026-07-07T09:29:54Z</time>
      </trkpt>
      <trkpt lat="31.231211760295768" lon="121.39975771673242">
        <ele>10.283005058893764</ele>
        <time>2026-07-07T09:29:54Z</time>
      </trkpt>
      <trkpt lat="31.231186756251894" lon="121.39957469725456">
        <ele>20.968361199030483</ele>
        <time>2026-07-07T09:29:54Z</time>
      </trkpt>
      <trkpt lat="31.231151765474863" lon="121.39948669051722">
        <ele>13.268776238092983</ele>
        <time>2026-07-07T09:29:54Z</time>
      </trkpt>
      <trkpt lat="31.231009819840317" lon="121.39933268674451">
        <ele>20.735840141901576</ele>
        <time>2026-07-07T09:29:54Z</time>
      </trkpt>
      <trkpt lat="31.2309108612714" lon="121.39926868902873">
        <ele>19.641945183405483</ele>
        <time>2026-07-07T09:29:55Z</time>
      </trkpt>
      <trkpt lat="31.23077692234548" lon="121.39925369925537">
        <ele>-3.0710446237234237</ele>
        <time>2026-07-07T09:29:55Z</time>
      </trkpt>
      <trkpt lat="31.230498057175467" lon="121.39933373148591">
        <ele>18.590317070612514</ele>
        <time>2026-07-07T09:29:55Z</time>
      </trkpt>
      <trkpt lat="31.23019420425352" lon="121.39941776665214">
        <ele>6.591751396784389</ele>
        <time>2026-07-07T09:29:55Z</time>
      </trkpt>
      <trkpt lat="31.230053274292448" lon="121.39947878546704">
        <ele>19.190109551081264</ele>
        <time>2026-07-07T09:29:55Z</time>
      </trkpt>
      <trkpt lat="31.229981308633636" lon="121.39949079305035">
        <ele>14.899063408503139</ele>
        <time>2026-07-07T09:29:55Z</time>
      </trkpt>
      <trkpt lat="31.22986437010216" lon="121.39958081328614">
        <ele>-10.543395697942174</ele>
        <time>2026-07-07T09:29:55Z</time>
      </trkpt>
      <trkpt lat="31.229751443414724" lon="121.39982085197602">
        <ele>22.284218132624233</ele>
        <time>2026-07-07T09:29:55Z</time>
      </trkpt>
      <trkpt lat="31.22974547042626" lon="121.40006888547548">
        <ele>21.169174492487514</ele>
        <time>2026-07-07T09:29:55Z</time>
      </trkpt>
      <trkpt lat="31.22979745952647" lon="121.4001938987879">
        <ele>12.888290703425014</ele>
        <time>2026-07-07T09:29:55Z</time>
      </trkpt>
      <trkpt lat="31.229915418228273" lon="121.40031490655745">
        <ele>16.748649895319545</ele>
        <time>2026-07-07T09:29:55Z</time>
      </trkpt>
      <trkpt lat="31.230128327593135" lon="121.40038589894102">
        <ele>18.62202483428439</ele>
        <time>2026-07-07T09:29:55Z</time>
      </trkpt>
      <trkpt lat="31.230332227845622" lon="121.40034187433525">
        <ele>8.06349974883517</ele>
        <time>2026-07-07T09:29:55Z</time>
      </trkpt>
      <trkpt lat="31.230570104745265" lon="121.40022883653691">
        <ele>19.63137084258517</ele>
        <time>2026-07-07T09:29:56Z</time>
      </trkpt>
      <trkpt lat="31.23087395721633" lon="121.40016780110797">
        <ele>11.384834587702358</ele>
        <time>2026-07-07T09:29:56Z</time>
      </trkpt>
      <trkpt lat="31.230999893946656" lon="121.40012178352217">
        <ele>7.685653984675014</ele>
        <time>2026-07-07T09:29:56Z</time>
      </trkpt>
      <trkpt lat="31.23111083200555" lon="121.40001975960604">
        <ele>20.01185637725314</ele>
        <time>2026-07-07T09:29:56Z</time>
      </trkpt>
      <trkpt lat="31.23117379017199" lon="121.3998907368889">
        <ele>19.69478636992892</ele>
        <time>2026-07-07T09:29:56Z</time>
      </trkpt>
      <trkpt lat="31.23118075805758" lon="121.39956269641893">
        <ele>19.927307427057826</ele>
        <time>2026-07-07T09:29:56Z</time>
      </trkpt>
      <trkpt lat="31.231154764240628" lon="121.39948869047362">
        <ele>17.89540129912814</ele>
        <time>2026-07-07T09:29:56Z</time>
      </trkpt>
      <trkpt lat="31.231113778656066" lon="121.39942868760063">
        <ele>-27.411674201360142</ele>
        <time>2026-07-07T09:29:56Z</time>
      </trkpt>
      <trkpt lat="31.23100082400893" lon="121.39933268752922">
        <ele>11.281784355768764</ele>
        <time>2026-07-07T09:29:56Z</time>
      </trkpt>
      <trkpt lat="31.23094084963429" lon="121.3993016896592">
        <ele>12.132599175104701</ele>
        <time>2026-07-07T09:29:56Z</time>
      </trkpt>
      <trkpt lat="31.23074593874396" lon="121.39928370488332">
        <ele>14.109016716608608</ele>
        <time>2026-07-07T09:29:56Z</time>
      </trkpt>
      <trkpt lat="31.230477067265852" lon="121.39933873382205">
        <ele>19.8321841360422</ele>
        <time>2026-07-07T09:29:56Z</time>
      </trkpt>
      <trkpt lat="31.230190206780183" lon="121.39942676795081">
        <ele>18.50576049102267</ele>
        <time>2026-07-07T09:29:57Z</time>
      </trkpt>
      <trkpt lat="31.22999330198256" lon="121.39947679048129">
        <ele>-5.747665107121861</ele>
        <time>2026-07-07T09:29:57Z</time>
      </trkpt>
      <trkpt lat="31.229888356373834" lon="121.399548807577">
        <ele>22.52730590117892</ele>
        <time>2026-07-07T09:29:57Z</time>
      </trkpt>
      <trkpt lat="31.229757429711082" lon="121.39969883641585">
        <ele>19.369789421686733</ele>
        <time>2026-07-07T09:29:57Z</time>
      </trkpt>
      <trkpt lat="31.229722454407227" lon="121.39979385110918">
        <ele>19.23239165557345</ele>
        <time>2026-07-07T09:29:57Z</time>
      </trkpt>
      <trkpt lat="31.22971847227529" lon="121.39996287333942">
        <ele>16.632393181452358</ele>
        <time>2026-07-07T09:29:57Z</time>
      </trkpt>
      <trkpt lat="31.229771463990502" lon="121.40012289081741">
        <ele>21.179741203913295</ele>
        <time>2026-07-07T09:29:57Z</time>
      </trkpt>
      <trkpt lat="31.229910419069736" lon="121.40030190501642">
        <ele>15.266334831842983</ele>
        <time>2026-07-07T09:29:57Z</time>
      </trkpt>
      <trkpt lat="31.230001385238303" lon="121.40037490829917">
        <ele>18.69600707305392</ele>
        <time>2026-07-07T09:29:57Z</time>
      </trkpt>
      <trkpt lat="31.23009534502225" lon="121.40040390463741">
        <ele>16.212272942194545</ele>
        <time>2026-07-07T09:29:57Z</time>
      </trkpt>
      <trkpt lat="31.23035521752474" lon="121.40034487279169">
        <ele>16.89662200225314</ele>
        <time>2026-07-07T09:45:55Z</time>
      </trkpt>
      <trkpt lat="31.23043517550414" lon="121.4003018592436">
        <ele>10.301506340632045</ele>
        <time>2026-07-07T09:45:58Z</time>
      </trkpt>
      <trkpt lat="31.23054212408326" lon="121.40028584749355">
        <ele>17.10536223662814</ele>
        <time>2026-07-07T09:46:04Z</time>
      </trkpt>
      <trkpt lat="31.23079499435819" lon="121.40017280871996">
        <ele>18.011658012995326</ele>
        <time>2026-07-07T09:46:16Z</time>
      </trkpt>
      <trkpt lat="31.230932925616052" lon="121.40012779021839">
        <ele>14.708816826471889</ele>
        <time>2026-07-07T09:46:22Z</time>
      </trkpt>
      <trkpt lat="31.230994896790783" lon="121.4001267846701">
        <ele>17.55983001006564</ele>
        <time>2026-07-07T09:46:25Z</time>
      </trkpt>
      <trkpt lat="31.23110383717427" lon="121.40003876282712">
        <ele>19.50453978789767</ele>
        <time>2026-07-07T09:46:31Z</time>
      </trkpt>
      <trkpt lat="31.23119877764591" lon="121.39988073341046">
        <ele>15.823852837214076</ele>
        <time>2026-07-07T09:46:40Z</time>
      </trkpt>
      <trkpt lat="31.231217742142963" lon="121.39957769489256">
        <ele>18.62202483428439</ele>
        <time>2026-07-07T09:46:52Z</time>
      </trkpt>
      <trkpt lat="31.231185748959938" lon="121.39947668646607">
        <ele>17.84255248321017</ele>
        <time>2026-07-07T09:46:55Z</time>
      </trkpt>
      <trkpt lat="31.231099780152267" lon="121.39936068174201">
        <ele>17.390724480280483</ele>
        <time>2026-07-07T09:47:01Z</time>
      </trkpt>
      <trkpt lat="31.23096883528828" lon="121.39928168524372">
        <ele>11.775894463190639</ele>
        <time>2026-07-07T09:47:07Z</time>
      </trkpt>
      <trkpt lat="31.230799911754964" lon="121.39925469734679">
        <ele>19.525680840143764</ele>
        <time>2026-07-07T09:47:13Z</time>
      </trkpt>
      <trkpt lat="31.230624994073672" lon="121.39927271435508">
        <ele>18.022224724421108</ele>
        <time>2026-07-07T09:47:19Z</time>
      </trkpt>
      <trkpt lat="31.230309148552603" lon="121.39938575328247">
        <ele>19.084419548639858</ele>
        <time>2026-07-07T09:47:34Z</time>
      </trkpt>
      <trkpt lat="31.229998302461528" lon="121.39951279398197">
        <ele>20.74641448272189</ele>
        <time>2026-07-07T09:47:49Z</time>
      </trkpt>
      <trkpt lat="31.229817395971054" lon="121.39962982302603">
        <ele>19.863891899714076</ele>
        <time>2026-07-07T09:47:58Z</time>
      </trkpt>
      <trkpt lat="31.229754437557588" lon="121.3997718455811">
        <ele>20.661857903132045</ele>
        <time>2026-07-07T09:48:04Z</time>
      </trkpt>
      <trkpt lat="31.229738468572997" lon="121.40001887917728">
        <ele>21.2933657766672</ele>
        <time>2026-07-07T09:48:13Z</time>
      </trkpt>
      <trkpt lat="31.22975147096476" lon="121.40010088944275">
        <ele>21.54702025664767</ele>
        <time>2026-07-07T09:48:16Z</time>
      </trkpt>
      <trkpt lat="31.229875435657032" lon="121.40030490852334">
        <ele>18.85189849151095</ele>
        <time>2026-07-07T09:48:25Z</time>
      </trkpt>
      <trkpt lat="31.22999039186483" lon="121.4003879112851">
        <ele>20.89437896026095</ele>
        <time>2026-07-07T09:48:31Z</time>
      </trkpt>
      <trkpt lat="31.23010633991825" lon="121.40040390367837">
        <ele>21.589294731745326</ele>
        <time>2026-07-07T09:48:37Z</time>
      </trkpt>
      <trkpt lat="31.230220285145837" lon="121.4003878912323">
        <ele>13.488083183893764</ele>
        <time>2026-07-07T09:48:43Z</time>
      </trkpt>
      <trkpt lat="31.230521132580947" lon="121.40027484766787">
        <ele>18.15962249053439</ele>
        <time>2026-07-07T09:48:55Z</time>
      </trkpt>
      <trkpt lat="31.23088395193878" lon="121.4001617993689">
        <ele>18.326088249811733</ele>
        <time>2026-07-07T09:49:13Z</time>
      </trkpt>
      <trkpt lat="31.23106485666571" lon="121.40005276816336">
        <ele>18.873039543757045</ele>
        <time>2026-07-07T09:49:22Z</time>
      </trkpt>
      <trkpt lat="31.231190782968778" lon="121.39989773631889">
        <ele>14.65596801055392</ele>
        <time>2026-07-07T09:49:31Z</time>
      </trkpt>
      <trkpt lat="31.23120874712642" lon="121.39958769681692">
        <ele>19.22181731475314</ele>
        <time>2026-07-07T09:49:43Z</time>
      </trkpt>
      <trkpt lat="31.231177754836445" lon="121.39950469021953">
        <ele>23.105964958796108</ele>
        <time>2026-07-07T09:49:46Z</time>
      </trkpt>
      <trkpt lat="31.231077792442363" lon="121.39938968664964">
        <ele>19.68421965850314</ele>
        <time>2026-07-07T09:49:52Z</time>
      </trkpt>
      <trkpt lat="31.231017816985297" lon="121.39934468726108">
        <ele>10.481178581842983</ele>
        <time>2026-07-07T09:49:55Z</time>
      </trkpt>
      <trkpt lat="31.230760933170323" lon="121.39930370555174">
        <ele>18.801697075495326</ele>
        <time>2026-07-07T09:50:07Z</time>
      </trkpt>
      <trkpt lat="31.230476067800396" lon="121.39933973401044">
        <ele>18.212471306452358</ele>
        <time>2026-07-07T09:50:19Z</time>
      </trkpt>
      <trkpt lat="31.230194205900062" lon="121.3994397689817">
        <ele>15.697029411921108</ele>
        <time>2026-07-07T09:50:31Z</time>
      </trkpt>
      <trkpt lat="31.229965316681557" lon="121.39949879532013">
        <ele>20.1677554251047</ele>
        <time>2026-07-07T09:50:40Z</time>
      </trkpt>
      <trkpt lat="31.22989435223253" lon="121.39953180515437">
        <ele>6.182197868952358</ele>
        <time>2026-07-07T09:50:43Z</time>
      </trkpt>
      <trkpt lat="31.229786413235978" lon="121.3996638297178">
        <ele>13.688896477350795</ele>
        <time>2026-07-07T09:50:49Z</time>
      </trkpt>
      <trkpt lat="31.229750437000412" lon="121.39974484260411">
        <ele>18.88625365508517</ele>
        <time>2026-07-07T09:50:52Z</time>
      </trkpt>
      <trkpt lat="31.229739463709212" lon="121.39997487311928">
        <ele>7.47426635039767</ele>
        <time>2026-07-07T09:51:01Z</time>
      </trkpt>
      <trkpt lat="31.229780460657864" lon="121.40013089117299">
        <ele>19.2958071829172</ele>
        <time>2026-07-07T09:51:07Z</time>
      </trkpt>
      <trkpt lat="31.229877433707635" lon="121.4002959069841">
        <ele>18.1701968313547</ele>
        <time>2026-07-07T09:51:16Z</time>
      </trkpt>
      <trkpt lat="31.230030373418916" lon="121.40038890795394">
        <ele>18.947021782526576</ele>
        <time>2026-07-07T09:51:22Z</time>
      </trkpt>
      <trkpt lat="31.2301513195119" lon="121.4004079003838">
        <ele>17.676086723932826</ele>
        <time>2026-07-07T09:51:28Z</time>
      </trkpt>
      <trkpt lat="31.23047715671152" lon="121.40030785649309">
        <ele>3.555778801569545</ele>
        <time>2026-07-07T09:51:43Z</time>
      </trkpt>
      <trkpt lat="31.230788002606985" lon="121.40021881605361">
        <ele>16.1277163626047</ele>
        <time>2026-07-07T09:51:58Z</time>
      </trkpt>
      <trkpt lat="31.230899941433183" lon="121.4001327938092">
        <ele>12.972839653620326</ele>
        <time>2026-07-07T09:52:04Z</time>
      </trkpt>
      <trkpt lat="31.231075853216545" lon="121.40006876942931">
        <ele>18.74885588897189</ele>
        <time>2026-07-07T09:52:13Z</time>
      </trkpt>
      <trkpt lat="31.23112282624668" lon="121.40001775828605">
        <ele>18.68544036162814</ele>
        <time>2026-07-07T09:52:16Z</time>
      </trkpt>
      <trkpt lat="31.231202774658925" lon="121.39986873151018">
        <ele>16.476494133600795</ele>
        <time>2026-07-07T09:52:22Z</time>
      </trkpt>
      <trkpt lat="31.23121276463316" lon="121.39981072324589">
        <ele>11.564506828913295</ele>
        <time>2026-07-07T09:52:25Z</time>
      </trkpt>
      <trkpt lat="31.231157765670005" lon="121.39952469417132">
        <ele>-9.127135932317174</ele>
        <time>2026-07-07T09:52:37Z</time>
      </trkpt>
      <trkpt lat="31.231063799145595" lon="121.39939268818206">
        <ele>8.53646117461642</ele>
        <time>2026-07-07T09:52:43Z</time>
      </trkpt>
      <trkpt lat="31.23100082500163" lon="121.39934668894637">
        <ele>10.166748345026576</ele>
        <time>2026-07-07T09:52:46Z</time>
      </trkpt>
      <trkpt lat="31.23078992154923" lon="121.39932970562376">
        <ele>20.199463188776576</ele>
        <time>2026-07-07T09:52:56Z</time>
      </trkpt>
      <trkpt lat="31.230476071254884" lon="121.39938773892956">
        <ele>15.813286125788295</ele>
        <time>2026-07-07T09:53:11Z</time>
      </trkpt>
      <trkpt lat="31.23023118716369" lon="121.39941876353157">
        <ele>12.816948235163295</ele>
        <time>2026-07-07T09:53:20Z</time>
      </trkpt>
      <trkpt lat="31.22995332240705" lon="121.39950079658558">
        <ele>5.952324211725795</ele>
        <time>2026-07-07T09:53:32Z</time>
      </trkpt>
      <trkpt lat="31.229843378551422" lon="121.39956481330199">
        <ele>20.096412956842983</ele>
        <time>2026-07-07T09:53:38Z</time>
      </trkpt>
      <trkpt lat="31.229772419736033" lon="121.39966383093838">
        <ele>21.14804106963595</ele>
        <time>2026-07-07T09:53:41Z</time>
      </trkpt>
      <trkpt lat="31.229717460311434" lon="121.39983285646157">
        <ele>16.465927422175014</ele>
        <time>2026-07-07T09:53:47Z</time>
      </trkpt>
      <trkpt lat="31.22972047482058" lon="121.39999787788423">
        <ele>18.410644829401576</ele>
        <time>2026-07-07T09:53:53Z</time>
      </trkpt>
      <trkpt lat="31.229768468784414" lon="121.40015489566015">
        <ele>19.09499388946017</ele>
        <time>2026-07-07T09:53:59Z</time>
      </trkpt>
      <trkpt lat="31.229851443408833" lon="121.40027490608274">
        <ele>18.516334831842983</ele>
        <time>2026-07-07T09:54:05Z</time>
      </trkpt>
      <trkpt lat="31.229946408322654" lon="121.40035390983896">
        <ele>21.116333305964076</ele>
        <time>2026-07-07T09:54:11Z</time>
      </trkpt>
      <trkpt lat="31.230111339136503" lon="121.40041690528915">
        <ele>17.263893425592983</ele>
        <time>2026-07-07T09:54:17Z</time>
      </trkpt>
      <trkpt lat="31.23019330121098" lon="121.40041789829769">
        <ele>17.18991118682345</ele>
        <time>2026-07-07T09:54:20Z</time>
      </trkpt>
      <trkpt lat="31.23030224152926" lon="121.40033987664329">
        <ele>17.90596801055392</ele>
        <time>2026-07-07T09:54:23Z</time>
      </trkpt>
      <trkpt lat="31.23039219578468" lon="121.40030486344807">
        <ele>18.0433657766672</ele>
        <time>2026-07-07T09:54:26Z</time>
      </trkpt>
      <trkpt lat="31.230535127328483" lon="121.40028584810386">
        <ele>17.348450005182826</ele>
        <time>2026-07-07T09:54:32Z</time>
      </trkpt>
      <trkpt lat="31.23081498433752" lon="121.40016580596281">
        <ele>18.843971550592983</ele>
        <time>2026-07-07T09:54:44Z</time>
      </trkpt>
      <trkpt lat="31.23098589874858" lon="121.40010578247322">
        <ele>19.253525078425014</ele>
        <time>2026-07-07T09:54:50Z</time>
      </trkpt>
      <trkpt lat="31.23113281603412" lon="121.3999617498355">
        <ele>10.145607292780483</ele>
        <time>2026-07-07T09:54:59Z</time>
      </trkpt>
      <trkpt lat="31.231196773792327" lon="121.39982972704313">
        <ele>16.632393181452358</ele>
        <time>2026-07-07T09:55:05Z</time>
      </trkpt>
      <trkpt lat="31.231231742657712" lon="121.39966170340811">
        <ele>19.515114128717983</ele>
        <time>2026-07-07T09:55:11Z</time>
      </trkpt>
      <trkpt lat="31.23121274584866" lon="121.39959469726905">
        <ele>14.426094353327358</ele>
        <time>2026-07-07T09:55:17Z</time>
      </trkpt>
      <trkpt lat="31.231150764628378" lon="121.39946968876016">
        <ele>19.316940605768764</ele>
        <time>2026-07-07T09:55:23Z</time>
      </trkpt>
      <trkpt lat="31.23100082239688" lon="121.39930968522337">
        <ele>20.273445427546108</ele>
        <time>2026-07-07T09:55:29Z</time>
      </trkpt>
      <trkpt lat="31.230864881503905" lon="121.39925269148607">
        <ele>15.382599175104701</ele>
        <time>2026-07-07T09:55:35Z</time>
      </trkpt>
      <trkpt lat="31.2307389397537" lon="121.39925070227862">
        <ele>18.89418059600314</ele>
        <time>2026-07-07T09:55:41Z</time>
      </trkpt>
      <trkpt lat="31.230524045545803" lon="121.39933972982543">
        <ele>12.468170464167201</ele>
        <time>2026-07-07T09:55:53Z</time>
      </trkpt>
      <trkpt lat="31.230258173454487" lon="121.39940275949839">
        <ele>-2.986495673528111</ele>
        <time>2026-07-07T09:56:05Z</time>
      </trkpt>
      <trkpt lat="31.23002728705312" lon="121.3994877887126">
        <ele>17.274467766413295</ele>
        <time>2026-07-07T09:56:14Z</time>
      </trkpt>
      <trkpt lat="31.229923337506808" lon="121.39951580085203">
        <ele>14.888489067682826</ele>
        <time>2026-07-07T09:56:20Z</time>
      </trkpt>
      <trkpt lat="31.22988335885519" lon="121.3995508082374">
        <ele>11.857803642878139</ele>
        <time>2026-07-07T09:56:23Z</time>
      </trkpt>
    </trkseg>
  </trk>
</gpx>