<?xml version="1.0" encoding="UTF-8"?>
<gpx xmlns="http://www.topografix.com/GPX/1/1" xmlns:gpxtpx="http://www.garmin.com/xmlschemas/TrackPointExtension/v1" xmlns:xsi="http://www.w3.org/2001/XMLSchema-instance" xsi:schemaLocation="http://www.topografix.com/GPX/1/1 http://www.topografix.com/GPX/1/1/gpx.xsd" version="1.1" creator="gpx.py -- https://github.com/tkrajina/gpxpy">
  <trk>
    <name>gpx from keep</name>
    <type>Run</type>
    <trkseg>
      <trkpt lat="31.226146102876264" lon="121.39957713713895">
        <ele>19.9198087034747</ele>
        <time>2026-07-12T10:23:50Z</time>
      </trkpt>
      <trkpt lat="31.22611009810191" lon="121.39928910972051">
        <ele>19.951516467146575</ele>
        <time>2026-07-12T10:23:50Z</time>
      </trkpt>
      <trkpt lat="31.22607710766207" lon="121.3992011041276">
        <ele>25.61127598863095</ele>
        <time>2026-07-12T10:23:50Z</time>
      </trkpt>
      <trkpt lat="31.225914173695145" lon="121.39903410337901">
        <ele>27.270623522810638</ele>
        <time>2026-07-12T10:23:50Z</time>
      </trkpt>
      <trkpt lat="31.22581821617739" lon="121.39899110813258">
        <ele>20.74421055894345</ele>
        <time>2026-07-12T10:23:50Z</time>
      </trkpt>
      <trkpt lat="31.225731256110947" lon="121.39897711456047">
        <ele>1.6643460569903255</ele>
        <time>2026-07-12T10:23:50Z</time>
      </trkpt>
      <trkpt lat="31.225658291044468" lon="121.39899112208012">
        <ele>22.64399083238095</ele>
        <time>2026-07-12T10:23:50Z</time>
      </trkpt>
      <trkpt lat="31.225479372859922" lon="121.39895513473174">
        <ele>25.061684924177825</ele>
        <time>2026-07-12T10:23:50Z</time>
      </trkpt>
      <trkpt lat="31.225169517867844" lon="121.39895216151174">
        <ele>8.040154772810638</ele>
        <time>2026-07-12T10:23:50Z</time>
      </trkpt>
      <trkpt lat="31.22503458079172" lon="121.39894617279522">
        <ele>-27.001684826798737</ele>
        <time>2026-07-12T10:23:50Z</time>
      </trkpt>
      <trkpt lat="31.224860665286148" lon="121.39900019239086">
        <ele>24.90314610581845</ele>
        <time>2026-07-12T10:23:50Z</time>
      </trkpt>
      <trkpt lat="31.22475272040502" lon="121.3990782084708">
        <ele>23.045617419295013</ele>
        <time>2026-07-12T10:23:50Z</time>
      </trkpt>
      <trkpt lat="31.22467676187249" lon="121.39917322364434">
        <ele>24.091958361677825</ele>
        <time>2026-07-12T10:23:50Z</time>
      </trkpt>
      <trkpt lat="31.224630794101483" lon="121.39933224301967">
        <ele>20.902734118513763</ele>
        <time>2026-07-12T10:23:50Z</time>
      </trkpt>
      <trkpt lat="31.224648796434174" lon="121.39947825672678">
        <ele>22.348061877302825</ele>
        <time>2026-07-12T10:23:50Z</time>
      </trkpt>
      <trkpt lat="31.224704780811926" lon="121.39961126673414">
        <ele>25.273064929060638</ele>
        <time>2026-07-12T10:23:50Z</time>
      </trkpt>
      <trkpt lat="31.224815737987225" lon="121.39971926983127">
        <ele>-14.141737622208893</ele>
        <time>2026-07-12T10:23:50Z</time>
      </trkpt>
      <trkpt lat="31.224930687005223" lon="121.39975226383172">
        <ele>22.31635411363095</ele>
        <time>2026-07-12T10:23:50Z</time>
      </trkpt>
      <trkpt lat="31.225016645904986" lon="121.39974325523175">
        <ele>25.368188220076263</ele>
        <time>2026-07-12T10:23:50Z</time>
      </trkpt>
      <trkpt lat="31.22526553411683" lon="121.3997972402104">
        <ele>24.892571764998138</ele>
        <time>2026-07-12T10:23:50Z</time>
      </trkpt>
      <trkpt lat="31.22548543247515" lon="121.39981222291665">
        <ele>12.553155261091888</ele>
        <time>2026-07-12T10:23:50Z</time>
      </trkpt>
      <trkpt lat="31.225666351369114" lon="121.39985121209185">
        <ele>22.971642809920013</ele>
        <time>2026-07-12T10:23:50Z</time>
      </trkpt>
      <trkpt lat="31.225883246867472" lon="121.39981918910539">
        <ele>19.4653409300372</ele>
        <time>2026-07-12T10:23:50Z</time>
      </trkpt>
      <trkpt lat="31.225969203716073" lon="121.39978717759219">
        <ele>18.4744962034747</ele>
        <time>2026-07-12T10:23:50Z</time>
      </trkpt>
      <trkpt lat="31.226068145154247" lon="121.39964715202254">
        <ele>25.368188220076263</ele>
        <time>2026-07-12T10:23:50Z</time>
      </trkpt>
      <trkpt lat="31.22611510603394" lon="121.39943212391333">
        <ele>25.61127598863095</ele>
        <time>2026-07-12T10:23:50Z</time>
      </trkpt>
      <trkpt lat="31.226041123402176" lon="121.39918410567641">
        <ele>-13.301497143693268</ele>
        <time>2026-07-12T10:23:50Z</time>
      </trkpt>
      <trkpt lat="31.225977147451243" lon="121.39908910265206">
        <ele>22.654565173201263</ele>
        <time>2026-07-12T10:23:50Z</time>
      </trkpt>
      <trkpt lat="31.225891183371434" lon="121.39901510377473">
        <ele>-31.37200800795108</ele>
        <time>2026-07-12T10:23:50Z</time>
      </trkpt>
      <trkpt lat="31.22557832815441" lon="121.39898512855714">
        <ele>25.241357165388763</ele>
        <time>2026-07-12T10:23:50Z</time>
      </trkpt>
      <trkpt lat="31.22531045274905" lon="121.39896915060362">
        <ele>17.597253161482513</ele>
        <time>2026-07-12T10:23:50Z</time>
      </trkpt>
      <trkpt lat="31.225230491648496" lon="121.39899515972158">
        <ele>24.691766100935638</ele>
        <time>2026-07-12T10:23:50Z</time>
      </trkpt>
      <trkpt lat="31.22493862734661" lon="121.39897518352261">
        <ele>16.973672228865325</ele>
        <time>2026-07-12T10:23:50Z</time>
      </trkpt>
      <trkpt lat="31.224856666604254" lon="121.39899019190798">
        <ele>21.230386096052825</ele>
        <time>2026-07-12T10:23:50Z</time>
      </trkpt>
      <trkpt lat="31.224722735424397" lon="121.39909421249254">
        <ele>23.5423672972247</ele>
        <time>2026-07-12T10:23:50Z</time>
      </trkpt>
      <trkpt lat="31.22466976464773" lon="121.3991652235164">
        <ele>23.172448473982513</ele>
        <time>2026-07-12T10:23:50Z</time>
      </trkpt>
      <trkpt lat="31.224632787794523" lon="121.399254235142">
        <ele>-0.5287462892010808</ele>
        <time>2026-07-12T10:23:50Z</time>
      </trkpt>
      <trkpt lat="31.22461980489762" lon="121.39941025200073">
        <ele>22.348061877302825</ele>
        <time>2026-07-12T10:23:50Z</time>
      </trkpt>
      <trkpt lat="31.224723774917145" lon="121.39964726926756">
        <ele>24.97712071519345</ele>
        <time>2026-07-12T10:23:50Z</time>
      </trkpt>
      <trkpt lat="31.224802744607825" lon="121.39972527169202">
        <ele>22.295220690779388</ele>
        <time>2026-07-12T10:23:50Z</time>
      </trkpt>
      <trkpt lat="31.22491169914728" lon="121.39978826994394">
        <ele>22.411477404646575</ele>
        <time>2026-07-12T10:23:50Z</time>
      </trkpt>
      <trkpt lat="31.225233549651815" lon="121.39980324375198">
        <ele>19.750710803084075</ele>
        <time>2026-07-12T10:23:50Z</time>
      </trkpt>
      <trkpt lat="31.225363491162504" lon="121.39982923570082">
        <ele>22.400903063826263</ele>
        <time>2026-07-12T10:23:50Z</time>
      </trkpt>
      <trkpt lat="31.225648355812417" lon="121.39980820820418">
        <ele>22.1261075315997</ele>
        <time>2026-07-12T10:23:50Z</time>
      </trkpt>
      <trkpt lat="31.225921230664273" lon="121.39983618794838">
        <ele>18.315957385115325</ele>
        <time>2026-07-12T10:23:50Z</time>
      </trkpt>
      <trkpt lat="31.2260021879196" lon="121.39978317421722">
        <ele>20.987298327498138</ele>
        <time>2026-07-12T10:23:50Z</time>
      </trkpt>
      <trkpt lat="31.226080141583342" lon="121.39967115380732">
        <ele>20.4271329222247</ele>
        <time>2026-07-12T10:23:50Z</time>
      </trkpt>
      <trkpt lat="31.226117116435745" lon="121.39957713966697">
        <ele>22.496026354841888</ele>
        <time>2026-07-12T10:23:50Z</time>
      </trkpt>
      <trkpt lat="31.22613009525386" lon="121.39938111726553">
        <ele>20.268594103865325</ele>
        <time>2026-07-12T10:23:50Z</time>
      </trkpt>
      <trkpt lat="31.22605911308401" lon="121.39915410133936">
        <ele>9.16840489488095</ele>
        <time>2026-07-12T10:23:50Z</time>
      </trkpt>
      <trkpt lat="31.22600413410884" lon="121.39907709924526">
        <ele>21.86188634019345</ele>
        <time>2026-07-12T10:23:50Z</time>
      </trkpt>
      <trkpt lat="31.22585120107265" lon="121.3989971057545">
        <ele>16.130791979841888</ele>
        <time>2026-07-12T10:23:50Z</time>
      </trkpt>
      <trkpt lat="31.225624308414424" lon="121.3990171272182">
        <ele>21.558022814802825</ele>
        <time>2026-07-12T10:23:50Z</time>
      </trkpt>
      <trkpt lat="31.22535743101305" lon="121.39897414691622">
        <ele>21.978143054060638</ele>
        <time>2026-07-12T10:23:50Z</time>
      </trkpt>
      <trkpt lat="31.225045576662367" lon="121.398965173377">
        <ele>20.279168444685638</ele>
        <time>2026-07-12T10:23:50Z</time>
      </trkpt>
      <trkpt lat="31.22495961690553" lon="121.39896418079203">
        <ele>24.163308459334075</ele>
        <time>2026-07-12T10:23:50Z</time>
      </trkpt>
      <trkpt lat="31.224809691002246" lon="121.3990321995326">
        <ele>11.234658556990325</ele>
        <time>2026-07-12T10:23:50Z</time>
      </trkpt>
      <trkpt lat="31.224741725680616" lon="121.39908020960475">
        <ele>23.267571764998138</ele>
        <time>2026-07-12T10:23:50Z</time>
      </trkpt>
      <trkpt lat="31.224648777577723" lon="121.39921322982592">
        <ele>23.109032946638763</ele>
        <time>2026-07-12T10:23:50Z</time>
      </trkpt>
      <trkpt lat="31.224624793853128" lon="121.39928823915801">
        <ele>12.775109606795013</ele>
        <time>2026-07-12T10:23:50Z</time>
      </trkpt>
      <trkpt lat="31.22465879596861" lon="121.39953226178831">
        <ele>22.675698596052825</ele>
        <time>2026-07-12T10:23:50Z</time>
      </trkpt>
      <trkpt lat="31.224796747772498" lon="121.39972927270112">
        <ele>21.819604235701263</ele>
        <time>2026-07-12T10:23:50Z</time>
      </trkpt>
      <trkpt lat="31.225085622578597" lon="121.399842261588">
        <ele>21.851311999373138</ele>
        <time>2026-07-12T10:23:50Z</time>
      </trkpt>
      <trkpt lat="31.225319513626413" lon="121.39984924208433">
        <ele>13.366967516951263</ele>
        <time>2026-07-12T10:23:50Z</time>
      </trkpt>
      <trkpt lat="31.225429459428497" lon="121.39982022880777">
        <ele>24.881997424177825</ele>
        <time>2026-07-12T10:23:50Z</time>
      </trkpt>
      <trkpt lat="31.225755306567855" lon="121.39981720001084">
        <ele>23.711480456404388</ele>
        <time>2026-07-12T10:23:50Z</time>
      </trkpt>
      <trkpt lat="31.22598419688193" lon="121.39978917653404">
        <ele>22.5066006956622</ele>
        <time>2026-07-12T10:23:50Z</time>
      </trkpt>
      <trkpt lat="31.226065152842907" lon="121.39972016098847">
        <ele>20.522256213240325</ele>
        <time>2026-07-12T10:23:50Z</time>
      </trkpt>
      <trkpt lat="31.22611911196211" lon="121.39953313454276">
        <ele>23.489526110701263</ele>
        <time>2026-07-12T10:23:50Z</time>
      </trkpt>
      <trkpt lat="31.22612809868718" lon="121.39941512098486">
        <ele>24.0496915159747</ele>
        <time>2026-07-12T10:23:50Z</time>
      </trkpt>
      <trkpt lat="31.226111099155474" lon="121.39931111181414">
        <ele>20.775918322615325</ele>
        <time>2026-07-12T10:23:50Z</time>
      </trkpt>
      <trkpt lat="31.226025128608683" lon="121.39914810375532">
        <ele>19.634454089216888</ele>
        <time>2026-07-12T10:23:50Z</time>
      </trkpt>
      <trkpt lat="31.225960153920656" lon="121.3990641019485">
        <ele>23.077325182966888</ele>
        <time>2026-07-12T10:23:50Z</time>
      </trkpt>
      <trkpt lat="31.225882187299298" lon="121.39901010413892">
        <ele>23.827737170271575</ele>
        <time>2026-07-12T10:23:50Z</time>
      </trkpt>
      <trkpt lat="31.22557433074837" lon="121.39899812998443">
        <ele>20.279168444685638</ele>
        <time>2026-07-12T10:23:50Z</time>
      </trkpt>
      <trkpt lat="31.225290462662684" lon="121.39897915316759">
        <ele>18.897256213240325</ele>
        <time>2026-07-12T10:23:50Z</time>
      </trkpt>
      <trkpt lat="31.224987606104328" lon="121.39900618182176">
        <ele>22.591149645857513</ele>
        <time>2026-07-12T10:23:50Z</time>
      </trkpt>
      <trkpt lat="31.224846672015936" lon="121.39900319386172">
        <ele>20.860467272810638</ele>
        <time>2026-07-12T10:23:50Z</time>
      </trkpt>
      <trkpt lat="31.224746721923122" lon="121.3990562070815">
        <ele>22.654565173201263</ele>
        <time>2026-07-12T10:23:50Z</time>
      </trkpt>
      <trkpt lat="31.224691750985503" lon="121.39911121670407">
        <ele>22.855386096052825</ele>
        <time>2026-07-12T10:23:50Z</time>
      </trkpt>
      <trkpt lat="31.224631787394713" lon="121.39924123397627">
        <ele>22.7074063597247</ele>
        <time>2026-07-12T10:23:50Z</time>
      </trkpt>
      <trkpt lat="31.224620806518253" lon="121.39943825487111">
        <ele>21.48139317613095</ele>
        <time>2026-07-12T10:23:50Z</time>
      </trkpt>
      <trkpt lat="31.224637803844065" lon="121.39950726085297">
        <ele>22.136681872420013</ele>
        <time>2026-07-12T10:23:50Z</time>
      </trkpt>
      <trkpt lat="31.224825734973734" lon="121.39973827126997">
        <ele>21.756188708357513</ele>
        <time>2026-07-12T10:23:50Z</time>
      </trkpt>
      <trkpt lat="31.224927691558168" lon="121.39978726842453">
        <ele>13.187295275740325</ele>
        <time>2026-07-12T10:23:50Z</time>
      </trkpt>
      <trkpt lat="31.2251256007902" lon="121.39980925392038">
        <ele>21.6716397581622</ele>
        <time>2026-07-12T10:23:50Z</time>
      </trkpt>
      <trkpt lat="31.22536648745786" lon="121.39980423228381">
        <ele>21.682214098982513</ele>
        <time>2026-07-12T10:23:50Z</time>
      </trkpt>
      <trkpt lat="31.22564635757478" lon="121.39981720951259">
        <ele>23.320412951521575</ele>
        <time>2026-07-12T10:23:50Z</time>
      </trkpt>
      <trkpt lat="31.225915232729378" lon="121.39982818745514">
        <ele>22.601723986677825</ele>
        <time>2026-07-12T10:23:50Z</time>
      </trkpt>
      <trkpt lat="31.226002188282003" lon="121.39978717471548">
        <ele>21.893594103865325</ele>
        <time>2026-07-12T10:23:50Z</time>
      </trkpt>
      <trkpt lat="31.226115122839243" lon="121.39964314745652">
        <ele>22.041558581404388</ele>
        <time>2026-07-12T10:23:50Z</time>
      </trkpt>
      <trkpt lat="31.22615709012332" lon="121.39948112551126">
        <ele>20.987298327498138</ele>
        <time>2026-07-12T10:23:50Z</time>
      </trkpt>
      <trkpt lat="31.22615908456459" lon="121.3994201188089">
        <ele>22.11554844956845</ele>
        <time>2026-07-12T10:23:50Z</time>
      </trkpt>
      <trkpt lat="31.226072108777544" lon="121.39918210278805">
        <ele>19.549889880232513</ele>
        <time>2026-07-12T10:23:50Z</time>
      </trkpt>
      <trkpt lat="31.22600313493306" lon="121.39908309985805">
        <ele>18.918389636091888</ele>
        <time>2026-07-12T10:23:50Z</time>
      </trkpt>
      <trkpt lat="31.225841205361654" lon="121.39899010604468">
        <ele>17.82978184800595</ele>
        <time>2026-07-12T10:23:50Z</time>
      </trkpt>
      <trkpt lat="31.225734255590833" lon="121.39899311562104">
        <ele>17.0503018675372</ele>
        <time>2026-07-12T10:23:50Z</time>
      </trkpt>
      <trkpt lat="31.225564334321845" lon="121.3989781292004">
        <ele>17.124291735701263</ele>
        <time>2026-07-12T10:23:50Z</time>
      </trkpt>
      <trkpt lat="31.2254873727118" lon="121.39902013941386">
        <ele>21.872460681013763</ele>
        <time>2026-07-12T10:23:50Z</time>
      </trkpt>
      <trkpt lat="31.22541240822355" lon="121.39902714654423">
        <ele>14.400109606795013</ele>
        <time>2026-07-12T10:23:50Z</time>
      </trkpt>
      <trkpt lat="31.22510554953713" lon="121.39898316962378">
        <ele>26.8372891722247</ele>
        <time>2026-07-12T10:23:50Z</time>
      </trkpt>
      <trkpt lat="31.22490164708332" lon="121.39901819032687">
        <ele>12.849084216170013</ele>
        <time>2026-07-12T10:23:50Z</time>
      </trkpt>
      <trkpt lat="31.224761716364085" lon="121.39908120794901">
        <ele>17.554986315779388</ele>
        <time>2026-07-12T10:23:50Z</time>
      </trkpt>
      <trkpt lat="31.22469774952055" lon="121.39913321815673">
        <ele>15.3513272581622</ele>
        <time>2026-07-12T10:23:50Z</time>
      </trkpt>
      <trkpt lat="31.22462878960306" lon="121.39925323539397">
        <ele>7.154992419295013</ele>
        <time>2026-07-12T10:23:50Z</time>
      </trkpt>
      <trkpt lat="31.22460081189794" lon="121.39938425094742">
        <ele>23.15131505113095</ele>
        <time>2026-07-12T10:23:50Z</time>
      </trkpt>
      <trkpt lat="31.224620812837117" lon="121.399520263769">
        <ele>11.900506335310638</ele>
        <time>2026-07-12T10:23:50Z</time>
      </trkpt>
      <trkpt lat="31.2248667156679" lon="121.39973726757397">
        <ele>21.618798571638763</ele>
        <time>2026-07-12T10:23:50Z</time>
      </trkpt>
      <trkpt lat="31.225235549447675" lon="121.39981124458339">
        <ele>12.849084216170013</ele>
        <time>2026-07-12T10:23:50Z</time>
      </trkpt>
      <trkpt lat="31.225541407642314" lon="121.3998272199307">
        <ele>21.73505528550595</ele>
        <time>2026-07-12T10:23:50Z</time>
      </trkpt>
      <trkpt lat="31.22580628446219" lon="121.39983619797322">
        <ele>24.818597155623138</ele>
        <time>2026-07-12T10:23:50Z</time>
      </trkpt>
      <trkpt lat="31.225943216786035" lon="121.39979718110801">
        <ele>13.715752917341888</ele>
        <time>2026-07-12T10:23:50Z</time>
      </trkpt>
      <trkpt lat="31.226010180948432" lon="121.39974716907327">
        <ele>22.95050938706845</ele>
        <time>2026-07-12T10:23:50Z</time>
      </trkpt>
      <trkpt lat="31.226078141410124" lon="121.39965815244453">
        <ele>24.97712071519345</ele>
        <time>2026-07-12T10:23:50Z</time>
      </trkpt>
      <trkpt lat="31.226139100873578" lon="121.39951113036246">
        <ele>22.221230822615325</ele>
        <time>2026-07-12T10:23:50Z</time>
      </trkpt>
      <trkpt lat="31.226147087596562" lon="121.3993851161975">
        <ele>14.622048693709075</ele>
        <time>2026-07-12T10:23:50Z</time>
      </trkpt>
      <trkpt lat="31.22603712059574" lon="121.39910909919365">
        <ele>25.949487048201263</ele>
        <time>2026-07-12T10:23:50Z</time>
      </trkpt>
      <trkpt lat="31.22594416093599" lon="121.39905610265079">
        <ele>-2.5289446534588933</ele>
        <time>2026-07-12T10:23:50Z</time>
      </trkpt>
      <trkpt lat="31.22580622319276" lon="121.39901611126861">
        <ele>24.9137051878497</ele>
        <time>2026-07-12T10:23:50Z</time>
      </trkpt>
      <trkpt lat="31.225559337881148" lon="121.39900013145873">
        <ele>14.357827502302825</ele>
        <time>2026-07-12T10:23:50Z</time>
      </trkpt>
      <trkpt lat="31.225446389068356" lon="121.39896913874837">
        <ele>10.1486905394122</ele>
        <time>2026-07-12T10:23:50Z</time>
      </trkpt>
      <trkpt lat="31.22516852007959" lon="121.39898416421461">
        <ele>22.390343981795013</ele>
        <time>2026-07-12T10:23:50Z</time>
      </trkpt>
      <trkpt lat="31.224870662697388" lon="121.39903719464138">
        <ele>21.39948399644345</ele>
        <time>2026-07-12T10:23:50Z</time>
      </trkpt>
      <trkpt lat="31.224682760081485" lon="121.39918922460761">
        <ele>8.727135973982513</ele>
        <time>2026-07-12T10:23:50Z</time>
      </trkpt>
      <trkpt lat="31.224646782513037" lon="121.39927323576873">
        <ele>23.4683926878497</ele>
        <time>2026-07-12T10:23:50Z</time>
      </trkpt>
      <trkpt lat="31.224628802316275" lon="121.39943225353655">
        <ele>1.9682095823809505</ele>
        <time>2026-07-12T10:23:50Z</time>
      </trkpt>
      <trkpt lat="31.224645799936383" lon="121.39950525993578">
        <ele>9.474908190779388</ele>
        <time>2026-07-12T10:23:50Z</time>
      </trkpt>
      <trkpt lat="31.224691785011963" lon="121.39958826522623">
        <ele>17.071435290388763</ele>
        <time>2026-07-12T10:23:50Z</time>
      </trkpt>
      <trkpt lat="31.224795745878104" lon="121.39970226952352">
        <ele>6.9858792601153255</ele>
        <time>2026-07-12T10:23:50Z</time>
      </trkpt>
      <trkpt lat="31.22489870370382" lon="121.39977126896444">
        <ele>16.0145352659747</ele>
        <time>2026-07-12T10:23:50Z</time>
      </trkpt>
      <trkpt lat="31.22506962656796" lon="121.39980425817342">
        <ele>13.398675280623138</ele>
        <time>2026-07-12T10:23:50Z</time>
      </trkpt>
      <trkpt lat="31.225124600253046" lon="121.39979825262664">
        <ele>-6.122435254044831</ele>
        <time>2026-07-12T10:23:50Z</time>
      </trkpt>
      <trkpt lat="31.225268534727434" lon="121.3998192427159">
        <ele>10.074700671248138</ele>
        <time>2026-07-12T10:23:50Z</time>
      </trkpt>
      <trkpt lat="31.225563391876506" lon="121.3997672105012">
        <ele>18.960671740584075</ele>
        <time>2026-07-12T10:23:50Z</time>
      </trkpt>
      <trkpt lat="31.22582727343392" lon="121.39982319449287">
        <ele>23.267571764998138</ele>
        <time>2026-07-12T10:23:50Z</time>
      </trkpt>
      <trkpt lat="31.22590223715245" lon="121.39981018631407">
        <ele>25.177941638045013</ele>
        <time>2026-07-12T10:23:50Z</time>
      </trkpt>
      <trkpt lat="31.225975199104884" lon="121.39976717458624">
        <ele>13.53608067613095</ele>
        <time>2026-07-12T10:23:50Z</time>
      </trkpt>
      <trkpt lat="31.226030167899577" lon="121.39970516222813">
        <ele>21.082421618513763</ele>
        <time>2026-07-12T10:23:50Z</time>
      </trkpt>
      <trkpt lat="31.226079136914553" lon="121.3996101467586">
        <ele>22.009850817732513</ele>
        <time>2026-07-12T10:23:50Z</time>
      </trkpt>
      <trkpt lat="31.22608313063452" lon="121.39955614025577">
        <ele>22.295220690779388</ele>
        <time>2026-07-12T10:23:50Z</time>
      </trkpt>
      <trkpt lat="31.226142092885755" lon="121.3994251208186">
        <ele>16.7966397581622</ele>
        <time>2026-07-12T10:23:50Z</time>
      </trkpt>
      <trkpt lat="31.226142088413173" lon="121.39936411446968">
        <ele>20.976723986677825</ele>
        <time>2026-07-12T10:23:50Z</time>
      </trkpt>
      <trkpt lat="31.22604411799261" lon="121.39912009956696">
        <ele>22.474892931990325</ele>
        <time>2026-07-12T10:23:50Z</time>
      </trkpt>
      <trkpt lat="31.225924168275203" lon="121.39902110140417">
        <ele>12.817376452498138</ele>
        <time>2026-07-12T10:23:50Z</time>
      </trkpt>
      <trkpt lat="31.225799224569005" lon="121.39898210904447">
        <ele>23.6691983519122</ele>
        <time>2026-07-12T10:23:50Z</time>
      </trkpt>
      <trkpt lat="31.22547037909799" lon="121.39899213855135">
        <ele>20.94501622300595</ele>
        <time>2026-07-12T10:23:50Z</time>
      </trkpt>
      <trkpt lat="31.225191509361196" lon="121.3989851622923">
        <ele>18.453347521834075</ele>
        <time>2026-07-12T10:23:50Z</time>
      </trkpt>
      <trkpt lat="31.22491763834837" lon="121.39899618708897">
        <ele>11.300713854841888</ele>
        <time>2026-07-12T10:23:50Z</time>
      </trkpt>
      <trkpt lat="31.224830679571525" lon="121.39900419534001">
        <ele>20.765343981795013</ele>
        <time>2026-07-12T10:23:50Z</time>
      </trkpt>
      <trkpt lat="31.224712739574095" lon="121.39908521257132">
        <ele>19.423074084334075</ele>
        <time>2026-07-12T10:23:50Z</time>
      </trkpt>
      <trkpt lat="31.224652773507515" lon="121.39917922629218">
        <ele>20.141763049177825</ele>
        <time>2026-07-12T10:23:50Z</time>
      </trkpt>
      <trkpt lat="31.224619798836958" lon="121.39932624337465">
        <ele>17.377953845076263</ele>
        <time>2026-07-12T10:23:50Z</time>
      </trkpt>
      <trkpt lat="31.224632801570333" lon="121.39944725478448">
        <ele>17.163918810896575</ele>
        <time>2026-07-12T10:23:50Z</time>
      </trkpt>
      <trkpt lat="31.224710775043203" lon="121.39957526208948">
        <ele>20.131188708357513</ele>
        <time>2026-07-12T10:23:50Z</time>
      </trkpt>
      <trkpt lat="31.224735770648856" lon="121.39966327010542">
        <ele>-19.516127270646393</ele>
        <time>2026-07-12T10:23:50Z</time>
      </trkpt>
      <trkpt lat="31.22494868317356" lon="121.39980326859542">
        <ele>19.52875645738095</ele>
        <time>2026-07-12T10:23:50Z</time>
      </trkpt>
      <trkpt lat="31.225012655482224" lon="121.39982826617073">
        <ele>13.366967516951263</ele>
        <time>2026-07-12T10:23:50Z</time>
      </trkpt>
      <trkpt lat="31.22531351513244" lon="121.39983524082156">
        <ele>21.7984708128497</ele>
        <time>2026-07-12T10:23:50Z</time>
      </trkpt>
      <trkpt lat="31.225594384599233" lon="121.39984621772874">
        <ele>19.158837634138763</ele>
        <time>2026-07-12T10:23:50Z</time>
      </trkpt>
      <trkpt lat="31.22587025396467" lon="121.39983019163166">
        <ele>19.24604161363095</ele>
        <time>2026-07-12T10:23:50Z</time>
      </trkpt>
      <trkpt lat="31.226075149752845" lon="121.399738162306">
        <ele>22.675698596052825</ele>
        <time>2026-07-12T10:23:50Z</time>
      </trkpt>
      <trkpt lat="31.226114127318464" lon="121.39969015310598">
        <ele>19.740136462263763</ele>
        <time>2026-07-12T10:23:50Z</time>
      </trkpt>
      <trkpt lat="31.226163090123993" lon="121.39951712893236">
        <ele>23.711480456404388</ele>
        <time>2026-07-12T10:23:50Z</time>
      </trkpt>
      <trkpt lat="31.22616408312345" lon="121.39943211964182">
        <ele>21.27265294175595</ele>
        <time>2026-07-12T10:23:50Z</time>
      </trkpt>
      <trkpt lat="31.22605511470413" lon="121.39915010132256">
        <ele>19.771844225935638</ele>
        <time>2026-07-12T10:23:50Z</time>
      </trkpt>
      <trkpt lat="31.225967148847634" lon="121.39903309867368">
        <ele>23.616357165388763</ele>
        <time>2026-07-12T10:23:50Z</time>
      </trkpt>
      <trkpt lat="31.225902177103645" lon="121.39899510114228">
        <ele>19.951516467146575</ele>
        <time>2026-07-12T10:23:50Z</time>
      </trkpt>
      <trkpt lat="31.22561631159441" lon="121.39900712707514">
        <ele>20.733636218123138</ele>
        <time>2026-07-12T10:23:50Z</time>
      </trkpt>
      <trkpt lat="31.22530245742875" lon="121.39898615269904">
        <ele>16.9234708128497</ele>
        <time>2026-07-12T10:23:50Z</time>
      </trkpt>
      <trkpt lat="31.22502159011669" lon="121.39900517877429">
        <ele>18.907830554060638</ele>
        <time>2026-07-12T10:23:50Z</time>
      </trkpt>
      <trkpt lat="31.224838677351663" lon="121.39903119691962">
        <ele>17.755791979841888</ele>
        <time>2026-07-12T10:23:50Z</time>
      </trkpt>
      <trkpt lat="31.224703745663856" lon="121.39911621610484">
        <ele>16.162499743513763</ele>
        <time>2026-07-12T10:23:50Z</time>
      </trkpt>
      <trkpt lat="31.224655771782423" lon="121.39917422556738">
        <ele>21.188103991560638</ele>
        <time>2026-07-12T10:23:50Z</time>
      </trkpt>
      <trkpt lat="31.22463378619111" lon="121.3992372334182">
        <ele>19.866967516951263</ele>
        <time>2026-07-12T10:23:50Z</time>
      </trkpt>
      <trkpt lat="31.22468878285858" lon="121.3995442605125">
        <ele>22.411477404646575</ele>
        <time>2026-07-12T10:23:50Z</time>
      </trkpt>
      <trkpt lat="31.22472377331978" lon="121.3996282670479">
        <ele>22.548882800154388</ele>
        <time>2026-07-12T10:23:50Z</time>
      </trkpt>
      <trkpt lat="31.224783752112863" lon="121.39970927141229">
        <ele>24.617776232771575</ele>
        <time>2026-07-12T10:23:50Z</time>
      </trkpt>
      <trkpt lat="31.22485972225272" lon="121.39977427273578">
        <ele>24.2584317503497</ele>
        <time>2026-07-12T10:23:50Z</time>
      </trkpt>
      <trkpt lat="31.225018650463465" lon="121.39980426261909">
        <ele>20.923882800154388</ele>
        <time>2026-07-12T10:23:50Z</time>
      </trkpt>
      <trkpt lat="31.225388477247993" lon="121.39980523049164">
        <ele>19.8458340940997</ele>
        <time>2026-07-12T10:23:50Z</time>
      </trkpt>
      <trkpt lat="31.225707326559984" lon="121.39979020080563">
        <ele>20.205178576521575</ele>
        <time>2026-07-12T10:23:50Z</time>
      </trkpt>
      <trkpt lat="31.225909233694733" lon="121.39980818545222">
        <ele>17.946038561873138</ele>
        <time>2026-07-12T10:23:50Z</time>
      </trkpt>
      <trkpt lat="31.226048163266288" lon="121.3997481658833">
        <ele>22.717980700545013</ele>
        <time>2026-07-12T10:23:50Z</time>
      </trkpt>
      <trkpt lat="31.22610412789842" lon="121.39964214829834">
        <ele>22.559441882185638</ele>
        <time>2026-07-12T10:23:50Z</time>
      </trkpt>
      <trkpt lat="31.226130103987373" lon="121.39949712960951">
        <ele>22.517175036482513</ele>
        <time>2026-07-12T10:23:50Z</time>
      </trkpt>
      <trkpt lat="31.226129093917148" lon="121.39935611478475">
        <ele>19.214333849959075</ele>
        <time>2026-07-12T10:23:50Z</time>
      </trkpt>
      <trkpt lat="31.226012132105417" lon="121.39910610110584">
        <ele>19.423074084334075</ele>
        <time>2026-07-12T10:23:50Z</time>
      </trkpt>
      <trkpt lat="31.22594715895136" lon="121.39904610152843">
        <ele>17.946038561873138</ele>
        <time>2026-07-12T10:23:50Z</time>
      </trkpt>
      <trkpt lat="31.225662288950893" lon="121.39898712140007">
        <ele>21.1352628050372</ele>
        <time>2026-07-12T10:23:50Z</time>
      </trkpt>
      <trkpt lat="31.225359430902653" lon="121.39898914797857">
        <ele>20.437707263045013</ele>
        <time>2026-07-12T10:23:50Z</time>
      </trkpt>
      <trkpt lat="31.225133536364815" lon="121.39898216710053">
        <ele>17.428155261091888</ele>
        <time>2026-07-12T10:23:50Z</time>
      </trkpt>
      <trkpt lat="31.225054572391247" lon="121.39896417251092">
        <ele>22.358636218123138</ele>
        <time>2026-07-12T10:23:50Z</time>
      </trkpt>
      <trkpt lat="31.224907642369526" lon="121.39898418696595">
        <ele>11.815957385115325</ele>
        <time>2026-07-12T10:23:50Z</time>
      </trkpt>
      <trkpt lat="31.224645780630706" lon="121.39923823246804">
        <ele>20.532815295271575</ele>
        <time>2026-07-12T10:23:50Z</time>
      </trkpt>
      <trkpt lat="31.224633799747004" lon="121.3994292527828">
        <ele>19.3913663206622</ele>
        <time>2026-07-12T10:23:50Z</time>
      </trkpt>
      <trkpt lat="31.224688785439138" lon="121.39957626412078">
        <ele>18.696435290388763</ele>
        <time>2026-07-12T10:23:50Z</time>
      </trkpt>
      <trkpt lat="31.224742767964667" lon="121.39967027032365">
        <ele>17.36737950425595</ele>
        <time>2026-07-12T10:23:50Z</time>
      </trkpt>
      <trkpt lat="31.22481773907807" lon="121.39974227245614">
        <ele>17.850915270857513</ele>
        <time>2026-07-12T10:23:50Z</time>
      </trkpt>
      <trkpt lat="31.224964676316564" lon="121.39981026808057">
        <ele>18.2208340940997</ele>
        <time>2026-07-12T10:23:50Z</time>
      </trkpt>
      <trkpt lat="31.22524554577599" lon="121.3998222451001">
        <ele>19.084863024763763</ele>
        <time>2026-07-12T10:23:50Z</time>
      </trkpt>
      <trkpt lat="31.225518418686335" lon="121.3998302223162">
        <ele>17.924889880232513</ele>
        <time>2026-07-12T10:23:50Z</time>
      </trkpt>
      <trkpt lat="31.22584526649513" lon="121.39983919495545">
        <ele>20.23688634019345</ele>
        <time>2026-07-12T10:23:50Z</time>
      </trkpt>
      <trkpt lat="31.226014178633697" lon="121.39974216811238">
        <ele>20.36371739488095</ele>
        <time>2026-07-12T10:23:50Z</time>
      </trkpt>
      <trkpt lat="31.2260531566221" lon="121.39969915950188">
        <ele>20.353143054060638</ele>
        <time>2026-07-12T10:23:50Z</time>
      </trkpt>
      <trkpt lat="31.226127108698975" lon="121.39953913451438">
        <ele>17.6395352659747</ele>
        <time>2026-07-12T10:23:50Z</time>
      </trkpt>
      <trkpt lat="31.22612809503108" lon="121.39936511579262">
        <ele>17.956597643904388</ele>
        <time>2026-07-12T10:23:50Z</time>
      </trkpt>
      <trkpt lat="31.226082105843556" lon="121.39920910444492">
        <ele>-26.161444348283112</ele>
        <time>2026-07-12T10:23:50Z</time>
      </trkpt>
      <trkpt lat="31.226038120920972" lon="121.39912210026948">
        <ele>19.835259753279388</ele>
        <time>2026-07-12T10:23:50Z</time>
      </trkpt>
      <trkpt lat="31.225928166233942" lon="121.39901810080217">
        <ele>8.019006091170013</ele>
        <time>2026-07-12T10:23:50Z</time>
      </trkpt>
      <trkpt lat="31.225860196750894" lon="121.39899510480352">
        <ele>17.206200915388763</ele>
        <time>2026-07-12T10:23:50Z</time>
      </trkpt>
      <trkpt lat="31.225517357653125" lon="121.39900213528688">
        <ele>21.86188634019345</ele>
        <time>2026-07-12T10:23:50Z</time>
      </trkpt>
      <trkpt lat="31.22534144016748" lon="121.39900415079615">
        <ele>18.315957385115325</ele>
        <time>2026-07-12T10:23:50Z</time>
      </trkpt>
      <trkpt lat="31.225204502996384" lon="121.39898016074659">
        <ele>5.984460192732513</ele>
        <time>2026-07-12T10:23:50Z</time>
      </trkpt>
      <trkpt lat="31.22492063716564" lon="121.3990001871607">
        <ele>20.575097399763763</ele>
        <time>2026-07-12T10:23:50Z</time>
      </trkpt>
      <trkpt lat="31.224854669168288" lon="121.39901919450823">
        <ele>16.902337389998138</ele>
        <time>2026-07-12T10:23:50Z</time>
      </trkpt>
      <trkpt lat="31.22473673117445" lon="121.39913221466679">
        <ele>19.507623034529388</ele>
        <time>2026-07-12T10:23:50Z</time>
      </trkpt>
      <trkpt lat="31.224661774398186" lon="121.3992572329045">
        <ele>12.207009631209075</ele>
        <time>2026-07-12T10:23:50Z</time>
      </trkpt>
      <trkpt lat="31.224631797872515" lon="121.39939124897121">
        <ele>20.004372912459075</ele>
        <time>2026-07-12T10:23:50Z</time>
      </trkpt>
      <trkpt lat="31.22466879311782" lon="121.39955526349017">
        <ele>18.35822423081845</ele>
        <time>2026-07-12T10:23:50Z</time>
      </trkpt>
      <trkpt lat="31.224742770202894" lon="121.39969627342316">
        <ele>20.025506335310638</ele>
        <time>2026-07-12T10:23:50Z</time>
      </trkpt>
      <trkpt lat="31.224786753786947" lon="121.3997442754031">
        <ele>20.23688634019345</ele>
        <time>2026-07-12T10:23:50Z</time>
      </trkpt>
      <trkpt lat="31.22511860406949" lon="121.39980925453057">
        <ele>15.816369372420013</ele>
        <time>2026-07-12T10:23:50Z</time>
      </trkpt>
      <trkpt lat="31.225249545477023" lon="121.39983924690965">
        <ele>19.0029385862872</ele>
        <time>2026-07-12T10:23:50Z</time>
      </trkpt>
      <trkpt lat="31.22556339715959" lon="121.39982521775948">
        <ele>18.654168444685638</ele>
        <time>2026-07-12T10:23:50Z</time>
      </trkpt>
      <trkpt lat="31.225689339115007" lon="121.39983520804513">
        <ele>22.622857409529388</ele>
        <time>2026-07-12T10:23:50Z</time>
      </trkpt>
      <trkpt lat="31.225808282507707" lon="121.39982519640238">
        <ele>20.11005528550595</ele>
        <time>2026-07-12T10:23:50Z</time>
      </trkpt>
      <trkpt lat="31.226063149020394" lon="121.39966515457871">
        <ele>22.432610827498138</ele>
        <time>2026-07-12T10:23:50Z</time>
      </trkpt>
      <trkpt lat="31.22613310446591" lon="121.39952113199001">
        <ele>26.763299304060638</ele>
        <time>2026-07-12T10:23:50Z</time>
      </trkpt>
      <trkpt lat="31.226122097190164" lon="121.39935611539497">
        <ele>17.734658556990325</ele>
        <time>2026-07-12T10:23:50Z</time>
      </trkpt>
      <trkpt lat="31.22603412365381" lon="121.39913610188054">
        <ele>17.681802111677825</ele>
        <time>2026-07-12T10:23:50Z</time>
      </trkpt>
      <trkpt lat="31.225899181172224" lon="121.39904210536984">
        <ele>18.4744962034747</ele>
        <time>2026-07-12T10:23:50Z</time>
      </trkpt>
      <trkpt lat="31.225620309162515" lon="121.39899712589126">
        <ele>18.516763049177825</ele>
        <time>2026-07-12T10:23:50Z</time>
      </trkpt>
      <trkpt lat="31.225350435561662" lon="121.39899714942752">
        <ele>18.189126330427825</ele>
        <time>2026-07-12T10:23:50Z</time>
      </trkpt>
      <trkpt lat="31.225022588094294" lon="121.39897717636467">
        <ele>15.4253018675372</ele>
        <time>2026-07-12T10:23:50Z</time>
      </trkpt>
      <trkpt lat="31.22496161678781" lon="121.39897918184656">
        <ele>18.3476651487872</ele>
        <time>2026-07-12T10:23:50Z</time>
      </trkpt>
      <trkpt lat="31.224730732761753" lon="121.39911221339374">
        <ele>17.77692540269345</ele>
        <time>2026-07-12T10:23:50Z</time>
      </trkpt>
      <trkpt lat="31.224662773325896" lon="121.39924823194757">
        <ele>20.511681872420013</ele>
        <time>2026-07-12T10:23:50Z</time>
      </trkpt>
      <trkpt lat="31.224636797148385" lon="121.39941325083379">
        <ele>21.082421618513763</ele>
        <time>2026-07-12T10:23:50Z</time>
      </trkpt>
      <trkpt lat="31.224678790616636" lon="121.39958226567501">
        <ele>19.497048693709075</ele>
        <time>2026-07-12T10:23:50Z</time>
      </trkpt>
      <trkpt lat="31.2247427692523" lon="121.3996852721075">
        <ele>17.660668688826263</ele>
        <time>2026-07-12T10:23:50Z</time>
      </trkpt>
      <trkpt lat="31.22488571187787" lon="121.39979427295962">
        <ele>18.918389636091888</ele>
        <time>2026-07-12T10:23:50Z</time>
      </trkpt>
      <trkpt lat="31.22508362120131" lon="121.39981725858979">
        <ele>19.214333849959075</ele>
        <time>2026-07-12T10:23:50Z</time>
      </trkpt>
      <trkpt lat="31.225364490139754" lon="121.39982323485333">
        <ele>18.886681872420013</ele>
        <time>2026-07-12T10:23:50Z</time>
      </trkpt>
      <trkpt lat="31.225411469057864" lon="121.39983323202452">
        <ele>18.9289639769122</ele>
        <time>2026-07-12T10:23:50Z</time>
      </trkpt>
      <trkpt lat="31.225461444354565" lon="121.39981922589192">
        <ele>18.48505528550595</ele>
        <time>2026-07-12T10:23:50Z</time>
      </trkpt>
      <trkpt lat="31.22561337561319" lon="121.39984521594472">
        <ele>18.379372912459075</ele>
        <time>2026-07-12T10:23:50Z</time>
      </trkpt>
      <trkpt lat="31.225864256771494" lon="121.39983019215471">
        <ele>17.808633166365325</ele>
        <time>2026-07-12T10:23:50Z</time>
      </trkpt>
      <trkpt lat="31.22596120709541" lon="121.3997831777913">
        <ele>18.633019763045013</ele>
        <time>2026-07-12T10:23:50Z</time>
      </trkpt>
      <trkpt lat="31.226073142394235" lon="121.3996421510007">
        <ele>17.7135098753497</ele>
        <time>2026-07-12T10:23:50Z</time>
      </trkpt>
      <trkpt lat="31.226128103836896" lon="121.39948312825662">
        <ele>18.041161852888763</ele>
        <time>2026-07-12T10:23:50Z</time>
      </trkpt>
      <trkpt lat="31.22613009730747" lon="121.39940912018052">
        <ele>17.163918810896575</ele>
        <time>2026-07-12T10:23:50Z</time>
      </trkpt>
      <trkpt lat="31.226063114598198" lon="121.39920710591261">
        <ele>18.3476651487872</ele>
        <time>2026-07-12T10:23:50Z</time>
      </trkpt>
      <trkpt lat="31.225975148088104" lon="121.39908410238668">
        <ele>16.0885098753497</ele>
        <time>2026-07-12T10:23:50Z</time>
      </trkpt>
      <trkpt lat="31.225916172530404" lon="121.39903010286432">
        <ele>19.0029385862872</ele>
        <time>2026-07-12T10:23:50Z</time>
      </trkpt>
      <trkpt lat="31.225848202755454" lon="121.39900210643296">
        <ele>19.824685412459075</ele>
        <time>2026-07-12T10:23:50Z</time>
      </trkpt>
      <trkpt lat="31.225708268821155" lon="121.39901211947489">
        <ele>-13.5842196168378</ele>
        <time>2026-07-12T10:23:50Z</time>
      </trkpt>
      <trkpt lat="31.22539341459566" lon="121.39898214443616">
        <ele>20.56452305894345</ele>
        <time>2026-07-12T10:23:50Z</time>
      </trkpt>
      <trkpt lat="31.22505657315877" lon="121.3989951748892">
        <ele>19.370217639021575</ele>
        <time>2026-07-12T10:23:50Z</time>
      </trkpt>
      <trkpt lat="31.22483767634654" lon="121.39900519481348">
        <ele>17.44928868394345</ele>
        <time>2026-07-12T10:23:50Z</time>
      </trkpt>
      <trkpt lat="31.22463478329712" lon="121.39920022982132">
        <ele>20.4271329222247</ele>
        <time>2026-07-12T10:23:50Z</time>
      </trkpt>
      <trkpt lat="31.224651783691577" lon="121.39932424038439">
        <ele>19.076928454451263</ele>
        <time>2026-07-12T10:23:50Z</time>
      </trkpt>
      <trkpt lat="31.22464979681513" lon="121.39948925783582">
        <ele>13.5994962034747</ele>
        <time>2026-07-12T10:23:50Z</time>
      </trkpt>
      <trkpt lat="31.22473177596754" lon="121.39970327522256">
        <ele>20.511681872420013</ele>
        <time>2026-07-12T10:23:50Z</time>
      </trkpt>
      <trkpt lat="31.224824739289772" lon="121.3997812766559">
        <ele>21.2092374144122</ele>
        <time>2026-07-12T10:23:50Z</time>
      </trkpt>
      <trkpt lat="31.224924696812124" lon="121.39982927396852">
        <ele>17.956597643904388</ele>
        <time>2026-07-12T10:23:50Z</time>
      </trkpt>
      <trkpt lat="31.225214560111176" lon="121.39982024754948">
        <ele>19.24604161363095</ele>
        <time>2026-07-12T10:23:50Z</time>
      </trkpt>
      <trkpt lat="31.2255024243333" lon="121.39981022118286">
        <ele>10.782830554060638</ele>
        <time>2026-07-12T10:23:50Z</time>
      </trkpt>
      <trkpt lat="31.225595380984515" lon="121.39981221332779">
        <ele>15.530999499373138</ele>
        <time>2026-07-12T10:23:50Z</time>
      </trkpt>
      <trkpt lat="31.2257373171184" lon="121.39984020449748">
        <ele>21.156396227888763</ele>
        <time>2026-07-12T10:23:50Z</time>
      </trkpt>
      <trkpt lat="31.22590923378637" lon="121.39980918557802">
        <ele>20.7547696409747</ele>
        <time>2026-07-12T10:23:50Z</time>
      </trkpt>
      <trkpt lat="31.226041163540696" lon="121.39971416235464">
        <ele>18.9289639769122</ele>
        <time>2026-07-12T10:23:50Z</time>
      </trkpt>
      <trkpt lat="31.226123113061604" lon="121.39957013834967">
        <ele>20.416558581404388</ele>
        <time>2026-07-12T10:23:50Z</time>
      </trkpt>
      <trkpt lat="31.22611910408866" lon="121.39943112345861">
        <ele>21.238305407576263</ele>
        <time>2026-07-12T10:23:50Z</time>
      </trkpt>
      <trkpt lat="31.226065114774894" lon="121.39922410734816">
        <ele>-13.39397303480655</ele>
        <time>2026-07-12T10:23:50Z</time>
      </trkpt>
      <trkpt lat="31.225998137629617" lon="121.39908910082143">
        <ele>20.997857409529388</ele>
        <time>2026-07-12T10:23:50Z</time>
      </trkpt>
      <trkpt lat="31.2259521560932" lon="121.39903710032227">
        <ele>19.034646349959075</ele>
        <time>2026-07-12T10:23:50Z</time>
      </trkpt>
      <trkpt lat="31.225893182379338" lon="121.39901410351621">
        <ele>18.252541857771575</ele>
        <time>2026-07-12T10:23:50Z</time>
      </trkpt>
      <trkpt lat="31.225705270394453" lon="121.39901511998877">
        <ele>18.622460681013763</ele>
        <time>2026-07-12T10:23:50Z</time>
      </trkpt>
      <trkpt lat="31.22557232948771" lon="121.39895812686822">
        <ele>17.229974108748138</ele>
        <time>2026-07-12T10:23:50Z</time>
      </trkpt>
      <trkpt lat="31.225293460764842" lon="121.39897015216734">
        <ele>18.559045153670013</ele>
        <time>2026-07-12T10:23:50Z</time>
      </trkpt>
      <trkpt lat="31.224983606040254" lon="121.39897117927197">
        <ele>19.7929776487872</ele>
        <time>2026-07-12T10:23:50Z</time>
      </trkpt>
      <trkpt lat="31.224802694283497" lon="121.39903220014277">
        <ele>22.136681872420013</ele>
        <time>2026-07-12T10:23:50Z</time>
      </trkpt>
      <trkpt lat="31.224741725384046" lon="121.39907520916739">
        <ele>15.3513272581622</ele>
        <time>2026-07-12T10:23:50Z</time>
      </trkpt>
      <trkpt lat="31.22464677877706" lon="121.39921723037897">
        <ele>19.0108731565997</ele>
        <time>2026-07-12T10:23:50Z</time>
      </trkpt>
      <trkpt lat="31.2246088110962" lon="121.39942425443323">
        <ele>17.187707263045013</ele>
        <time>2026-07-12T10:23:50Z</time>
      </trkpt>
      <trkpt lat="31.22471378284809" lon="121.3996852746354">
        <ele>18.400506335310638</ele>
        <time>2026-07-12T10:23:50Z</time>
      </trkpt>
      <trkpt lat="31.22480375013074" lon="121.39979227985754">
        <ele>8.0612881956622</ele>
        <time>2026-07-12T10:23:50Z</time>
      </trkpt>
      <trkpt lat="31.224977671975154" lon="121.39982926934853">
        <ele>20.606805163435638</ele>
        <time>2026-07-12T10:23:50Z</time>
      </trkpt>
      <trkpt lat="31.22508362120131" lon="121.39981725858979">
        <ele>-0.6238619508221745</ele>
        <time>2026-07-12T10:23:50Z</time>
      </trkpt>
      <trkpt lat="31.225394477853925" lon="121.39984223465233">
        <ele>20.606805163435638</ele>
        <time>2026-07-12T10:23:50Z</time>
      </trkpt>
      <trkpt lat="31.225707329858267" lon="121.39982620533345">
        <ele>17.671243029646575</ele>
        <time>2026-07-12T10:23:50Z</time>
      </trkpt>
      <trkpt lat="31.22576630354907" lon="121.39984020196948">
        <ele>18.759850817732513</ele>
        <time>2026-07-12T10:23:50Z</time>
      </trkpt>
      <trkpt lat="31.225965202172727" lon="121.39974917324129">
        <ele>16.606408434920013</ele>
        <time>2026-07-12T10:23:50Z</time>
      </trkpt>
      <trkpt lat="31.226061150468176" lon="121.39967115546361">
        <ele>15.2984708128497</ele>
        <time>2026-07-12T10:23:50Z</time>
      </trkpt>
      <trkpt lat="31.226138099238483" lon="121.39948412749364">
        <ele>17.6395352659747</ele>
        <time>2026-07-12T10:23:50Z</time>
      </trkpt>
      <trkpt lat="31.226068115701537" lon="121.39925911044882">
        <ele>17.229974108748138</ele>
        <time>2026-07-12T10:23:50Z</time>
      </trkpt>
      <trkpt lat="31.225935168361655" lon="121.39911010817444">
        <ele>18.305383044295013</ele>
        <time>2026-07-12T10:23:50Z</time>
      </trkpt>
      <trkpt lat="31.225779235995258" lon="121.39901911387527">
        <ele>17.1771329222247</ele>
        <time>2026-07-12T10:23:50Z</time>
      </trkpt>
      <trkpt lat="31.22547437728093" lon="121.39899313828568">
        <ele>19.0557950315997</ele>
        <time>2026-07-12T10:23:50Z</time>
      </trkpt>
      <trkpt lat="31.22517551658023" lon="121.39898016327453">
        <ele>16.130791979841888</ele>
        <time>2026-07-12T10:23:50Z</time>
      </trkpt>
      <trkpt lat="31.22500259653911" lon="121.39896017671803">
        <ele>17.36737950425595</ele>
        <time>2026-07-12T10:23:50Z</time>
      </trkpt>
      <trkpt lat="31.22483367661274" lon="121.39897619275753">
        <ele>17.798074084334075</ele>
        <time>2026-07-12T10:23:50Z</time>
      </trkpt>
      <trkpt lat="31.224782703031064" lon="121.39902120095333">
        <ele>17.90375645738095</ele>
        <time>2026-07-12T10:23:50Z</time>
      </trkpt>
      <trkpt lat="31.224634786991025" lon="121.3992562351612">
        <ele>18.907830554060638</ele>
        <time>2026-07-12T10:23:50Z</time>
      </trkpt>
      <trkpt lat="31.224616801374072" lon="121.39934224525071">
        <ele>17.607827502302825</ele>
        <time>2026-07-12T10:23:50Z</time>
      </trkpt>
      <trkpt lat="31.22463380416257" lon="121.39948725901256">
        <ele>19.52875645738095</ele>
        <time>2026-07-12T10:23:50Z</time>
      </trkpt>
      <trkpt lat="31.22472977474474" lon="121.39967827240677">
        <ele>18.590752917341888</ele>
        <time>2026-07-12T10:23:50Z</time>
      </trkpt>
      <trkpt lat="31.224844731915308" lon="121.39980327766104">
        <ele>20.057214098982513</ele>
        <time>2026-07-12T10:23:50Z</time>
      </trkpt>
      <trkpt lat="31.224914701869178" lon="121.39983327534812">
        <ele>18.506203967146575</ele>
        <time>2026-07-12T10:23:50Z</time>
      </trkpt>
      <trkpt lat="31.225197569925765" lon="121.39984025156993">
        <ele>17.850915270857513</ele>
        <time>2026-07-12T10:23:50Z</time>
      </trkpt>
      <trkpt lat="31.225427460918592" lon="121.39982622974148">
        <ele>17.396447497420013</ele>
        <time>2026-07-12T10:23:50Z</time>
      </trkpt>
      <trkpt lat="31.22563936588434" lon="121.39987121701661">
        <ele>18.527337389998138</ele>
        <time>2026-07-12T10:23:50Z</time>
      </trkpt>
      <trkpt lat="31.225779297559566" lon="121.39984120096373">
        <ele>16.944619494490325</ele>
        <time>2026-07-12T10:23:50Z</time>
      </trkpt>
      <trkpt lat="31.225988189997036" lon="121.39973316928022">
        <ele>17.251122790388763</ele>
        <time>2026-07-12T10:23:50Z</time>
      </trkpt>
      <trkpt lat="31.226045158464512" lon="121.39967715757084">
        <ele>20.014931994490325</ele>
        <time>2026-07-12T10:23:50Z</time>
      </trkpt>
      <trkpt lat="31.226093129048035" lon="121.39959414369878">
        <ele>17.206200915388763</ele>
        <time>2026-07-12T10:23:50Z</time>
      </trkpt>
      <trkpt lat="31.22614609191475" lon="121.39943712174184">
        <ele>17.724084216170013</ele>
        <time>2026-07-12T10:23:50Z</time>
      </trkpt>
      <trkpt lat="31.22605611486386" lon="121.3991601021507">
        <ele>18.696435290388763</ele>
        <time>2026-07-12T10:23:50Z</time>
      </trkpt>
      <trkpt lat="31.226006134187802" lon="121.39909410056507">
        <ele>18.389931994490325</ele>
        <time>2026-07-12T10:23:50Z</time>
      </trkpt>
      <trkpt lat="31.225826212434633" lon="121.39899110743521">
        <ele>16.764931994490325</ele>
        <time>2026-07-12T10:23:50Z</time>
      </trkpt>
      <trkpt lat="31.225534348090434" lon="121.39897313140487">
        <ele>15.245629626326263</ele>
        <time>2026-07-12T10:23:50Z</time>
      </trkpt>
      <trkpt lat="31.22539941063902" lon="121.39896114219273">
        <ele>16.997460681013763</ele>
        <time>2026-07-12T10:23:50Z</time>
      </trkpt>
      <trkpt lat="31.225133536585556" lon="121.39898616743083">
        <ele>14.410668688826263</ele>
        <time>2026-07-12T10:23:50Z</time>
      </trkpt>
      <trkpt lat="31.224996599567437" lon="121.39896417756675">
        <ele>17.2590421019122</ele>
        <time>2026-07-12T10:23:50Z</time>
      </trkpt>
      <trkpt lat="31.22487565670806" lon="121.3989721887682">
        <ele>16.553551989607513</ele>
        <time>2026-07-12T10:23:50Z</time>
      </trkpt>
      <trkpt lat="31.22481568626694" lon="121.39899819614675">
        <ele>16.2681973753497</ele>
        <time>2026-07-12T10:23:50Z</time>
      </trkpt>
      <trkpt lat="31.224670766223205" lon="121.39919722640181">
        <ele>20.194604235701263</ele>
        <time>2026-07-12T10:23:50Z</time>
      </trkpt>
      <trkpt lat="31.224633792483292" lon="121.399329242456">
        <ele>18.685876208357513</ele>
        <time>2026-07-12T10:23:50Z</time>
      </trkpt>
      <trkpt lat="31.2246408011127" lon="121.3994902587294">
        <ele>16.65924962144345</ele>
        <time>2026-07-12T10:23:50Z</time>
      </trkpt>
      <trkpt lat="31.224729774401638" lon="121.39967427193139">
        <ele>17.597253161482513</ele>
        <time>2026-07-12T10:23:50Z</time>
      </trkpt>
      <trkpt lat="31.22488571379863" lon="121.399815275597">
        <ele>16.934045153670013</ele>
        <time>2026-07-12T10:23:50Z</time>
      </trkpt>
      <trkpt lat="31.22493968950509" lon="121.39982627228058">
        <ele>17.946038561873138</ele>
        <time>2026-07-12T10:23:50Z</time>
      </trkpt>
      <trkpt lat="31.225025647183553" lon="121.3998042620089">
        <ele>17.2590421019122</ele>
        <time>2026-07-12T10:23:50Z</time>
      </trkpt>
      <trkpt lat="31.2251925702317" lon="121.39981824921453">
        <ele>18.770425158552825</ele>
        <time>2026-07-12T10:23:50Z</time>
      </trkpt>
      <trkpt lat="31.225326506921597" lon="121.39981223677684">
        <ele>18.136285143904388</ele>
        <time>2026-07-12T10:23:50Z</time>
      </trkpt>
      <trkpt lat="31.225464444894065" lon="121.39984022829533">
        <ele>17.420220690779388</ele>
        <time>2026-07-12T10:23:50Z</time>
      </trkpt>
      <trkpt lat="31.225663349159344" lon="121.39981220740012">
        <ele>16.542992907576263</ele>
        <time>2026-07-12T10:23:50Z</time>
      </trkpt>
      <trkpt lat="31.22580128643042" lon="121.39983219790052">
        <ele>17.671243029646575</ele>
        <time>2026-07-12T10:23:50Z</time>
      </trkpt>
      <trkpt lat="31.225920227817813" lon="121.39980018348881">
        <ele>20.469399767927825</ele>
        <time>2026-07-12T10:23:50Z</time>
      </trkpt>
      <trkpt lat="31.226072144385878" lon="121.39966015320348">
        <ele>16.0145352659747</ele>
        <time>2026-07-12T10:23:50Z</time>
      </trkpt>
      <trkpt lat="31.226142100021296" lon="121.39951813087353">
        <ele>17.660668688826263</ele>
        <time>2026-07-12T10:23:50Z</time>
      </trkpt>
      <trkpt lat="31.226152089636916" lon="121.39944412196424">
        <ele>13.187295275740325</ele>
        <time>2026-07-12T10:23:50Z</time>
      </trkpt>
      <trkpt lat="31.22614308830603" lon="121.39936911489558">
        <ele>17.861489611677825</ele>
        <time>2026-07-12T10:23:50Z</time>
      </trkpt>
      <trkpt lat="31.22608310715034" lon="121.39923610692456">
        <ele>2.697472888045013</ele>
        <time>2026-07-12T10:23:50Z</time>
      </trkpt>
      <trkpt lat="31.226072108649774" lon="121.39918010260226">
        <ele>18.178551989607513</ele>
        <time>2026-07-12T10:23:50Z</time>
      </trkpt>
      <trkpt lat="31.225939162809183" lon="121.39904810239756">
        <ele>19.24604161363095</ele>
        <time>2026-07-12T10:23:50Z</time>
      </trkpt>
      <trkpt lat="31.22561631125801" lon="121.3990011265734">
        <ele>20.543389636091888</ele>
        <time>2026-07-12T10:23:50Z</time>
      </trkpt>
      <trkpt lat="31.225527353028003" lon="121.39900313449871">
        <ele>17.018594103865325</ele>
        <time>2026-07-12T10:23:50Z</time>
      </trkpt>
      <trkpt lat="31.225340438428358" lon="121.39896414758019">
        <ele>14.664330798201263</ele>
        <time>2026-07-12T10:23:50Z</time>
      </trkpt>
      <trkpt lat="31.225048575583635" lon="121.39897117360593">
        <ele>15.993401843123138</ele>
        <time>2026-07-12T10:23:50Z</time>
      </trkpt>
      <trkpt lat="31.224975610117486" lon="121.39897718046166">
        <ele>14.170220690779388</ele>
        <time>2026-07-12T10:23:50Z</time>
      </trkpt>
      <trkpt lat="31.2249306334924" lon="121.39901818779896">
        <ele>14.52692540269345</ele>
        <time>2026-07-12T10:23:50Z</time>
      </trkpt>
      <trkpt lat="31.22488565384889" lon="121.39900519062935">
        <ele>14.2627042112872</ele>
        <time>2026-07-12T10:23:50Z</time>
      </trkpt>
      <trkpt lat="31.22470074768274" lon="121.39912621726386">
        <ele>16.2681973753497</ele>
        <time>2026-07-12T10:23:50Z</time>
      </trkpt>
      <trkpt lat="31.224629794923743" lon="121.39933724361153">
        <ele>15.517785388045013</ele>
        <time>2026-07-12T10:23:50Z</time>
      </trkpt>
      <trkpt lat="31.224634805172496" lon="121.39950626100453">
        <ele>15.182214098982513</ele>
        <time>2026-07-12T10:23:50Z</time>
      </trkpt>
      <trkpt lat="31.22465679866397" lon="121.39955426442373">
        <ele>15.118798571638763</ele>
        <time>2026-07-12T10:23:50Z</time>
      </trkpt>
      <trkpt lat="31.224828735168074" lon="121.39975627321475">
        <ele>15.655190783552825</ele>
        <time>2026-07-12T10:23:50Z</time>
      </trkpt>
      <trkpt lat="31.224943687630567" lon="121.3998262719319">
        <ele>-19.328520459122956</ele>
        <time>2026-07-12T10:23:50Z</time>
      </trkpt>
      <trkpt lat="31.225058634577696" lon="121.39983526304998">
        <ele>16.553551989607513</ele>
        <time>2026-07-12T10:23:50Z</time>
      </trkpt>
      <trkpt lat="31.225179576229028" lon="121.39981725022146">
        <ele>14.886285143904388</ele>
        <time>2026-07-12T10:23:50Z</time>
      </trkpt>
      <trkpt lat="31.225490432908252" lon="121.39984222628391">
        <ele>14.5903409300372</ele>
        <time>2026-07-12T10:23:50Z</time>
      </trkpt>
      <trkpt lat="31.225766302713538" lon="121.39983120082455">
        <ele>17.124291735701263</ele>
        <time>2026-07-12T10:23:50Z</time>
      </trkpt>
      <trkpt lat="31.22595920902916" lon="121.3997941793379">
        <ele>19.740136462263763</ele>
        <time>2026-07-12T10:23:50Z</time>
      </trkpt>
      <trkpt lat="31.226034166116026" lon="121.39970616199983">
        <ele>18.379372912459075</ele>
        <time>2026-07-12T10:23:50Z</time>
      </trkpt>
      <trkpt lat="31.226086132979855" lon="121.399602145227">
        <ele>15.509866076521575</ele>
        <time>2026-07-12T10:23:50Z</time>
      </trkpt>
      <trkpt lat="31.22612010773205" lon="121.39948512917155">
        <ele>14.5163663206622</ele>
        <time>2026-07-12T10:23:50Z</time>
      </trkpt>
      <trkpt lat="31.226125097301182" lon="121.39937711728832">
        <ele>15.626122790388763</ele>
        <time>2026-07-12T10:23:50Z</time>
      </trkpt>
      <trkpt lat="31.226108098694354" lon="121.39928410940276">
        <ele>16.395013171248138</ele>
        <time>2026-07-12T10:23:50Z</time>
      </trkpt>
      <trkpt lat="31.226040120538965" lon="121.39913110090549">
        <ele>17.491570788435638</ele>
        <time>2026-07-12T10:23:50Z</time>
      </trkpt>
      <trkpt lat="31.225939162001367" lon="121.39903410119969">
        <ele>18.442788439802825</ele>
        <time>2026-07-12T10:23:50Z</time>
      </trkpt>
      <trkpt lat="31.225601318446536" lon="121.39900412813161">
        <ele>19.697869616560638</ele>
        <time>2026-07-12T10:23:50Z</time>
      </trkpt>
      <trkpt lat="31.225380420737803" lon="121.39898314565188">
        <ele>3.918206530623138</ele>
        <time>2026-07-12T10:23:50Z</time>
      </trkpt>
      <trkpt lat="31.22532944325441" lon="121.39895814805082">
        <ele>14.981408434920013</ele>
        <time>2026-07-12T10:23:50Z</time>
      </trkpt>
      <trkpt lat="31.225223495038552" lon="121.39899716049818">
        <ele>16.754372912459075</ele>
        <time>2026-07-12T10:23:50Z</time>
      </trkpt>
      <trkpt lat="31.224921637540326" lon="121.39901518833065">
        <ele>12.838525134138763</ele>
        <time>2026-07-12T10:23:50Z</time>
      </trkpt>
      <trkpt lat="31.224779707629214" lon="121.39907620594234">
        <ele>18.167992907576263</ele>
        <time>2026-07-12T10:23:50Z</time>
      </trkpt>
      <trkpt lat="31.22472073879909" lon="121.39913421624225">
        <ele>15.412087756209075</ele>
        <time>2026-07-12T10:23:50Z</time>
      </trkpt>
      <trkpt lat="31.22465977648548" lon="121.39927423473327">
        <ele>17.187707263045013</ele>
        <time>2026-07-12T10:23:50Z</time>
      </trkpt>
      <trkpt lat="31.224643789283" lon="121.39935024370945">
        <ele>18.009454089216888</ele>
        <time>2026-07-12T10:23:50Z</time>
      </trkpt>
      <trkpt lat="31.224656795170205" lon="121.39951025952695">
        <ele>17.491570788435638</ele>
        <time>2026-07-12T10:23:50Z</time>
      </trkpt>
      <trkpt lat="31.224732773338285" lon="121.39967827214527">
        <ele>17.407006579451263</ele>
        <time>2026-07-12T10:23:50Z</time>
      </trkpt>
      <trkpt lat="31.224799749119274" lon="121.39976027623523">
        <ele>18.210259753279388</ele>
        <time>2026-07-12T10:23:50Z</time>
      </trkpt>
      <trkpt lat="31.224873718231514" lon="121.39980227500764">
        <ele>18.601311999373138</ele>
        <time>2026-07-12T10:23:50Z</time>
      </trkpt>
      <trkpt lat="31.22505163693146" lon="121.39982526239088">
        <ele>18.876122790388763</ele>
        <time>2026-07-12T10:23:50Z</time>
      </trkpt>
      <trkpt lat="31.225367489196966" lon="121.39982823522527">
        <ele>-18.401083630509675</ele>
        <time>2026-07-12T10:23:50Z</time>
      </trkpt>
      <trkpt lat="31.225709330406698" lon="121.39984220719332">
        <ele>17.502129870466888</ele>
        <time>2026-07-12T10:23:50Z</time>
      </trkpt>
      <trkpt lat="31.225816280621164" lon="121.3998451982488">
        <ele>14.5163663206622</ele>
        <time>2026-07-12T10:23:50Z</time>
      </trkpt>
      <trkpt lat="31.225866255558305" lon="121.3998271915998">
        <ele>10.444619494490325</ele>
        <time>2026-07-12T10:23:50Z</time>
      </trkpt>
      <trkpt lat="31.226100127094828" lon="121.39961014492796">
        <ele>14.45295079331845</ele>
        <time>2026-07-12T10:23:50Z</time>
      </trkpt>
      <trkpt lat="31.226146093123614" lon="121.39945312344949">
        <ele>18.136285143904388</ele>
        <time>2026-07-12T10:23:50Z</time>
      </trkpt>
      <trkpt lat="31.22608710541262" lon="121.39923810676753">
        <ele>17.103143054060638</ele>
        <time>2026-07-12T10:23:50Z</time>
      </trkpt>
      <trkpt lat="31.226027125881558" lon="121.39911910095921">
        <ele>2.5178006468340755</ele>
        <time>2026-07-12T10:23:50Z</time>
      </trkpt>
      <trkpt lat="31.225925168206256" lon="121.39902810190988">
        <ele>17.219415026716888</ele>
        <time>2026-07-12T10:23:50Z</time>
      </trkpt>
      <trkpt lat="31.22583320982887" lon="121.3990031078241">
        <ele>11.91108067613095</ele>
        <time>2026-07-12T10:23:50Z</time>
      </trkpt>
      <trkpt lat="31.22577123900459" lon="121.39900611347973">
        <ele>13.20844395738095</ele>
        <time>2026-07-12T10:23:50Z</time>
      </trkpt>
      <trkpt lat="31.225716266329552" lon="121.39903412063914">
        <ele>4.1295865355059505</ele>
        <time>2026-07-12T10:23:50Z</time>
      </trkpt>
      <trkpt lat="31.225655294646273" lon="121.39903012561628">
        <ele>18.5484708128497</ele>
        <time>2026-07-12T10:23:50Z</time>
      </trkpt>
      <trkpt lat="31.22553334932865" lon="121.39898713264522">
        <ele>28.863915759138763</ele>
        <time>2026-07-12T10:23:50Z</time>
      </trkpt>
      <trkpt lat="31.22526147674077" lon="121.39898815643849">
        <ele>17.3858731565997</ele>
        <time>2026-07-12T10:23:50Z</time>
      </trkpt>
      <trkpt lat="31.224968614114825" lon="121.39899018214501">
        <ele>17.618386584334075</ele>
        <time>2026-07-12T10:23:50Z</time>
      </trkpt>
      <trkpt lat="31.22484467413961" lon="121.39902419580262">
        <ele>19.27509434800595</ele>
        <time>2026-07-12T10:23:50Z</time>
      </trkpt>
      <trkpt lat="31.224656771377138" lon="121.39917522557276">
        <ele>17.850915270857513</ele>
        <time>2026-07-12T10:23:50Z</time>
      </trkpt>
      <trkpt lat="31.22458581207279" lon="121.39928724245911">
        <ele>8.893609362654388</ele>
        <time>2026-07-12T10:23:50Z</time>
      </trkpt>
      <trkpt lat="31.22456882588859" lon="121.39937025229254">
        <ele>18.020013171248138</ele>
        <time>2026-07-12T10:23:50Z</time>
      </trkpt>
      <trkpt lat="31.22458282615634" lon="121.39946226075128">
        <ele>15.644616442732513</ele>
        <time>2026-07-12T10:23:50Z</time>
      </trkpt>
      <trkpt lat="31.224694792446897" lon="121.39969327724782">
        <ele>0.504388171248138</ele>
        <time>2026-07-12T10:23:50Z</time>
      </trkpt>
      <trkpt lat="31.224748770980373" lon="121.39973727785991">
        <ele>8.957024889998138</ele>
        <time>2026-07-12T10:23:50Z</time>
      </trkpt>
      <trkpt lat="31.224952681848258" lon="121.39980926900076">
        <ele>-0.4653307618573308</ele>
        <time>2026-07-12T10:23:50Z</time>
      </trkpt>
      <trkpt lat="31.225225553490226" lon="121.39980424457488">
        <ele>20.7547696409747</ele>
        <time>2026-07-12T10:23:50Z</time>
      </trkpt>
      <trkpt lat="31.22550742309634" lon="121.39982222226132">
        <ele>16.891763049177825</ele>
        <time>2026-07-12T10:23:50Z</time>
      </trkpt>
      <trkpt lat="31.22556857110914" lon="121.39980590216952">
        <ele>-11.195601147599518</ele>
        <time>2026-07-12T10:23:50Z</time>
      </trkpt>
      <trkpt lat="31.22564236269454" lon="121.39985221431205">
        <ele>10.655999499373138</ele>
        <time>2026-07-12T10:23:50Z</time>
      </trkpt>
      <trkpt lat="31.22574731253229" lon="121.39984120375325">
        <ele>13.747460681013763</ele>
        <time>2026-07-12T10:23:50Z</time>
      </trkpt>
      <trkpt lat="31.225813283616496" lon="121.39986220068907">
        <ele>16.828347521834075</ele>
        <time>2026-07-12T10:23:50Z</time>
      </trkpt>
      <trkpt lat="31.225904239453786" lon="121.39984519057762">
        <ele>16.7966397581622</ele>
        <time>2026-07-12T10:23:50Z</time>
      </trkpt>
      <trkpt lat="31.226023175313845" lon="121.39975216855353">
        <ele>16.98688634019345</ele>
        <time>2026-07-12T10:23:50Z</time>
      </trkpt>
      <trkpt lat="31.226157089969117" lon="121.39947912529412">
        <ele>17.977746325545013</ele>
        <time>2026-07-12T10:23:50Z</time>
      </trkpt>
      <trkpt lat="31.22607410991065" lon="121.39921410561476">
        <ele>13.779168444685638</ele>
        <time>2026-07-12T10:23:50Z</time>
      </trkpt>
      <trkpt lat="31.225985143054267" lon="121.39907810098902">
        <ele>15.150506335310638</ele>
        <time>2026-07-12T10:23:50Z</time>
      </trkpt>
      <trkpt lat="31.225883186382262" lon="121.39900210338192">
        <ele>14.5903409300372</ele>
        <time>2026-07-12T10:23:50Z</time>
      </trkpt>
      <trkpt lat="31.225603316785303" lon="121.39899112687458">
        <ele>14.064538317732513</ele>
        <time>2026-07-12T10:23:50Z</time>
      </trkpt>
      <trkpt lat="31.22531245241487" lon="121.39898015133217">
        <ele>12.460671740584075</ele>
        <time>2026-07-12T10:23:50Z</time>
      </trkpt>
      <trkpt lat="31.225204503993687" lon="121.3989981622377">
        <ele>13.3458340940997</ele>
        <time>2026-07-12T10:23:50Z</time>
      </trkpt>
      <trkpt lat="31.224956618311378" lon="121.39896418105354">
        <ele>12.796243029646575</ele>
        <time>2026-07-12T10:23:50Z</time>
      </trkpt>
      <trkpt lat="31.224911640274506" lon="121.39898018628737">
        <ele>18.28424962144345</ele>
        <time>2026-07-12T10:23:50Z</time>
      </trkpt>
      <trkpt lat="31.224840672948936" lon="121.39896919157351">
        <ele>11.269006091170013</ele>
        <time>2026-07-12T10:23:50Z</time>
      </trkpt>
      <trkpt lat="31.224776705673452" lon="121.39901820122303">
        <ele>15.309045153670013</ele>
        <time>2026-07-12T10:23:50Z</time>
      </trkpt>
      <trkpt lat="31.224662770103475" lon="121.39919922728673">
        <ele>18.315957385115325</ele>
        <time>2026-07-12T10:23:50Z</time>
      </trkpt>
      <trkpt lat="31.22462679647212" lon="121.39933924407526">
        <ele>19.444207507185638</ele>
        <time>2026-07-12T10:23:50Z</time>
      </trkpt>
      <trkpt lat="31.224628801122247" lon="121.39941625184652">
        <ele>15.739739733748138</ele>
        <time>2026-07-12T10:23:50Z</time>
      </trkpt>
      <trkpt lat="31.22468078919001" lon="121.39957626481814">
        <ele>15.36188634019345</ele>
        <time>2026-07-12T10:23:50Z</time>
      </trkpt>
      <trkpt lat="31.224767760575595" lon="121.39972027413651">
        <ele>16.680383044295013</ele>
        <time>2026-07-12T10:23:50Z</time>
      </trkpt>
      <trkpt lat="31.224879715693643" lon="121.39980527486124">
        <ele>12.450112658552825</ele>
        <time>2026-07-12T10:23:50Z</time>
      </trkpt>
      <trkpt lat="31.224996662517444" lon="121.39982326693199">
        <ele>17.77692540269345</ele>
        <time>2026-07-12T10:23:50Z</time>
      </trkpt>
      <trkpt lat="31.225311515883497" lon="121.39983324074161">
        <ele>17.523278552107513</ele>
        <time>2026-07-12T10:23:50Z</time>
      </trkpt>
      <trkpt lat="31.22539147666847" lon="121.3998142313628">
        <ele>13.610070544295013</ele>
        <time>2026-07-12T10:23:50Z</time>
      </trkpt>
      <trkpt lat="31.22572032322132" lon="121.39982020344085">
        <ele>16.490136462263763</ele>
        <time>2026-07-12T10:23:50Z</time>
      </trkpt>
      <trkpt lat="31.225921226167358" lon="121.39978718177649">
        <ele>17.145425158552825</ele>
        <time>2026-07-12T10:23:50Z</time>
      </trkpt>
      <trkpt lat="31.22605515612134" lon="121.39970415992845">
        <ele>18.48505528550595</ele>
        <time>2026-07-12T10:23:50Z</time>
      </trkpt>
      <trkpt lat="31.22616608824974" lon="121.39951112800877">
        <ele>10.846246081404388</ele>
        <time>2026-07-12T10:23:50Z</time>
      </trkpt>
      <trkpt lat="31.22617008220653" lon="121.39945712178633">
        <ele>17.692376452498138</ele>
        <time>2026-07-12T10:23:50Z</time>
      </trkpt>
      <trkpt lat="31.226012130545485" lon="121.39908009881044">
        <ele>16.934045153670013</ele>
        <time>2026-07-12T10:23:50Z</time>
      </trkpt>
      <trkpt lat="31.22592916713936" lon="121.39904210275466">
        <ele>16.363320666365325</ele>
        <time>2026-07-12T10:23:50Z</time>
      </trkpt>
      <trkpt lat="31.22565529289381" lon="121.39899912300686">
        <ele>15.0976651487872</ele>
        <time>2026-07-12T10:23:50Z</time>
      </trkpt>
      <trkpt lat="31.225571333051064" lon="121.39901413158563">
        <ele>14.917992907576263</ele>
        <time>2026-07-12T10:23:50Z</time>
      </trkpt>
      <trkpt lat="31.225411407390524" lon="121.39900414469417">
        <ele>16.616967516951263</ele>
        <time>2026-07-12T10:23:50Z</time>
      </trkpt>
      <trkpt lat="31.22525548237412" lon="121.39903816116633">
        <ele>17.6395352659747</ele>
        <time>2026-07-12T10:23:50Z</time>
      </trkpt>
      <trkpt lat="31.224980608159715" lon="121.39898418060257">
        <ele>8.536904650740325</ele>
        <time>2026-07-12T10:23:50Z</time>
      </trkpt>
      <trkpt lat="31.22479669971945" lon="121.39907720454788">
        <ele>20.289727526716888</ele>
        <time>2026-07-12T10:23:50Z</time>
      </trkpt>
      <trkpt lat="31.22470874504538" lon="121.39914421819522">
        <ele>17.850915270857513</ele>
        <time>2026-07-12T10:23:50Z</time>
      </trkpt>
      <trkpt lat="31.224654776809924" lon="121.39924423225975">
        <ele>15.03424962144345</ele>
        <time>2026-07-12T10:23:50Z</time>
      </trkpt>
      <trkpt lat="31.224627796785438" lon="121.39935024510415">
        <ele>12.901940661482513</ele>
        <time>2026-07-12T10:23:50Z</time>
      </trkpt>
      <trkpt lat="31.224634805094265" lon="121.39950526089463">
        <ele>16.627541857771575</ele>
        <time>2026-07-12T10:23:50Z</time>
      </trkpt>
      <trkpt lat="31.224665798270635" lon="121.39960126898201">
        <ele>14.505791979841888</ele>
        <time>2026-07-12T10:23:50Z</time>
      </trkpt>
      <trkpt lat="31.224748769746046" lon="121.39972327615642">
        <ele>12.912499743513763</ele>
        <time>2026-07-12T10:23:50Z</time>
      </trkpt>
      <trkpt lat="31.224873715151073" lon="121.39976827077243">
        <ele>14.727746325545013</ele>
        <time>2026-07-12T10:23:50Z</time>
      </trkpt>
      <trkpt lat="31.224945687063332" lon="121.39983027226485">
        <ele>14.114739733748138</ele>
        <time>2026-07-12T10:23:50Z</time>
      </trkpt>
      <trkpt lat="31.22521855741007" lon="121.3998112460653">
        <ele>16.775506335310638</ele>
        <time>2026-07-12T10:23:50Z</time>
      </trkpt>
      <trkpt lat="31.22549143040208" lon="121.39982022340315">
        <ele>15.393594103865325</ele>
        <time>2026-07-12T10:23:50Z</time>
      </trkpt>
      <trkpt lat="31.225700334711394" lon="121.39984320810545">
        <ele>14.548074084334075</ele>
        <time>2026-07-12T10:23:50Z</time>
      </trkpt>
      <trkpt lat="31.22575130752152" lon="121.39980719909971">
        <ele>15.7608731565997</ele>
        <time>2026-07-12T10:24:22Z</time>
      </trkpt>
      <trkpt lat="31.225805282347363" lon="121.39980819451816">
        <ele>18.062295275740325</ele>
        <time>2026-07-12T10:24:22Z</time>
      </trkpt>
      <trkpt lat="31.225917224268514" lon="121.39974517693531">
        <ele>15.644616442732513</ele>
        <time>2026-07-12T10:24:22Z</time>
      </trkpt>
      <trkpt lat="31.226094129734808" lon="121.39960814522033">
        <ele>14.854577380232513</ele>
        <time>2026-07-12T10:24:22Z</time>
      </trkpt>
      <trkpt lat="31.226155089982697" lon="121.39946712417012">
        <ele>14.90741856675595</ele>
        <time>2026-07-12T10:24:22Z</time>
      </trkpt>
      <trkpt lat="31.226128092326363" lon="121.39932711193416">
        <ele>13.20844395738095</ele>
        <time>2026-07-12T10:24:22Z</time>
      </trkpt>
      <trkpt lat="31.226078110890764" lon="121.39925710938324">
        <ele>-25.035833996720612</ele>
        <time>2026-07-12T10:24:22Z</time>
      </trkpt>
      <trkpt lat="31.22602712484846" lon="121.3991020994428">
        <ele>-18.329741162247956</ele>
        <time>2026-07-12T10:24:22Z</time>
      </trkpt>
      <trkpt lat="31.22597814433632" lon="121.39904409865453">
        <ele>11.689126330427825</ele>
        <time>2026-07-12T10:24:22Z</time>
      </trkpt>
      <trkpt lat="31.225666288532118" lon="121.3990131232202">
        <ele>13.673486071638763</ele>
        <time>2026-07-12T10:24:23Z</time>
      </trkpt>
      <trkpt lat="31.22532944357943" lon="121.39896414853906">
        <ele>20.194604235701263</ele>
        <time>2026-07-12T10:24:23Z</time>
      </trkpt>
      <trkpt lat="31.225201503148057" lon="121.39895715912746">
        <ele>12.775109606795013</ele>
        <time>2026-07-12T10:24:23Z</time>
      </trkpt>
      <trkpt lat="31.22488565273547" lon="121.39898518896628">
        <ele>17.8403409300372</ele>
        <time>2026-07-12T10:24:23Z</time>
      </trkpt>
      <trkpt lat="31.224796697498245" lon="121.39903920126271">
        <ele>16.299905139021575</ele>
        <time>2026-07-12T10:24:23Z</time>
      </trkpt>
      <trkpt lat="31.22464378236853" lon="121.39925023379669">
        <ele>16.542992907576263</ele>
        <time>2026-07-12T10:24:23Z</time>
      </trkpt>
      <trkpt lat="31.22465679898583" lon="121.3995582648739">
        <ele>15.383035021834075</ele>
        <time>2026-07-12T10:24:23Z</time>
      </trkpt>
      <trkpt lat="31.22471278041259" lon="121.39965127069613">
        <ele>18.199700671248138</ele>
        <time>2026-07-12T10:24:23Z</time>
      </trkpt>
      <trkpt lat="31.224801747022077" lon="121.39974727446304">
        <ele>14.791161852888763</ele>
        <time>2026-07-12T10:24:23Z</time>
      </trkpt>
      <trkpt lat="31.224879715693643" lon="121.39980527486124">
        <ele>14.400109606795013</ele>
        <time>2026-07-12T10:24:23Z</time>
      </trkpt>
      <trkpt lat="31.225168581473728" lon="121.39981825130663">
        <ele>16.4690030394122</ele>
        <time>2026-07-12T10:24:23Z</time>
      </trkpt>
      <trkpt lat="31.2254494507109" lon="121.39982722795045">
        <ele>13.176736193709075</ele>
        <time>2026-07-12T10:24:24Z</time>
      </trkpt>
      <trkpt lat="31.22572931763266" lon="121.39980520076615">
        <ele>15.816369372420013</ele>
        <time>2026-07-12T10:24:24Z</time>
      </trkpt>
      <trkpt lat="31.2258102801914" lon="121.39981019433394">
        <ele>15.118798571638763</ele>
        <time>2026-07-12T10:24:24Z</time>
      </trkpt>
      <trkpt lat="31.226024168456995" lon="121.39967915963936">
        <ele>16.27875645738095</ele>
        <time>2026-07-12T10:24:24Z</time>
      </trkpt>
      <trkpt lat="31.226074139335516" lon="121.39961114730987">
        <ele>16.458428698591888</ele>
        <time>2026-07-12T10:24:24Z</time>
      </trkpt>
      <trkpt lat="31.226104119294043" lon="121.39953713629616">
        <ele>16.225915270857513</ele>
        <time>2026-07-12T10:24:24Z</time>
      </trkpt>
      <trkpt lat="31.226097106470373" lon="121.39932211413448">
        <ele>8.748284655623138</ele>
        <time>2026-07-12T10:24:24Z</time>
      </trkpt>
      <trkpt lat="31.226062112373395" lon="121.39916510208728">
        <ele>16.585259753279388</ele>
        <time>2026-07-12T10:24:24Z</time>
      </trkpt>
      <trkpt lat="31.225938161217172" lon="121.39901209942524">
        <ele>13.567788439802825</ele>
        <time>2026-07-12T10:24:24Z</time>
      </trkpt>
      <trkpt lat="31.225870191407974" lon="121.39898310293772">
        <ele>17.8403409300372</ele>
        <time>2026-07-12T10:24:24Z</time>
      </trkpt>
      <trkpt lat="31.225589323895093" lon="121.39900112892703">
        <ele>15.919411974959075</ele>
        <time>2026-07-12T10:24:24Z</time>
      </trkpt>
      <trkpt lat="31.2255053614473" lon="121.39896913360526">
        <ele>14.474084216170013</ele>
        <time>2026-07-12T10:24:24Z</time>
      </trkpt>
      <trkpt lat="31.225392415395262" lon="121.39898814501912">
        <ele>16.109658556990325</ele>
        <time>2026-07-12T10:24:24Z</time>
      </trkpt>
      <trkpt lat="31.225153526501735" lon="121.39897316461698">
        <ele>14.548074084334075</ele>
        <time>2026-07-12T11:22:09Z</time>
      </trkpt>
      <trkpt lat="31.224923635369535" lon="121.39899318631656">
        <ele>14.064538317732513</ele>
        <time>2026-07-12T10:24:25Z</time>
      </trkpt>
      <trkpt lat="31.224799821023904" lon="121.39904066925375">
        <ele>15.2244962034747</ele>
        <time>2026-07-12T10:24:25Z</time>
      </trkpt>
      <trkpt lat="31.224728732371645" lon="121.3990902116166">
        <ele>14.558633166365325</ele>
        <time>2026-07-12T10:24:25Z</time>
      </trkpt>
      <trkpt lat="31.224683756891178" lon="121.39914622055645">
        <ele>8.779992419295013</ele>
        <time>2026-07-12T10:24:25Z</time>
      </trkpt>
      <trkpt lat="31.22463079609447" lon="121.39936024586275">
        <ele>15.940545397810638</ele>
        <time>2026-07-12T10:24:25Z</time>
      </trkpt>
      <trkpt lat="31.224643799938846" lon="121.3994932587954">
        <ele>14.378960925154388</ele>
        <time>2026-07-12T10:24:25Z</time>
      </trkpt>
      <trkpt lat="31.22477775606332" lon="121.39972227350724">
        <ele>-5.3720308961346745</ele>
        <time>2026-07-12T10:24:25Z</time>
      </trkpt>
      <trkpt lat="31.224873718780433" lon="121.39980827576134">
        <ele>13.440957385115325</ele>
        <time>2026-07-12T10:24:25Z</time>
      </trkpt>
      <trkpt lat="31.224933692964903" lon="121.3998332736919">
        <ele>13.874291735701263</ele>
        <time>2026-07-12T10:24:25Z</time>
      </trkpt>
      <trkpt lat="31.225083618642167" lon="121.3997892550755">
        <ele>14.886285143904388</ele>
        <time>2026-07-12T10:24:25Z</time>
      </trkpt>
      <trkpt lat="31.22523554953945" lon="121.39981224470937">
        <ele>-0.23280970472842455</ele>
        <time>2026-07-12T10:24:25Z</time>
      </trkpt>
      <trkpt lat="31.225567389287193" lon="121.39975920916521">
        <ele>10.92023594956845</ele>
        <time>2026-07-12T10:24:26Z</time>
      </trkpt>
      <trkpt lat="31.225670339743697" lon="121.39974419834442">
        <ele>14.52692540269345</ele>
        <time>2026-07-12T10:24:26Z</time>
      </trkpt>
      <trkpt lat="31.225800283590438" lon="121.39979619344852">
        <ele>13.652337389998138</ele>
        <time>2026-07-12T10:24:26Z</time>
      </trkpt>
      <trkpt lat="31.225889241499136" lon="121.39979118506511">
        <ele>14.07245762925595</ele>
        <time>2026-07-12T10:24:26Z</time>
      </trkpt>
      <trkpt lat="31.22596520324399" lon="121.39976117471718">
        <ele>14.45295079331845</ele>
        <time>2026-07-12T10:24:26Z</time>
      </trkpt>
      <trkpt lat="31.226031164583098" lon="121.39967215819743">
        <ele>14.07245762925595</ele>
        <time>2026-07-12T10:24:26Z</time>
      </trkpt>
      <trkpt lat="31.226132108691377" lon="121.39956813733863">
        <ele>13.3458340940997</ele>
        <time>2026-07-12T10:24:26Z</time>
      </trkpt>
      <trkpt lat="31.226097100670206" lon="121.39923710579993">
        <ele>15.002541857771575</ele>
        <time>2026-07-12T10:24:26Z</time>
      </trkpt>
      <trkpt lat="31.226038120798506" lon="121.39912010008999">
        <ele>-3.371832531876862</ele>
        <time>2026-07-12T10:24:26Z</time>
      </trkpt>
      <trkpt lat="31.22599113965695" lon="121.3990680995936">
        <ele>2.9273465452715755</ele>
        <time>2026-07-12T10:24:26Z</time>
      </trkpt>
      <trkpt lat="31.22587119301058" lon="121.39902010593984">
        <ele>7.9344571409747005</ele>
        <time>2026-07-12T10:24:26Z</time>
      </trkpt>
      <trkpt lat="31.225555340145792" lon="121.39900713239261">
        <ele>12.587502795271575</ele>
        <time>2026-07-12T10:24:26Z</time>
      </trkpt>
      <trkpt lat="31.225254480074586" lon="121.3989891571315">
        <ele>14.791161852888763</ele>
        <time>2026-07-12T10:24:26Z</time>
      </trkpt>
      <trkpt lat="31.22508655927056" lon="121.39899817252379">
        <ele>14.32611973863095</ele>
        <time>2026-07-12T10:24:26Z</time>
      </trkpt>
      <trkpt lat="31.225013592696566" lon="121.39898417772596">
        <ele>14.928551989607513</ele>
        <time>2026-07-12T10:24:26Z</time>
      </trkpt>
      <trkpt lat="31.224927633606214" lon="121.39899518613409">
        <ele>14.622048693709075</ele>
        <time>2026-07-12T10:24:27Z</time>
      </trkpt>
      <trkpt lat="31.2247297339638" lon="121.39912421455602">
        <ele>14.463525134138763</ele>
        <time>2026-07-12T10:24:27Z</time>
      </trkpt>
      <trkpt lat="31.224685757779888" lon="121.39917522304486">
        <ele>13.99848301988095</ele>
        <time>2026-07-12T10:24:27Z</time>
      </trkpt>
      <trkpt lat="31.22461880529255" lon="121.39940925198303">
        <ele>10.951943713240325</ele>
        <time>2026-07-12T10:24:27Z</time>
      </trkpt>
      <trkpt lat="31.22463480754001" lon="121.39953626432592">
        <ele>13.578362780623138</ele>
        <time>2026-07-12T10:24:27Z</time>
      </trkpt>
      <trkpt lat="31.224742769424736" lon="121.39968727234624">
        <ele>16.870629626326263</ele>
        <time>2026-07-12T10:24:27Z</time>
      </trkpt>
      <trkpt lat="31.22491769715375" lon="121.39979727054556">
        <ele>13.493798571638763</ele>
        <time>2026-07-12T10:24:27Z</time>
      </trkpt>
      <trkpt lat="31.2249876632599" lon="121.39978526294513">
        <ele>12.796243029646575</ele>
        <time>2026-07-12T11:26:14Z</time>
      </trkpt>
      <trkpt lat="31.22526053682343" lon="121.39980124114747">
        <ele>14.939126330427825</ele>
        <time>2026-07-12T11:26:26Z</time>
      </trkpt>
      <trkpt lat="31.225444452497836" lon="121.39982122762663">
        <ele>13.641778307966888</ele>
        <time>2026-07-12T11:26:35Z</time>
      </trkpt>
      <trkpt lat="31.2257503068027" lon="121.39979419755694">
        <ele>12.912499743513763</ele>
        <time>2026-07-12T11:26:50Z</time>
      </trkpt>
      <trkpt lat="31.226010176297976" lon="121.39969416265073">
        <ele>8.57917149644345</ele>
        <time>2026-07-12T11:27:03Z</time>
      </trkpt>
      <trkpt lat="31.226088131632697" lon="121.3995971444785">
        <ele>-7.784430188126862</ele>
        <time>2026-07-12T11:27:09Z</time>
      </trkpt>
      <trkpt lat="31.226122098631382" lon="121.3993761174467">
        <ele>14.2627042112872</ele>
        <time>2026-07-12T11:27:18Z</time>
      </trkpt>
      <trkpt lat="31.226064111881467" lon="121.3991721025586">
        <ele>14.7171719847247</ele>
        <time>2026-07-12T11:27:27Z</time>
      </trkpt>
      <trkpt lat="31.226001136107005" lon="121.39908710038387">
        <ele>10.391778307966888</ele>
        <time>2026-07-12T11:27:30Z</time>
      </trkpt>
      <trkpt lat="31.225896181486366" lon="121.39902310401413">
        <ele>15.982827502302825</ele>
        <time>2026-07-12T11:27:36Z</time>
      </trkpt>
      <trkpt lat="31.2255373476224" lon="121.39899013254497">
        <ele>15.245629626326263</ele>
        <time>2026-07-12T11:27:54Z</time>
      </trkpt>
      <trkpt lat="31.225217496359445" lon="121.39897015879231">
        <ele>14.981408434920013</ele>
        <time>2026-07-16T21:41:25Z</time>
      </trkpt>
      <trkpt lat="31.22504257872332" lon="121.39897717462128">
        <ele>12.196450549177825</ele>
        <time>2026-07-12T11:28:21Z</time>
      </trkpt>
      <trkpt lat="31.224857667875717" lon="121.39902119441564">
        <ele>15.129372912459075</ele>
        <time>2026-07-12T11:28:33Z</time>
      </trkpt>
      <trkpt lat="31.22477371193687" lon="121.39910120866656">
        <ele>16.236489611677825</ele>
        <time>2026-07-12T11:28:39Z</time>
      </trkpt>
      <trkpt lat="31.22474273201572" lon="121.39919021947082">
        <ele>14.981408434920013</ele>
        <time>2026-07-12T11:28:45Z</time>
      </trkpt>
      <trkpt lat="31.224736739909396" lon="121.3992672273382">
        <ele>-7.911253613419831</ele>
        <time>2026-07-12T11:28:48Z</time>
      </trkpt>
      <trkpt lat="31.224656794232224" lon="121.39949825820909">
        <ele>-6.9204012574627995</ele>
        <time>2026-07-12T11:28:51Z</time>
      </trkpt>
      <trkpt lat="31.224697785425885" lon="121.39962726919799">
        <ele>13.610070544295013</ele>
        <time>2026-07-12T11:28:57Z</time>
      </trkpt>
      <trkpt lat="31.224885713431267" lon="121.39981127509286">
        <ele>18.442788439802825</ele>
        <time>2026-07-12T11:29:06Z</time>
      </trkpt>
      <trkpt lat="31.224949686210046" lon="121.39984127331556">
        <ele>12.997063952498138</ele>
        <time>2026-07-12T11:29:09Z</time>
      </trkpt>
      <trkpt lat="31.224949686210046" lon="121.39984127331556">
        <ele>15.769322055391967</ele>
        <time>2026-07-12T11:29:12Z</time>
      </trkpt>
    </trkseg>
  </trk>
</gpx>