<?xml version="1.0" encoding="UTF-8"?>
<gpx xmlns="http://www.topografix.com/GPX/1/1" xmlns:gpxtpx="http://www.garmin.com/xmlschemas/TrackPointExtension/v1" xmlns:xsi="http://www.w3.org/2001/XMLSchema-instance" xsi:schemaLocation="http://www.topografix.com/GPX/1/1 http://www.topografix.com/GPX/1/1/gpx.xsd" version="1.1" creator="gpx.py -- https://github.com/tkrajina/gpxpy">
  <trk>
    <name>gpx from keep</name>
    <type>Run</type>
    <trkseg>
      <trkpt lat="31.229948417758106" lon="121.40044192346143">
        <ele>19.296137426048517</ele>
        <time>2026-05-22T11:10:02Z</time>
      </trkpt>
      <trkpt lat="31.229974400466016" lon="121.40039791424526">
        <ele>19.06625995412469</ele>
        <time>2026-05-22T11:10:08Z</time>
      </trkpt>
      <trkpt lat="31.230017378046572" lon="121.40037690721545">
        <ele>18.84430942311883</ele>
        <time>2026-05-22T11:10:11Z</time>
      </trkpt>
      <trkpt lat="31.230199292666587" lon="121.40036889010382">
        <ele>19.55772266164422</ele>
        <time>2026-05-22T11:10:20Z</time>
      </trkpt>
      <trkpt lat="31.230302239691806" lon="121.4003238741903">
        <ele>19.568293187767267</ele>
        <time>2026-05-22T11:10:26Z</time>
      </trkpt>
      <trkpt lat="31.230604091087418" lon="121.40024783639201">
        <ele>22.03617725148797</ele>
        <time>2026-05-22T11:10:41Z</time>
      </trkpt>
      <trkpt lat="31.230875953614426" lon="121.40014279733282">
        <ele>20.540648076683283</ele>
        <time>2026-05-22T11:10:51Z</time>
      </trkpt>
      <trkpt lat="31.230972906347482" lon="121.40012078573402">
        <ele>19.31727847829461</ele>
        <time>2026-05-22T11:10:57Z</time>
      </trkpt>
      <trkpt lat="31.23105686037075" lon="121.40005276886087">
        <ele>18.91829166188836</ele>
        <time>2026-05-22T11:11:03Z</time>
      </trkpt>
      <trkpt lat="31.231205767324443" lon="121.39980472310158">
        <ele>18.603861425071955</ele>
        <time>2026-05-22T11:11:15Z</time>
      </trkpt>
      <trkpt lat="31.231206752791195" lon="121.39964470358755">
        <ele>21.010973546653986</ele>
        <time>2026-05-22T11:11:21Z</time>
      </trkpt>
      <trkpt lat="31.231164761876204" lon="121.3995176927858">
        <ele>20.382113073021173</ele>
        <time>2026-05-22T11:11:24Z</time>
      </trkpt>
      <trkpt lat="31.231115779084227" lon="121.39944668934076">
        <ele>20.173372838646173</ele>
        <time>2026-05-22T11:11:27Z</time>
      </trkpt>
      <trkpt lat="31.231049806216873" lon="121.3994006902364">
        <ele>18.543089482933283</ele>
        <time>2026-05-22T11:11:30Z</time>
      </trkpt>
      <trkpt lat="31.230892874746225" lon="121.39934269795684">
        <ele>20.82337436452508</ele>
        <time>2026-05-22T11:11:36Z</time>
      </trkpt>
      <trkpt lat="31.23064598934653" lon="121.39934471969528">
        <ele>19.97520313039422</ele>
        <time>2026-05-22T11:11:45Z</time>
      </trkpt>
      <trkpt lat="31.230349126834298" lon="121.39934174528578">
        <ele>18.83638248220086</ele>
        <time>2026-05-22T11:11:57Z</time>
      </trkpt>
      <trkpt lat="31.230148222293263" lon="121.39937276597672">
        <ele>20.48780307546258</ele>
        <time>2026-05-22T11:12:06Z</time>
      </trkpt>
      <trkpt lat="31.229922334244755" lon="121.39946779569796">
        <ele>20.958128545433283</ele>
        <time>2026-05-22T11:12:15Z</time>
      </trkpt>
      <trkpt lat="31.229848372636418" lon="121.39951980783319">
        <ele>19.409758184105158</ele>
        <time>2026-05-22T11:12:18Z</time>
      </trkpt>
      <trkpt lat="31.22972544439596" lon="121.39969683896578">
        <ele>18.928862188011408</ele>
        <time>2026-05-22T11:12:24Z</time>
      </trkpt>
      <trkpt lat="31.229687469933175" lon="121.39978585316203">
        <ele>19.359552953392267</ele>
        <time>2026-05-22T11:12:27Z</time>
      </trkpt>
      <trkpt lat="31.229717489486514" lon="121.4001268960951">
        <ele>20.091463658958673</ele>
        <time>2026-05-22T11:12:37Z</time>
      </trkpt>
      <trkpt lat="31.22977247596022" lon="121.40023790744479">
        <ele>19.808741185814142</ele>
        <time>2026-05-22T11:12:40Z</time>
      </trkpt>
      <trkpt lat="31.229914421213092" lon="121.40033691001054">
        <ele>20.20508060231805</ele>
        <time>2026-05-22T11:12:46Z</time>
      </trkpt>
      <trkpt lat="31.23004836389444" lon="121.40037890482414">
        <ele>19.858942601829767</ele>
        <time>2026-05-22T11:12:52Z</time>
      </trkpt>
      <trkpt lat="31.230236275269636" lon="121.40036688656753">
        <ele>19.671339605003595</ele>
        <time>2026-05-22T11:12:58Z</time>
      </trkpt>
      <trkpt lat="31.230517134660147" lon="121.40027684831735">
        <ele>18.1441064812243</ele>
        <time>2026-05-22T11:13:13Z</time>
      </trkpt>
      <trkpt lat="31.23084396993517" lon="121.40015680213524">
        <ele>12.830492589622736</ele>
        <time>2026-05-22T11:13:31Z</time>
      </trkpt>
      <trkpt lat="31.231021876273765" lon="121.40004977149682">
        <ele>20.24735889211297</ele>
        <time>2026-05-22T11:13:40Z</time>
      </trkpt>
      <trkpt lat="31.23108484103582" lon="121.39998975778933">
        <ele>21.137804601341486</ele>
        <time>2026-05-22T11:13:43Z</time>
      </trkpt>
      <trkpt lat="31.23116878722035" lon="121.39983473011975">
        <ele>17.967074010521173</ele>
        <time>2026-05-22T11:13:52Z</time>
      </trkpt>
      <trkpt lat="31.23119375407145" lon="121.39958769812478">
        <ele>16.040857885032892</ele>
        <time>2026-05-22T11:14:04Z</time>
      </trkpt>
      <trkpt lat="31.231087789950273" lon="121.3994186888113">
        <ele>20.61463413015008</ele>
        <time>2026-05-22T11:14:10Z</time>
      </trkpt>
      <trkpt lat="31.231034811048143" lon="121.39937168853807">
        <ele>20.3213411308825</ele>
        <time>2026-05-22T11:14:13Z</time>
      </trkpt>
      <trkpt lat="31.23073894413051" lon="121.39931470856577">
        <ele>19.724188420921564</ele>
        <time>2026-05-22T11:14:25Z</time>
      </trkpt>
      <trkpt lat="31.23064698428483" lon="121.39927871302416">
        <ele>18.688414189964533</ele>
        <time>2026-05-22T11:14:28Z</time>
      </trkpt>
      <trkpt lat="31.230478062289464" lon="121.39927372726943">
        <ele>20.55121860280633</ele>
        <time>2026-05-22T11:14:34Z</time>
      </trkpt>
      <trkpt lat="31.23032214179594" lon="121.39937575111531">
        <ele>19.473169896751642</ele>
        <time>2026-05-22T11:14:40Z</time>
      </trkpt>
      <trkpt lat="31.230037280872306" lon="121.39946778567156">
        <ele>18.67784747853875</ele>
        <time>2026-05-22T11:14:49Z</time>
      </trkpt>
      <trkpt lat="31.229915338184803" lon="121.39947679728179">
        <ele>17.140043828636408</ele>
        <time>2026-05-22T11:14:55Z</time>
      </trkpt>
      <trkpt lat="31.229779414116614" lon="121.39963582703861">
        <ele>19.21158466115594</ele>
        <time>2026-05-22T11:15:01Z</time>
      </trkpt>
      <trkpt lat="31.22973744170919" lon="121.39972984190642">
        <ele>18.69898471608758</ele>
        <time>2026-05-22T11:15:04Z</time>
      </trkpt>
      <trkpt lat="31.22972646523781" lon="121.3999288681192">
        <ele>19.00284442678094</ele>
        <time>2026-05-22T11:15:10Z</time>
      </trkpt>
      <trkpt lat="31.229743472803744" lon="121.40008288760778">
        <ele>18.825811956077814</ele>
        <time>2026-05-22T11:15:16Z</time>
      </trkpt>
      <trkpt lat="31.22978846577866" lon="121.40021290235708">
        <ele>19.137602422386408</ele>
        <time>2026-05-22T11:15:19Z</time>
      </trkpt>
      <trkpt lat="31.229851446117113" lon="121.4002989097054">
        <ele>19.023985479027033</ele>
        <time>2026-05-22T11:15:22Z</time>
      </trkpt>
      <trkpt lat="31.230030371896856" lon="121.40037590592638">
        <ele>18.41626224294305</ele>
        <time>2026-05-22T11:15:28Z</time>
      </trkpt>
      <trkpt lat="31.23013232386713" lon="121.4003698961006">
        <ele>18.656706426292658</ele>
        <time>2026-05-22T11:15:31Z</time>
      </trkpt>
      <trkpt lat="31.230277247872905" lon="121.40029387180695">
        <ele>18.593294713646173</ele>
        <time>2026-05-22T11:15:37Z</time>
      </trkpt>
      <trkpt lat="31.230366206821127" lon="121.40029586435006">
        <ele>18.91829166188836</ele>
        <time>2026-05-22T11:15:40Z</time>
      </trkpt>
      <trkpt lat="31.230449166188585" lon="121.40027685424609">
        <ele>8.169523809105158</ele>
        <time>2026-05-22T11:15:43Z</time>
      </trkpt>
      <trkpt lat="31.230815980033697" lon="121.40012980070473">
        <ele>18.688414189964533</ele>
        <time>2026-05-22T11:15:53Z</time>
      </trkpt>
      <trkpt lat="31.230976897629343" lon="121.40005477611342">
        <ele>17.945936772972345</ele>
        <time>2026-05-22T11:15:59Z</time>
      </trkpt>
      <trkpt lat="31.23104286168646" lon="121.40000176307906">
        <ele>16.785978887230158</ele>
        <time>2026-05-22T11:16:02Z</time>
      </trkpt>
      <trkpt lat="31.23118377442586" lon="121.39977072077912">
        <ele>12.883341405540705</ele>
        <time>2026-05-22T11:16:11Z</time>
      </trkpt>
      <trkpt lat="31.231192762943266" lon="121.39968770989715">
        <ele>18.582724187523127</ele>
        <time>2026-05-22T11:16:14Z</time>
      </trkpt>
      <trkpt lat="31.231145771464032" lon="121.3995276955506">
        <ele>19.536585424095392</ele>
        <time>2026-05-22T11:16:20Z</time>
      </trkpt>
      <trkpt lat="31.231047808252185" lon="121.39941569198301">
        <ele>19.55772266164422</ele>
        <time>2026-05-22T11:16:26Z</time>
      </trkpt>
      <trkpt lat="31.230990831572466" lon="121.39937369258031">
        <ele>20.540648076683283</ele>
        <time>2026-05-22T11:16:29Z</time>
      </trkpt>
      <trkpt lat="31.230787923111958" lon="121.39933870670654">
        <ele>18.76240024343133</ele>
        <time>2026-05-22T11:16:38Z</time>
      </trkpt>
      <trkpt lat="31.23072594842382" lon="121.39928970721776">
        <ele>19.964632604271173</ele>
        <time>2026-05-22T11:16:41Z</time>
      </trkpt>
      <trkpt lat="31.230656979923033" lon="121.39928271254482">
        <ele>18.825811956077814</ele>
        <time>2026-05-22T11:16:44Z</time>
      </trkpt>
      <trkpt lat="31.230410101130268" lon="121.39937774364915">
        <ele>18.582724187523127</ele>
        <time>2026-05-22T11:16:53Z</time>
      </trkpt>
      <trkpt lat="31.230192202678793" lon="121.39938376327616">
        <ele>18.84430942311883</ele>
        <time>2026-05-22T11:17:02Z</time>
      </trkpt>
      <trkpt lat="31.22995431870477" lon="121.39945879193873">
        <ele>18.794108007103205</ele>
        <time>2026-05-22T11:17:11Z</time>
      </trkpt>
      <trkpt lat="31.229892351268067" lon="121.39950780267286">
        <ele>18.49024448171258</ele>
        <time>2026-05-22T11:17:14Z</time>
      </trkpt>
      <trkpt lat="31.229774419576398" lon="121.39967283183009">
        <ele>18.12296924367547</ele>
        <time>2026-05-22T11:17:20Z</time>
      </trkpt>
      <trkpt lat="31.229723452221965" lon="121.39977484865574">
        <ele>18.511381719261408</ele>
        <time>2026-05-22T11:17:23Z</time>
      </trkpt>
      <trkpt lat="31.229713466955268" lon="121.39988386336002">
        <ele>18.437399480491877</ele>
        <time>2026-05-22T11:17:26Z</time>
      </trkpt>
      <trkpt lat="31.229740472438536" lon="121.4000658854932">
        <ele>17.819105718284845</ele>
        <time>2026-05-22T11:17:32Z</time>
      </trkpt>
      <trkpt lat="31.229851444646958" lon="121.40028590773937">
        <ele>18.313212011009455</ele>
        <time>2026-05-22T11:17:41Z</time>
      </trkpt>
      <trkpt lat="31.22990742630898" lon="121.40035291308475">
        <ele>18.83638248220086</ele>
        <time>2026-05-22T11:17:44Z</time>
      </trkpt>
      <trkpt lat="31.230045366340722" lon="121.40038790648987">
        <ele>14.902037236839533</ele>
        <time>2026-05-22T11:17:50Z</time>
      </trkpt>
      <trkpt lat="31.23036621150141" lon="121.40033687060237">
        <ele>18.18638477101922</ele>
        <time>2026-05-22T11:18:02Z</time>
      </trkpt>
      <trkpt lat="31.23053412677869" lon="121.40027684683515">
        <ele>14.619314763695002</ele>
        <time>2026-05-22T11:18:08Z</time>
      </trkpt>
      <trkpt lat="31.230653064184523" lon="121.40020982649982">
        <ele>17.924799535423517</ele>
        <time>2026-05-22T11:18:11Z</time>
      </trkpt>
      <trkpt lat="31.230903942458642" lon="121.40015979733649">
        <ele>18.500815007835627</ele>
        <time>2026-05-22T11:18:18Z</time>
      </trkpt>
      <trkpt lat="31.23102088034582" lon="121.40008477646319">
        <ele>20.102030370384455</ele>
        <time>2026-05-22T11:18:21Z</time>
      </trkpt>
      <trkpt lat="31.231221760191232" lon="121.39980772208364">
        <ele>16.941874120384455</ele>
        <time>2026-05-22T11:18:30Z</time>
      </trkpt>
      <trkpt lat="31.231237745596196" lon="121.39972771079462">
        <ele>19.568293187767267</ele>
        <time>2026-05-22T11:18:33Z</time>
      </trkpt>
      <trkpt lat="31.231206747806986" lon="121.39958469664886">
        <ele>20.34247836843133</ele>
        <time>2026-05-22T11:18:36Z</time>
      </trkpt>
      <trkpt lat="31.231164760076002" lon="121.39949469025687">
        <ele>19.359552953392267</ele>
        <time>2026-05-22T11:18:39Z</time>
      </trkpt>
      <trkpt lat="31.23110378216927" lon="121.39941368689009">
        <ele>18.593294713646173</ele>
        <time>2026-05-22T11:18:42Z</time>
      </trkpt>
      <trkpt lat="31.230895870619452" lon="121.39930369378126">
        <ele>18.802034948021173</ele>
        <time>2026-05-22T11:18:51Z</time>
      </trkpt>
      <trkpt lat="31.230701961697314" lon="121.39932071239217">
        <ele>18.992277715355158</ele>
        <time>2026-05-22T11:18:57Z</time>
      </trkpt>
      <trkpt lat="31.230543034143956" lon="121.39930272445945">
        <ele>18.802034948021173</ele>
        <time>2026-05-22T11:19:03Z</time>
      </trkpt>
      <trkpt lat="31.230268165759863" lon="121.39936075428264">
        <ele>18.384554479271173</ele>
        <time>2026-05-22T11:19:15Z</time>
      </trkpt>
      <trkpt lat="31.22998230624372" lon="121.39946579025104">
        <ele>19.158739659935236</ele>
        <time>2026-05-22T11:19:27Z</time>
      </trkpt>
      <trkpt lat="31.229862367484476" lon="121.39953680850141">
        <ele>17.40162906423211</ele>
        <time>2026-05-22T11:19:33Z</time>
      </trkpt>
      <trkpt lat="31.22979540551642" lon="121.39962182401435">
        <ele>18.511381719261408</ele>
        <time>2026-05-22T11:19:36Z</time>
      </trkpt>
      <trkpt lat="31.229713459498498" lon="121.39980385314686">
        <ele>17.819105718284845</ele>
        <time>2026-05-22T11:19:42Z</time>
      </trkpt>
      <trkpt lat="31.2296964839733" lon="121.39997787727211">
        <ele>17.779474828392267</ele>
        <time>2026-05-22T11:19:48Z</time>
      </trkpt>
      <trkpt lat="31.2297514748652" lon="121.40013789470184">
        <ele>18.05162677541375</ele>
        <time>2026-05-22T11:19:54Z</time>
      </trkpt>
      <trkpt lat="31.22979246359305" lon="121.40020990156742">
        <ele>17.882521245628595</ele>
        <time>2026-05-22T11:19:57Z</time>
      </trkpt>
      <trkpt lat="31.22990242392046" lon="121.40031190723386">
        <ele>16.3552881218493</ele>
        <time>2026-05-22T11:20:03Z</time>
      </trkpt>
      <trkpt lat="31.22998039254244" lon="121.40035390687464">
        <ele>17.9353662468493</ele>
        <time>2026-05-22T11:20:06Z</time>
      </trkpt>
      <trkpt lat="31.23013232305253" lon="121.40036289501471">
        <ele>17.348784063011408</ele>
        <time>2026-05-22T11:20:12Z</time>
      </trkpt>
      <trkpt lat="31.230335222560225" lon="121.40030786887365">
        <ele>17.70548877492547</ele>
        <time>2026-05-22T11:20:22Z</time>
      </trkpt>
      <trkpt lat="31.23055911339605" lon="121.4002608422555">
        <ele>16.878458593040705</ele>
        <time>2026-05-22T11:20:31Z</time>
      </trkpt>
      <trkpt lat="31.230614081605918" lon="121.40020382901972">
        <ele>17.348784063011408</ele>
        <time>2026-05-22T11:20:37Z</time>
      </trkpt>
      <trkpt lat="31.2307380225021" lon="121.40018881601561">
        <ele>16.376425359398127</ele>
        <time>2026-05-22T11:20:43Z</time>
      </trkpt>
      <trkpt lat="31.231018881064465" lon="121.40008277635702">
        <ele>17.48618182912469</ele>
        <time>2026-05-22T11:20:55Z</time>
      </trkpt>
      <trkpt lat="31.2311348163914" lon="121.39997475140576">
        <ele>18.154677007347345</ele>
        <time>2026-05-22T11:21:01Z</time>
      </trkpt>
      <trkpt lat="31.231183783456107" lon="121.39986873316678">
        <ele>14.347159001976252</ele>
        <time>2026-05-22T11:21:07Z</time>
      </trkpt>
      <trkpt lat="31.231192763375322" lon="121.39969271049519">
        <ele>17.945936772972345</ele>
        <time>2026-05-22T11:21:19Z</time>
      </trkpt>
      <trkpt lat="31.231128774585876" lon="121.39946669035444">
        <ele>19.04512271657586</ele>
        <time>2026-05-22T11:21:28Z</time>
      </trkpt>
      <trkpt lat="31.231055800889003" lon="121.39936568609063">
        <ele>19.42032489553094</ele>
        <time>2026-05-22T11:21:34Z</time>
      </trkpt>
      <trkpt lat="31.230910864365743" lon="121.39931369346942">
        <ele>18.04106006398797</ele>
        <time>2026-05-22T11:21:40Z</time>
      </trkpt>
      <trkpt lat="31.230702960465795" lon="121.39930971120563">
        <ele>17.11890659108758</ele>
        <time>2026-05-22T11:21:49Z</time>
      </trkpt>
      <trkpt lat="31.230401105086212" lon="121.39937474412444">
        <ele>6.59208545461297</ele>
        <time>2026-05-22T11:22:04Z</time>
      </trkpt>
      <trkpt lat="31.23011224296853" lon="121.39942677475136">
        <ele>18.603861425071955</ele>
        <time>2026-05-22T11:22:16Z</time>
      </trkpt>
      <trkpt lat="31.22984938061374" lon="121.39962381953846">
        <ele>17.967074010521173</ele>
        <time>2026-05-22T11:22:35Z</time>
      </trkpt>
      <trkpt lat="31.22973844643271" lon="121.39978784896493">
        <ele>18.521952245384455</ele>
        <time>2026-05-22T11:22:47Z</time>
      </trkpt>
      <trkpt lat="31.22974746399059" lon="121.40001487784562">
        <ele>17.235163304954767</ele>
        <time>2026-05-22T11:22:56Z</time>
      </trkpt>
      <trkpt lat="31.229801455180542" lon="121.40017089509384">
        <ele>18.08069095388055</ele>
        <time>2026-05-22T11:23:02Z</time>
      </trkpt>
      <trkpt lat="31.229842442798457" lon="121.40023190045257">
        <ele>18.783537480980158</ele>
        <time>2026-05-22T11:23:05Z</time>
      </trkpt>
      <trkpt lat="31.229964397660822" lon="121.40033390519076">
        <ele>18.133539769798517</ele>
        <time>2026-05-22T11:23:11Z</time>
      </trkpt>
      <trkpt lat="31.230091343473898" lon="121.40037490045243">
        <ele>17.945936772972345</ele>
        <time>2026-05-22T11:23:17Z</time>
      </trkpt>
      <trkpt lat="31.23021228710211" lon="121.40037288959185">
        <ele>18.019919011741877</ele>
        <time>2026-05-22T11:23:23Z</time>
      </trkpt>
      <trkpt lat="31.23048414716403" lon="121.4002518474505">
        <ele>17.7266260124743</ele>
        <time>2026-05-22T11:23:38Z</time>
      </trkpt>
      <trkpt lat="31.23081698276675" lon="121.4001598049219">
        <ele>19.62906512990594</ele>
        <time>2026-05-22T11:23:59Z</time>
      </trkpt>
      <trkpt lat="31.230922931414963" lon="121.40013879266189">
        <ele>17.327643010765314</ele>
        <time>2026-05-22T11:24:08Z</time>
      </trkpt>
      <trkpt lat="31.231151803721094" lon="121.3999257433939">
        <ele>15.948378179222345</ele>
        <time>2026-05-22T11:24:17Z</time>
      </trkpt>
      <trkpt lat="31.23120276853057" lon="121.39980272311202">
        <ele>17.69492206349969</ele>
        <time>2026-05-22T11:24:23Z</time>
      </trkpt>
      <trkpt lat="31.231208755794327" lon="121.39969070886077">
        <ele>17.64207324758172</ele>
        <time>2026-05-22T11:24:29Z</time>
      </trkpt>
      <trkpt lat="31.23115476400834" lon="121.39948569014675">
        <ele>17.475611303001642</ele>
        <time>2026-05-22T11:24:41Z</time>
      </trkpt>
      <trkpt lat="31.23102037892644" lon="121.39933875191528">
        <ele>18.69898471608758</ele>
        <time>2026-05-22T11:24:54Z</time>
      </trkpt>
      <trkpt lat="31.230864882853975" lon="121.39927269342985">
        <ele>18.3528467155993</ele>
        <time>2026-05-22T11:24:57Z</time>
      </trkpt>
      <trkpt lat="31.230751936100447" lon="121.39928570455686">
        <ele>19.681910131126642</ele>
        <time>2026-05-22T11:25:00Z</time>
      </trkpt>
      <trkpt lat="31.230515050786966" lon="121.39935473213437">
        <ele>18.34227618947625</ele>
        <time>2026-05-22T11:25:09Z</time>
      </trkpt>
      <trkpt lat="31.230219196966104" lon="121.39947477056047">
        <ele>10.87785205617547</ele>
        <time>2026-05-22T11:25:24Z</time>
      </trkpt>
      <trkpt lat="31.22995332668503" lon="121.39955480258396">
        <ele>16.733133886009455</ele>
        <time>2026-05-22T11:25:36Z</time>
      </trkpt>
      <trkpt lat="31.229887360736242" lon="121.39959681310937">
        <ele>17.21402606740594</ele>
        <time>2026-05-22T11:25:39Z</time>
      </trkpt>
      <trkpt lat="31.22979141610865" lon="121.39972383646928">
        <ele>19.724188420921564</ele>
        <time>2026-05-22T11:25:45Z</time>
      </trkpt>
      <trkpt lat="31.229724468310653" lon="121.39995087121312">
        <ele>17.026426885277033</ele>
        <time>2026-05-22T11:25:57Z</time>
      </trkpt>
      <trkpt lat="31.229731470514537" lon="121.40000587801289">
        <ele>17.380491826683283</ele>
        <time>2026-05-22T11:26:00Z</time>
      </trkpt>
      <trkpt lat="31.229818449125396" lon="121.40018789608163">
        <ele>16.899595830589533</ele>
        <time>2026-05-22T11:26:09Z</time>
      </trkpt>
      <trkpt lat="31.229898421478964" lon="121.40027390183475">
        <ele>17.54695377126336</ele>
        <time>2026-05-22T11:26:15Z</time>
      </trkpt>
      <trkpt lat="31.23003836446971" lon="121.40034390027581">
        <ele>17.026426885277033</ele>
        <time>2026-05-22T11:26:21Z</time>
      </trkpt>
      <trkpt lat="31.2301373188789" lon="121.40034689210647">
        <ele>17.454474065452814</ele>
        <time>2026-05-22T11:26:24Z</time>
      </trkpt>
      <trkpt lat="31.230451163803757" lon="121.40026385212072">
        <ele>17.808539006859064</ele>
        <time>2026-05-22T11:26:36Z</time>
      </trkpt>
      <trkpt lat="31.23082198077184" lon="121.40016280491899">
        <ele>17.673781011253595</ele>
        <time>2026-05-22T11:26:51Z</time>
      </trkpt>
      <trkpt lat="31.23095791392942" lon="121.4001267878961">
        <ele>17.97764453664422</ele>
        <time>2026-05-22T11:26:57Z</time>
      </trkpt>
      <trkpt lat="31.23120178086059" lon="121.39992873943055">
        <ele>17.589228246361017</ele>
        <time>2026-05-22T11:27:09Z</time>
      </trkpt>
      <trkpt lat="31.231244747175857" lon="121.39978171682586">
        <ele>18.41626224294305</ele>
        <time>2026-05-22T11:27:15Z</time>
      </trkpt>
      <trkpt lat="31.23122574223182" lon="121.39962369948091">
        <ele>17.76890430226922</ele>
        <time>2026-05-22T11:27:22Z</time>
      </trkpt>
      <trkpt lat="31.231185752389205" lon="121.39952069128672">
        <ele>17.76890430226922</ele>
        <time>2026-05-22T11:27:25Z</time>
      </trkpt>
      <trkpt lat="31.231065797634763" lon="121.39938468717735">
        <ele>17.61036929860711</ele>
        <time>2026-05-22T11:27:31Z</time>
      </trkpt>
      <trkpt lat="31.231010820369843" lon="121.39934668807447">
        <ele>18.949999425560236</ele>
        <time>2026-05-22T11:27:34Z</time>
      </trkpt>
      <trkpt lat="31.230678970619135" lon="121.39929571190817">
        <ele>17.85081348195672</ele>
        <time>2026-05-22T11:27:46Z</time>
      </trkpt>
      <trkpt lat="31.230546030967037" lon="121.3992767216342">
        <ele>17.737196538597345</ele>
        <time>2026-05-22T11:27:52Z</time>
      </trkpt>
      <trkpt lat="31.230346130737562" lon="121.39937674912596">
        <ele>18.321138951927423</ele>
        <time>2026-05-22T11:27:58Z</time>
      </trkpt>
      <trkpt lat="31.230059268160634" lon="121.3994347802202">
        <ele>8.055906865745783</ele>
        <time>2026-05-22T11:28:10Z</time>
      </trkpt>
      <trkpt lat="31.229910341820457" lon="121.3994937995682">
        <ele>19.441462133079767</ele>
        <time>2026-05-22T11:28:16Z</time>
      </trkpt>
      <trkpt lat="31.229796403806407" lon="121.39960682219288">
        <ele>18.05162677541375</ele>
        <time>2026-05-22T11:28:22Z</time>
      </trkpt>
      <trkpt lat="31.229725451383466" lon="121.39977584860543">
        <ele>17.412195775657892</ele>
        <time>2026-05-22T11:28:28Z</time>
      </trkpt>
      <trkpt lat="31.229730484828583" lon="121.40013989681906">
        <ele>17.599798772484064</ele>
        <time>2026-05-22T11:28:40Z</time>
      </trkpt>
      <trkpt lat="31.229820459602927" lon="121.40029091119722">
        <ele>17.85081348195672</ele>
        <time>2026-05-22T11:28:46Z</time>
      </trkpt>
      <trkpt lat="31.22994041331604" lon="121.40037291330644">
        <ele>17.956507299095392</ele>
        <time>2026-05-22T11:28:49Z</time>
      </trkpt>
      <trkpt lat="31.230089347452385" lon="121.40040090468946">
        <ele>17.56016406789422</ele>
        <time>2026-05-22T11:28:55Z</time>
      </trkpt>
      <trkpt lat="31.230383201096984" lon="121.4003148657543">
        <ele>17.11890659108758</ele>
        <time>2026-05-22T11:29:07Z</time>
      </trkpt>
      <trkpt lat="31.23076301386242" lon="121.40021581779143">
        <ele>17.652643773704767</ele>
        <time>2026-05-22T11:29:25Z</time>
      </trkpt>
      <trkpt lat="31.2310178835078" lon="121.40010177911788">
        <ele>17.161181066185236</ele>
        <time>2026-05-22T11:29:38Z</time>
      </trkpt>
      <trkpt lat="31.231190783830975" lon="121.39990673749551">
        <ele>17.64207324758172</ele>
        <time>2026-05-22T11:29:47Z</time>
      </trkpt>
      <trkpt lat="31.231253741298435" lon="121.39976271368685">
        <ele>17.673781011253595</ele>
        <time>2026-05-22T11:29:53Z</time>
      </trkpt>
      <trkpt lat="31.231256733226218" lon="121.39968670419753">
        <ele>17.882521245628595</ele>
        <time>2026-05-22T11:29:56Z</time>
      </trkpt>
      <trkpt lat="31.231218739899155" lon="121.39955569231657">
        <ele>17.945936772972345</ele>
        <time>2026-05-22T11:30:02Z</time>
      </trkpt>
      <trkpt lat="31.231135772111863" lon="121.39947669082557">
        <ele>18.154677007347345</ele>
        <time>2026-05-22T11:30:05Z</time>
      </trkpt>
      <trkpt lat="31.231117774358044" lon="121.39939568378608">
        <ele>19.9329248405993</ele>
        <time>2026-05-22T11:30:08Z</time>
      </trkpt>
      <trkpt lat="31.230999824260522" lon="121.39932968731408">
        <ele>17.956507299095392</ele>
        <time>2026-05-22T11:30:14Z</time>
      </trkpt>
      <trkpt lat="31.230720949172653" lon="121.39926670539968">
        <ele>17.97764453664422</ele>
        <time>2026-05-22T11:30:26Z</time>
      </trkpt>
      <trkpt lat="31.230651980208773" lon="121.39925271005723">
        <ele>8.985987279564142</ele>
        <time>2026-05-22T11:30:29Z</time>
      </trkpt>
      <trkpt lat="31.230527041146814" lon="121.39929672525969">
        <ele>18.009352300316095</ele>
        <time>2026-05-22T11:30:35Z</time>
      </trkpt>
      <trkpt lat="31.230477068048025" lon="121.3993497349381">
        <ele>17.380491826683283</ele>
        <time>2026-05-22T11:30:38Z</time>
      </trkpt>
      <trkpt lat="31.23019320228775" lon="121.39938476329255">
        <ele>16.302443120628595</ele>
        <time>2026-05-22T11:30:50Z</time>
      </trkpt>
      <trkpt lat="31.229873362457816" lon="121.39953780765396">
        <ele>12.999598119407892</ele>
        <time>2026-05-22T11:31:02Z</time>
      </trkpt>
      <trkpt lat="31.229799403159838" lon="121.39961582297047">
        <ele>15.958944890648127</ele>
        <time>2026-05-22T11:31:05Z</time>
      </trkpt>
      <trkpt lat="31.229737453732273" lon="121.39986185842545">
        <ele>18.292074773460627</ele>
        <time>2026-05-22T11:31:11Z</time>
      </trkpt>
      <trkpt lat="31.229754468215802" lon="121.4000878873505">
        <ele>13.134356115013361</ele>
        <time>2026-05-22T11:31:17Z</time>
      </trkpt>
      <trkpt lat="31.229792459359007" lon="121.4001708958785">
        <ele>16.815043065696955</ele>
        <time>2026-05-22T11:31:20Z</time>
      </trkpt>
      <trkpt lat="31.22995939814825" lon="121.40031790317877">
        <ele>17.967074010521173</ele>
        <time>2026-05-22T11:31:29Z</time>
      </trkpt>
      <trkpt lat="31.23012632746775" lon="121.40037689771216">
        <ele>16.804472539573908</ele>
        <time>2026-05-22T11:31:35Z</time>
      </trkpt>
      <trkpt lat="31.230180301830696" lon="121.40037189222637">
        <ele>18.070124242454767</ele>
        <time>2026-05-22T11:31:38Z</time>
      </trkpt>
      <trkpt lat="31.23022327759823" lon="121.40033488276302">
        <ele>18.05955371633172</ele>
        <time>2026-05-22T11:31:41Z</time>
      </trkpt>
      <trkpt lat="31.23050413666963" lon="121.4002408440698">
        <ele>18.783537480980158</ele>
        <time>2026-05-22T11:31:54Z</time>
      </trkpt>
      <trkpt lat="31.230785997990182" lon="121.40016780878057">
        <ele>17.42276630178094</ele>
        <time>2026-05-22T11:32:12Z</time>
      </trkpt>
      <trkpt lat="31.230835973856053" lon="121.40015880312107">
        <ele>17.348784063011408</ele>
        <time>2026-05-22T11:32:15Z</time>
      </trkpt>
      <trkpt lat="31.231021878226137" lon="121.40006877413752">
        <ele>17.161181066185236</ele>
        <time>2026-05-22T11:32:24Z</time>
      </trkpt>
      <trkpt lat="31.23110383283579" lon="121.39999575694567">
        <ele>17.578661534935236</ele>
        <time>2026-05-22T11:32:30Z</time>
      </trkpt>
      <trkpt lat="31.23119377370561" lon="121.39981372528054">
        <ele>18.321138951927423</ele>
        <time>2026-05-22T11:32:39Z</time>
      </trkpt>
      <trkpt lat="31.231167778358888" lon="121.39973171738463">
        <ele>13.689234349876642</ele>
        <time>2026-05-22T11:32:42Z</time>
      </trkpt>
      <trkpt lat="31.231246088712833" lon="121.39963711141966">
        <ele>18.960569951683283</ele>
        <time>2026-05-22T11:32:45Z</time>
      </trkpt>
      <trkpt lat="31.23127482154743" lon="121.39956491670465">
        <ele>17.161181066185236</ele>
        <time>2026-05-22T11:32:48Z</time>
      </trkpt>
      <trkpt lat="31.23115475937149" lon="121.39942468360272">
        <ele>17.99878177419305</ele>
        <time>2026-05-22T11:32:54Z</time>
      </trkpt>
      <trkpt lat="31.231014818445953" lon="121.39934568762415">
        <ele>18.794108007103205</ele>
        <time>2026-05-22T11:33:00Z</time>
      </trkpt>
      <trkpt lat="31.230870882409846" lon="121.39930669625925">
        <ele>19.54715595021844</ele>
        <time>2026-05-22T11:33:06Z</time>
      </trkpt>
      <trkpt lat="31.230552032706825" lon="121.39934172758673">
        <ele>17.819105718284845</ele>
        <time>2026-05-22T11:33:18Z</time>
      </trkpt>
      <trkpt lat="31.23033413443176" lon="121.39935074750768">
        <ele>16.899595830589533</ele>
        <time>2026-05-22T11:33:27Z</time>
      </trkpt>
      <trkpt lat="31.230050273696115" lon="121.39945278292504">
        <ele>16.669718358665705</ele>
        <time>2026-05-22T11:33:39Z</time>
      </trkpt>
      <trkpt lat="31.229913341598692" lon="121.39950880095202">
        <ele>17.70548877492547</ele>
        <time>2026-05-22T11:33:45Z</time>
      </trkpt>
      <trkpt lat="31.229837381417706" lon="121.39956581393814">
        <ele>18.08069095388055</ele>
        <time>2026-05-22T11:33:48Z</time>
      </trkpt>
      <trkpt lat="31.2297844118792" lon="121.39963682671946">
        <ele>16.104273412376642</ele>
        <time>2026-05-22T11:33:51Z</time>
      </trkpt>
      <trkpt lat="31.22973244940023" lon="121.3997898497376">
        <ele>17.9353662468493</ele>
        <time>2026-05-22T11:33:57Z</time>
      </trkpt>
      <trkpt lat="31.22971347518871" lon="121.39996887457977">
        <ele>17.663214299827814</ele>
        <time>2026-05-22T11:34:03Z</time>
      </trkpt>
      <trkpt lat="31.229727479507513" lon="121.40007588802249">
        <ele>18.18638477101922</ele>
        <time>2026-05-22T11:34:06Z</time>
      </trkpt>
      <trkpt lat="31.229771473671583" lon="121.40021290383923">
        <ele>18.196951482445</ele>
        <time>2026-05-22T11:34:09Z</time>
      </trkpt>
      <trkpt lat="31.229887432253893" lon="121.40032391037252">
        <ele>15.665655706077814</ele>
        <time>2026-05-22T11:34:12Z</time>
      </trkpt>
      <trkpt lat="31.229985394185338" lon="121.40038791172103">
        <ele>17.808539006859064</ele>
        <time>2026-05-22T11:34:15Z</time>
      </trkpt>
      <trkpt lat="31.23007235498718" lon="121.40039790570106">
        <ele>17.758333776146173</ele>
        <time>2026-05-22T11:34:18Z</time>
      </trkpt>
      <trkpt lat="31.23015631122098" lon="121.40035689199354">
        <ele>17.663214299827814</ele>
        <time>2026-05-22T11:34:22Z</time>
      </trkpt>
      <trkpt lat="31.23045216547274" lon="121.40028285488798">
        <ele>17.443903539329767</ele>
        <time>2026-05-22T11:34:34Z</time>
      </trkpt>
      <trkpt lat="31.230767007332933" lon="121.40017281116123">
        <ele>16.659147832542658</ele>
        <time>2026-05-22T11:34:55Z</time>
      </trkpt>
      <trkpt lat="31.231024877974285" lon="121.40007977541346">
        <ele>17.48618182912469</ele>
        <time>2026-05-22T11:35:07Z</time>
      </trkpt>
      <trkpt lat="31.231078849261614" lon="121.40004376569706">
        <ele>20.310770604759455</ele>
        <time>2026-05-22T11:35:10Z</time>
      </trkpt>
      <trkpt lat="31.231187782739013" lon="121.39988073436955">
        <ele>17.224596593528986</ele>
        <time>2026-05-22T11:35:19Z</time>
      </trkpt>
      <trkpt lat="31.231212754808904" lon="121.39970070971097">
        <ele>19.33841571584344</ele>
        <time>2026-05-22T11:35:28Z</time>
      </trkpt>
      <trkpt lat="31.23117975564158" lon="121.39952669247509">
        <ele>17.348784063011408</ele>
        <time>2026-05-22T11:35:37Z</time>
      </trkpt>
      <trkpt lat="31.231119779674977" lon="121.39947869243751">
        <ele>17.98821124807</ele>
        <time>2026-05-22T11:35:43Z</time>
      </trkpt>
      <trkpt lat="31.23104880528952" lon="121.39938168834905">
        <ele>11.892485234886408</ele>
        <time>2026-05-22T11:35:49Z</time>
      </trkpt>
      <trkpt lat="31.230938850284208" lon="121.39929768943705">
        <ele>17.56809100881219</ele>
        <time>2026-05-22T11:35:55Z</time>
      </trkpt>
      <trkpt lat="31.230844891916654" lon="121.39926969488072">
        <ele>17.893091771751642</ele>
        <time>2026-05-22T11:36:01Z</time>
      </trkpt>
      <trkpt lat="31.23056302817677" lon="121.39934972743995">
        <ele>17.454474065452814</ele>
        <time>2026-05-22T11:36:19Z</time>
      </trkpt>
      <trkpt lat="31.230366124325023" lon="121.39941575144546">
        <ele>17.380491826683283</ele>
        <time>2026-05-22T11:36:31Z</time>
      </trkpt>
      <trkpt lat="31.23022719006516" lon="121.39943276536056">
        <ele>17.182318303734064</ele>
        <time>2026-05-22T11:36:40Z</time>
      </trkpt>
      <trkpt lat="31.23012224204475" lon="121.3994757791259">
        <ele>17.140043828636408</ele>
        <time>2026-05-22T11:36:46Z</time>
      </trkpt>
      <trkpt lat="31.230069266867893" lon="121.39947878407206">
        <ele>15.612806890159845</ele>
        <time>2026-05-22T11:36:49Z</time>
      </trkpt>
      <trkpt lat="31.22992733851172" lon="121.39955180451354">
        <ele>17.737196538597345</ele>
        <time>2026-05-22T11:36:55Z</time>
      </trkpt>
      <trkpt lat="31.22982039925067" lon="121.3996848292476">
        <ele>17.70548877492547</ele>
        <time>2026-05-22T11:37:02Z</time>
      </trkpt>
      <trkpt lat="31.22976443490569" lon="121.39979384744741">
        <ele>17.956507299095392</ele>
        <time>2026-05-22T11:37:05Z</time>
      </trkpt>
      <trkpt lat="31.229746454597937" lon="121.39991486453087">
        <ele>10.616270635277033</ele>
        <time>2026-05-22T11:37:08Z</time>
      </trkpt>
      <trkpt lat="31.22975846050138" lon="121.40003087907964">
        <ele>17.893091771751642</ele>
        <time>2026-05-22T11:37:11Z</time>
      </trkpt>
      <trkpt lat="31.22982345051721" lon="121.40022190063121">
        <ele>17.956507299095392</ele>
        <time>2026-05-22T11:37:17Z</time>
      </trkpt>
      <trkpt lat="31.229959400787045" lon="121.40034090670189">
        <ele>18.20752200856805</ele>
        <time>2026-05-22T11:37:23Z</time>
      </trkpt>
      <trkpt lat="31.230157313435623" lon="121.40037989547666">
        <ele>17.35935077443719</ele>
        <time>2026-05-22T11:37:32Z</time>
      </trkpt>
      <trkpt lat="31.230259264833578" lon="121.40036888487263">
        <ele>17.56016406789422</ele>
        <time>2026-05-22T11:37:35Z</time>
      </trkpt>
      <trkpt lat="31.230460159742496" lon="121.40026485148579">
        <ele>17.507319066673517</ele>
        <time>2026-05-22T11:37:44Z</time>
      </trkpt>
      <trkpt lat="31.230724029533146" lon="121.40019381796586">
        <ele>17.21402606740594</ele>
        <time>2026-05-22T11:37:56Z</time>
      </trkpt>
      <trkpt lat="31.23096590801272" lon="121.400105784217">
        <ele>17.64207324758172</ele>
        <time>2026-05-22T11:38:05Z</time>
      </trkpt>
      <trkpt lat="31.231117825156495" lon="121.39998375410102">
        <ele>17.044920537620783</ele>
        <time>2026-05-22T11:38:11Z</time>
      </trkpt>
      <trkpt lat="31.231215765737495" lon="121.39983772640363">
        <ele>17.203459355980158</ele>
        <time>2026-05-22T11:38:17Z</time>
      </trkpt>
      <trkpt lat="31.23124174542568" lon="121.39974671276525">
        <ele>16.889025304466486</ele>
        <time>2026-05-22T11:38:20Z</time>
      </trkpt>
      <trkpt lat="31.231224742611357" lon="121.39962269945202">
        <ele>17.433336827903986</ele>
        <time>2026-05-22T11:38:23Z</time>
      </trkpt>
      <trkpt lat="31.231158758268183" lon="121.39943468431339">
        <ele>17.871954534202814</ele>
        <time>2026-05-22T11:38:29Z</time>
      </trkpt>
      <trkpt lat="31.231091785084633" lon="121.39937768418662">
        <ele>17.539026830345392</ele>
        <time>2026-05-22T11:38:32Z</time>
      </trkpt>
      <trkpt lat="31.23092385785615" lon="121.39930669163823">
        <ele>16.70142612233758</ele>
        <time>2026-05-22T11:38:38Z</time>
      </trkpt>
      <trkpt lat="31.23067797108261" lon="121.39929571199536">
        <ele>16.941874120384455</ele>
        <time>2026-05-22T11:38:48Z</time>
      </trkpt>
      <trkpt lat="31.230375117215896" lon="121.3993757464944">
        <ele>16.42927036061883</ele>
        <time>2026-05-22T11:39:00Z</time>
      </trkpt>
      <trkpt lat="31.230149225876353" lon="121.39942777163127">
        <ele>17.25630435720086</ele>
        <time>2026-05-22T11:39:09Z</time>
      </trkpt>
      <trkpt lat="31.22994732668236" lon="121.39951979920181">
        <ele>16.545530889183283</ele>
        <time>2026-05-22T11:39:18Z</time>
      </trkpt>
      <trkpt lat="31.229783413186148" lon="121.39964682797726">
        <ele>16.606302831321955</ele>
        <time>2026-05-22T11:39:27Z</time>
      </trkpt>
      <trkpt lat="31.22974044244484" lon="121.39975384458029">
        <ele>16.952440831810236</ele>
        <time>2026-05-22T11:39:33Z</time>
      </trkpt>
      <trkpt lat="31.229732470351564" lon="121.40000887833448">
        <ele>16.57459506765008</ele>
        <time>2026-05-22T11:39:42Z</time>
      </trkpt>
      <trkpt lat="31.22982045937697" lon="121.40028891089501">
        <ele>16.941874120384455</ele>
        <time>2026-05-22T11:39:54Z</time>
      </trkpt>
      <trkpt lat="31.229867438349697" lon="121.40029590785595">
        <ele>17.12947330251336</ele>
        <time>2026-05-22T11:39:57Z</time>
      </trkpt>
      <trkpt lat="31.229992387204923" lon="121.40035590613745">
        <ele>16.899595830589533</ele>
        <time>2026-05-22T11:40:00Z</time>
      </trkpt>
      <trkpt lat="31.23020828732882" lon="121.40035888776922">
        <ele>17.044920537620783</ele>
        <time>2026-05-22T11:40:09Z</time>
      </trkpt>
      <trkpt lat="31.230418181013196" lon="121.40028085755098">
        <ele>17.11890659108758</ele>
        <time>2026-05-22T11:40:18Z</time>
      </trkpt>
      <trkpt lat="31.23054112353346" lon="121.40027684622484">
        <ele>14.180697057396173</ele>
        <time>2026-05-22T11:40:24Z</time>
      </trkpt>
      <trkpt lat="31.23085896213016" lon="121.40014879967622">
        <ele>17.578661534935236</ele>
        <time>2026-05-22T11:40:39Z</time>
      </trkpt>
      <trkpt lat="31.23106185826012" lon="121.40005476870233">
        <ele>15.633947942405939</ele>
        <time>2026-05-22T11:40:49Z</time>
      </trkpt>
      <trkpt lat="31.231117827354247" lon="121.40000575708413">
        <ele>16.743700597435236</ele>
        <time>2026-05-22T11:40:52Z</time>
      </trkpt>
      <trkpt lat="31.23116380485218" lon="121.3999937514431">
        <ele>15.633947942405939</ele>
        <time>2026-05-22T11:40:55Z</time>
      </trkpt>
      <trkpt lat="31.231206759157818" lon="121.39971871240546">
        <ele>15.612806890159845</ele>
        <time>2026-05-22T11:41:04Z</time>
      </trkpt>
      <trkpt lat="31.231231742913362" lon="121.39966470376268">
        <ele>16.71199283376336</ele>
        <time>2026-05-22T11:41:07Z</time>
      </trkpt>
      <trkpt lat="31.23112877261124" lon="121.39944068756725">
        <ele>18.030489537864923</ele>
        <time>2026-05-22T11:41:16Z</time>
      </trkpt>
      <trkpt lat="31.231029811427344" lon="121.3993446862148">
        <ele>17.684351537376642</ele>
        <time>2026-05-22T11:41:22Z</time>
      </trkpt>
      <trkpt lat="31.230862884667616" lon="121.39928569487891">
        <ele>16.659147832542658</ele>
        <time>2026-05-22T11:41:28Z</time>
      </trkpt>
      <trkpt lat="31.230502054968262" lon="121.39932873063327">
        <ele>16.00122318044305</ele>
        <time>2026-05-22T11:41:43Z</time>
      </trkpt>
      <trkpt lat="31.23025218165817" lon="121.3994747676833">
        <ele>17.54695377126336</ele>
        <time>2026-05-22T11:41:55Z</time>
      </trkpt>
      <trkpt lat="31.229984314729766" lon="121.39958480327972">
        <ele>15.969515416771173</ele>
        <time>2026-05-22T11:42:07Z</time>
      </trkpt>
      <trkpt lat="31.229917349215466" lon="121.39962581384216">
        <ele>18.783537480980158</ele>
        <time>2026-05-22T11:42:10Z</time>
      </trkpt>
      <trkpt lat="31.229819404964772" lon="121.39974483658833">
        <ele>15.131914708763361</ele>
        <time>2026-05-22T11:42:16Z</time>
      </trkpt>
      <trkpt lat="31.229782433026546" lon="121.39986385475946">
        <ele>17.036993596702814</ele>
        <time>2026-05-22T11:42:19Z</time>
      </trkpt>
      <trkpt lat="31.22976845851217" lon="121.40005688180021">
        <ele>15.85325488820672</ele>
        <time>2026-05-22T11:42:25Z</time>
      </trkpt>
      <trkpt lat="31.229793455364756" lon="121.40013789104006">
        <ele>16.857321355491877</ele>
        <time>2026-05-22T11:42:28Z</time>
      </trkpt>
      <trkpt lat="31.229948401772592" lon="121.4003049021588">
        <ele>15.781912419945002</ele>
        <time>2026-05-22T11:42:37Z</time>
      </trkpt>
      <trkpt lat="31.230108331181466" lon="121.4003368930965">
        <ele>16.3552881218493</ele>
        <time>2026-05-22T11:42:43Z</time>
      </trkpt>
      <trkpt lat="31.230351212986005" lon="121.40028886459922">
        <ele>16.55610141530633</ele>
        <time>2026-05-22T11:42:56Z</time>
      </trkpt>
      <trkpt lat="31.23069004605259" lon="121.40020082195393">
        <ele>16.386995885521173</ele>
        <time>2026-05-22T11:43:11Z</time>
      </trkpt>
      <trkpt lat="31.230985895934662" lon="121.4000787786738">
        <ele>16.06199512258172</ele>
        <time>2026-05-22T11:43:23Z</time>
      </trkpt>
      <trkpt lat="31.231097835714312" lon="121.39999675760448">
        <ele>6.23802051320672</ele>
        <time>2026-05-22T11:43:29Z</time>
      </trkpt>
      <trkpt lat="31.231161794588093" lon="121.39987873637736">
        <ele>16.33415088430047</ele>
        <time>2026-05-22T11:43:35Z</time>
      </trkpt>
      <trkpt lat="31.23118377705377" lon="121.39979972439232">
        <ele>17.578661534935236</ele>
        <time>2026-05-22T11:43:38Z</time>
      </trkpt>
      <trkpt lat="31.231195752981773" lon="121.39958569772203">
        <ele>15.800409886986017</ele>
        <time>2026-05-22T11:43:47Z</time>
      </trkpt>
      <trkpt lat="31.231131773733424" lon="121.39947369084933">
        <ele>15.351225469261408</ele>
        <time>2026-05-22T11:43:53Z</time>
      </trkpt>
      <trkpt lat="31.230999824967384" lon="121.3993396883237">
        <ele>-1.2105497382581234</ele>
        <time>2026-05-22T11:43:59Z</time>
      </trkpt>
      <trkpt lat="31.230832898498782" lon="121.39928469739621">
        <ele>12.830492589622736</ele>
        <time>2026-05-22T11:44:05Z</time>
      </trkpt>
      <trkpt lat="31.230545034821706" lon="121.39932572658249">
        <ele>14.944311711937189</ele>
        <time>2026-05-22T11:44:17Z</time>
      </trkpt>
      <trkpt lat="31.23027816403025" lon="121.39940075754569">
        <ele>15.895533178001642</ele>
        <time>2026-05-22T11:44:29Z</time>
      </trkpt>
      <trkpt lat="31.230012294324364" lon="121.39949179045676">
        <ele>6.018713567405939</ele>
        <time>2026-05-22T11:44:41Z</time>
      </trkpt>
      <trkpt lat="31.229931334266507" lon="121.3995218008182">
        <ele>9.392897222191095</ele>
        <time>2026-05-22T11:44:44Z</time>
      </trkpt>
      <trkpt lat="31.22981239862764" lon="121.39963382392811">
        <ele>9.527651403099298</ele>
        <time>2026-05-22T11:44:50Z</time>
      </trkpt>
      <trkpt lat="31.229740443070494" lon="121.39976084544215">
        <ele>17.539026830345392</ele>
        <time>2026-05-22T11:44:56Z</time>
      </trkpt>
      <trkpt lat="31.229718460776528" lon="121.39984285764788">
        <ele>13.98252734914422</ele>
        <time>2026-05-22T11:44:59Z</time>
      </trkpt>
      <trkpt lat="31.229757467239306" lon="121.40009188765129">
        <ele>17.56016406789422</ele>
        <time>2026-05-22T11:45:08Z</time>
      </trkpt>
      <trkpt lat="31.229855443128667" lon="121.40028890784353">
        <ele>9.318911168724298</ele>
        <time>2026-05-22T11:45:14Z</time>
      </trkpt>
      <trkpt lat="31.229925415532534" lon="121.40033190828429">
        <ele>17.967074010521173</ele>
        <time>2026-05-22T11:45:17Z</time>
      </trkpt>
      <trkpt lat="31.23011733117658" lon="121.40037289787455">
        <ele>13.218908879905939</ele>
        <time>2026-05-22T11:45:23Z</time>
      </trkpt>
      <trkpt lat="31.23044417189901" lon="121.40030685921823">
        <ele>18.218092534691095</ele>
        <time>2026-05-22T11:45:35Z</time>
      </trkpt>
      <trkpt lat="31.23073002959425" lon="121.40021982125792">
        <ele>17.49674854055047</ele>
        <time>2026-05-22T11:45:47Z</time>
      </trkpt>
      <trkpt lat="31.23087295800253" lon="121.40017080162944">
        <ele>18.18638477101922</ele>
        <time>2026-05-22T11:45:54Z</time>
      </trkpt>
      <trkpt lat="31.23106685614969" lon="121.40005676854399">
        <ele>16.323580358177423</ele>
        <time>2026-05-22T11:46:03Z</time>
      </trkpt>
      <trkpt lat="31.23118678838836" lon="121.39993474153212">
        <ele>16.41870364919305</ele>
        <time>2026-05-22T11:46:09Z</time>
      </trkpt>
      <trkpt lat="31.231231757032933" lon="121.39982372323085">
        <ele>18.228659246116877</ele>
        <time>2026-05-22T11:46:12Z</time>
      </trkpt>
      <trkpt lat="31.231206742903005" lon="121.39952368978811">
        <ele>16.669718358665705</ele>
        <time>2026-05-22T11:46:21Z</time>
      </trkpt>
      <trkpt lat="31.231088785246353" lon="121.39936068270109">
        <ele>17.306505773216486</ele>
        <time>2026-05-22T11:46:27Z</time>
      </trkpt>
      <trkpt lat="31.23098982672924" lon="121.39929868508945">
        <ele>16.889025304466486</ele>
        <time>2026-05-22T11:46:30Z</time>
      </trkpt>
      <trkpt lat="31.230913860153038" lon="121.3992726891576">
        <ele>15.258745763450861</ele>
        <time>2026-05-22T11:46:33Z</time>
      </trkpt>
      <trkpt lat="31.230612004751137" lon="121.3993397221529">
        <ele>17.924799535423517</ele>
        <time>2026-05-22T11:46:45Z</time>
      </trkpt>
      <trkpt lat="31.23031614736564" lon="121.39941375559451">
        <ele>17.00528583303094</ele>
        <time>2026-05-22T11:47:00Z</time>
      </trkpt>
      <trkpt lat="31.23015922176152" lon="121.39943477150156">
        <ele>16.867888066917658</ele>
        <time>2026-05-22T11:47:06Z</time>
      </trkpt>
      <trkpt lat="31.229918340616738" lon="121.3995258023951">
        <ele>17.27744159474969</ele>
        <time>2026-05-22T11:47:18Z</time>
      </trkpt>
      <trkpt lat="31.229795407277184" lon="121.39964282646216">
        <ele>16.690855596214533</ele>
        <time>2026-05-22T11:47:24Z</time>
      </trkpt>
      <trkpt lat="31.229757431192898" lon="121.39971583846433">
        <ele>17.19288882985711</ele>
        <time>2026-05-22T11:47:27Z</time>
      </trkpt>
      <trkpt lat="31.22972547269903" lon="121.3999998777199">
        <ele>10.468302343040705</ele>
        <time>2026-05-22T11:47:36Z</time>
      </trkpt>
      <trkpt lat="31.229769467039414" lon="121.40014289384871">
        <ele>16.690855596214533</ele>
        <time>2026-05-22T11:47:42Z</time>
      </trkpt>
      <trkpt lat="31.22984844513865" lon="121.40027790679547">
        <ele>16.521750066429377</ele>
        <time>2026-05-22T11:47:48Z</time>
      </trkpt>
      <trkpt lat="31.229970397415293" lon="121.40035590805553">
        <ele>17.85081348195672</ele>
        <time>2026-05-22T11:47:54Z</time>
      </trkpt>
      <trkpt lat="31.23013132538164" lon="121.4003788975877">
        <ele>18.42682895436883</ele>
        <time>2026-05-22T11:48:04Z</time>
      </trkpt>
      <trkpt lat="31.230226280607617" lon="121.40037288837125">
        <ele>18.40569171682</ele>
        <time>2026-05-22T11:48:07Z</time>
      </trkpt>
      <trkpt lat="31.230327228325713" lon="121.40032587231653">
        <ele>17.9353662468493</ele>
        <time>2026-05-22T11:48:13Z</time>
      </trkpt>
      <trkpt lat="31.230607092600756" lon="121.40027384001945">
        <ele>9.675619695335627</ele>
        <time>2026-05-22T11:48:22Z</time>
      </trkpt>
      <trkpt lat="31.23090493911681" lon="121.40013279337326">
        <ele>17.517889592796564</ele>
        <time>2026-05-22T11:48:37Z</time>
      </trkpt>
      <trkpt lat="31.231027876170494" lon="121.40007577459207">
        <ele>17.893091771751642</ele>
        <time>2026-05-22T11:48:43Z</time>
      </trkpt>
      <trkpt lat="31.231164797507965" lon="121.39992374199659">
        <ele>10.280699346214533</ele>
        <time>2026-05-22T11:48:49Z</time>
      </trkpt>
      <trkpt lat="31.231208766210095" lon="121.3998077232171">
        <ele>17.171751592308283</ele>
        <time>2026-05-22T11:48:52Z</time>
      </trkpt>
      <trkpt lat="31.23121475606867" lon="121.39972571255693">
        <ele>8.816881749778986</ele>
        <time>2026-05-22T11:48:55Z</time>
      </trkpt>
      <trkpt lat="31.231164762824733" lon="121.39952969411625">
        <ele>16.167685125023127</ele>
        <time>2026-05-22T11:49:01Z</time>
      </trkpt>
      <trkpt lat="31.231060798934177" lon="121.39937068616827">
        <ele>17.716059301048517</ele>
        <time>2026-05-22T11:49:07Z</time>
      </trkpt>
      <trkpt lat="31.230895869790846" lon="121.399291692593">
        <ele>15.842688176780939</ele>
        <time>2026-05-22T11:49:17Z</time>
      </trkpt>
      <trkpt lat="31.230722950572467" lon="121.39930070856714">
        <ele>17.737196538597345</ele>
        <time>2026-05-22T11:49:23Z</time>
      </trkpt>
      <trkpt lat="31.230582018232976" lon="121.39933372416215">
        <ele>17.044920537620783</ele>
        <time>2026-05-22T11:49:29Z</time>
      </trkpt>
      <trkpt lat="31.230311147042865" lon="121.3993777522807">
        <ele>18.63556918874383</ele>
        <time>2026-05-22T11:49:41Z</time>
      </trkpt>
      <trkpt lat="31.230069265411846" lon="121.39945978201982">
        <ele>17.11890659108758</ele>
        <time>2026-05-22T11:49:53Z</time>
      </trkpt>
      <trkpt lat="31.229883357656576" lon="121.39953580655897">
        <ele>15.110777471214533</ele>
        <time>2026-05-22T11:50:02Z</time>
      </trkpt>
      <trkpt lat="31.22981339476017" lon="121.39959281910272">
        <ele>16.241671178489923</ele>
        <time>2026-05-22T11:50:05Z</time>
      </trkpt>
      <trkpt lat="31.229768425735735" lon="121.39971183702195">
        <ele>17.35935077443719</ele>
        <time>2026-05-22T11:50:11Z</time>
      </trkpt>
      <trkpt lat="31.229779453097187" lon="121.40005388042486">
        <ele>18.84430942311883</ele>
        <time>2026-05-22T11:50:26Z</time>
      </trkpt>
      <trkpt lat="31.229832448104066" lon="121.40023790221368">
        <ele>15.195330236107111</ele>
        <time>2026-05-22T11:50:32Z</time>
      </trkpt>
      <trkpt lat="31.229936411116697" lon="121.40033790824606">
        <ele>16.690855596214533</ele>
        <time>2026-05-22T11:50:38Z</time>
      </trkpt>
      <trkpt lat="31.23012532828244" lon="121.40037989826662">
        <ele>7.345133397728205</ele>
        <time>2026-05-22T11:50:50Z</time>
      </trkpt>
      <trkpt lat="31.230406190887816" lon="121.4003188643591">
        <ele>17.19288882985711</ele>
        <time>2026-05-22T11:50:56Z</time>
      </trkpt>
      <trkpt lat="31.23059109990529" lon="121.40027284126421">
        <ele>14.49512729421258</ele>
        <time>2026-05-22T11:51:02Z</time>
      </trkpt>
      <trkpt lat="31.230900942992186" lon="121.4001517964456">
        <ele>10.259562108665705</ele>
        <time>2026-05-22T11:51:14Z</time>
      </trkpt>
      <trkpt lat="31.23105086624356" lon="121.40008277356698">
        <ele>17.599798772484064</ele>
        <time>2026-05-22T11:51:20Z</time>
      </trkpt>
      <trkpt lat="31.231202776078643" lon="121.39988373345075">
        <ele>15.517687413841486</ele>
        <time>2026-05-22T11:51:27Z</time>
      </trkpt>
      <trkpt lat="31.231224757342133" lon="121.39979171981639">
        <ele>15.131914708763361</ele>
        <time>2026-05-22T11:51:30Z</time>
      </trkpt>
      <trkpt lat="31.231221753091912" lon="121.39972871231126">
        <ele>16.323580358177423</ele>
        <time>2026-05-22T11:51:33Z</time>
      </trkpt>
      <trkpt lat="31.231113777020244" lon="121.39940668528376">
        <ele>13.29289111867547</ele>
        <time>2026-05-22T11:51:42Z</time>
      </trkpt>
      <trkpt lat="31.23099782247238" lon="121.39929068360102">
        <ele>16.648581121116877</ele>
        <time>2026-05-22T11:51:48Z</time>
      </trkpt>
      <trkpt lat="31.230945845057676" lon="121.3992686859771">
        <ele>15.729067418724298</ele>
        <time>2026-05-22T11:51:51Z</time>
      </trkpt>
      <trkpt lat="31.230629993468522" lon="121.39929771637833">
        <ele>15.85325488820672</ele>
        <time>2026-05-22T11:52:03Z</time>
      </trkpt>
      <trkpt lat="31.230363123071317" lon="121.3993797479535">
        <ele>16.595736119896173</ele>
        <time>2026-05-22T11:52:15Z</time>
      </trkpt>
      <trkpt lat="31.230087256755" lon="121.39945578002082">
        <ele>17.203459355980158</ele>
        <time>2026-05-22T11:52:27Z</time>
      </trkpt>
      <trkpt lat="31.229932333329412" lon="121.39951580006736">
        <ele>16.241671178489923</ele>
        <time>2026-05-22T11:52:33Z</time>
      </trkpt>
      <trkpt lat="31.229853374476246" lon="121.39957181322256">
        <ele>13.929678533226252</ele>
        <time>2026-05-22T11:52:36Z</time>
      </trkpt>
      <trkpt lat="31.229795406856184" lon="121.39963782587726">
        <ele>15.612806890159845</ele>
        <time>2026-05-22T11:52:39Z</time>
      </trkpt>
      <trkpt lat="31.229728450532438" lon="121.39978184908938">
        <ele>9.760172460228205</ele>
        <time>2026-05-22T11:52:45Z</time>
      </trkpt>
      <trkpt lat="31.229701477623752" lon="121.39993687135755">
        <ele>15.142485234886408</ele>
        <time>2026-05-22T11:52:51Z</time>
      </trkpt>
      <trkpt lat="31.229702485491362" lon="121.40002088258977">
        <ele>16.722563359886408</ele>
        <time>2026-05-22T11:52:54Z</time>
      </trkpt>
      <trkpt lat="31.22979046375669" lon="121.40020290071482">
        <ele>8.441675756126642</ele>
        <time>2026-05-22T11:53:00Z</time>
      </trkpt>
      <trkpt lat="31.229895426032414" lon="121.4003019063242">
        <ele>16.252237889915705</ele>
        <time>2026-05-22T11:53:06Z</time>
      </trkpt>
      <trkpt lat="31.229997385696876" lon="121.40036290678482">
        <ele>15.729067418724298</ele>
        <time>2026-05-22T11:53:09Z</time>
      </trkpt>
      <trkpt lat="31.230083348355702" lon="121.40038490270827">
        <ele>16.199392888695</ele>
        <time>2026-05-22T11:53:12Z</time>
      </trkpt>
      <trkpt lat="31.230409190183032" lon="121.40032486501424">
        <ele>15.277239415794611</ele>
        <time>2026-05-22T11:53:27Z</time>
      </trkpt>
      <trkpt lat="31.23076401197673" lon="121.40020281579496">
        <ele>16.585165593773127</ele>
        <time>2026-05-22T11:53:43Z</time>
      </trkpt>
      <trkpt lat="31.230973907471498" lon="121.400135787786">
        <ele>15.351225469261408</ele>
        <time>2026-05-22T11:53:52Z</time>
      </trkpt>
      <trkpt lat="31.231049867642675" lon="121.40009177491827">
        <ele>8.254076573997736</ele>
        <time>2026-05-22T11:53:55Z</time>
      </trkpt>
      <trkpt lat="31.231138816328546" lon="121.39999275348734">
        <ele>15.729067418724298</ele>
        <time>2026-05-22T11:54:01Z</time>
      </trkpt>
      <trkpt lat="31.23119577780566" lon="121.39986773199155">
        <ele>17.48618182912469</ele>
        <time>2026-05-22T11:54:07Z</time>
      </trkpt>
      <trkpt lat="31.23121174913152" lon="121.39962870128282">
        <ele>16.754271123558283</ele>
        <time>2026-05-22T11:54:16Z</time>
      </trkpt>
      <trkpt lat="31.231152763702287" lon="121.39946968858578">
        <ele>16.460978124290705</ele>
        <time>2026-05-22T11:54:22Z</time>
      </trkpt>
      <trkpt lat="31.230991825802853" lon="121.39929868491508">
        <ele>17.76890430226922</ele>
        <time>2026-05-22T11:54:31Z</time>
      </trkpt>
      <trkpt lat="31.23094484592832" lon="121.39927468665026">
        <ele>13.522768590599298</ele>
        <time>2026-05-22T11:54:34Z</time>
      </trkpt>
      <trkpt lat="31.230738939419386" lon="121.39924570179647">
        <ele>16.3552881218493</ele>
        <time>2026-05-22T11:54:43Z</time>
      </trkpt>
      <trkpt lat="31.23049306120182" lon="121.39935773435877">
        <ele>16.513823125511408</ele>
        <time>2026-05-22T11:54:55Z</time>
      </trkpt>
      <trkpt lat="31.230438085136818" lon="121.39933573691908">
        <ele>14.180697057396173</ele>
        <time>2026-05-22T11:54:58Z</time>
      </trkpt>
      <trkpt lat="31.230368118734926" lon="121.39935174464514">
        <ele>15.697359655052423</ele>
        <time>2026-05-22T11:55:01Z</time>
      </trkpt>
      <trkpt lat="31.23004527994499" lon="121.39950378889371">
        <ele>16.79654559865594</ele>
        <time>2026-05-22T11:55:16Z</time>
      </trkpt>
      <trkpt lat="31.22992434038669" lon="121.39955780545007">
        <ele>11.128870580345392</ele>
        <time>2026-05-22T11:55:22Z</time>
      </trkpt>
      <trkpt lat="31.229808402851575" lon="121.39966182756339">
        <ele>17.161181066185236</ele>
        <time>2026-05-22T11:55:28Z</time>
      </trkpt>
      <trkpt lat="31.22974044514149" lon="121.3997838482921">
        <ele>16.22053012624383</ele>
        <time>2026-05-22T11:55:35Z</time>
      </trkpt>
      <trkpt lat="31.229721469899665" lon="121.39995287174135">
        <ele>15.298376653343439</ele>
        <time>2026-05-22T11:55:41Z</time>
      </trkpt>
      <trkpt lat="31.22974847372122" lon="121.4001138915439">
        <ele>16.5640283562243</ele>
        <time>2026-05-22T11:55:47Z</time>
      </trkpt>
      <trkpt lat="31.229843446337565" lon="121.40026790572932">
        <ele>16.199392888695</ele>
        <time>2026-05-22T11:55:53Z</time>
      </trkpt>
      <trkpt lat="31.229975394747196" lon="121.40035290715613">
        <ele>15.729067418724298</ele>
        <time>2026-05-22T11:55:59Z</time>
      </trkpt>
      <trkpt lat="31.230110335476233" lon="121.4003818998862">
        <ele>15.958944890648127</ele>
        <time>2026-05-22T11:56:05Z</time>
      </trkpt>
      <trkpt lat="31.230222282696577" lon="121.40037488903104">
        <ele>12.603258702903986</ele>
        <time>2026-05-22T11:56:11Z</time>
      </trkpt>
      <trkpt lat="31.230383203617627" lon="121.4003368691202">
        <ele>16.5640283562243</ele>
        <time>2026-05-22T11:56:20Z</time>
      </trkpt>
      <trkpt lat="31.230534126553977" lon="121.40027484653443">
        <ele>15.810980413109064</ele>
        <time>2026-05-22T11:56:26Z</time>
      </trkpt>
      <trkpt lat="31.230651070303676" lon="121.40025683363635">
        <ele>15.361792180687189</ele>
        <time>2026-05-22T11:56:29Z</time>
      </trkpt>
      <trkpt lat="31.230903938944795" lon="121.4001267926043">
        <ele>16.963011357933283</ele>
        <time>2026-05-22T11:56:38Z</time>
      </trkpt>
      <trkpt lat="31.231071854245016" lon="121.40006076866388">
        <ele>15.958944890648127</ele>
        <time>2026-05-22T11:56:44Z</time>
      </trkpt>
      <trkpt lat="31.23117979211624" lon="121.39993974280532">
        <ele>16.41870364919305</ele>
        <time>2026-05-22T11:56:50Z</time>
      </trkpt>
      <trkpt lat="31.23122176473348" lon="121.39985672830963">
        <ele>10.772162053734064</ele>
        <time>2026-05-22T11:56:53Z</time>
      </trkpt>
      <trkpt lat="31.231228746448195" lon="121.39968970699738">
        <ele>15.131914708763361</ele>
        <time>2026-05-22T11:56:59Z</time>
      </trkpt>
      <trkpt lat="31.23119075166121" lon="121.39954069307554">
        <ele>16.450407598167658</ele>
        <time>2026-05-22T11:57:05Z</time>
      </trkpt>
      <trkpt lat="31.23109978342962" lon="121.39940568639969">
        <ele>16.032930944114923</ele>
        <time>2026-05-22T11:57:11Z</time>
      </trkpt>
      <trkpt lat="31.23099682515791" lon="121.39932268687204">
        <ele>16.104273412376642</ele>
        <time>2026-05-22T11:57:18Z</time>
      </trkpt>
      <trkpt lat="31.23075093594896" lon="121.39927670376062">
        <ele>14.954882238060236</ele>
        <time>2026-05-22T11:57:30Z</time>
      </trkpt>
      <trkpt lat="31.230477069556112" lon="121.39937073708637">
        <ele>14.902037236839533</ele>
        <time>2026-05-22T11:57:42Z</time>
      </trkpt>
      <trkpt lat="31.23019120850274" lon="121.39945577095342">
        <ele>14.923174474388361</ele>
        <time>2026-05-22T11:57:54Z</time>
      </trkpt>
      <trkpt lat="31.229906348500243" lon="121.39955480668169">
        <ele>16.26280841603875</ele>
        <time>2026-05-22T11:58:06Z</time>
      </trkpt>
      <trkpt lat="31.229843382069262" lon="121.39960781821041">
        <ele>16.241671178489923</ele>
        <time>2026-05-22T11:58:09Z</time>
      </trkpt>
      <trkpt lat="31.229749438981166" lon="121.39976184478083">
        <ele>16.20996341481805</ele>
        <time>2026-05-22T11:58:15Z</time>
      </trkpt>
      <trkpt lat="31.22972047075651" lon="121.39995687236251">
        <ele>15.227037999778986</ele>
        <time>2026-05-22T11:58:21Z</time>
      </trkpt>
      <trkpt lat="31.2297494752632" lon="121.40013289416133">
        <ele>15.079069707542658</ele>
        <time>2026-05-22T11:58:27Z</time>
      </trkpt>
      <trkpt lat="31.22978946389381" lon="121.40019990036265">
        <ele>15.810980413109064</ele>
        <time>2026-05-22T11:58:30Z</time>
      </trkpt>
      <trkpt lat="31.22990142324732" lon="121.40030190580109">
        <ele>16.051424596458673</ele>
        <time>2026-05-22T11:58:36Z</time>
      </trkpt>
      <trkpt lat="31.230106336280468" lon="121.4003728988336">
        <ele>15.456915471702814</ele>
        <time>2026-05-22T11:58:45Z</time>
      </trkpt>
      <trkpt lat="31.23021828431873" lon="121.40037288906873">
        <ele>15.70793018117547</ele>
        <time>2026-05-22T11:58:48Z</time>
      </trkpt>
      <trkpt lat="31.23048015282821" lon="121.40028585289917">
        <ele>15.77134570851922</ele>
        <time>2026-05-22T11:58:57Z</time>
      </trkpt>
      <trkpt lat="31.230774004952906" lon="121.40018081171219">
        <ele>15.655085179954767</ele>
        <time>2026-05-22T11:59:10Z</time>
      </trkpt>
      <trkpt lat="31.231042867984538" lon="121.40006377160978">
        <ele>16.231100652366877</ele>
        <time>2026-05-22T11:59:25Z</time>
      </trkpt>
      <trkpt lat="31.231183781765605" lon="121.39985073085369">
        <ele>15.216467473655939</ele>
        <time>2026-05-22T11:59:31Z</time>
      </trkpt>
      <trkpt lat="31.231209762567737" lon="121.39977271875996">
        <ele>15.895533178001642</ele>
        <time>2026-05-22T11:59:34Z</time>
      </trkpt>
      <trkpt lat="31.23120975014122" lon="121.3996297015736">
        <ele>15.509760472923517</ele>
        <time>2026-05-22T11:59:40Z</time>
      </trkpt>
      <trkpt lat="31.23118275552501" lon="121.3995426939967">
        <ele>16.482115361839533</ele>
        <time>2026-05-22T11:59:43Z</time>
      </trkpt>
      <trkpt lat="31.2310647969372" lon="121.39936868561392">
        <ele>15.478052709251642</ele>
        <time>2026-05-22T11:59:49Z</time>
      </trkpt>
      <trkpt lat="31.230904865621373" lon="121.39929169180829">
        <ele>15.184759709984064</ele>
        <time>2026-05-22T11:59:55Z</time>
      </trkpt>
      <trkpt lat="31.23077592608087" lon="121.39930170404534">
        <ele>17.285368535667658</ele>
        <time>2026-05-22T12:00:01Z</time>
      </trkpt>
      <trkpt lat="31.230711954980688" lon="121.39929070853702">
        <ele>15.446344945579767</ele>
        <time>2026-05-22T12:00:04Z</time>
      </trkpt>
      <trkpt lat="31.23043309258861" lon="121.39940674465916">
        <ele>15.258745763450861</ele>
        <time>2026-05-22T12:00:19Z</time>
      </trkpt>
      <trkpt lat="31.230318147630566" lon="121.39942975710849">
        <ele>14.777849767357111</ele>
        <time>2026-05-22T12:00:25Z</time>
      </trkpt>
      <trkpt lat="31.230200206011038" lon="121.39947777254216">
        <ele>14.796347234398127</ele>
        <time>2026-05-22T12:00:31Z</time>
      </trkpt>
      <trkpt lat="31.23015223108073" lon="121.39951378066561">
        <ele>16.994719121605158</ele>
        <time>2026-05-22T12:00:34Z</time>
      </trkpt>
      <trkpt lat="31.229954327189077" lon="121.39956680385052">
        <ele>15.77134570851922</ele>
        <time>2026-05-22T12:00:43Z</time>
      </trkpt>
      <trkpt lat="31.229787414830206" lon="121.3996878324829">
        <ele>15.958944890648127</ele>
        <time>2026-05-22T12:00:52Z</time>
      </trkpt>
      <trkpt lat="31.229721455327095" lon="121.39979885182223">
        <ele>15.142485234886408</ele>
        <time>2026-05-22T12:00:55Z</time>
      </trkpt>
      <trkpt lat="31.22974946991405" lon="121.40008188694446">
        <ele>16.994719121605158</ele>
        <time>2026-05-22T12:01:01Z</time>
      </trkpt>
      <trkpt lat="31.22977546628436" lon="121.40016189605919">
        <ele>15.298376653343439</ele>
        <time>2026-05-22T12:01:04Z</time>
      </trkpt>
      <trkpt lat="31.229835446490085" lon="121.4002359016555">
        <ele>14.693297002464533</ele>
        <time>2026-05-22T12:01:07Z</time>
      </trkpt>
    </trkseg>
  </trk>
</gpx>