<?xml version="1.0" encoding="UTF-8"?>
<gpx xmlns="http://www.topografix.com/GPX/1/1" xmlns:gpxtpx="http://www.garmin.com/xmlschemas/TrackPointExtension/v1" xmlns:xsi="http://www.w3.org/2001/XMLSchema-instance" xsi:schemaLocation="http://www.topografix.com/GPX/1/1 http://www.topografix.com/GPX/1/1/gpx.xsd" version="1.1" creator="gpx.py -- https://github.com/tkrajina/gpxpy">
  <trk>
    <name>gpx from keep</name>
    <type>Run</type>
    <trkseg>
      <trkpt lat="31.22994342175927" lon="121.40045592612988">
        <ele>19.834476156160235</ele>
        <time>2026-06-07T11:02:38Z</time>
      </trkpt>
      <trkpt lat="31.23001238578844" lon="121.4004229148682">
        <ele>20.043216390535235</ele>
        <time>2026-06-07T11:02:50Z</time>
      </trkpt>
      <trkpt lat="31.23002836922571" lon="121.40034490130164">
        <ele>11.14668051712215</ele>
        <time>2026-06-07T11:02:53Z</time>
      </trkpt>
      <trkpt lat="31.230075340007204" lon="121.40027988730537">
        <ele>25.92755858413875</ele>
        <time>2026-06-07T11:02:56Z</time>
      </trkpt>
      <trkpt lat="31.230378200577416" lon="121.40028986239625">
        <ele>23.459674520418048</ele>
        <time>2026-06-07T11:03:05Z</time>
      </trkpt>
      <trkpt lat="31.23048615265242" lon="121.40030885586047">
        <ele>22.740977926179767</ele>
        <time>2026-06-07T11:03:08Z</time>
      </trkpt>
      <trkpt lat="31.230594099076296" lon="121.40027784175435">
        <ele>22.582442922517657</ele>
        <time>2026-06-07T11:03:11Z</time>
      </trkpt>
      <trkpt lat="31.230969905740945" lon="121.40010178330294">
        <ele>20.973296804353595</ele>
        <time>2026-06-07T11:03:21Z</time>
      </trkpt>
      <trkpt lat="31.231096838994404" lon="121.40002476151189">
        <ele>24.98691145889461</ele>
        <time>2026-06-07T11:03:24Z</time>
      </trkpt>
      <trkpt lat="31.23117779148858" lon="121.39992374086312">
        <ele>-17.72280533798039</ele>
        <time>2026-06-07T11:03:27Z</time>
      </trkpt>
      <trkpt lat="31.231212757611615" lon="121.39973271358289">
        <ele>23.07390563003719</ele>
        <time>2026-06-07T11:03:30Z</time>
      </trkpt>
      <trkpt lat="31.23119575479179" lon="121.39960770024545">
        <ele>19.554397268220782</ele>
        <time>2026-06-07T11:03:33Z</time>
      </trkpt>
      <trkpt lat="31.23110078460138" lon="121.39942768862824">
        <ele>21.203174276277423</ele>
        <time>2026-06-07T11:03:39Z</time>
      </trkpt>
      <trkpt lat="31.231016817804658" lon="121.39934968785633">
        <ele>11.336923284456134</ele>
        <time>2026-06-07T11:03:42Z</time>
      </trkpt>
      <trkpt lat="31.230954844052736" lon="121.39931468973299">
        <ele>1.5605103205889463</ele>
        <time>2026-06-07T11:03:45Z</time>
      </trkpt>
      <trkpt lat="31.23077692335704" lon="121.39926870071203">
        <ele>24.099105520173907</ele>
        <time>2026-06-07T11:03:48Z</time>
      </trkpt>
      <trkpt lat="31.230590013190277" lon="121.3993147215568">
        <ele>19.554397268220782</ele>
        <time>2026-06-07T11:03:54Z</time>
      </trkpt>
      <trkpt lat="31.23045308368473" lon="121.39941174343974">
        <ele>19.53325621597469</ele>
        <time>2026-06-07T11:04:00Z</time>
      </trkpt>
      <trkpt lat="31.230231192790423" lon="121.39949277147215">
        <ele>21.684070272371173</ele>
        <time>2026-06-07T11:04:09Z</time>
      </trkpt>
      <trkpt lat="31.230039284935124" lon="121.3995317925124">
        <ele>22.822887105867267</ele>
        <time>2026-06-07T11:04:18Z</time>
      </trkpt>
      <trkpt lat="31.22991734689319" lon="121.39959781060853">
        <ele>22.061912221834064</ele>
        <time>2026-06-07T11:04:24Z</time>
      </trkpt>
      <trkpt lat="31.22982240066488" lon="121.39971183231394">
        <ele>17.892406148836017</ele>
        <time>2026-06-07T11:04:30Z</time>
      </trkpt>
      <trkpt lat="31.22973945640786" lon="121.39989986317617">
        <ele>22.36313216201961</ele>
        <time>2026-06-07T11:04:36Z</time>
      </trkpt>
      <trkpt lat="31.22976646202079" lon="121.40008188546231">
        <ele>24.05683104507625</ele>
        <time>2026-06-07T11:04:42Z</time>
      </trkpt>
      <trkpt lat="31.22987443612124" lon="121.40030490861052">
        <ele>20.325938863679767</ele>
        <time>2026-06-07T11:04:51Z</time>
      </trkpt>
      <trkpt lat="31.23010734004499" lon="121.40040890437733">
        <ele>17.641387624666095</ele>
        <time>2026-06-07T11:05:00Z</time>
      </trkpt>
      <trkpt lat="31.230417185102123" lon="121.40031286248522">
        <ele>-1.4331858921796083</ele>
        <time>2026-06-07T11:05:15Z</time>
      </trkpt>
      <trkpt lat="31.230740022444653" lon="121.40019681700926">
        <ele>18.7907787989825</ele>
        <time>2026-06-07T11:05:31Z</time>
      </trkpt>
      <trkpt lat="31.231024878285478" lon="121.4000827758339">
        <ele>12.890582723543048</ele>
        <time>2026-06-07T11:05:46Z</time>
      </trkpt>
      <trkpt lat="31.231132817813137" lon="121.39997975225353">
        <ele>-0.888878183439374</ele>
        <time>2026-06-07T11:05:49Z</time>
      </trkpt>
      <trkpt lat="31.23117978863636" lon="121.39990373806192">
        <ele>15.625335378572345</ele>
        <time>2026-06-07T11:05:52Z</time>
      </trkpt>
      <trkpt lat="31.231231750946723" lon="121.3997567148655">
        <ele>21.94565169326961</ele>
        <time>2026-06-07T11:05:55Z</time>
      </trkpt>
      <trkpt lat="31.231231743511426" lon="121.39967170459185">
        <ele>21.538741750642657</ele>
        <time>2026-06-07T11:05:58Z</time>
      </trkpt>
      <trkpt lat="31.231193748922042" lon="121.39952369092158">
        <ele>25.959266347810626</ele>
        <time>2026-06-07T11:06:01Z</time>
      </trkpt>
      <trkpt lat="31.23112977094787" lon="121.39942468578246">
        <ele>24.71475569717586</ele>
        <time>2026-06-07T11:06:04Z</time>
      </trkpt>
      <trkpt lat="31.23101981471551" lon="121.39932568516791">
        <ele>15.992610616609454</ele>
        <time>2026-06-07T11:06:10Z</time>
      </trkpt>
      <trkpt lat="31.230895867679738" lon="121.39926068955822">
        <ele>21.58102004043758</ele>
        <time>2026-06-07T11:06:16Z</time>
      </trkpt>
      <trkpt lat="31.230720948632623" lon="121.39925870462217">
        <ele>22.101546926423907</ele>
        <time>2026-06-07T11:06:22Z</time>
      </trkpt>
      <trkpt lat="31.230654980236327" lon="121.39927371183718">
        <ele>24.902358694002032</ele>
        <time>2026-06-07T11:06:25Z</time>
      </trkpt>
      <trkpt lat="31.230462076366617" lon="121.3993687381886">
        <ele>-5.298832254484296</ele>
        <time>2026-06-07T11:06:34Z</time>
      </trkpt>
      <trkpt lat="31.23020719785148" lon="121.3994127649928">
        <ele>13.73611037246883</ele>
        <time>2026-06-07T11:06:46Z</time>
      </trkpt>
      <trkpt lat="31.229955324635274" lon="121.39954080083976">
        <ele>-24.62442429549992</ele>
        <time>2026-06-07T11:06:55Z</time>
      </trkpt>
      <trkpt lat="31.22988536232424" lon="121.39960481420303">
        <ele>26.072887105867267</ele>
        <time>2026-06-07T11:06:58Z</time>
      </trkpt>
      <trkpt lat="31.229807408241378" lon="121.39971883446815">
        <ele>24.244430227205157</ele>
        <time>2026-06-07T11:07:01Z</time>
      </trkpt>
      <trkpt lat="31.229755448500864" lon="121.39989486112884">
        <ele>13.841800374910235</ele>
        <time>2026-06-07T11:07:07Z</time>
      </trkpt>
      <trkpt lat="31.22979846113589" lon="121.40021290148523">
        <ele>16.16964308731258</ele>
        <time>2026-06-07T11:07:19Z</time>
      </trkpt>
      <trkpt lat="31.229919419814188" lon="121.40034491080488">
        <ele>24.05683104507625</ele>
        <time>2026-06-07T11:07:25Z</time>
      </trkpt>
      <trkpt lat="31.230061358916036" lon="121.4003879050949">
        <ele>20.85967986099422</ele>
        <time>2026-06-07T11:07:31Z</time>
      </trkpt>
      <trkpt lat="31.23039819118967" lon="121.40028886050143">
        <ele>20.52410857193172</ele>
        <time>2026-06-07T11:07:56Z</time>
      </trkpt>
      <trkpt lat="31.23075001813725" lon="121.40019981657625">
        <ele>23.22979704849422</ele>
        <time>2026-06-07T11:08:14Z</time>
      </trkpt>
      <trkpt lat="31.230902941852015" lon="121.40014979598364">
        <ele>20.347076101228595</ele>
        <time>2026-06-07T11:08:23Z</time>
      </trkpt>
      <trkpt lat="31.230963909148876" lon="121.40010778467433">
        <ele>20.73284880630672</ele>
        <time>2026-06-07T11:08:26Z</time>
      </trkpt>
      <trkpt lat="31.231062859546864" lon="121.40007177098146">
        <ele>18.465778036043048</ele>
        <time>2026-06-07T11:08:32Z</time>
      </trkpt>
      <trkpt lat="31.23114881100042" lon="121.39998575166828">
        <ele>20.201751394197345</ele>
        <time>2026-06-07T11:08:41Z</time>
      </trkpt>
      <trkpt lat="31.231215767792946" lon="121.39985972921804">
        <ele>25.446666402742267</ele>
        <time>2026-06-07T11:08:47Z</time>
      </trkpt>
      <trkpt lat="31.231227754865518" lon="121.39977971805938">
        <ele>28.152354879304767</ele>
        <time>2026-06-07T11:08:50Z</time>
      </trkpt>
      <trkpt lat="31.231205750079027" lon="121.3996066992583">
        <ele>26.072887105867267</ele>
        <time>2026-06-07T11:08:53Z</time>
      </trkpt>
      <trkpt lat="31.231091785812716" lon="121.3993876852214">
        <ele>11.690988225862384</ele>
        <time>2026-06-07T11:08:59Z</time>
      </trkpt>
      <trkpt lat="31.231003821705354" lon="121.39931968596095">
        <ele>21.684070272371173</ele>
        <time>2026-06-07T11:09:02Z</time>
      </trkpt>
      <trkpt lat="31.23089286981382" lon="121.39927169089088">
        <ele>25.906421346589923</ele>
        <time>2026-06-07T11:09:05Z</time>
      </trkpt>
      <trkpt lat="31.23079091559009" lon="121.39924969764829">
        <ele>18.23590056411922</ele>
        <time>2026-06-07T11:09:08Z</time>
      </trkpt>
      <trkpt lat="31.230709953797838" lon="121.39925970567823">
        <ele>24.955203695222735</ele>
        <time>2026-06-07T11:09:11Z</time>
      </trkpt>
      <trkpt lat="31.230445085118628" lon="121.39938074090749">
        <ele>25.591991109773517</ele>
        <time>2026-06-07T11:09:23Z</time>
      </trkpt>
      <trkpt lat="31.23026817225264" lon="121.3994487634902">
        <ele>22.03020445816219</ele>
        <time>2026-06-07T11:09:29Z</time>
      </trkpt>
      <trkpt lat="31.230006299220967" lon="121.3995187939472">
        <ele>24.046260518953204</ele>
        <time>2026-06-07T11:09:41Z</time>
      </trkpt>
      <trkpt lat="31.229890359425966" lon="121.39959781296254">
        <ele>25.08995787613094</ele>
        <time>2026-06-07T11:09:47Z</time>
      </trkpt>
      <trkpt lat="31.229810409409765" lon="121.39974783774063">
        <ele>25.029185933992267</ele>
        <time>2026-06-07T11:09:53Z</time>
      </trkpt>
      <trkpt lat="31.229772443008255" lon="121.39991986292168">
        <ele>23.84809081070125</ele>
        <time>2026-06-07T11:09:59Z</time>
      </trkpt>
      <trkpt lat="31.229777455259125" lon="121.40006588226736">
        <ele>25.49951140396297</ele>
        <time>2026-06-07T11:10:05Z</time>
      </trkpt>
      <trkpt lat="31.229837444017793" lon="121.40022189941061">
        <ele>21.182037038728595</ele>
        <time>2026-06-07T11:10:11Z</time>
      </trkpt>
      <trkpt lat="31.229946410064905" lon="121.40036891216188">
        <ele>25.718822164461017</ele>
        <time>2026-06-07T11:10:17Z</time>
      </trkpt>
      <trkpt lat="31.23012133425951" lon="121.40041490410184">
        <ele>16.74301497451961</ele>
        <time>2026-06-07T11:10:23Z</time>
      </trkpt>
      <trkpt lat="31.230363213007777" lon="121.40033787101753">
        <ele>16.201350850984454</ele>
        <time>2026-06-07T11:10:29Z</time>
      </trkpt>
      <trkpt lat="31.230562110557067" lon="121.4002478400539">
        <ele>25.520648641511798</ele>
        <time>2026-06-07T11:10:35Z</time>
      </trkpt>
      <trkpt lat="31.230832976642983" lon="121.40017180526186">
        <ele>8.174121541902423</ele>
        <time>2026-06-07T11:10:47Z</time>
      </trkpt>
      <trkpt lat="31.231007889083088" lon="121.40011078126287">
        <ele>20.273093862459064</ele>
        <time>2026-06-07T11:10:59Z</time>
      </trkpt>
      <trkpt lat="31.231094842158324" lon="121.40004676471678">
        <ele>20.336509389802814</ele>
        <time>2026-06-07T11:11:05Z</time>
      </trkpt>
      <trkpt lat="31.231196769851977" lon="121.39978672163369">
        <ele>20.764556569978595</ele>
        <time>2026-06-07T11:11:20Z</time>
      </trkpt>
      <trkpt lat="31.231205751909492" lon="121.39962870180597">
        <ele>20.73284880630672</ele>
        <time>2026-06-07T11:11:29Z</time>
      </trkpt>
      <trkpt lat="31.231125773774526" lon="121.39943768750949">
        <ele>19.99301497451961</ele>
        <time>2026-06-07T11:11:38Z</time>
      </trkpt>
      <trkpt lat="31.231087787884412" lon="121.39939068588163">
        <ele>19.731429738923907</ele>
        <time>2026-06-07T11:11:41Z</time>
      </trkpt>
      <trkpt lat="31.230923857509463" lon="121.3993016911414">
        <ele>24.170447988435626</ele>
        <time>2026-06-07T11:11:50Z</time>
      </trkpt>
      <trkpt lat="31.23077792364179" lon="121.39927970170054">
        <ele>3.4365250300616026</ele>
        <time>2026-06-07T11:11:56Z</time>
      </trkpt>
      <trkpt lat="31.230474072474678" lon="121.39939173951933">
        <ele>24.820445699617267</ele>
        <time>2026-06-07T11:12:11Z</time>
      </trkpt>
      <trkpt lat="31.230263176248588" lon="121.39947076629146">
        <ele>24.34748045913875</ele>
        <time>2026-06-07T11:12:20Z</time>
      </trkpt>
      <trkpt lat="31.230128240885996" lon="121.39949678088978">
        <ele>8.861112279817462</ele>
        <time>2026-06-07T11:12:23Z</time>
      </trkpt>
      <trkpt lat="31.22992734126694" lon="121.39958580836341">
        <ele>23.763538045808673</ele>
        <time>2026-06-07T11:12:29Z</time>
      </trkpt>
      <trkpt lat="31.229834390695903" lon="121.39966082517849">
        <ele>22.84402815811336</ele>
        <time>2026-06-07T11:12:32Z</time>
      </trkpt>
      <trkpt lat="31.22978742053337" lon="121.39975284035967">
        <ele>23.951141042634845</ele>
        <time>2026-06-07T11:12:35Z</time>
      </trkpt>
      <trkpt lat="31.229764449933782" lon="121.3999528679924">
        <ele>19.041793508455157</ele>
        <time>2026-06-07T11:12:42Z</time>
      </trkpt>
      <trkpt lat="31.22978545216389" lon="121.40007188240678">
        <ele>22.677562398836017</ele>
        <time>2026-06-07T11:12:45Z</time>
      </trkpt>
      <trkpt lat="31.229862433955947" lon="121.40023589930149">
        <ele>26.952762288972735</ele>
        <time>2026-06-07T11:12:51Z</time>
      </trkpt>
      <trkpt lat="31.229972395908085" lon="121.40035090710896">
        <ele>20.888744039461017</ele>
        <time>2026-06-07T11:12:54Z</time>
      </trkpt>
      <trkpt lat="31.230186301388336" lon="121.40039189482208">
        <ele>21.913947744295</ele>
        <time>2026-06-07T11:13:03Z</time>
      </trkpt>
      <trkpt lat="31.230475154133103" lon="121.40027685197921">
        <ele>24.05683104507625</ele>
        <time>2026-06-07T11:13:15Z</time>
      </trkpt>
      <trkpt lat="31.23066506148274" lon="121.40023582929061">
        <ele>19.480411214753985</ele>
        <time>2026-06-07T11:13:21Z</time>
      </trkpt>
      <trkpt lat="31.230950916222064" lon="121.40011778722577">
        <ele>22.15439192764461</ele>
        <time>2026-06-07T11:13:30Z</time>
      </trkpt>
      <trkpt lat="31.23103087623419" lon="121.40008977629358">
        <ele>17.025741262361407</ele>
        <time>2026-06-07T11:13:33Z</time>
      </trkpt>
      <trkpt lat="31.23110083835994" lon="121.40003676281297">
        <ele>21.330005330964923</ele>
        <time>2026-06-07T11:13:36Z</time>
      </trkpt>
      <trkpt lat="31.231180791848224" lon="121.39994174298366">
        <ele>22.582442922517657</ele>
        <time>2026-06-07T11:13:39Z</time>
      </trkpt>
      <trkpt lat="31.231233756661716" lon="121.3998297238171">
        <ele>25.34097640030086</ele>
        <time>2026-06-07T11:13:42Z</time>
      </trkpt>
      <trkpt lat="31.231241742078957" lon="121.3997087081454">
        <ele>25.47837416641414</ele>
        <time>2026-06-07T11:13:45Z</time>
      </trkpt>
      <trkpt lat="31.231214744840518" lon="121.3995936969801">
        <ele>25.21678893081844</ele>
        <time>2026-06-07T11:13:48Z</time>
      </trkpt>
      <trkpt lat="31.231163760539037" lon="121.39949469034406">
        <ele>22.00906722061336</ele>
        <time>2026-06-07T11:13:51Z</time>
      </trkpt>
      <trkpt lat="31.231024813743144" lon="121.39934468665075">
        <ele>23.951141042634845</ele>
        <time>2026-06-07T11:13:57Z</time>
      </trkpt>
      <trkpt lat="31.23094284863861" lon="121.39930068938561">
        <ele>19.113135976716876</ele>
        <time>2026-06-07T11:14:00Z</time>
      </trkpt>
      <trkpt lat="31.230740941541153" lon="121.39929070600856">
        <ele>22.73040740005672</ele>
        <time>2026-06-07T11:14:10Z</time>
      </trkpt>
      <trkpt lat="31.230546037493596" lon="121.3993697309676">
        <ele>22.061912221834064</ele>
        <time>2026-06-07T11:14:19Z</time>
      </trkpt>
      <trkpt lat="31.2304290966794" lon="121.39943674817358">
        <ele>15.59362761490047</ele>
        <time>2026-06-07T11:14:25Z</time>
      </trkpt>
      <trkpt lat="31.23016822139674" lon="121.39948477609262">
        <ele>23.409473104402423</ele>
        <time>2026-06-07T11:14:37Z</time>
      </trkpt>
      <trkpt lat="31.23000330211886" lon="121.39953779631979">
        <ele>23.586505575105548</ele>
        <time>2026-06-07T11:14:46Z</time>
      </trkpt>
      <trkpt lat="31.22990435400129" lon="121.39961081323817">
        <ele>22.14382521621883</ele>
        <time>2026-06-07T11:14:52Z</time>
      </trkpt>
      <trkpt lat="31.22980341194937" lon="121.39973983737161">
        <ele>23.890365285798907</ele>
        <time>2026-06-07T11:14:58Z</time>
      </trkpt>
      <trkpt lat="31.229772433480015" lon="121.39981884989233">
        <ele>26.42959181778133</ele>
        <time>2026-06-07T11:15:01Z</time>
      </trkpt>
      <trkpt lat="31.229761458095727" lon="121.40002087744585">
        <ele>24.099105520173907</ele>
        <time>2026-06-07T11:15:07Z</time>
      </trkpt>
      <trkpt lat="31.229775457531048" lon="121.4000788842574">
        <ele>23.597076101228595</ele>
        <time>2026-06-07T11:15:10Z</time>
      </trkpt>
      <trkpt lat="31.22989242572731" lon="121.40028690431568">
        <ele>27.42044417373836</ele>
        <time>2026-06-07T11:15:16Z</time>
      </trkpt>
      <trkpt lat="31.229988392441253" lon="121.40038491099092">
        <ele>26.04117934219539</ele>
        <time>2026-06-07T11:15:19Z</time>
      </trkpt>
      <trkpt lat="31.230084352020608" lon="121.40041990811676">
        <ele>26.13629881851375</ele>
        <time>2026-06-07T11:15:22Z</time>
      </trkpt>
      <trkpt lat="31.23022628330253" lon="121.40039589196091">
        <ele>25.28020445816219</ele>
        <time>2026-06-07T11:15:28Z</time>
      </trkpt>
      <trkpt lat="31.230494144201916" lon="121.4002668488211">
        <ele>20.053786916658282</ele>
        <time>2026-06-07T11:15:37Z</time>
      </trkpt>
      <trkpt lat="31.230769009005833" lon="121.4001968144808">
        <ele>22.957645101472735</ele>
        <time>2026-06-07T11:15:49Z</time>
      </trkpt>
      <trkpt lat="31.230818982699162" lon="121.40016780590334">
        <ele>23.367198629304767</ele>
        <time>2026-06-07T11:15:52Z</time>
      </trkpt>
      <trkpt lat="31.231017884766676" lon="121.40011378081627">
        <ele>19.23996321670711</ele>
        <time>2026-06-07T11:15:58Z</time>
      </trkpt>
      <trkpt lat="31.23112382811642" lon="121.40004076135925">
        <ele>19.113135976716876</ele>
        <time>2026-06-07T11:16:04Z</time>
      </trkpt>
      <trkpt lat="31.231250751213572" lon="121.39985572565278">
        <ele>-2.8811515141278505</ele>
        <time>2026-06-07T11:16:13Z</time>
      </trkpt>
      <trkpt lat="31.231262739477" lon="121.3997887161286">
        <ele>19.99301497451961</ele>
        <time>2026-06-07T11:16:16Z</time>
      </trkpt>
      <trkpt lat="31.231192752743908" lon="121.39956569571163">
        <ele>25.85357634536922</ele>
        <time>2026-06-07T11:16:25Z</time>
      </trkpt>
      <trkpt lat="31.231097787798543" lon="121.39945169144501">
        <ele>20.952159566804767</ele>
        <time>2026-06-07T11:16:31Z</time>
      </trkpt>
      <trkpt lat="31.230953846487743" lon="121.3993426926383">
        <ele>23.628780050203204</ele>
        <time>2026-06-07T11:16:40Z</time>
      </trkpt>
      <trkpt lat="31.23081790497067" lon="121.39927769801695">
        <ele>-16.72402604110539</ele>
        <time>2026-06-07T11:16:46Z</time>
      </trkpt>
      <trkpt lat="31.230711954227207" lon="121.39927970745498">
        <ele>24.381831808015704</ele>
        <time>2026-06-07T11:16:52Z</time>
      </trkpt>
      <trkpt lat="31.230596013164867" lon="121.39935372497017">
        <ele>22.061912221834064</ele>
        <time>2026-06-07T11:16:58Z</time>
      </trkpt>
      <trkpt lat="31.230302156633897" lon="121.39945076073981">
        <ele>16.37838332168758</ele>
        <time>2026-06-07T11:17:10Z</time>
      </trkpt>
      <trkpt lat="31.23002629264504" lon="121.3995527959945">
        <ele>25.40439192764461</ele>
        <time>2026-06-07T11:17:22Z</time>
      </trkpt>
      <trkpt lat="31.229861373217464" lon="121.39960181595035">
        <ele>22.175532979890704</ele>
        <time>2026-06-07T11:17:28Z</time>
      </trkpt>
      <trkpt lat="31.229830397125717" lon="121.39971383185802">
        <ele>21.882239980623126</ele>
        <time>2026-06-07T11:17:34Z</time>
      </trkpt>
      <trkpt lat="31.22979641841771" lon="121.39977584241528">
        <ele>18.15399138443172</ele>
        <time>2026-06-07T11:17:37Z</time>
      </trkpt>
      <trkpt lat="31.22977743487807" lon="121.39985885455246">
        <ele>23.43061034195125</ele>
        <time>2026-06-07T11:17:40Z</time>
      </trkpt>
      <trkpt lat="31.22978844891861" lon="121.4000538796402">
        <ele>21.411914510652423</ele>
        <time>2026-06-07T11:17:46Z</time>
      </trkpt>
      <trkpt lat="31.22988842500037" lon="121.40026390120663">
        <ele>5.814571065828204</ele>
        <time>2026-06-07T11:17:55Z</time>
      </trkpt>
      <trkpt lat="31.230034368874893" lon="121.40036590402401">
        <ele>22.051345510408282</ele>
        <time>2026-06-07T11:18:01Z</time>
      </trkpt>
      <trkpt lat="31.23015931379709" lon="121.40039089701966">
        <ele>25.885284109041095</ele>
        <time>2026-06-07T11:18:08Z</time>
      </trkpt>
      <trkpt lat="31.230467157505412" lon="121.40027385222571">
        <ele>26.85763899795711</ele>
        <time>2026-06-07T11:18:23Z</time>
      </trkpt>
      <trkpt lat="31.23080199338795" lon="121.40019381116518">
        <ele>23.628780050203204</ele>
        <time>2026-06-07T11:18:35Z</time>
      </trkpt>
      <trkpt lat="31.23107884875182" lon="121.40003876500687">
        <ele>22.833457631990314</ele>
        <time>2026-06-07T11:18:47Z</time>
      </trkpt>
      <trkpt lat="31.231193781579748" lon="121.39989773605733">
        <ele>23.80581252090633</ele>
        <time>2026-06-07T11:18:53Z</time>
      </trkpt>
      <trkpt lat="31.2312287495869" lon="121.39972571133627">
        <ele>26.836501760408282</ele>
        <time>2026-06-07T11:18:59Z</time>
      </trkpt>
      <trkpt lat="31.231228741260782" lon="121.39962869980059">
        <ele>-22.906944589689374</ele>
        <time>2026-06-07T11:19:02Z</time>
      </trkpt>
      <trkpt lat="31.231164759223308" lon="121.39948368905719">
        <ele>15.805007619783282</ele>
        <time>2026-06-07T11:19:08Z</time>
      </trkpt>
      <trkpt lat="31.23097383525162" lon="121.3993146880764">
        <ele>25.237926168367267</ele>
        <time>2026-06-07T11:19:17Z</time>
      </trkpt>
      <trkpt lat="31.230848890199074" lon="121.39927169472719">
        <ele>25.13223616592586</ele>
        <time>2026-06-07T11:19:23Z</time>
      </trkpt>
      <trkpt lat="31.23073194509508" lon="121.39928170590747">
        <ele>23.890365285798907</ele>
        <time>2026-06-07T11:19:29Z</time>
      </trkpt>
      <trkpt lat="31.230457080137622" lon="121.3993887406899">
        <ele>26.596053762361407</ele>
        <time>2026-06-07T11:19:44Z</time>
      </trkpt>
      <trkpt lat="31.23017821575599" lon="121.39947177381045">
        <ele>25.665973348543048</ele>
        <time>2026-06-07T11:19:56Z</time>
      </trkpt>
      <trkpt lat="31.230017792222238" lon="121.39950608481432">
        <ele>24.191585225984454</ele>
        <time>2026-06-07T11:20:02Z</time>
      </trkpt>
      <trkpt lat="31.22994632849365" lon="121.39953680117782">
        <ele>24.4108959864825</ele>
        <time>2026-06-07T11:20:08Z</time>
      </trkpt>
      <trkpt lat="31.229854380139656" lon="121.39964582166981">
        <ele>-9.330940561369061</ele>
        <time>2026-06-07T11:20:14Z</time>
      </trkpt>
      <trkpt lat="31.229768434510078" lon="121.39980984910602">
        <ele>23.07390563003719</ele>
        <time>2026-06-07T11:20:20Z</time>
      </trkpt>
      <trkpt lat="31.22975345513924" lon="121.39995386908484">
        <ele>23.56536833755672</ele>
        <time>2026-06-07T11:20:27Z</time>
      </trkpt>
      <trkpt lat="31.22978745666746" lon="121.4001238895648">
        <ele>19.282241506502032</ele>
        <time>2026-06-07T11:20:33Z</time>
      </trkpt>
      <trkpt lat="31.22993641250118" lon="121.40034991009335">
        <ele>25.83243910782039</ele>
        <time>2026-06-07T11:20:42Z</time>
      </trkpt>
      <trkpt lat="31.23007835291046" lon="121.40040390611958">
        <ele>17.913543386384845</ele>
        <time>2026-06-07T11:20:48Z</time>
      </trkpt>
      <trkpt lat="31.23036920827481" lon="121.40032086789036">
        <ele>20.817401571199298</ele>
        <time>2026-06-07T11:21:09Z</time>
      </trkpt>
      <trkpt lat="31.230428175701444" lon="121.40027485577629">
        <ele>21.10012404434383</ele>
        <time>2026-06-07T11:21:12Z</time>
      </trkpt>
      <trkpt lat="31.230475154133103" lon="121.40027685197921">
        <ele>20.827972097322345</ele>
        <time>2026-06-07T11:21:15Z</time>
      </trkpt>
      <trkpt lat="31.23075601296984" lon="121.40017781284571">
        <ele>24.767600698396564</ele>
        <time>2026-06-07T11:21:30Z</time>
      </trkpt>
      <trkpt lat="31.230940918130297" lon="121.40009178442187">
        <ele>18.185699148103595</ele>
        <time>2026-06-07T11:21:39Z</time>
      </trkpt>
      <trkpt lat="31.231101830882285" lon="121.39996675320835">
        <ele>10.364566488191485</ele>
        <time>2026-06-07T11:21:48Z</time>
      </trkpt>
      <trkpt lat="31.231201769542718" lon="121.39980872395323">
        <ele>27.253982229158282</ele>
        <time>2026-06-07T11:21:54Z</time>
      </trkpt>
      <trkpt lat="31.231218753339096" lon="121.39971571099609">
        <ele>26.115161580964923</ele>
        <time>2026-06-07T11:21:57Z</time>
      </trkpt>
      <trkpt lat="31.231173758975043" lon="121.39953369377672">
        <ele>23.700122518464923</ele>
        <time>2026-06-07T11:22:03Z</time>
      </trkpt>
      <trkpt lat="31.231028811322894" lon="121.39933668549178">
        <ele>24.170447988435626</ele>
        <time>2026-06-07T11:22:12Z</time>
      </trkpt>
      <trkpt lat="31.230918859756535" lon="121.39930069147815">
        <ele>22.122684163972735</ele>
        <time>2026-06-07T11:22:18Z</time>
      </trkpt>
      <trkpt lat="31.230823903286915" lon="121.39929369906811">
        <ele>21.401343984529376</ele>
        <time>2026-06-07T11:22:21Z</time>
      </trkpt>
      <trkpt lat="31.23068596918279" lon="121.39932171388743">
        <ele>10.813752813264728</ele>
        <time>2026-06-07T11:22:27Z</time>
      </trkpt>
      <trkpt lat="31.230496063599237" lon="121.39940973948079">
        <ele>25.906421346589923</ele>
        <time>2026-06-07T11:22:36Z</time>
      </trkpt>
      <trkpt lat="31.230337140476706" lon="121.39945175779535">
        <ele>22.373702688142657</ele>
        <time>2026-06-07T11:22:45Z</time>
      </trkpt>
      <trkpt lat="31.230110247228513" lon="121.39947077963102">
        <ele>25.29077116958797</ele>
        <time>2026-06-07T11:22:57Z</time>
      </trkpt>
      <trkpt lat="31.22989435955762" lon="121.39962181538299">
        <ele>8.361722631379962</ele>
        <time>2026-06-07T11:23:10Z</time>
      </trkpt>
      <trkpt lat="31.229835392891253" lon="121.39969182877633">
        <ele>25.41495863907039</ele>
        <time>2026-06-07T11:23:13Z</time>
      </trkpt>
      <trkpt lat="31.229789425402995" lon="121.39981684815757">
        <ele>21.956222219392657</ele>
        <time>2026-06-07T11:23:19Z</time>
      </trkpt>
      <trkpt lat="31.229766451073747" lon="121.39997387063076">
        <ele>26.281623525545</ele>
        <time>2026-06-07T11:23:25Z</time>
      </trkpt>
      <trkpt lat="31.22981844728808" lon="121.40017089361169">
        <ele>22.260085744783282</ele>
        <time>2026-06-07T11:23:34Z</time>
      </trkpt>
      <trkpt lat="31.229897425899708" lon="121.40030890721324">
        <ele>23.28264586441219</ele>
        <time>2026-06-07T11:23:40Z</time>
      </trkpt>
      <trkpt lat="31.22994840855477" lon="121.40036391121188">
        <ele>23.512523336336017</ele>
        <time>2026-06-07T11:23:43Z</time>
      </trkpt>
      <trkpt lat="31.230068358141438" lon="121.40040890777759">
        <ele>25.018619222566485</ele>
        <time>2026-06-07T11:23:49Z</time>
      </trkpt>
      <trkpt lat="31.230256267743172" lon="121.400381887157">
        <ele>19.897891683503985</ele>
        <time>2026-06-07T11:23:58Z</time>
      </trkpt>
      <trkpt lat="31.230350216515145" lon="121.4003158687839">
        <ele>25.372684163972735</ele>
        <time>2026-06-07T11:24:04Z</time>
      </trkpt>
      <trkpt lat="31.23043517335546" lon="121.40028285637015">
        <ele>11.942004842683673</ele>
        <time>2026-06-07T11:24:07Z</time>
      </trkpt>
      <trkpt lat="31.230721035418227" lon="121.40023482425985">
        <ele>15.886920614168048</ele>
        <time>2026-06-07T11:24:16Z</time>
      </trkpt>
      <trkpt lat="31.230979902999575" lon="121.4001197849815">
        <ele>25.174510641023517</ele>
        <time>2026-06-07T11:24:31Z</time>
      </trkpt>
      <trkpt lat="31.231083848893377" lon="121.40006276789583">
        <ele>23.668414754793048</ele>
        <time>2026-06-07T11:24:38Z</time>
      </trkpt>
      <trkpt lat="31.231183792714525" lon="121.39996474579065">
        <ele>20.94158904068172</ele>
        <time>2026-06-07T11:24:41Z</time>
      </trkpt>
      <trkpt lat="31.231218748081485" lon="121.3996547037161">
        <ele>10.198104543611407</ele>
        <time>2026-06-07T11:24:56Z</time>
      </trkpt>
      <trkpt lat="31.231196750085072" lon="121.39955569423475">
        <ele>26.334468526765704</ele>
        <time>2026-06-07T11:24:59Z</time>
      </trkpt>
      <trkpt lat="31.231125772800144" lon="121.39942468613123">
        <ele>19.364150686189532</ele>
        <time>2026-06-07T11:25:05Z</time>
      </trkpt>
      <trkpt lat="31.230995826042825" lon="121.39932868756216">
        <ele>19.335086507722735</ele>
        <time>2026-06-07T11:25:14Z</time>
      </trkpt>
      <trkpt lat="31.230841893510267" lon="121.3992726954352">
        <ele>22.29971663467586</ele>
        <time>2026-06-07T11:25:23Z</time>
      </trkpt>
      <trkpt lat="31.230779922238316" lon="121.3992727008409">
        <ele>-8.46691926009953</ele>
        <time>2026-06-07T11:25:26Z</time>
      </trkpt>
      <trkpt lat="31.23060800660529" lon="121.39933972250165">
        <ele>22.957645101472735</ele>
        <time>2026-06-07T11:25:35Z</time>
      </trkpt>
      <trkpt lat="31.23050805439076" lon="121.3993597332554">
        <ele>21.652362508699298</ele>
        <time>2026-06-07T11:25:41Z</time>
      </trkpt>
      <trkpt lat="31.230192210030733" lon="121.3994817736739">
        <ele>17.24504820816219</ele>
        <time>2026-06-07T11:25:53Z</time>
      </trkpt>
      <trkpt lat="31.230021293288253" lon="121.39953179408175">
        <ele>19.136916799470782</ele>
        <time>2026-06-07T11:26:02Z</time>
      </trkpt>
      <trkpt lat="31.22996732115545" lon="121.3995668027171">
        <ele>17.23447768203914</ele>
        <time>2026-06-07T11:26:05Z</time>
      </trkpt>
      <trkpt lat="31.229861372805537" lon="121.3995968153762">
        <ele>25.85357634536922</ele>
        <time>2026-06-07T11:26:08Z</time>
      </trkpt>
      <trkpt lat="31.229833390142044" lon="121.39964882385276">
        <ele>15.982040090486407</ele>
        <time>2026-06-07T11:26:15Z</time>
      </trkpt>
      <trkpt lat="31.229772441372866" lon="121.39990286069113">
        <ele>22.270652456209064</ele>
        <time>2026-06-07T11:26:21Z</time>
      </trkpt>
      <trkpt lat="31.229764456097303" lon="121.40001487636347">
        <ele>-17.807358102872968</ele>
        <time>2026-06-07T11:26:24Z</time>
      </trkpt>
      <trkpt lat="31.229831445486884" lon="121.4002098981672">
        <ele>25.34097640030086</ele>
        <time>2026-06-07T11:26:33Z</time>
      </trkpt>
      <trkpt lat="31.22993341170448" lon="121.40033090743351">
        <ele>25.750526113435626</ele>
        <time>2026-06-07T11:26:39Z</time>
      </trkpt>
      <trkpt lat="31.229993388601002" lon="121.40037190853016">
        <ele>24.693618459627032</ele>
        <time>2026-06-07T11:26:42Z</time>
      </trkpt>
      <trkpt lat="31.23013732271477" lon="121.40037989722039">
        <ele>15.844642324373126</ele>
        <time>2026-06-07T11:26:48Z</time>
      </trkpt>
      <trkpt lat="31.230439174445014" lon="121.40030885995827">
        <ele>24.318416280671954</ele>
        <time>2026-06-07T11:27:03Z</time>
      </trkpt>
      <trkpt lat="31.23073202976833" lon="121.40022982256039">
        <ele>18.5820385646075</ele>
        <time>2026-06-07T11:27:18Z</time>
      </trkpt>
      <trkpt lat="31.231037877827998" lon="121.4001357822059">
        <ele>15.292407674714923</ele>
        <time>2026-06-07T11:27:33Z</time>
      </trkpt>
      <trkpt lat="31.231147817002938" lon="121.4000407592667">
        <ele>22.907439870759845</ele>
        <time>2026-06-07T11:27:39Z</time>
      </trkpt>
      <trkpt lat="31.231225765524865" lon="121.39988473157517">
        <ele>26.157439870759845</ele>
        <time>2026-06-07T11:27:45Z</time>
      </trkpt>
      <trkpt lat="31.231249739249783" lon="121.39971870865628">
        <ele>23.890365285798907</ele>
        <time>2026-06-07T11:27:49Z</time>
      </trkpt>
      <trkpt lat="31.231212745110785" lon="121.39958569623981">
        <ele>10.856029195711017</ele>
        <time>2026-06-07T11:27:52Z</time>
      </trkpt>
      <trkpt lat="31.231104781557907" lon="121.39941168659279">
        <ele>20.17004363052547</ele>
        <time>2026-06-07T11:27:58Z</time>
      </trkpt>
      <trkpt lat="31.231031809017093" lon="121.39932368392077">
        <ele>23.837520284578204</ele>
        <time>2026-06-07T11:28:01Z</time>
      </trkpt>
      <trkpt lat="31.230986827773904" lon="121.3992936848563">
        <ele>22.249515218660235</ele>
        <time>2026-06-07T11:28:04Z</time>
      </trkpt>
      <trkpt lat="31.230889871271593" lon="121.39927269125013">
        <ele>22.051345510408282</ele>
        <time>2026-06-07T11:28:07Z</time>
      </trkpt>
      <trkpt lat="31.23062499922268" lon="121.3993467217293">
        <ele>23.052764577791095</ele>
        <time>2026-06-07T11:28:19Z</time>
      </trkpt>
      <trkpt lat="31.230456083709402" lon="121.39943074518261">
        <ele>18.288745565339923</ele>
        <time>2026-06-07T11:28:25Z</time>
      </trkpt>
      <trkpt lat="31.230134239039558" lon="121.39950878168389">
        <ele>24.527156515046954</ele>
        <time>2026-06-07T11:28:43Z</time>
      </trkpt>
      <trkpt lat="31.230066270748363" lon="121.39951078783284">
        <ele>-18.14028580673039</ele>
        <time>2026-06-07T11:28:46Z</time>
      </trkpt>
      <trkpt lat="31.230010299749257" lon="121.39954879694032">
        <ele>16.032245321199298</ele>
        <time>2026-06-07T11:28:49Z</time>
      </trkpt>
      <trkpt lat="31.22993833477728" lon="121.39956880547184">
        <ele>23.837520284578204</ele>
        <time>2026-06-07T11:28:55Z</time>
      </trkpt>
      <trkpt lat="31.22984938145065" lon="121.39963382070225">
        <ele>23.19809309951961</ele>
        <time>2026-06-07T11:29:01Z</time>
      </trkpt>
      <trkpt lat="31.22982139809848" lon="121.39967682820756">
        <ele>24.484878225252032</ele>
        <time>2026-06-07T11:29:04Z</time>
      </trkpt>
      <trkpt lat="31.229722474392613" lon="121.40000287838927">
        <ele>23.649921102449298</ele>
        <time>2026-06-07T11:29:10Z</time>
      </trkpt>
      <trkpt lat="31.22976346876285" lon="121.40013289294073">
        <ele>12.023914022371173</ele>
        <time>2026-06-07T11:29:13Z</time>
      </trkpt>
      <trkpt lat="31.229922417154786" lon="121.40033390885256">
        <ele>21.443622274324298</ele>
        <time>2026-06-07T11:29:19Z</time>
      </trkpt>
      <trkpt lat="31.23002937529462" lon="121.40040090992062">
        <ele>25.64483611099422</ele>
        <time>2026-06-07T11:29:22Z</time>
      </trkpt>
      <trkpt lat="31.230178305923353" lon="121.40039889661612">
        <ele>26.146869344636798</ele>
        <time>2026-06-07T11:29:28Z</time>
      </trkpt>
      <trkpt lat="31.23029524708879" lon="121.40035988033874">
        <ele>18.7907787989825</ele>
        <time>2026-06-07T11:29:34Z</time>
      </trkpt>
      <trkpt lat="31.230382200877013" lon="121.40030886492794">
        <ele>20.49240462295711</ele>
        <time>2026-06-07T11:29:37Z</time>
      </trkpt>
      <trkpt lat="31.23065506811534" lon="121.40025383283974">
        <ele>22.759475393220782</ele>
        <time>2026-06-07T11:29:50Z</time>
      </trkpt>
      <trkpt lat="31.230868962344555" lon="121.40019380532354">
        <ele>23.533660573884845</ele>
        <time>2026-06-07T11:29:59Z</time>
      </trkpt>
      <trkpt lat="31.230967910250765" lon="121.40013578830913">
        <ele>22.73040740005672</ele>
        <time>2026-06-07T11:30:05Z</time>
      </trkpt>
      <trkpt lat="31.231123822776038" lon="121.39998775411838">
        <ele>24.400325460359454</ele>
        <time>2026-06-07T11:30:14Z</time>
      </trkpt>
      <trkpt lat="31.231211765739463" lon="121.39981772421591">
        <ele>23.50195281021297</ele>
        <time>2026-06-07T11:30:23Z</time>
      </trkpt>
      <trkpt lat="31.23122874567248" lon="121.39968070592327">
        <ele>23.678985280916095</ele>
        <time>2026-06-07T11:30:29Z</time>
      </trkpt>
      <trkpt lat="31.23119574934616" lon="121.39954069263959">
        <ele>24.318416280671954</ele>
        <time>2026-06-07T11:30:35Z</time>
      </trkpt>
      <trkpt lat="31.23105080127527" lon="121.39933868377584">
        <ele>14.520862264558673</ele>
        <time>2026-06-07T11:30:44Z</time>
      </trkpt>
      <trkpt lat="31.23089986643516" lon="121.39926969008533">
        <ele>18.29931609146297</ele>
        <time>2026-06-07T11:30:50Z</time>
      </trkpt>
      <trkpt lat="31.230766929561327" lon="121.39929170384033">
        <ele>21.464759511873126</ele>
        <time>2026-06-07T11:30:56Z</time>
      </trkpt>
      <trkpt lat="31.230464076381477" lon="121.39938173935433">
        <ele>22.207236928865314</ele>
        <time>2026-06-07T11:31:11Z</time>
      </trkpt>
      <trkpt lat="31.23019121026329" lon="121.39947877343532">
        <ele>18.06943861953914</ele>
        <time>2026-06-07T11:31:29Z</time>
      </trkpt>
      <trkpt lat="31.229982313467023" lon="121.3995578003933">
        <ele>20.817401571199298</ele>
        <time>2026-06-07T11:31:39Z</time>
      </trkpt>
      <trkpt lat="31.229873370897945" lon="121.39964081942757">
        <ele>-19.49313004501164</ele>
        <time>2026-06-07T11:31:45Z</time>
      </trkpt>
      <trkpt lat="31.229772435052155" lon="121.39983585204789">
        <ele>20.13833968155086</ele>
        <time>2026-06-07T11:31:54Z</time>
      </trkpt>
      <trkpt lat="31.229752457772083" lon="121.39997587212045">
        <ele>14.719035787507892</ele>
        <time>2026-06-07T11:32:00Z</time>
      </trkpt>
      <trkpt lat="31.229820452680787" lon="121.40022890192674">
        <ele>8.089568777009845</ele>
        <time>2026-06-07T11:32:12Z</time>
      </trkpt>
      <trkpt lat="31.22990742308473" lon="121.40032490878174">
        <ele>22.740977926179767</ele>
        <time>2026-06-07T11:32:15Z</time>
      </trkpt>
      <trkpt lat="31.22999039186483" lon="121.4003879112851">
        <ele>15.376960439607501</ele>
        <time>2026-06-07T11:32:18Z</time>
      </trkpt>
      <trkpt lat="31.230199295357423" lon="121.40039189368866">
        <ele>22.48996321670711</ele>
        <time>2026-06-07T11:32:27Z</time>
      </trkpt>
      <trkpt lat="31.230367207605735" lon="121.40030686593163">
        <ele>23.21130339615047</ele>
        <time>2026-06-07T11:32:33Z</time>
      </trkpt>
      <trkpt lat="31.23067305700187" lon="121.40022882755656">
        <ele>16.074519796296954</ele>
        <time>2026-06-07T11:32:42Z</time>
      </trkpt>
      <trkpt lat="31.23088195126084" lon="121.40014679738361">
        <ele>17.24504820816219</ele>
        <time>2026-06-07T11:32:51Z</time>
      </trkpt>
      <trkpt lat="31.231024880161023" lon="121.40010077836637">
        <ele>22.50052992813289</ele>
        <time>2026-06-07T11:32:57Z</time>
      </trkpt>
      <trkpt lat="31.231084847916264" lon="121.40005776711345">
        <ele>20.534679098054767</ele>
        <time>2026-06-07T11:33:00Z</time>
      </trkpt>
      <trkpt lat="31.23115580430377" lon="121.39995074636083">
        <ele>20.106631917878985</ele>
        <time>2026-06-07T11:33:06Z</time>
      </trkpt>
      <trkpt lat="31.23122175415249" lon="121.39974071377456">
        <ele>24.15987746231258</ele>
        <time>2026-06-07T11:33:15Z</time>
      </trkpt>
      <trkpt lat="31.23122474804114" lon="121.39968670698762">
        <ele>21.832034749910235</ele>
        <time>2026-06-07T11:33:18Z</time>
      </trkpt>
      <trkpt lat="31.231201748495977" lon="121.39956469481388">
        <ele>21.390777273103595</ele>
        <time>2026-06-07T11:33:21Z</time>
      </trkpt>
      <trkpt lat="31.231131769797944" lon="121.39942168529127">
        <ele>20.117198629304767</ele>
        <time>2026-06-07T11:33:27Z</time>
      </trkpt>
      <trkpt lat="31.231082787594776" lon="121.39935468261123">
        <ele>21.390777273103595</ele>
        <time>2026-06-07T11:33:30Z</time>
      </trkpt>
      <trkpt lat="31.230921856582945" lon="121.39927468865561">
        <ele>23.940570516511798</ele>
        <time>2026-06-07T11:33:39Z</time>
      </trkpt>
      <trkpt lat="31.23086588252665" lon="121.39927469353819">
        <ele>6.3905865382403135</ele>
        <time>2026-06-07T11:33:43Z</time>
      </trkpt>
      <trkpt lat="31.2306649814685" lon="121.39935771936246">
        <ele>21.768619222566485</ele>
        <time>2026-06-07T11:33:52Z</time>
      </trkpt>
      <trkpt lat="31.23051605068175" lon="121.3993597325579">
        <ele>16.137935323640704</ele>
        <time>2026-06-07T11:33:58Z</time>
      </trkpt>
      <trkpt lat="31.230407104202637" lon="121.39940074629855">
        <ele>17.580615682527423</ele>
        <time>2026-06-07T11:34:04Z</time>
      </trkpt>
      <trkpt lat="31.23034913468397" lon="121.39944875642804">
        <ele>17.59911314956844</ele>
        <time>2026-06-07T11:34:07Z</time>
      </trkpt>
      <trkpt lat="31.23005927589261" lon="121.39953479110278">
        <ele>7.870259923860431</ele>
        <time>2026-06-07T11:34:25Z</time>
      </trkpt>
      <trkpt lat="31.229900355940924" lon="121.39961181370236">
        <ele>20.764556569978595</ele>
        <time>2026-06-07T11:34:34Z</time>
      </trkpt>
      <trkpt lat="31.22978143396186" lon="121.39986885549088">
        <ele>23.678985280916095</ele>
        <time>2026-06-07T11:34:43Z</time>
      </trkpt>
      <trkpt lat="31.22976445111343" lon="121.39996486959684">
        <ele>21.779189748689532</ele>
        <time>2026-06-07T11:34:46Z</time>
      </trkpt>
      <trkpt lat="31.229795452742078" lon="121.40012188858267">
        <ele>20.180614156648517</ele>
        <time>2026-06-07T11:34:52Z</time>
      </trkpt>
      <trkpt lat="31.22985843725414" lon="121.40024890158209">
        <ele>20.764556569978595</ele>
        <time>2026-06-07T11:34:58Z</time>
      </trkpt>
      <trkpt lat="31.229921417733898" lon="121.40033490909319">
        <ele>6.3905865382403135</ele>
        <time>2026-06-07T11:35:01Z</time>
      </trkpt>
      <trkpt lat="31.230030375184462" lon="121.4004039103045">
        <ele>11.648711843416095</ele>
        <time>2026-06-07T11:35:07Z</time>
      </trkpt>
      <trkpt lat="31.230162312875443" lon="121.40039489738419">
        <ele>22.519027395173907</ele>
        <time>2026-06-07T11:35:13Z</time>
      </trkpt>
      <trkpt lat="31.23042318106857" lon="121.40030186028984">
        <ele>-0.42119439132511616</ele>
        <time>2026-06-07T11:35:26Z</time>
      </trkpt>
      <trkpt lat="31.23069504791043" lon="121.40023882711999">
        <ele>21.089557332918048</ele>
        <time>2026-06-07T11:35:38Z</time>
      </trkpt>
      <trkpt lat="31.230892949167856" lon="121.40017480046548">
        <ele>21.684070272371173</ele>
        <time>2026-06-07T11:35:47Z</time>
      </trkpt>
      <trkpt lat="31.230970911958053" lon="121.40016479221681">
        <ele>21.72634474746883</ele>
        <time>2026-06-07T11:35:50Z</time>
      </trkpt>
      <trkpt lat="31.231037877509756" lon="121.40013278177712">
        <ele>14.800944967195392</ele>
        <time>2026-06-07T11:35:53Z</time>
      </trkpt>
      <trkpt lat="31.231193787002816" lon="121.39995374344771">
        <ele>13.633060140535235</ele>
        <time>2026-06-07T11:36:02Z</time>
      </trkpt>
      <trkpt lat="31.231235755550685" lon="121.39982772338895">
        <ele>17.725940389558673</ele>
        <time>2026-06-07T11:36:08Z</time>
      </trkpt>
      <trkpt lat="31.23122174275392" lon="121.39960769797851">
        <ele>22.175532979890704</ele>
        <time>2026-06-07T11:36:17Z</time>
      </trkpt>
      <trkpt lat="31.23116175816228" lon="121.39945168586486">
        <ele>19.53325621597469</ele>
        <time>2026-06-07T11:36:23Z</time>
      </trkpt>
      <trkpt lat="31.23111577447966" lon="121.39938468281787">
        <ele>15.197284383699298</ele>
        <time>2026-06-07T11:36:26Z</time>
      </trkpt>
      <trkpt lat="31.231057797820938" lon="121.39933568286224">
        <ele>20.56638686172664</ele>
        <time>2026-06-07T11:36:29Z</time>
      </trkpt>
      <trkpt lat="31.230932852169744" lon="121.39928468867733">
        <ele>-27.879703836515546</ele>
        <time>2026-06-07T11:36:32Z</time>
      </trkpt>
      <trkpt lat="31.230811908023803" lon="121.39928169893238">
        <ele>22.238948507234454</ele>
        <time>2026-06-07T11:36:35Z</time>
      </trkpt>
      <trkpt lat="31.23054304063073" lon="121.39939373371138">
        <ele>18.69830290786922</ele>
        <time>2026-06-07T11:36:44Z</time>
      </trkpt>
      <trkpt lat="31.230363127662216" lon="121.39944175446014">
        <ele>6.440793676301837</ele>
        <time>2026-06-07T11:36:50Z</time>
      </trkpt>
      <trkpt lat="31.230268175317114" lon="121.39948876780967">
        <ele>17.34017531387508</ele>
        <time>2026-06-07T11:36:53Z</time>
      </trkpt>
      <trkpt lat="31.229972316825005" lon="121.3995417994694">
        <ele>5.981038732454181</ele>
        <time>2026-06-07T11:37:05Z</time>
      </trkpt>
      <trkpt lat="31.22991634555704" lon="121.39957580818385">
        <ele>16.544849080964923</ele>
        <time>2026-06-07T11:37:08Z</time>
      </trkpt>
      <trkpt lat="31.22978942320742" lon="121.39979284514277">
        <ele>13.131030721589923</ele>
        <time>2026-06-07T11:37:17Z</time>
      </trkpt>
      <trkpt lat="31.229769441809744" lon="121.39989285964768">
        <ele>20.566390676423907</ele>
        <time>2026-06-07T11:37:20Z</time>
      </trkpt>
      <trkpt lat="31.229771450142152" lon="121.39998787208289">
        <ele>17.506637258455157</ele>
        <time>2026-06-07T11:37:23Z</time>
      </trkpt>
      <trkpt lat="31.22982644671603" lon="121.4001998971368">
        <ele>18.76964537613094</ele>
        <time>2026-06-07T11:37:29Z</time>
      </trkpt>
      <trkpt lat="31.229873433870775" lon="121.40028090506749">
        <ele>24.986915273591876</ele>
        <time>2026-06-07T11:37:32Z</time>
      </trkpt>
      <trkpt lat="31.22994940797439" lon="121.40036291096972">
        <ele>20.06435744278133</ele>
        <time>2026-06-07T11:37:35Z</time>
      </trkpt>
      <trkpt lat="31.230145324549703" lon="121.40042690390528">
        <ele>18.05887190811336</ele>
        <time>2026-06-07T11:37:41Z</time>
      </trkpt>
      <trkpt lat="31.23029324570365" lon="121.40033987742797">
        <ele>12.713554067537189</ele>
        <time>2026-06-07T11:37:47Z</time>
      </trkpt>
      <trkpt lat="31.230568109223825" lon="121.40026084147081">
        <ele>18.235904378816485</ele>
        <time>2026-06-07T11:37:59Z</time>
      </trkpt>
      <trkpt lat="31.230688050160044" lon="121.40022982639667">
        <ele>21.129195852205157</ele>
        <time>2026-06-07T11:38:05Z</time>
      </trkpt>
      <trkpt lat="31.23098589759827" lon="121.40009478092068">
        <ele>8.422500295564532</ele>
        <time>2026-06-07T11:38:23Z</time>
      </trkpt>
      <trkpt lat="31.231190779838094" lon="121.39986473204097">
        <ele>19.993018789216876</ele>
        <time>2026-06-07T11:38:32Z</time>
      </trkpt>
      <trkpt lat="31.231217752320294" lon="121.39969870903481">
        <ele>21.213748617097735</ele>
        <time>2026-06-07T11:38:38Z</time>
      </trkpt>
      <trkpt lat="31.231193752523804" lon="121.3995686959639">
        <ele>18.957244558259845</ele>
        <time>2026-06-07T11:38:44Z</time>
      </trkpt>
      <trkpt lat="31.23112077586437" lon="121.3994346876266">
        <ele>20.817405385896564</ele>
        <time>2026-06-07T11:38:50Z</time>
      </trkpt>
      <trkpt lat="31.23102081404168" lon="121.39932268477949">
        <ele>15.604198141023517</ele>
        <time>2026-06-07T11:38:56Z</time>
      </trkpt>
      <trkpt lat="31.230926855429644" lon="121.39929168989013">
        <ele>19.03123061172664</ele>
        <time>2026-06-07T11:39:02Z</time>
      </trkpt>
      <trkpt lat="31.230769928999752" lon="121.39930370476705">
        <ele>12.06619612686336</ele>
        <time>2026-06-07T11:39:11Z</time>
      </trkpt>
      <trkpt lat="31.23065998632264" lon="121.39939272340635">
        <ele>19.27167479507625</ele>
        <time>2026-06-07T11:39:17Z</time>
      </trkpt>
      <trkpt lat="31.230423102581852" lon="121.39947775309945">
        <ele>21.015575094148517</ele>
        <time>2026-06-07T11:39:29Z</time>
      </trkpt>
      <trkpt lat="31.23014423637327" lon="121.39953378358052">
        <ele>16.441802663728595</ele>
        <time>2026-06-07T11:39:41Z</time>
      </trkpt>
      <trkpt lat="31.22996931797803" lon="121.39953879939574">
        <ele>17.099727315828204</ele>
        <time>2026-06-07T11:39:47Z</time>
      </trkpt>
      <trkpt lat="31.229920343051038" lon="121.39956780692799">
        <ele>20.55582015030086</ele>
        <time>2026-06-07T11:39:51Z</time>
      </trkpt>
      <trkpt lat="31.229800412194063" lon="121.39972683604894">
        <ele>16.753589315339923</ele>
        <time>2026-06-07T11:39:57Z</time>
      </trkpt>
      <trkpt lat="31.229749461055114" lon="121.39999487494883">
        <ele>18.227977437898517</ele>
        <time>2026-06-07T11:40:09Z</time>
      </trkpt>
      <trkpt lat="31.22976746395458" lon="121.40010488861289">
        <ele>16.462939901277423</ele>
        <time>2026-06-07T11:40:12Z</time>
      </trkpt>
      <trkpt lat="31.22986943776121" lon="121.40029890813605">
        <ele>20.233462972566485</ele>
        <time>2026-06-07T11:40:21Z</time>
      </trkpt>
      <trkpt lat="31.229913422022648" lon="121.40033991055867">
        <ele>20.513545675203204</ele>
        <time>2026-06-07T11:40:24Z</time>
      </trkpt>
      <trkpt lat="31.230074353001005" lon="121.40038890411776">
        <ele>19.89789549820125</ele>
        <time>2026-06-07T11:40:30Z</time>
      </trkpt>
      <trkpt lat="31.230199293483054" lon="121.40037589119193">
        <ele>15.41659895889461</ele>
        <time>2026-06-07T11:40:36Z</time>
      </trkpt>
      <trkpt lat="31.23049714292297" lon="121.40026784870946">
        <ele>20.4607006739825</ele>
        <time>2026-06-07T11:40:51Z</time>
      </trkpt>
      <trkpt lat="31.23055811108122" lon="121.40023583861971">
        <ele>-15.225853281095624</ele>
        <time>2026-06-07T11:40:54Z</time>
      </trkpt>
      <trkpt lat="31.23073102803431" lon="121.40020981969914">
        <ele>20.389358205720782</ele>
        <time>2026-06-07T11:41:03Z</time>
      </trkpt>
      <trkpt lat="31.230960912539754" lon="121.40012678763453">
        <ele>15.950336141511798</ele>
        <time>2026-06-07T11:41:15Z</time>
      </trkpt>
      <trkpt lat="31.230971521211433" lon="121.40002878698719">
        <ele>15.646476430818439</ele>
        <time>2026-06-07T11:41:18Z</time>
      </trkpt>
      <trkpt lat="31.231101718833123" lon="121.39999687513514">
        <ele>16.243629140779376</ele>
        <time>2026-06-07T11:41:24Z</time>
      </trkpt>
      <trkpt lat="31.231193781771037" lon="121.39989973631842">
        <ele>15.157657308503985</ele>
        <time>2026-06-07T11:41:30Z</time>
      </trkpt>
      <trkpt lat="31.231231757587665" lon="121.39982972399149">
        <ele>18.999522848054767</ele>
        <time>2026-06-07T11:41:33Z</time>
      </trkpt>
      <trkpt lat="31.231228744900353" lon="121.39967170485343">
        <ele>13.131030721589923</ele>
        <time>2026-06-07T11:41:39Z</time>
      </trkpt>
      <trkpt lat="31.231139769186452" lon="121.39946268896426">
        <ele>20.233462972566485</ele>
        <time>2026-06-07T11:41:48Z</time>
      </trkpt>
      <trkpt lat="31.23104880355592" lon="121.39935768588194">
        <ele>20.003585500642657</ele>
        <time>2026-06-07T11:41:54Z</time>
      </trkpt>
      <trkpt lat="31.23098682888154" lon="121.39930968644401">
        <ele>-1.5256617832928896</ele>
        <time>2026-06-07T11:41:57Z</time>
      </trkpt>
      <trkpt lat="31.23085688608592" lon="121.39926569344466">
        <ele>15.228995962068439</ele>
        <time>2026-06-07T11:42:03Z</time>
      </trkpt>
      <trkpt lat="31.230525047157094" lon="121.39936873269578">
        <ele>19.845050496980548</ele>
        <time>2026-06-07T11:42:18Z</time>
      </trkpt>
      <trkpt lat="31.230283166054512" lon="121.3994587632544">
        <ele>16.502574605867267</ele>
        <time>2026-06-07T11:42:27Z</time>
      </trkpt>
      <trkpt lat="31.229969318457076" lon="121.39954480006664">
        <ele>14.948917074128985</ele>
        <time>2026-06-07T11:42:36Z</time>
      </trkpt>
      <trkpt lat="31.229897354132515" lon="121.39957280949982">
        <ele>22.41598097793758</ele>
        <time>2026-06-07T11:42:39Z</time>
      </trkpt>
      <trkpt lat="31.229791413751595" lon="121.39969683321156">
        <ele>18.811919851228595</ele>
        <time>2026-06-07T11:42:45Z</time>
      </trkpt>
      <trkpt lat="31.229763432301752" lon="121.3997598433136">
        <ele>18.40500990860164</ele>
        <time>2026-06-07T11:42:48Z</time>
      </trkpt>
      <trkpt lat="31.229732471358975" lon="121.4000188797004">
        <ele>12.023917837068439</ele>
        <time>2026-06-07T11:42:57Z</time>
      </trkpt>
      <trkpt lat="31.229743474052526" lon="121.4000948892942">
        <ele>20.775130910798907</ele>
        <time>2026-06-07T11:43:00Z</time>
      </trkpt>
      <trkpt lat="31.229853444962" lon="121.40029690922798">
        <ele>15.897491140291095</ele>
        <time>2026-06-07T11:43:10Z</time>
      </trkpt>
      <trkpt lat="31.229945409250416" lon="121.40035791054443">
        <ele>19.292815847322345</ele>
        <time>2026-06-07T11:43:13Z</time>
      </trkpt>
      <trkpt lat="31.2300233754959" lon="121.40037890700378">
        <ele>20.92309538833797</ele>
        <time>2026-06-07T11:43:16Z</time>
      </trkpt>
      <trkpt lat="31.230098339992455" lon="121.40037289953109">
        <ele>-3.716106729581952</ele>
        <time>2026-06-07T11:43:19Z</time>
      </trkpt>
      <trkpt lat="31.230420177619784" lon="121.4002588540755">
        <ele>19.668018026277423</ele>
        <time>2026-06-07T11:43:34Z</time>
      </trkpt>
      <trkpt lat="31.230727025116078" lon="121.40016581363538">
        <ele>17.591190023347735</ele>
        <time>2026-06-07T11:43:49Z</time>
      </trkpt>
      <trkpt lat="31.23097390045911" lon="121.4000687783226">
        <ele>17.202773733064532</ele>
        <time>2026-06-07T11:44:01Z</time>
      </trkpt>
      <trkpt lat="31.231090835976357" lon="121.39996675416742">
        <ele>10.396278066560626</ele>
        <time>2026-06-07T11:44:07Z</time>
      </trkpt>
      <trkpt lat="31.23115880232775" lon="121.3999447453005">
        <ele>19.533260030671954</ele>
        <time>2026-06-07T11:44:10Z</time>
      </trkpt>
      <trkpt lat="31.231199777847923" lon="121.3998877342318">
        <ele>18.864764852449298</ele>
        <time>2026-06-07T11:44:16Z</time>
      </trkpt>
      <trkpt lat="31.23121474858166" lon="121.39963870218767">
        <ele>10.010505361482501</ele>
        <time>2026-06-07T11:44:25Z</time>
      </trkpt>
      <trkpt lat="31.231186752005126" lon="121.39952169131027">
        <ele>20.587527913972735</ele>
        <time>2026-06-07T11:44:31Z</time>
      </trkpt>
      <trkpt lat="31.231117775537825" lon="121.39941168545933">
        <ele>10.198108358308673</ele>
        <time>2026-06-07T11:44:37Z</time>
      </trkpt>
      <trkpt lat="31.230932856642724" lon="121.3993486950785">
        <ele>0.3397843074053526</ele>
        <time>2026-06-07T11:44:46Z</time>
      </trkpt>
      <trkpt lat="31.230818908182233" lon="121.39933070319601">
        <ele>15.218429250642657</ele>
        <time>2026-06-07T11:44:52Z</time>
      </trkpt>
      <trkpt lat="31.23048006903566" lon="121.39938273806277">
        <ele>17.27675978653133</ele>
        <time>2026-06-07T11:45:10Z</time>
      </trkpt>
      <trkpt lat="31.230187212118963" lon="121.39947877378405">
        <ele>16.06395689956844</ele>
        <time>2026-06-07T11:45:22Z</time>
      </trkpt>
      <trkpt lat="31.22994633090216" lon="121.399566804548">
        <ele>18.090579671785235</ele>
        <time>2026-06-07T11:45:37Z</time>
      </trkpt>
      <trkpt lat="31.229829394298704" lon="121.39967582739119">
        <ele>10.229814214631915</ele>
        <time>2026-06-07T11:45:46Z</time>
      </trkpt>
      <trkpt lat="31.229788419357064" lon="121.39974483929107">
        <ele>17.160499257966876</ele>
        <time>2026-06-07T11:45:49Z</time>
      </trkpt>
      <trkpt lat="31.229743453310334" lon="121.39988686113401">
        <ele>16.222491903230548</ele>
        <time>2026-06-07T11:45:55Z</time>
      </trkpt>
      <trkpt lat="31.229780457186408" lon="121.40009788649112">
        <ele>14.510299367830157</ele>
        <time>2026-06-07T11:46:04Z</time>
      </trkpt>
      <trkpt lat="31.229909419533907" lon="121.4003019051036">
        <ele>0.07027213089168072</ele>
        <time>2026-06-07T11:46:14Z</time>
      </trkpt>
      <trkpt lat="31.230044365049874" lon="121.40037290423913">
        <ele>18.98895232193172</ele>
        <time>2026-06-07T11:46:20Z</time>
      </trkpt>
      <trkpt lat="31.23023227515287" lon="121.4003498842863">
        <ele>18.82249037735164</ele>
        <time>2026-06-07T11:46:29Z</time>
      </trkpt>
      <trkpt lat="31.230551114326342" lon="121.40023583923002">
        <ele>23.240371389314532</ele>
        <time>2026-06-07T11:46:38Z</time>
      </trkpt>
      <trkpt lat="31.230669052965787" lon="121.40017481999567">
        <ele>17.2556225489825</ele>
        <time>2026-06-07T11:46:41Z</time>
      </trkpt>
      <trkpt lat="31.230937920459585" lon="121.4001007859518">
        <ele>18.048301381990314</ele>
        <time>2026-06-07T11:46:50Z</time>
      </trkpt>
      <trkpt lat="31.231049862692284" lon="121.40004376822556">
        <ele>21.8320385646075</ele>
        <time>2026-06-07T11:46:53Z</time>
      </trkpt>
      <trkpt lat="31.231170791275407" lon="121.3998877367603">
        <ele>19.041797323152423</ele>
        <time>2026-06-07T11:46:59Z</time>
      </trkpt>
      <trkpt lat="31.23120376861672" lon="121.39980872377885">
        <ele>19.6257397364825</ele>
        <time>2026-06-07T11:47:02Z</time>
      </trkpt>
      <trkpt lat="31.231215749216126" lon="121.39965170362467">
        <ele>16.523711843416095</ele>
        <time>2026-06-07T11:47:08Z</time>
      </trkpt>
      <trkpt lat="31.23118675098244" lon="121.39950868987475">
        <ele>14.822086019441485</ele>
        <time>2026-06-07T11:47:14Z</time>
      </trkpt>
      <trkpt lat="31.231110779076108" lon="121.39941568649007">
        <ele>5.481649084016681</ele>
        <time>2026-06-07T11:47:20Z</time>
      </trkpt>
      <trkpt lat="31.230975835588804" lon="121.39933268970896">
        <ele>12.119041128084064</ele>
        <time>2026-06-07T11:47:26Z</time>
      </trkpt>
      <trkpt lat="31.23087388122849" lon="121.39930969629638">
        <ele>18.833057088777423</ele>
        <time>2026-06-07T11:47:32Z</time>
      </trkpt>
      <trkpt lat="31.230560032969773" lon="121.39939673254159">
        <ele>5.304616613313556</ele>
        <time>2026-06-07T11:47:44Z</time>
      </trkpt>
      <trkpt lat="31.23023219412473" lon="121.39951577391147">
        <ele>21.46476332657039</ele>
        <time>2026-06-07T11:47:54Z</time>
      </trkpt>
      <trkpt lat="31.23005427933058" lon="121.39954879310413">
        <ele>19.292815847322345</ele>
        <time>2026-06-07T11:48:00Z</time>
      </trkpt>
      <trkpt lat="31.2299233451821" lon="121.39961081158164">
        <ele>18.97838561050594</ele>
        <time>2026-06-07T11:48:03Z</time>
      </trkpt>
      <trkpt lat="31.229805411198136" lon="121.39974183744175">
        <ele>20.502975149080157</ele>
        <time>2026-06-07T11:48:09Z</time>
      </trkpt>
      <trkpt lat="31.229737454674556" lon="121.39987185971418">
        <ele>17.70480696670711</ele>
        <time>2026-06-07T11:48:12Z</time>
      </trkpt>
      <trkpt lat="31.229747466015162" lon="121.40003488058905">
        <ele>20.096065206453204</ele>
        <time>2026-06-07T11:48:18Z</time>
      </trkpt>
      <trkpt lat="31.229799458597924" lon="121.40019389861354">
        <ele>21.213748617097735</ele>
        <time>2026-06-07T11:48:24Z</time>
      </trkpt>
      <trkpt lat="31.2299274144894" lon="121.40033090795663">
        <ele>11.136115713045001</ele>
        <time>2026-06-07T11:48:33Z</time>
      </trkpt>
      <trkpt lat="31.23004236621139" lon="121.40037490472454">
        <ele>22.62472121231258</ele>
        <time>2026-06-07T11:48:39Z</time>
      </trkpt>
      <trkpt lat="31.230109335706196" lon="121.4003798996616">
        <ele>20.34707991592586</ele>
        <time>2026-06-07T11:48:42Z</time>
      </trkpt>
      <trkpt lat="31.230319230778463" lon="121.40031487133426">
        <ele>20.325942678377032</ele>
        <time>2026-06-07T11:48:51Z</time>
      </trkpt>
      <trkpt lat="31.230447162434242" lon="121.40023484814928">
        <ele>19.929603261873126</ele>
        <time>2026-06-07T11:48:57Z</time>
      </trkpt>
      <trkpt lat="31.23072902515831" lon="121.40017481476438">
        <ele>17.599116964265704</ele>
        <time>2026-06-07T11:49:09Z</time>
      </trkpt>
      <trkpt lat="31.230897944382015" lon="121.40015179670716">
        <ele>-5.341104822233319</ele>
        <time>2026-06-07T11:49:15Z</time>
      </trkpt>
      <trkpt lat="31.231077850645146" lon="121.4000527670299">
        <ele>19.940169973298907</ele>
        <time>2026-06-07T11:49:24Z</time>
      </trkpt>
      <trkpt lat="31.231174793071247" lon="121.39992574138853">
        <ele>6.889980001375079</ele>
        <time>2026-06-07T11:49:30Z</time>
      </trkpt>
      <trkpt lat="31.231230752575062" lon="121.39976971655739">
        <ele>18.63488738052547</ele>
        <time>2026-06-07T11:49:36Z</time>
      </trkpt>
      <trkpt lat="31.23121974526032" lon="121.39962670035266">
        <ele>16.690173787996173</ele>
        <time>2026-06-07T11:49:43Z</time>
      </trkpt>
      <trkpt lat="31.231116774674444" lon="121.39939368366504">
        <ele>15.12594954483211</ele>
        <time>2026-06-07T11:49:52Z</time>
      </trkpt>
      <trkpt lat="31.231012817326892" lon="121.39931668487596">
        <ele>20.870250387117267</ele>
        <time>2026-06-07T11:49:58Z</time>
      </trkpt>
      <trkpt lat="31.230747938572563" lon="121.39929470579328">
        <ele>21.47533385269344</ele>
        <time>2026-06-07T11:50:10Z</time>
      </trkpt>
      <trkpt lat="31.23046407985024" lon="121.39942874427322">
        <ele>21.026145620271564</ele>
        <time>2026-06-07T11:50:22Z</time>
      </trkpt>
      <trkpt lat="31.230282169211375" lon="121.39949376713489">
        <ele>21.652366323396564</ele>
        <time>2026-06-07T11:50:31Z</time>
      </trkpt>
      <trkpt lat="31.230191212281646" lon="121.39950477627434">
        <ele>14.63448683731258</ele>
        <time>2026-06-07T11:50:34Z</time>
      </trkpt>
      <trkpt lat="31.230191212281646" lon="121.39950477627434">
        <ele>17.39156313892454</ele>
        <time>2026-06-07T11:50:36Z</time>
      </trkpt>
    </trkseg>
  </trk>
</gpx>