<?xml version="1.0" encoding="UTF-8"?>
<gpx xmlns="http://www.topografix.com/GPX/1/1" xmlns:gpxtpx="http://www.garmin.com/xmlschemas/TrackPointExtension/v1" xmlns:xsi="http://www.w3.org/2001/XMLSchema-instance" xsi:schemaLocation="http://www.topografix.com/GPX/1/1 http://www.topografix.com/GPX/1/1/gpx.xsd" version="1.1" creator="gpx.py -- https://github.com/tkrajina/gpxpy">
  <trk>
    <name>gpx from keep</name>
    <type>Run</type>
    <trkseg>
      <trkpt lat="31.22571626418053" lon="121.39899611743952">
        <ele>16.584147066809237</ele>
        <time>2026-09-14T09:29:13Z</time>
      </trkpt>
      <trkpt lat="31.225437393774502" lon="121.39897814027115">
        <ele>17.50894031021744</ele>
        <time>2026-09-14T09:29:22Z</time>
      </trkpt>
      <trkpt lat="31.22513953229853" lon="121.39895916469445">
        <ele>16.023985476233065</ele>
        <time>2026-09-14T09:29:31Z</time>
      </trkpt>
      <trkpt lat="31.2249386266381" lon="121.39896218245964">
        <ele>17.477232546545565</ele>
        <time>2026-09-14T09:29:37Z</time>
      </trkpt>
      <trkpt lat="31.224796696468353" lon="121.39902119973296">
        <ele>16.208941073156893</ele>
        <time>2026-09-14T09:29:40Z</time>
      </trkpt>
      <trkpt lat="31.224669766627503" lon="121.39919622639528">
        <ele>4.952856631018221</ele>
        <time>2026-09-14T09:29:46Z</time>
      </trkpt>
      <trkpt lat="31.2246068149018" lon="121.39946225865924">
        <ele>18.026827425695956</ele>
        <time>2026-09-14T09:29:55Z</time>
      </trkpt>
      <trkpt lat="31.22464380710907" lon="121.39958326883985">
        <ele>18.07967242691666</ele>
        <time>2026-09-14T09:29:58Z</time>
      </trkpt>
      <trkpt lat="31.22469978855232" lon="121.39967527466521">
        <ele>13.952440829016268</ele>
        <time>2026-09-14T09:30:01Z</time>
      </trkpt>
      <trkpt lat="31.224793751217295" lon="121.3997522757739">
        <ele>20.00853213761002</ele>
        <time>2026-09-14T09:30:04Z</time>
      </trkpt>
      <trkpt lat="31.225057633843363" lon="121.3998222614881">
        <ele>17.70447024796158</ele>
        <time>2026-09-14T09:30:13Z</time>
      </trkpt>
      <trkpt lat="31.22536549330424" lon="121.39986223974195">
        <ele>17.873575777746737</ele>
        <time>2026-09-14T09:30:22Z</time>
      </trkpt>
      <trkpt lat="31.225640365983583" lon="121.39987721770487">
        <ele>16.171949953772128</ele>
        <time>2026-09-14T09:30:31Z</time>
      </trkpt>
      <trkpt lat="31.225755309161702" lon="121.3998452035663">
        <ele>18.243494600988925</ele>
        <time>2026-09-14T09:30:34Z</time>
      </trkpt>
      <trkpt lat="31.225839270327686" lon="121.39985019688307">
        <ele>16.843088717199862</ele>
        <time>2026-09-14T09:30:37Z</time>
      </trkpt>
      <trkpt lat="31.225913232006995" lon="121.39981018535518">
        <ele>19.25284251663834</ele>
        <time>2026-09-14T09:30:40Z</time>
      </trkpt>
      <trkpt lat="31.226050153909966" lon="121.39965115406137">
        <ele>15.410975069738925</ele>
        <time>2026-09-14T09:30:46Z</time>
      </trkpt>
      <trkpt lat="31.226117108825854" lon="121.3994811289982">
        <ele>16.161383242346346</ele>
        <time>2026-09-14T09:30:52Z</time>
      </trkpt>
      <trkpt lat="31.226119101273056" lon="121.39939311946868">
        <ele>17.228861422277987</ele>
        <time>2026-09-14T09:30:55Z</time>
      </trkpt>
      <trkpt lat="31.226012133880566" lon="121.39913510370785">
        <ele>17.313414187170565</ele>
        <time>2026-09-14T09:31:04Z</time>
      </trkpt>
      <trkpt lat="31.225904178602732" lon="121.39903810459194">
        <ele>15.971136660315096</ele>
        <time>2026-09-14T09:31:10Z</time>
      </trkpt>
      <trkpt lat="31.22565329371819" lon="121.3989971230146">
        <ele>17.757315249182284</ele>
        <time>2026-09-14T09:31:31Z</time>
      </trkpt>
      <trkpt lat="31.225573331889247" lon="121.3990101310751">
        <ele>17.28170642349869</ele>
        <time>2026-09-14T09:31:34Z</time>
      </trkpt>
      <trkpt lat="31.225227491240524" lon="121.39896215726752">
        <ele>18.243494600988925</ele>
        <time>2026-09-14T09:31:46Z</time>
      </trkpt>
      <trkpt lat="31.224921635368304" lon="121.39897618508662">
        <ele>15.183741183020175</ele>
        <time>2026-09-14T09:31:58Z</time>
      </trkpt>
      <trkpt lat="31.224780704653618" lon="121.39903320214562">
        <ele>16.261789889074862</ele>
        <time>2026-09-14T09:32:04Z</time>
      </trkpt>
      <trkpt lat="31.224720735883118" lon="121.39908621196187">
        <ele>17.582926363684237</ele>
        <time>2026-09-14T09:32:07Z</time>
      </trkpt>
      <trkpt lat="31.224640782379335" lon="121.39922923204308">
        <ele>17.76788577530533</ele>
        <time>2026-09-14T09:32:13Z</time>
      </trkpt>
      <trkpt lat="31.22458582551478" lon="121.39947226156859">
        <ele>13.350000948645175</ele>
        <time>2026-09-14T09:32:22Z</time>
      </trkpt>
      <trkpt lat="31.22461182089426" lon="121.39956826992565">
        <ele>16.679266543127596</ele>
        <time>2026-09-14T09:32:25Z</time>
      </trkpt>
      <trkpt lat="31.224700788770743" lon="121.39968327553007">
        <ele>18.19064959976822</ele>
        <time>2026-09-14T09:32:28Z</time>
      </trkpt>
      <trkpt lat="31.224792751686056" lon="121.39975227586108">
        <ele>16.563006014563143</ele>
        <time>2026-09-14T09:32:31Z</time>
      </trkpt>
      <trkpt lat="31.22487371605177" lon="121.39977827201177">
        <ele>15.971136660315096</ele>
        <time>2026-09-14T09:32:34Z</time>
      </trkpt>
      <trkpt lat="31.224956677515" lon="121.39978226527393">
        <ele>17.841868014074862</ele>
        <time>2026-09-14T09:32:37Z</time>
      </trkpt>
      <trkpt lat="31.225042640502767" lon="121.39981826229004">
        <ele>17.06503924820572</ele>
        <time>2026-09-14T09:32:40Z</time>
      </trkpt>
      <trkpt lat="31.225352493465614" lon="121.39979823275178">
        <ele>17.889429659582675</ele>
        <time>2026-09-14T09:32:52Z</time>
      </trkpt>
      <trkpt lat="31.2255104234525" lon="121.39984122441295">
        <ele>18.391462893225253</ele>
        <time>2026-09-14T09:32:58Z</time>
      </trkpt>
      <trkpt lat="31.225812280636283" lon="121.39982519605368">
        <ele>19.136581988073885</ele>
        <time>2026-09-14T09:33:10Z</time>
      </trkpt>
      <trkpt lat="31.22606114910499" lon="121.39965515357302">
        <ele>15.754473299719393</ele>
        <time>2026-09-14T09:33:23Z</time>
      </trkpt>
      <trkpt lat="31.226110119383616" lon="121.399573139823">
        <ele>18.444307894445956</ele>
        <time>2026-09-14T09:33:26Z</time>
      </trkpt>
      <trkpt lat="31.2261341008771" lon="121.39948112751625">
        <ele>18.19064959976822</ele>
        <time>2026-09-14T09:33:29Z</time>
      </trkpt>
      <trkpt lat="31.226136093251103" lon="121.39939211788277">
        <ele>17.86300525162369</ele>
        <time>2026-09-14T09:33:32Z</time>
      </trkpt>
      <trkpt lat="31.22601812839578" lon="121.3990910992542">
        <ele>15.955282778479159</ele>
        <time>2026-09-14T09:33:44Z</time>
      </trkpt>
      <trkpt lat="31.225963150432314" lon="121.39902809859731">
        <ele>18.608126253820956</ele>
        <time>2026-09-14T09:33:47Z</time>
      </trkpt>
      <trkpt lat="31.225896179799047" lon="121.39899310149912">
        <ele>17.123167605139315</ele>
        <time>2026-09-14T09:33:50Z</time>
      </trkpt>
      <trkpt lat="31.225556338728687" lon="121.3989901308887">
        <ele>17.123167605139315</ele>
        <time>2026-09-14T09:34:02Z</time>
      </trkpt>
      <trkpt lat="31.225436393641242" lon="121.39896713945659">
        <ele>15.669920534826815</ele>
        <time>2026-09-14T09:34:08Z</time>
      </trkpt>
      <trkpt lat="31.225107547289493" lon="121.3989591674839">
        <ele>17.133738131262362</ele>
        <time>2026-09-14T09:34:20Z</time>
      </trkpt>
      <trkpt lat="31.22488565284602" lon="121.39898718913165">
        <ele>15.939428896643221</ele>
        <time>2026-09-14T09:34:29Z</time>
      </trkpt>
      <trkpt lat="31.22474472409612" lon="121.39907720908067">
        <ele>18.047964663244784</ele>
        <time>2026-09-14T09:34:35Z</time>
      </trkpt>
      <trkpt lat="31.224631789886832" lon="121.39927823756548">
        <ele>19.178858370520175</ele>
        <time>2026-09-14T09:34:44Z</time>
      </trkpt>
      <trkpt lat="31.22462180366411" lon="121.39940625140724">
        <ele>18.026827425695956</ele>
        <time>2026-09-14T09:34:47Z</time>
      </trkpt>
      <trkpt lat="31.224656799793582" lon="121.39956826600307">
        <ele>14.665854067541659</ele>
        <time>2026-09-14T09:34:53Z</time>
      </trkpt>
      <trkpt lat="31.224701785485173" lon="121.39965027153748">
        <ele>16.452032656408846</ele>
        <time>2026-09-14T09:34:56Z</time>
      </trkpt>
      <trkpt lat="31.224805745859832" lon="121.39975527509661">
        <ele>15.109755129553378</ele>
        <time>2026-09-14T09:35:02Z</time>
      </trkpt>
      <trkpt lat="31.224901704379096" lon="121.39979427156491">
        <ele>15.268293947912753</ele>
        <time>2026-09-14T09:35:05Z</time>
      </trkpt>
      <trkpt lat="31.225211561148093" lon="121.3998162473058">
        <ele>17.112600893713534</ele>
        <time>2026-09-14T09:35:17Z</time>
      </trkpt>
      <trkpt lat="31.225277531898993" lon="121.39983424383252">
        <ele>18.89877948258072</ele>
        <time>2026-09-14T09:35:20Z</time>
      </trkpt>
      <trkpt lat="31.225434458196528" lon="121.39983222989254">
        <ele>15.09390124771744</ele>
        <time>2026-09-14T09:35:23Z</time>
      </trkpt>
      <trkpt lat="31.225737319364022" lon="121.39986420757148">
        <ele>17.37154254410416</ele>
        <time>2026-09-14T09:35:32Z</time>
      </trkpt>
      <trkpt lat="31.225867256017317" lon="121.39983719278297">
        <ele>18.174795717932284</ele>
        <time>2026-09-14T09:35:38Z</time>
      </trkpt>
      <trkpt lat="31.225967204560835" lon="121.3997861776419">
        <ele>16.742682070471346</ele>
        <time>2026-09-14T09:35:41Z</time>
      </trkpt>
      <trkpt lat="31.22607714324305" lon="121.39967415442483">
        <ele>18.2752023646608</ele>
        <time>2026-09-14T09:35:47Z</time>
      </trkpt>
      <trkpt lat="31.226141100252704" lon="121.39951513062928">
        <ele>13.57723865006119</ele>
        <time>2026-09-14T09:35:53Z</time>
      </trkpt>
      <trkpt lat="31.226139089456545" lon="121.39935911421945">
        <ele>15.971136660315096</ele>
        <time>2026-09-14T09:35:59Z</time>
      </trkpt>
      <trkpt lat="31.226058111506866" lon="121.39912109843625">
        <ele>15.93414554093033</ele>
        <time>2026-09-14T09:36:08Z</time>
      </trkpt>
      <trkpt lat="31.22601612743664" lon="121.39905909663362">
        <ele>17.952845186926425</ele>
        <time>2026-09-14T09:36:11Z</time>
      </trkpt>
      <trkpt lat="31.22588918357554" lon="121.39900210285889">
        <ele>16.541868777014315</ele>
        <time>2026-09-14T09:36:17Z</time>
      </trkpt>
      <trkpt lat="31.225695274007446" lon="121.39899611927014">
        <ele>17.899996371008456</ele>
        <time>2026-09-14T09:36:26Z</time>
      </trkpt>
      <trkpt lat="31.22558132854015" lon="121.39901713096658">
        <ele>16.57357654068619</ele>
        <time>2026-09-14T09:36:32Z</time>
      </trkpt>
      <trkpt lat="31.225359429857917" lon="121.39897014641407">
        <ele>15.971136660315096</ele>
        <time>2026-09-14T09:36:41Z</time>
      </trkpt>
      <trkpt lat="31.225220495777766" lon="121.39898515976436">
        <ele>15.120325655676425</ele>
        <time>2026-09-14T09:36:47Z</time>
      </trkpt>
      <trkpt lat="31.225053572211326" lon="121.39895217162348">
        <ele>17.889429659582675</ele>
        <time>2026-09-14T09:36:53Z</time>
      </trkpt>
      <trkpt lat="31.224885652514907" lon="121.39898118863617">
        <ele>17.133738131262362</ele>
        <time>2026-09-14T09:36:59Z</time>
      </trkpt>
      <trkpt lat="31.224761715477026" lon="121.39906620664006">
        <ele>16.29349383804947</ele>
        <time>2026-09-14T09:37:05Z</time>
      </trkpt>
      <trkpt lat="31.224642789538027" lon="121.39934724349162">
        <ele>16.59471377823502</ele>
        <time>2026-09-14T09:37:17Z</time>
      </trkpt>
      <trkpt lat="31.224627802186752" lon="121.39942425277702">
        <ele>16.409754366613925</ele>
        <time>2026-09-14T09:37:20Z</time>
      </trkpt>
      <trkpt lat="31.224645803821744" lon="121.39955426538258">
        <ele>17.899996371008456</ele>
        <time>2026-09-14T09:37:26Z</time>
      </trkpt>
      <trkpt lat="31.22468879115765" lon="121.39964527208393">
        <ele>16.161383242346346</ele>
        <time>2026-09-14T09:37:29Z</time>
      </trkpt>
      <trkpt lat="31.224748769219705" lon="121.39971727542951">
        <ele>18.328047365881503</ele>
        <time>2026-09-14T09:37:32Z</time>
      </trkpt>
      <trkpt lat="31.22488271428759" lon="121.39980527459973">
        <ele>15.981707186438143</ele>
        <time>2026-09-14T09:37:38Z</time>
      </trkpt>
      <trkpt lat="31.225000661846554" lon="121.39983626823305">
        <ele>16.763819308020175</ele>
        <time>2026-09-14T09:37:44Z</time>
      </trkpt>
      <trkpt lat="31.2253145144786" lon="121.39983324048009">
        <ele>17.197153658606112</ele>
        <time>2026-09-14T09:37:56Z</time>
      </trkpt>
      <trkpt lat="31.22543546118789" lon="121.39986923454153">
        <ele>16.65812930557877</ele>
        <time>2026-09-14T09:38:02Z</time>
      </trkpt>
      <trkpt lat="31.22574831327817" lon="121.39985420532808">
        <ele>18.465445131994784</ele>
        <time>2026-09-14T09:38:14Z</time>
      </trkpt>
      <trkpt lat="31.225823278750077" lon="121.39986019956024">
        <ele>16.520731539465487</ele>
        <time>2026-09-14T09:38:17Z</time>
      </trkpt>
      <trkpt lat="31.226013179012696" lon="121.39974116807727">
        <ele>18.597559542395175</ele>
        <time>2026-09-14T09:38:26Z</time>
      </trkpt>
      <trkpt lat="31.226065149885937" lon="121.39968615689956">
        <ele>17.588209719397128</ele>
        <time>2026-09-14T09:38:29Z</time>
      </trkpt>
      <trkpt lat="31.226101126627235" lon="121.39961014484079">
        <ele>18.05853518936783</ele>
        <time>2026-09-14T09:38:32Z</time>
      </trkpt>
      <trkpt lat="31.22612110549774" lon="121.39946212659527">
        <ele>17.176016421057284</ele>
        <time>2026-09-14T09:38:38Z</time>
      </trkpt>
      <trkpt lat="31.22611310082685" lon="121.39934811536472">
        <ele>17.72560748551041</ele>
        <time>2026-09-14T09:38:41Z</time>
      </trkpt>
      <trkpt lat="31.226071108671597" lon="121.39917310204083">
        <ele>14.396341891027987</ele>
        <time>2026-09-14T09:38:47Z</time>
      </trkpt>
      <trkpt lat="31.22604211819681" lon="121.39910809866868">
        <ele>16.57357654068619</ele>
        <time>2026-09-14T09:38:50Z</time>
      </trkpt>
      <trkpt lat="31.225948157220035" lon="121.3990240995658">
        <ele>18.57641849014908</ele>
        <time>2026-09-14T09:38:56Z</time>
      </trkpt>
      <trkpt lat="31.225621308249835" lon="121.39898912513969">
        <ele>17.30284366104752</ele>
        <time>2026-09-14T09:39:11Z</time>
      </trkpt>
      <trkpt lat="31.2254873731103" lon="121.39902714000638">
        <ele>15.204878420569003</ele>
        <time>2026-09-14T09:39:17Z</time>
      </trkpt>
      <trkpt lat="31.225329444398923" lon="121.39897914976792">
        <ele>18.037397951819003</ele>
        <time>2026-09-14T09:39:23Z</time>
      </trkpt>
      <trkpt lat="31.224993602233805" lon="121.39898717971734">
        <ele>15.527235598303378</ele>
        <time>2026-09-14T09:39:35Z</time>
      </trkpt>
      <trkpt lat="31.22491463942083" lon="121.39899018685216">
        <ele>20.27804431412369</ele>
        <time>2026-09-14T09:39:38Z</time>
      </trkpt>
      <trkpt lat="31.224849671115802" lon="121.39901219435447">
        <ele>18.069101900793612</ele>
        <time>2026-09-14T09:39:41Z</time>
      </trkpt>
      <trkpt lat="31.224786703346986" lon="121.39905920385402">
        <ele>18.132517428137362</ele>
        <time>2026-09-14T09:39:44Z</time>
      </trkpt>
      <trkpt lat="31.22474072843944" lon="121.39911821305867">
        <ele>14.332930178381503</ele>
        <time>2026-09-14T09:39:47Z</time>
      </trkpt>
      <trkpt lat="31.224651783761804" lon="121.39932524048479">
        <ele>15.130896181799471</ele>
        <time>2026-09-14T09:39:56Z</time>
      </trkpt>
      <trkpt lat="31.22463779937719" lon="121.3994492545624">
        <ele>20.156500429846346</ele>
        <time>2026-09-14T09:40:02Z</time>
      </trkpt>
      <trkpt lat="31.224703784971165" lon="121.3996552719512">
        <ele>17.519510836340487</ele>
        <time>2026-09-14T09:40:11Z</time>
      </trkpt>
      <trkpt lat="31.224748768607654" lon="121.39971027458381">
        <ele>15.474390597082675</ele>
        <time>2026-09-14T09:40:14Z</time>
      </trkpt>
      <trkpt lat="31.22498466758758" lon="121.3998172672196">
        <ele>16.06625995133072</ele>
        <time>2026-09-14T09:40:26Z</time>
      </trkpt>
      <trkpt lat="31.22527553080542" lon="121.39981224122255">
        <ele>17.540648073889315</ele>
        <time>2026-09-14T09:40:38Z</time>
      </trkpt>
      <trkpt lat="31.225497427409042" lon="121.39981822262743">
        <ele>17.551218600012362</ele>
        <time>2026-09-14T09:40:47Z</time>
      </trkpt>
      <trkpt lat="31.225576388870504" lon="121.3998012136014">
        <ele>17.79958972427994</ele>
        <time>2026-09-14T09:40:50Z</time>
      </trkpt>
      <trkpt lat="31.225843267152005" lon="121.39983619474783">
        <ele>17.329268069006503</ele>
        <time>2026-09-14T09:41:02Z</time>
      </trkpt>
      <trkpt lat="31.225996189193424" lon="121.39976617263201">
        <ele>18.254061312414706</ele>
        <time>2026-09-14T09:41:08Z</time>
      </trkpt>
      <trkpt lat="31.226108117185007" lon="121.39953413561304">
        <ele>17.249998659826815</ele>
        <time>2026-09-14T09:41:17Z</time>
      </trkpt>
      <trkpt lat="31.226133093633187" lon="121.39937811669412">
        <ele>14.750406832434237</ele>
        <time>2026-09-14T09:41:23Z</time>
      </trkpt>
      <trkpt lat="31.226057113956607" lon="121.39915310142224">
        <ele>11.791060061194003</ele>
        <time>2026-09-14T09:41:32Z</time>
      </trkpt>
      <trkpt lat="31.22602312605744" lon="121.39909109881835">
        <ele>16.520731539465487</ele>
        <time>2026-09-14T09:41:35Z</time>
      </trkpt>
      <trkpt lat="31.22588418585852" lon="121.39900110321125">
        <ele>18.380892367102206</ele>
        <time>2026-09-14T09:41:41Z</time>
      </trkpt>
      <trkpt lat="31.225557339322116" lon="121.39900913238594">
        <ele>13.371142000891268</ele>
        <time>2026-09-14T09:41:50Z</time>
      </trkpt>
      <trkpt lat="31.225254479908568" lon="121.39898615688323">
        <ele>16.43089541886002</ele>
        <time>2026-09-14T09:42:02Z</time>
      </trkpt>
      <trkpt lat="31.225048575365545" lon="121.39896717327875">
        <ele>16.452032656408846</ele>
        <time>2026-09-14T09:42:11Z</time>
      </trkpt>
      <trkpt lat="31.224793697761083" lon="121.39901919982555">
        <ele>14.79796847794205</ele>
        <time>2026-09-14T09:42:23Z</time>
      </trkpt>
      <trkpt lat="31.224670763800578" lon="121.39915922287784">
        <ele>15.902437777258456</ele>
        <time>2026-09-14T09:42:32Z</time>
      </trkpt>
      <trkpt lat="31.22462878993895" lon="121.39925823587795">
        <ele>17.06503924820572</ele>
        <time>2026-09-14T09:42:35Z</time>
      </trkpt>
      <trkpt lat="31.22460281693023" lon="121.39946425922327">
        <ele>17.50894031021744</ele>
        <time>2026-09-14T09:42:41Z</time>
      </trkpt>
      <trkpt lat="31.224619815451728" lon="121.39954726686312">
        <ele>17.08089313004166</ele>
        <time>2026-09-14T09:42:44Z</time>
      </trkpt>
      <trkpt lat="31.224684794304114" lon="121.39966027419678">
        <ele>15.484961123205721</ele>
        <time>2026-09-14T09:42:50Z</time>
      </trkpt>
      <trkpt lat="31.224776759454" lon="121.39975527762451">
        <ele>15.4426828334108</ele>
        <time>2026-09-14T09:42:53Z</time>
      </trkpt>
      <trkpt lat="31.224935691934924" lon="121.3998322733905">
        <ele>18.78251895401627</ele>
        <time>2026-09-14T09:42:59Z</time>
      </trkpt>
      <trkpt lat="31.225231552240896" lon="121.39982124619401">
        <ele>13.719919771887362</ele>
        <time>2026-09-14T09:43:08Z</time>
      </trkpt>
      <trkpt lat="31.225550404635214" lon="121.3998402207986">
        <ele>17.588209719397128</ele>
        <time>2026-09-14T09:43:17Z</time>
      </trkpt>
      <trkpt lat="31.22563136533247" lon="121.39982521183182">
        <ele>17.022764773108065</ele>
        <time>2026-09-14T09:43:20Z</time>
      </trkpt>
      <trkpt lat="31.225793292785806" lon="121.3998602021754">
        <ele>17.41382083389908</ele>
        <time>2026-09-14T09:43:26Z</time>
      </trkpt>
      <trkpt lat="31.22591023580965" lon="121.39983618890727">
        <ele>16.520731539465487</ele>
        <time>2026-09-14T09:43:29Z</time>
      </trkpt>
      <trkpt lat="31.22602616994443" lon="121.39970716281765">
        <ele>16.906504244543612</ele>
        <time>2026-09-14T09:43:35Z</time>
      </trkpt>
      <trkpt lat="31.226112113184527" lon="121.3995071322758">
        <ele>12.842684359289706</ele>
        <time>2026-09-14T09:43:44Z</time>
      </trkpt>
      <trkpt lat="31.22612509912868" lon="121.39940211988379">
        <ele>16.097967715002596</ele>
        <time>2026-09-14T09:43:47Z</time>
      </trkpt>
      <trkpt lat="31.226117096978427" lon="121.39932011219055">
        <ele>16.119104952551425</ele>
        <time>2026-09-14T09:43:50Z</time>
      </trkpt>
      <trkpt lat="31.226058114370367" lon="121.39916710262018">
        <ele>17.15487536881119</ele>
        <time>2026-09-14T09:43:56Z</time>
      </trkpt>
      <trkpt lat="31.225951157080434" lon="121.39904610117974">
        <ele>9.7406564662233</ele>
        <time>2026-09-14T09:44:02Z</time>
      </trkpt>
      <trkpt lat="31.225800223334122" lon="121.3989681078078">
        <ele>24.82275638077408</ele>
        <time>2026-09-14T09:44:08Z</time>
      </trkpt>
      <trkpt lat="31.225800223334122" lon="121.3989681078078">
        <ele>14.692151726223528</ele>
        <time>2026-09-14T09:44:14Z</time>
      </trkpt>
    </trkseg>
  </trk>
</gpx>