<?xml version="1.0" encoding="UTF-8"?>
<gpx xmlns="http://www.topografix.com/GPX/1/1" xmlns:gpxtpx="http://www.garmin.com/xmlschemas/TrackPointExtension/v1" xmlns:xsi="http://www.w3.org/2001/XMLSchema-instance" xsi:schemaLocation="http://www.topografix.com/GPX/1/1 http://www.topografix.com/GPX/1/1/gpx.xsd" version="1.1" creator="gpx.py -- https://github.com/tkrajina/gpxpy">
  <trk>
    <name>gpx from keep</name>
    <type>Run</type>
    <trkseg>
      <trkpt lat="32.05193160491294" lon="118.80404818099056">
        <ele>11.251338316127658</ele>
        <time>2026-08-10T10:20:38Z</time>
      </trkpt>
      <trkpt lat="32.05194879035901" lon="118.80415238527073">
        <ele>10.175929380580783</ele>
        <time>2026-08-10T10:20:41Z</time>
      </trkpt>
      <trkpt lat="32.05208513021366" lon="118.8043297235037">
        <ele>17.49238140694797</ele>
        <time>2026-08-10T10:20:47Z</time>
      </trkpt>
      <trkpt lat="32.05217825597928" lon="118.80438983396377">
        <ele>1.110286070033908</ele>
        <time>2026-08-10T10:20:50Z</time>
      </trkpt>
      <trkpt lat="32.052488456460004" lon="118.80446495431426">
        <ele>1.9531663190573454</ele>
        <time>2026-08-10T10:20:59Z</time>
      </trkpt>
      <trkpt lat="32.05276471252913" lon="118.80457614939871">
        <ele>0.2436173688620329</ele>
        <time>2026-08-10T10:21:09Z</time>
      </trkpt>
      <trkpt lat="32.053089888431586" lon="118.80463523678671">
        <ele>16.95600445382297</ele>
        <time>2026-08-10T10:21:18Z</time>
      </trkpt>
      <trkpt lat="32.05318187735616" lon="118.80461719255278">
        <ele>19.09888775460422</ele>
        <time>2026-08-10T10:21:21Z</time>
      </trkpt>
      <trkpt lat="32.0532658101429" lon="118.80456808746065">
        <ele>18.90864117257297</ele>
        <time>2026-08-10T10:21:24Z</time>
      </trkpt>
      <trkpt lat="32.0533346835447" lon="118.80448692024055">
        <ele>19.130595518276095</ele>
        <time>2026-08-10T10:21:27Z</time>
      </trkpt>
      <trkpt lat="32.053384537046945" lon="118.8043967370139">
        <ele>-12.793354677036405</ele>
        <time>2026-08-10T10:21:30Z</time>
      </trkpt>
      <trkpt lat="32.0533994283614" lon="118.80433260868757">
        <ele>17.315348936244845</ele>
        <time>2026-08-10T10:21:33Z</time>
      </trkpt>
      <trkpt lat="32.05339420861298" lon="118.80420736139271">
        <ele>18.866374326869845</ele>
        <time>2026-08-10T10:21:36Z</time>
      </trkpt>
      <trkpt lat="32.053372027218174" lon="118.80410616341412">
        <ele>-12.193562196567655</ele>
        <time>2026-08-10T10:21:39Z</time>
      </trkpt>
      <trkpt lat="32.053329846750074" lon="118.80400797337336">
        <ele>-15.816120790317655</ele>
        <time>2026-08-10T10:21:42Z</time>
      </trkpt>
      <trkpt lat="32.05326571733188" lon="118.80394184875809">
        <ele>15.814540220424533</ele>
        <time>2026-08-10T10:21:45Z</time>
      </trkpt>
      <trkpt lat="32.05292944892746" lon="118.80383066033036">
        <ele>13.838115049526095</ele>
        <time>2026-08-10T10:21:57Z</time>
      </trkpt>
      <trkpt lat="32.05266322936286" lon="118.80373850316332">
        <ele>15.455195738002658</ele>
        <time>2026-08-10T10:22:09Z</time>
      </trkpt>
      <trkpt lat="32.05231996141218" lon="118.8036283177256">
        <ele>16.205592466518283</ele>
        <time>2026-08-10T10:22:21Z</time>
      </trkpt>
      <trkpt lat="32.05217689298484" lon="118.80360728947231">
        <ele>16.089335752651095</ele>
        <time>2026-08-10T10:22:27Z</time>
      </trkpt>
      <trkpt lat="32.05206493237448" lon="118.80364437271093">
        <ele>8.400325132533908</ele>
        <time>2026-08-10T10:22:30Z</time>
      </trkpt>
      <trkpt lat="32.051885134228385" lon="118.80378366349085">
        <ele>15.22266705147922</ele>
        <time>2026-08-10T10:22:39Z</time>
      </trkpt>
      <trkpt lat="32.05193279552645" lon="118.80415739664195">
        <ele>14.926738096401095</ele>
        <time>2026-08-10T10:22:51Z</time>
      </trkpt>
      <trkpt lat="32.05198200051668" lon="118.80426861203885">
        <ele>15.98365337960422</ele>
        <time>2026-08-10T10:22:54Z</time>
      </trkpt>
      <trkpt lat="32.05205515152189" lon="118.80434575799036">
        <ele>17.051127744838595</ele>
        <time>2026-08-10T10:22:57Z</time>
      </trkpt>
      <trkpt lat="32.05220828543189" lon="118.80440285699918">
        <ele>18.234858823940158</ele>
        <time>2026-08-10T10:23:03Z</time>
      </trkpt>
      <trkpt lat="32.05233034065828" lon="118.80441887753537">
        <ele>18.496455503627658</ele>
        <time>2026-08-10T10:23:06Z</time>
      </trkpt>
      <trkpt lat="32.05266461485546" lon="118.80453307316617">
        <ele>18.739543272182345</ele>
        <time>2026-08-10T10:23:18Z</time>
      </trkpt>
      <trkpt lat="32.05282378530274" lon="118.80461021154095">
        <ele>17.28364117257297</ele>
        <time>2026-08-10T10:23:24Z</time>
      </trkpt>
      <trkpt lat="32.05305992560639" lon="118.80466028924522">
        <ele>12.392802549526095</ele>
        <time>2026-08-10T10:23:34Z</time>
      </trkpt>
      <trkpt lat="32.053143919760316" lon="118.80464625369146">
        <ele>8.632838560268283</ele>
        <time>2026-08-10T10:23:37Z</time>
      </trkpt>
      <trkpt lat="32.05326585923986" lon="118.80459614309731">
        <ele>13.93323834054172</ele>
        <time>2026-08-10T10:23:40Z</time>
      </trkpt>
      <trkpt lat="32.05334175169512" lon="118.80452499505819">
        <ele>15.074702573940158</ele>
        <time>2026-08-10T10:23:43Z</time>
      </trkpt>
      <trkpt lat="32.05338560906707" lon="118.80443781828242">
        <ele>13.47877056710422</ele>
        <time>2026-08-10T10:23:46Z</time>
      </trkpt>
      <trkpt lat="32.05341344197971" lon="118.8043386192994">
        <ele>16.226741148158908</ele>
        <time>2026-08-10T10:23:49Z</time>
      </trkpt>
      <trkpt lat="32.05342325703291" lon="118.80423140627657">
        <ele>16.078761411830783</ele>
        <time>2026-08-10T10:23:52Z</time>
      </trkpt>
      <trkpt lat="32.05338705326824" lon="118.80411918776879">
        <ele>-2.5598341692239046</ele>
        <time>2026-08-10T10:23:55Z</time>
      </trkpt>
      <trkpt lat="32.05332583713251" lon="118.80400296385231">
        <ele>15.307231260463595</ele>
        <time>2026-08-10T10:23:58Z</time>
      </trkpt>
      <trkpt lat="32.05316258451691" lon="118.8038787337262">
        <ele>15.66657574288547</ele>
        <time>2026-08-10T10:24:04Z</time>
      </trkpt>
      <trkpt lat="32.05283433366528" lon="118.80377656244407">
        <ele>15.381205869838595</ele>
        <time>2026-08-10T10:24:16Z</time>
      </trkpt>
      <trkpt lat="32.05251409516411" lon="118.8036804024338">
        <ele>-8.885441469028592</ele>
        <time>2026-08-10T10:24:28Z</time>
      </trkpt>
      <trkpt lat="32.05228290271102" lon="118.80359926396022">
        <ele>2.975734068080783</ele>
        <time>2026-08-10T10:24:37Z</time>
      </trkpt>
      <trkpt lat="32.05219789071083" lon="118.80360327965755">
        <ele>0.6558182965964079</ele>
        <time>2026-08-10T10:24:40Z</time>
      </trkpt>
      <trkpt lat="32.052111925458874" lon="118.803634348674">
        <ele>16.860881162807345</ele>
        <time>2026-08-10T10:24:43Z</time>
      </trkpt>
      <trkpt lat="32.051952133498865" lon="118.80377463956664">
        <ele>10.648890806362033</ele>
        <time>2026-08-10T10:24:49Z</time>
      </trkpt>
      <trkpt lat="32.05190727855227" lon="118.80386381944686">
        <ele>9.140162779018283</ele>
        <time>2026-08-10T10:24:52Z</time>
      </trkpt>
      <trkpt lat="32.051887450233735" lon="118.80396502088315">
        <ele>16.427546812221408</ele>
        <time>2026-08-10T10:24:55Z</time>
      </trkpt>
      <trkpt lat="32.05188563306315" lon="118.80407022874729">
        <ele>7.261500669643283</ele>
        <time>2026-08-10T10:24:58Z</time>
      </trkpt>
      <trkpt lat="32.05191182754123" lon="118.80417844015943">
        <ele>1.414149595424533</ele>
        <time>2026-08-10T10:25:01Z</time>
      </trkpt>
      <trkpt lat="32.051963019016675" lon="118.80428163955219">
        <ele>14.905604673549533</ele>
        <time>2026-08-10T10:25:04Z</time>
      </trkpt>
      <trkpt lat="32.05204715848814" lon="118.80435076864192">
        <ele>3.261103941127658</ele>
        <time>2026-08-10T10:25:07Z</time>
      </trkpt>
      <trkpt lat="32.052216311730945" lon="118.80441688404355">
        <ele>15.328364683315158</ele>
        <time>2026-08-10T10:25:13Z</time>
      </trkpt>
      <trkpt lat="32.05238940285403" lon="118.80444692768268">
        <ele>11.927760435268283</ele>
        <time>2026-08-10T10:25:19Z</time>
      </trkpt>
      <trkpt lat="32.05247447961734" lon="118.80447998537983">
        <ele>11.230189634487033</ele>
        <time>2026-08-10T10:25:22Z</time>
      </trkpt>
      <trkpt lat="32.05254443564595" lon="118.80462614754558">
        <ele>4.44483502022922</ele>
        <time>2026-08-10T10:25:25Z</time>
      </trkpt>
      <trkpt lat="32.052795123327854" lon="118.80456343614898">
        <ele>-5.595799135044217</ele>
        <time>2026-08-10T10:25:34Z</time>
      </trkpt>
      <trkpt lat="32.052870744922146" lon="118.80458114959193">
        <ele>12.530192686244845</ele>
        <time>2026-08-10T10:25:37Z</time>
      </trkpt>
      <trkpt lat="32.053048944210914" lon="118.80467231411635">
        <ele>14.366572691127658</ele>
        <time>2026-08-10T10:25:43Z</time>
      </trkpt>
      <trkpt lat="32.053136925218226" lon="118.80465026228705">
        <ele>15.93079693429172</ele>
        <time>2026-08-10T10:25:46Z</time>
      </trkpt>
      <trkpt lat="32.053304762733354" lon="118.80453602030691">
        <ele>16.95600445382297</ele>
        <time>2026-08-10T10:25:52Z</time>
      </trkpt>
      <trkpt lat="32.05337163397361" lon="118.80445385132683">
        <ele>16.818599058315158</ele>
        <time>2026-08-10T10:25:55Z</time>
      </trkpt>
      <trkpt lat="32.05339847539284" lon="118.80435966232751">
        <ele>15.751124693080783</ele>
        <time>2026-08-10T10:25:58Z</time>
      </trkpt>
      <trkpt lat="32.05338610895475" lon="118.80415125121607">
        <ele>14.429988218471408</ele>
        <time>2026-08-10T10:26:04Z</time>
      </trkpt>
      <trkpt lat="32.05330178292432" lon="118.8039749106891">
        <ele>17.439540220424533</ele>
        <time>2026-08-10T10:26:10Z</time>
      </trkpt>
      <trkpt lat="32.05324667298193" lon="118.80391880504477">
        <ele>4.159465147182345</ele>
        <time>2026-08-10T10:26:13Z</time>
      </trkpt>
      <trkpt lat="32.052961428176" lon="118.8038146257933">
        <ele>-0.2610518205910921</ele>
        <time>2026-08-10T10:26:25Z</time>
      </trkpt>
      <trkpt lat="32.05267921725716" lon="118.80372948393328">
        <ele>12.614741636440158</ele>
        <time>2026-08-10T10:26:37Z</time>
      </trkpt>
      <trkpt lat="32.05253808310986" lon="118.80367038050488">
        <ele>3.031215025112033</ele>
        <time>2026-08-10T10:26:43Z</time>
      </trkpt>
      <trkpt lat="32.052238891158275" lon="118.80359826603367">
        <ele>8.907634092494845</ele>
        <time>2026-08-10T10:26:55Z</time>
      </trkpt>
      <trkpt lat="32.05215290850707" lon="118.8036193153333">
        <ele>15.233241392299533</ele>
        <time>2026-08-10T10:26:58Z</time>
      </trkpt>
      <trkpt lat="32.051998058422136" lon="118.80372553863644">
        <ele>15.497462583705783</ele>
        <time>2026-08-10T10:27:04Z</time>
      </trkpt>
      <trkpt lat="32.051950178348996" lon="118.8038006910779">
        <ele>0.9094804059714079</ele>
        <time>2026-08-10T10:27:07Z</time>
      </trkpt>
      <trkpt lat="32.05190446449545" lon="118.80397103118325">
        <ele>15.719416929408908</ele>
        <time>2026-08-10T10:27:13Z</time>
      </trkpt>
      <trkpt lat="32.051900638156255" lon="118.80407122934743">
        <ele>3.916377378627658</ele>
        <time>2026-08-10T10:27:16Z</time>
      </trkpt>
      <trkpt lat="32.05191582668593" lon="118.80417743781129">
        <ele>14.081202818080783</ele>
        <time>2026-08-10T10:27:19Z</time>
      </trkpt>
      <trkpt lat="32.051956993190025" lon="118.80426761235451">
        <ele>16.987712217494845</ele>
        <time>2026-08-10T10:27:22Z</time>
      </trkpt>
      <trkpt lat="32.05203413283636" lon="118.80433774405505">
        <ele>12.794429136440158</ele>
        <time>2026-08-10T10:27:25Z</time>
      </trkpt>
      <trkpt lat="32.052363397056034" lon="118.80444693007215">
        <ele>14.926738096401095</ele>
        <time>2026-08-10T10:27:37Z</time>
      </trkpt>
      <trkpt lat="32.052685656348274" lon="118.80455411295061">
        <ele>12.339946104213595</ele>
        <time>2026-08-10T10:27:49Z</time>
      </trkpt>
      <trkpt lat="32.053013890793906" lon="118.80464626563862">
        <ele>16.237300230190158</ele>
        <time>2026-08-10T10:28:01Z</time>
      </trkpt>
      <trkpt lat="32.05308892329559" lon="118.80465527663901">
        <ele>-9.294987367466092</ele>
        <time>2026-08-10T10:28:04Z</time>
      </trkpt>
      <trkpt lat="32.05316689330855" lon="118.80462821579563">
        <ele>15.032435728237033</ele>
        <time>2026-08-10T10:28:07Z</time>
      </trkpt>
      <trkpt lat="32.053311718724096" lon="118.80450996802534">
        <ele>14.64136822335422</ele>
        <time>2026-08-10T10:28:13Z</time>
      </trkpt>
      <trkpt lat="32.053363574394226" lon="118.8044207865663">
        <ele>13.119426084682345</ele>
        <time>2026-08-10T10:28:16Z</time>
      </trkpt>
      <trkpt lat="32.053398394891914" lon="118.80431357110456">
        <ele>-16.407986329868436</ele>
        <time>2026-08-10T10:28:19Z</time>
      </trkpt>
      <trkpt lat="32.053405183093844" lon="118.80419132868738">
        <ele>11.769221616908908</ele>
        <time>2026-08-10T10:28:22Z</time>
      </trkpt>
      <trkpt lat="32.05337000755931" lon="118.80409514182573">
        <ele>12.667598081752658</ele>
        <time>2026-08-10T10:28:25Z</time>
      </trkpt>
      <trkpt lat="32.05331383271417" lon="118.80400196297761">
        <ele>13.267390562221408</ele>
        <time>2026-08-10T10:28:28Z</time>
      </trkpt>
      <trkpt lat="32.053167617015966" lon="118.80389676883115">
        <ele>12.94239361397922</ele>
        <time>2026-08-10T10:28:34Z</time>
      </trkpt>
      <trkpt lat="32.05283232276774" lon="118.80377055078439">
        <ele>13.185481382533908</ele>
        <time>2026-08-10T10:28:46Z</time>
      </trkpt>
      <trkpt lat="32.05254911689306" lon="118.8036884149961">
        <ele>13.890971494838595</ele>
        <time>2026-08-10T10:28:58Z</time>
      </trkpt>
      <trkpt lat="32.05227693616426" lon="118.80361930393532">
        <ele>14.51453716866672</ele>
        <time>2026-08-10T10:29:10Z</time>
      </trkpt>
      <trkpt lat="32.05219989115691" lon="118.80360327947372">
        <ele>14.89503033272922</ele>
        <time>2026-08-10T10:29:13Z</time>
      </trkpt>
      <trkpt lat="32.05204896535012" lon="118.80366541559222">
        <ele>13.404780698940158</ele>
        <time>2026-08-10T10:29:19Z</time>
      </trkpt>
      <trkpt lat="32.051946135644194" lon="118.80377664406599">
        <ele>5.562526060268283</ele>
        <time>2026-08-10T10:29:25Z</time>
      </trkpt>
      <trkpt lat="32.051915254189815" lon="118.80384878908261">
        <ele>4.032649351283908</ele>
        <time>2026-08-10T10:29:28Z</time>
      </trkpt>
      <trkpt lat="32.051899548893005" lon="118.80402012854267">
        <ele>16.300715757533908</ele>
        <time>2026-08-10T10:29:34Z</time>
      </trkpt>
      <trkpt lat="32.05193383594537" lon="118.80418044209857">
        <ele>14.926738096401095</ele>
        <time>2026-08-10T10:29:40Z</time>
      </trkpt>
      <trkpt lat="32.05198099504646" lon="118.8042656061849">
        <ele>15.201533628627658</ele>
        <time>2026-08-10T10:29:43Z</time>
      </trkpt>
      <trkpt lat="32.05204712173665" lon="118.80432972699606">
        <ele>14.091777158901095</ele>
        <time>2026-08-10T10:29:46Z</time>
      </trkpt>
      <trkpt lat="32.05212220497451" lon="118.80436779546768">
        <ele>13.774699522182345</ele>
        <time>2026-08-10T10:29:49Z</time>
      </trkpt>
      <trkpt lat="32.052272278695696" lon="118.80439082730878">
        <ele>13.658442808315158</ele>
        <time>2026-08-10T10:29:55Z</time>
      </trkpt>
      <trkpt lat="32.052388407885815" lon="118.8044499337292">
        <ele>-2.298252748325467</ele>
        <time>2026-08-10T10:30:01Z</time>
      </trkpt>
      <trkpt lat="32.05266361287977" lon="118.80453207127185">
        <ele>14.873896909877658</ele>
        <time>2026-08-10T10:30:13Z</time>
      </trkpt>
      <trkpt lat="32.05290276783554" lon="118.8045901645347">
        <ele>13.99665386788547</ele>
        <time>2026-08-10T10:30:22Z</time>
      </trkpt>
      <trkpt lat="32.0530579146337" lon="118.80465427749976">
        <ele>12.065150571987033</ele>
        <time>2026-08-10T10:30:28Z</time>
      </trkpt>
      <trkpt lat="32.05322089656879" lon="118.80462320089435">
        <ele>14.873896909877658</ele>
        <time>2026-08-10T10:30:34Z</time>
      </trkpt>
      <trkpt lat="32.05333570304176" lon="118.80449794199023">
        <ele>7.557429624721408</ele>
        <time>2026-08-10T10:30:41Z</time>
      </trkpt>
      <trkpt lat="32.053387560477624" lon="118.80440976253247">
        <ele>15.465754820033908</ele>
        <time>2026-08-10T10:30:44Z</time>
      </trkpt>
      <trkpt lat="32.05341525525107" lon="118.80423140701186">
        <ele>2.291377378627658</ele>
        <time>2026-08-10T10:30:50Z</time>
      </trkpt>
      <trkpt lat="32.053382020712014" lon="118.80410115259829">
        <ele>11.293605161830783</ele>
        <time>2026-08-10T10:30:53Z</time>
      </trkpt>
      <trkpt lat="32.05327475073824" lon="118.80395988351407">
        <ele>13.045436216518283</ele>
        <time>2026-08-10T10:30:59Z</time>
      </trkpt>
      <trkpt lat="32.053210642290246" lon="118.80390578266302">
        <ele>12.265971494838595</ele>
        <time>2026-08-10T10:31:02Z</time>
      </trkpt>
      <trkpt lat="32.052908404167056" lon="118.80380761684313">
        <ele>14.70478375069797</ele>
        <time>2026-08-10T10:31:14Z</time>
      </trkpt>
      <trkpt lat="32.05264118963224" lon="118.80371846572216">
        <ele>12.265971494838595</ele>
        <time>2026-08-10T10:31:26Z</time>
      </trkpt>
      <trkpt lat="32.05231794704783" lon="118.80362030213797">
        <ele>9.679179502651095</ele>
        <time>2026-08-10T10:31:38Z</time>
      </trkpt>
      <trkpt lat="32.05218190279798" lon="118.80361229886864">
        <ele>13.595027280971408</ele>
        <time>2026-08-10T10:31:44Z</time>
      </trkpt>
      <trkpt lat="32.052076929831244" lon="118.8036413656927">
        <ele>12.118007017299533</ele>
        <time>2026-08-10T10:31:47Z</time>
      </trkpt>
      <trkpt lat="32.05200201578745" lon="118.80370048894632">
        <ele>13.616175962612033</ele>
        <time>2026-08-10T10:31:50Z</time>
      </trkpt>
      <trkpt lat="32.05192324377374" lon="118.80384177452173">
        <ele>13.890971494838595</ele>
        <time>2026-08-10T10:31:56Z</time>
      </trkpt>
      <trkpt lat="32.0519064893705" lon="118.80398505868109">
        <ele>14.303157163783908</ele>
        <time>2026-08-10T10:32:02Z</time>
      </trkpt>
      <trkpt lat="32.05192469939844" lon="118.80410329047103">
        <ele>12.857829404994845</ele>
        <time>2026-08-10T10:32:05Z</time>
      </trkpt>
      <trkpt lat="32.05201499738477" lon="118.80426259711437">
        <ele>14.757624937221408</ele>
        <time>2026-08-10T10:32:11Z</time>
      </trkpt>
      <trkpt lat="32.0520791516254" lon="118.80434274983507">
        <ele>13.74299175851047</ele>
        <time>2026-08-10T10:32:14Z</time>
      </trkpt>
      <trkpt lat="32.05232334610202" lon="118.80442288611644">
        <ele>12.445643736049533</ele>
        <time>2026-08-10T10:32:23Z</time>
      </trkpt>
      <trkpt lat="32.05258860317076" lon="118.80453608610948">
        <ele>13.428569151088595</ele>
        <time>2026-08-10T10:32:32Z</time>
      </trkpt>
      <trkpt lat="32.05286278347217" lon="118.80460419603233">
        <ele>11.568400694057345</ele>
        <time>2026-08-10T10:32:41Z</time>
      </trkpt>
      <trkpt lat="32.05310295624316" lon="118.8046723091537">
        <ele>17.875514341518283</ele>
        <time>2026-08-10T10:32:51Z</time>
      </trkpt>
      <trkpt lat="32.05316592817063" lon="118.80464825564574">
        <ele>18.05518658272922</ele>
        <time>2026-08-10T10:32:54Z</time>
      </trkpt>
      <trkpt lat="32.053311746765175" lon="118.80452599980144">
        <ele>19.42652447335422</ele>
        <time>2026-08-10T10:33:00Z</time>
      </trkpt>
      <trkpt lat="32.05339350228648" lon="118.80437569452477">
        <ele>14.229182554408908</ele>
        <time>2026-08-10T10:33:06Z</time>
      </trkpt>
      <trkpt lat="32.05340937109816" lon="118.80429854035431">
        <ele>17.60071880929172</ele>
        <time>2026-08-10T10:33:09Z</time>
      </trkpt>
      <trkpt lat="32.05330584314926" lon="118.80400897755712">
        <ele>10.123088194057345</ele>
        <time>2026-08-10T10:33:21Z</time>
      </trkpt>
      <trkpt lat="32.05319164154507" lon="118.80390778836167">
        <ele>-1.304752992466092</ele>
        <time>2026-08-10T10:33:27Z</time>
      </trkpt>
      <trkpt lat="32.05292437462878" lon="118.80378857786026">
        <ele>7.95905621163547</ele>
        <time>2026-08-10T10:33:39Z</time>
      </trkpt>
      <trkpt lat="32.05257611072807" lon="118.80368139870718">
        <ele>14.556819273158908</ele>
        <time>2026-08-10T10:33:54Z</time>
      </trkpt>
      <trkpt lat="32.05225390320101" lon="118.80360327451007">
        <ele>6.648494077846408</ele>
        <time>2026-08-10T10:34:06Z</time>
      </trkpt>
      <trkpt lat="32.05219988767798" lon="118.8036012755316">
        <ele>12.921244932338595</ele>
        <time>2026-08-10T10:34:09Z</time>
      </trkpt>
      <trkpt lat="32.05203295655963" lon="118.80366241114666">
        <ele>13.330806089565158</ele>
        <time>2026-08-10T10:34:15Z</time>
      </trkpt>
      <trkpt lat="32.051978033066014" lon="118.8037135167987">
        <ele>14.37714703194797</ele>
        <time>2026-08-10T10:34:18Z</time>
      </trkpt>
      <trkpt lat="32.051900243870925" lon="118.80384478256087">
        <ele>10.659465147182345</ele>
        <time>2026-08-10T10:34:24Z</time>
      </trkpt>
      <trkpt lat="32.05187736776025" lon="118.80391893087544">
        <ele>7.11353619210422</ele>
        <time>2026-08-10T10:34:27Z</time>
      </trkpt>
      <trkpt lat="32.05189070403967" lon="118.80411030745142">
        <ele>14.091777158901095</ele>
        <time>2026-08-10T10:34:33Z</time>
      </trkpt>
      <trkpt lat="32.051918848329485" lon="118.80418946130283">
        <ele>-0.9268995989114046</ele>
        <time>2026-08-10T10:34:36Z</time>
      </trkpt>
      <trkpt lat="32.052036117532786" lon="118.80432872602404">
        <ele>13.616175962612033</ele>
        <time>2026-08-10T10:34:42Z</time>
      </trkpt>
      <trkpt lat="32.05231232788831" lon="118.80441386926782">
        <ele>-0.8317915666848421</ele>
        <time>2026-08-10T10:34:54Z</time>
      </trkpt>
      <trkpt lat="32.05260058656591" lon="118.80452506315856">
        <ele>14.916163755580783</ele>
        <time>2026-08-10T10:35:06Z</time>
      </trkpt>
      <trkpt lat="32.05288983509243" lon="118.80463024522786">
        <ele>16.62836773507297</ele>
        <time>2026-08-10T10:35:19Z</time>
      </trkpt>
      <trkpt lat="32.053118961562845" lon="118.80467330967174">
        <ele>15.909663511440158</ele>
        <time>2026-08-10T10:35:28Z</time>
      </trkpt>
      <trkpt lat="32.05324288568418" lon="118.80461418098409">
        <ele>15.772258115932345</ele>
        <time>2026-08-10T10:35:31Z</time>
      </trkpt>
      <trkpt lat="32.053316760148064" lon="118.80453301324525">
        <ele>18.919215513393283</ele>
        <time>2026-08-10T10:35:34Z</time>
      </trkpt>
      <trkpt lat="32.053402479784495" lon="118.80436166592688">
        <ele>12.30823834054172</ele>
        <time>2026-08-10T10:35:40Z</time>
      </trkpt>
      <trkpt lat="32.05340628821995" lon="118.80425144747055">
        <ele>10.81800396554172</ele>
        <time>2026-08-10T10:35:43Z</time>
      </trkpt>
      <trkpt lat="32.05338411025667" lon="118.80415225338004">
        <ele>14.419413877651095</ele>
        <time>2026-08-10T10:35:46Z</time>
      </trkpt>
      <trkpt lat="32.05329281931008" lon="118.80399695501961">
        <ele>12.781215025112033</ele>
        <time>2026-08-10T10:35:52Z</time>
      </trkpt>
      <trkpt lat="32.05301549074978" lon="118.8038436781001">
        <ele>14.324305845424533</ele>
        <time>2026-08-10T10:36:04Z</time>
      </trkpt>
      <trkpt lat="32.05273834885272" lon="118.80379761272515">
        <ele>9.858851743862033</ele>
        <time>2026-08-10T10:36:16Z</time>
      </trkpt>
      <trkpt lat="32.05247207187496" lon="118.80367239051598">
        <ele>14.937312437221408</ele>
        <time>2026-08-10T10:36:28Z</time>
      </trkpt>
      <trkpt lat="32.05219992246996" lon="118.80362131495582">
        <ele>16.173884702846408</ele>
        <time>2026-08-10T10:36:40Z</time>
      </trkpt>
      <trkpt lat="32.0520549927961" lon="118.80368044462423">
        <ele>12.086299253627658</ele>
        <time>2026-08-10T10:36:46Z</time>
      </trkpt>
      <trkpt lat="32.05194617745656" lon="118.80380069144556">
        <ele>15.645442320033908</ele>
        <time>2026-08-10T10:36:52Z</time>
      </trkpt>
      <trkpt lat="32.05189730944579" lon="118.80388285790133">
        <ele>3.5041917096823454</ele>
        <time>2026-08-10T10:36:55Z</time>
      </trkpt>
      <trkpt lat="32.05187560114794" lon="118.80405319602971">
        <ele>-27.291515992954373</ele>
        <time>2026-08-10T10:37:01Z</time>
      </trkpt>
      <trkpt lat="32.051899767194826" lon="118.80414537591386">
        <ele>14.081202818080783</ele>
        <time>2026-08-10T10:37:04Z</time>
      </trkpt>
      <trkpt lat="32.05200008675387" lon="118.80431570355559">
        <ele>17.040553404018283</ele>
        <time>2026-08-10T10:37:10Z</time>
      </trkpt>
      <trkpt lat="32.05208020085699" lon="118.80437080527844">
        <ele>3.9586594831198454</ele>
        <time>2026-08-10T10:37:13Z</time>
      </trkpt>
      <trkpt lat="32.052345372024085" lon="118.80443490790933">
        <ele>16.734050108119845</ele>
        <time>2026-08-10T10:37:25Z</time>
      </trkpt>
      <trkpt lat="32.05261257697287" lon="118.8045180481534">
        <ele>21.233851743862033</ele>
        <time>2026-08-10T10:37:37Z</time>
      </trkpt>
      <trkpt lat="32.05290781454751" lon="118.8046162157463">
        <ele>16.05762798897922</ele>
        <time>2026-08-10T10:37:49Z</time>
      </trkpt>
      <trkpt lat="32.053153904445466" lon="118.80463623289288">
        <ele>21.011897398158908</ele>
        <time>2026-08-10T10:37:58Z</time>
      </trkpt>
      <trkpt lat="32.053224869397155" lon="118.804607168726">
        <ele>17.516169859096408</ele>
        <time>2026-08-10T10:38:01Z</time>
      </trkpt>
      <trkpt lat="32.05337056194425" lon="118.80441277004782">
        <ele>16.24787457101047</ele>
        <time>2026-08-10T10:38:10Z</time>
      </trkpt>
      <trkpt lat="32.05338830344853" lon="118.80426247092502">
        <ele>16.755183530971408</ele>
        <time>2026-08-10T10:38:16Z</time>
      </trkpt>
      <trkpt lat="32.053371032235745" lon="118.80410916944427">
        <ele>2.7881272565573454</ele>
        <time>2026-08-10T10:38:22Z</time>
      </trkpt>
      <trkpt lat="32.053346887192255" lon="118.80402901334784">
        <ele>16.987712217494845</ele>
        <time>2026-08-10T10:38:25Z</time>
      </trkpt>
      <trkpt lat="32.053294762172285" lon="118.80396388958386">
        <ele>17.93629009835422</ele>
        <time>2026-08-10T10:38:28Z</time>
      </trkpt>
      <trkpt lat="32.053023483817746" lon="118.80383866748956">
        <ele>13.246257139369845</ele>
        <time>2026-08-10T10:38:37Z</time>
      </trkpt>
      <trkpt lat="32.05274923808513" lon="118.80373248341861">
        <ele>16.173884702846408</ele>
        <time>2026-08-10T10:38:49Z</time>
      </trkpt>
      <trkpt lat="32.05244204430072" lon="118.80366036960794">
        <ele>-33.07545153982937</ele>
        <time>2026-08-10T10:39:01Z</time>
      </trkpt>
      <trkpt lat="32.052262910426805" lon="118.80360627959611">
        <ele>-1.8120619524270296</ele>
        <time>2026-08-10T10:39:10Z</time>
      </trkpt>
      <trkpt lat="32.05213990560729" lon="118.80361931652824">
        <ele>17.883448911830783</ele>
        <time>2026-08-10T10:39:16Z</time>
      </trkpt>
      <trkpt lat="32.05197208222513" lon="118.80374257457144">
        <ele>16.480387998744845</ele>
        <time>2026-08-10T10:39:25Z</time>
      </trkpt>
      <trkpt lat="32.05193718067569" lon="118.80380369819592">
        <ele>15.782832456752658</ele>
        <time>2026-08-10T10:39:28Z</time>
      </trkpt>
      <trkpt lat="32.051891459850054" lon="118.80397003040096">
        <ele>15.814540220424533</ele>
        <time>2026-08-10T10:39:34Z</time>
      </trkpt>
      <trkpt lat="32.05188763001696" lon="118.80406822460598">
        <ele>11.314753843471408</ele>
        <time>2026-08-10T10:39:40Z</time>
      </trkpt>
      <trkpt lat="32.05194790724426" lon="118.80421951806593">
        <ele>16.934871030971408</ele>
        <time>2026-08-10T10:39:46Z</time>
      </trkpt>
      <trkpt lat="32.052029077476604" lon="118.80430668304635">
        <ele>15.264949155971408</ele>
        <time>2026-08-10T10:39:49Z</time>
      </trkpt>
      <trkpt lat="32.052143199156326" lon="118.80436178163652">
        <ele>16.24787457101047</ele>
        <time>2026-08-10T10:39:55Z</time>
      </trkpt>
      <trkpt lat="32.052270290505476" lon="118.80439784138065">
        <ele>16.44868023507297</ele>
        <time>2026-08-10T10:40:01Z</time>
      </trkpt>
      <trkpt lat="32.05251753651509" lon="118.80450703503918">
        <ele>12.42451031319797</ele>
        <time>2026-08-10T10:40:10Z</time>
      </trkpt>
      <trkpt lat="32.052789712841474" lon="118.80457314114048">
        <ele>11.39930279366672</ele>
        <time>2026-08-10T10:40:25Z</time>
      </trkpt>
      <trkpt lat="32.053057853235906" lon="118.8046192079238">
        <ele>1.141993833705783</ele>
        <time>2026-08-10T10:40:37Z</time>
      </trkpt>
      <trkpt lat="32.05319984453647" lon="118.8045961491629">
        <ele>11.737513853237033</ele>
        <time>2026-08-10T10:40:43Z</time>
      </trkpt>
      <trkpt lat="32.05340006101405" lon="118.8046943256088">
        <ele>15.962504697963595</ele>
        <time>2026-08-10T10:40:46Z</time>
      </trkpt>
      <trkpt lat="32.05340747389678" lon="118.80435765753342">
        <ele>19.003764463588595</ele>
        <time>2026-08-10T10:40:56Z</time>
      </trkpt>
      <trkpt lat="32.05336108241851" lon="118.80413922975367">
        <ele>18.06312115304172</ele>
        <time>2026-08-10T10:41:02Z</time>
      </trkpt>
      <trkpt lat="32.05330489005643" lon="118.80403603105555">
        <ele>-1.621830629184842</ele>
        <time>2026-08-10T10:41:05Z</time>
      </trkpt>
      <trkpt lat="32.05323072000138" lon="118.80394786383563">
        <ele>17.389338804408908</ele>
        <time>2026-08-10T10:41:08Z</time>
      </trkpt>
      <trkpt lat="32.05295045883586" lon="118.80383366432476">
        <ele>12.81556255929172</ele>
        <time>2026-08-10T10:41:20Z</time>
      </trkpt>
      <trkpt lat="32.052888418877636" lon="118.8038186404018">
        <ele>13.457637144252658</ele>
        <time>2026-08-10T10:41:23Z</time>
      </trkpt>
      <trkpt lat="32.052767289119565" lon="118.80375953504753">
        <ele>13.679591489955783</ele>
        <time>2026-08-10T10:41:29Z</time>
      </trkpt>
      <trkpt lat="32.05245908290064" lon="118.80368040748934">
        <ele>13.679591489955783</ele>
        <time>2026-08-10T10:41:41Z</time>
      </trkpt>
      <trkpt lat="32.052251939287295" lon="118.80362431609025">
        <ele>13.679591489955783</ele>
        <time>2026-08-10T10:41:50Z</time>
      </trkpt>
      <trkpt lat="32.05210998765991" lon="118.803670419846">
        <ele>13.428569151088595</ele>
        <time>2026-08-10T10:41:56Z</time>
      </trkpt>
      <trkpt lat="32.05196821547231" lon="118.80381972693905">
        <ele>14.081202818080783</ele>
        <time>2026-08-10T10:42:02Z</time>
      </trkpt>
      <trkpt lat="32.05191435508807" lon="118.80390690376036">
        <ele>12.741572691127658</ele>
        <time>2026-08-10T10:42:05Z</time>
      </trkpt>
      <trkpt lat="32.051893498685374" lon="118.80399207371796">
        <ele>14.31373150460422</ele>
        <time>2026-08-10T10:42:08Z</time>
      </trkpt>
      <trkpt lat="32.05192077712233" lon="118.80414837992386">
        <ele>9.531215025112033</ele>
        <time>2026-08-10T10:42:14Z</time>
      </trkpt>
      <trkpt lat="32.051968987122244" lon="118.80426260134202">
        <ele>13.74299175851047</ele>
        <time>2026-08-10T10:42:17Z</time>
      </trkpt>
      <trkpt lat="32.05208822014732" lon="118.80438082438029">
        <ele>11.695231748744845</ele>
        <time>2026-08-10T10:42:23Z</time>
      </trkpt>
      <trkpt lat="32.05237040212022" lon="118.80444893339856">
        <ele>13.13264019601047</ele>
        <time>2026-08-10T10:42:35Z</time>
      </trkpt>
      <trkpt lat="32.052658613517906" lon="118.80453307371758">
        <ele>10.448085142299533</ele>
        <time>2026-08-10T10:42:47Z</time>
      </trkpt>
      <trkpt lat="32.05293584358993" lon="118.80462923901264">
        <ele>12.43506939522922</ele>
        <time>2026-08-10T10:43:00Z</time>
      </trkpt>
      <trkpt lat="32.053013906583665" lon="118.80465528353157">
        <ele>12.929179502651095</ele>
        <time>2026-08-10T10:43:03Z</time>
      </trkpt>
      <trkpt lat="32.053075878295445" lon="118.80463123012203">
        <ele>13.119426084682345</ele>
        <time>2026-08-10T10:43:06Z</time>
      </trkpt>
      <trkpt lat="32.053151893474826" lon="118.8046302211497">
        <ele>13.92267925851047</ele>
        <time>2026-08-10T10:43:09Z</time>
      </trkpt>
      <trkpt lat="32.05322186872881" lon="118.8046071690017">
        <ele>13.238322569057345</ele>
        <time>2026-08-10T10:43:12Z</time>
      </trkpt>
      <trkpt lat="32.053308761871584" lon="118.804535017953">
        <ele>13.98609478585422</ele>
        <time>2026-08-10T10:43:15Z</time>
      </trkpt>
      <trkpt lat="32.0533716409804" lon="118.8044578592669">
        <ele>12.971461607143283</ele>
        <time>2026-08-10T10:43:18Z</time>
      </trkpt>
      <trkpt lat="32.053413469982296" lon="118.8043546510317">
        <ele>13.119426084682345</ele>
        <time>2026-08-10T10:43:21Z</time>
      </trkpt>
      <trkpt lat="32.05340218941761" lon="118.8041953368863">
        <ele>13.98609478585422</ele>
        <time>2026-08-10T10:43:27Z</time>
      </trkpt>
      <trkpt lat="32.05331782138874" lon="118.80399494876656">
        <ele>13.700724912807345</ele>
        <time>2026-08-10T10:43:33Z</time>
      </trkpt>
      <trkpt lat="32.05325968634263" lon="118.80392481570807">
        <ele>12.160273863002658</ele>
        <time>2026-08-10T10:43:36Z</time>
      </trkpt>
      <trkpt lat="32.053186595094495" lon="118.80388173744724">
        <ele>12.762721372768283</ele>
        <time>2026-08-10T10:43:39Z</time>
      </trkpt>
      <trkpt lat="32.05304952795876" lon="118.80386070855366">
        <ele>12.118007017299533</ele>
        <time>2026-08-10T10:43:45Z</time>
      </trkpt>
      <trkpt lat="32.05295043618025" lon="118.80382063865228">
        <ele>7.768824888393283</ele>
        <time>2026-08-10T10:43:48Z</time>
      </trkpt>
      <trkpt lat="32.052718302583216" lon="118.80377356718472">
        <ele>13.394221616908908</ele>
        <time>2026-08-10T10:43:57Z</time>
      </trkpt>
      <trkpt lat="32.05244307237063" lon="118.8036764010707">
        <ele>12.477351499721408</ele>
        <time>2026-08-10T10:44:09Z</time>
      </trkpt>
      <trkpt lat="32.052305953070466" lon="118.80362531309804">
        <ele>13.73243267647922</ele>
        <time>2026-08-10T10:44:15Z</time>
      </trkpt>
      <trkpt lat="32.05217593799479" lon="118.80363334081963">
        <ele>12.900111509487033</ele>
        <time>2026-08-10T10:44:21Z</time>
      </trkpt>
      <trkpt lat="32.05207197048099" lon="118.80366541347811">
        <ele>1.8474839460104704</ele>
        <time>2026-08-10T10:44:24Z</time>
      </trkpt>
      <trkpt lat="32.05196014922002" lon="118.80378265462318">
        <ele>12.139140440151095</ele>
        <time>2026-08-10T10:44:30Z</time>
      </trkpt>
      <trkpt lat="32.051912338947396" lon="118.80389788615999">
        <ele>10.197062803432345</ele>
        <time>2026-08-10T10:44:36Z</time>
      </trkpt>
      <trkpt lat="32.05189947035922" lon="118.80397503955153">
        <ele>13.35193951241672</ele>
        <time>2026-08-10T10:44:39Z</time>
      </trkpt>
      <trkpt lat="32.05190867312256" lon="118.80409026621199">
        <ele>11.705806089565158</ele>
        <time>2026-08-10T10:44:42Z</time>
      </trkpt>
      <trkpt lat="32.05197495348423" lon="118.80424256115612">
        <ele>13.15113384835422</ele>
        <time>2026-08-10T10:44:48Z</time>
      </trkpt>
      <trkpt lat="32.052032065899034" lon="118.80429966889285">
        <ele>15.497462583705783</ele>
        <time>2026-08-10T10:44:51Z</time>
      </trkpt>
      <trkpt lat="32.05230432785529" lon="118.80441487198736">
        <ele>15.053569151088595</ele>
        <time>2026-08-10T10:45:03Z</time>
      </trkpt>
      <trkpt lat="32.05265161546299" lon="118.80453507833339">
        <ele>17.569011045619845</ele>
        <time>2026-08-10T10:45:18Z</time>
      </trkpt>
      <trkpt lat="32.05292481833614" lon="118.80461621418398">
        <ele>13.330806089565158</ele>
        <time>2026-08-10T10:45:31Z</time>
      </trkpt>
      <trkpt lat="32.053061904998444" lon="118.80464826520348">
        <ele>13.470851255580783</ele>
        <time>2026-08-10T10:45:37Z</time>
      </trkpt>
      <trkpt lat="32.0532018923359" lon="118.8046232026405">
        <ele>23.781001402065158</ele>
        <time>2026-08-10T10:45:43Z</time>
      </trkpt>
      <trkpt lat="32.05342909158836" lon="118.80449091352057">
        <ele>13.267390562221408</ele>
        <time>2026-08-10T10:45:52Z</time>
      </trkpt>
      <trkpt lat="32.05339118871554" lon="118.80419633987816">
        <ele>12.48792584054172</ele>
        <time>2026-08-10T10:45:58Z</time>
      </trkpt>
      <trkpt lat="32.053368040301656" lon="118.80411417961737">
        <ele>13.386287046596408</ele>
        <time>2026-08-10T10:46:01Z</time>
      </trkpt>
      <trkpt lat="32.053274778654554" lon="118.80397591514807">
        <ele>11.906611753627658</ele>
        <time>2026-08-10T10:46:07Z</time>
      </trkpt>
      <trkpt lat="32.05296948049907" lon="118.80384368232829">
        <ele>14.947871519252658</ele>
        <time>2026-08-10T10:46:19Z</time>
      </trkpt>
      <trkpt lat="32.05275434022337" lon="118.80379059743467">
        <ele>14.398280454799533</ele>
        <time>2026-08-10T10:46:28Z</time>
      </trkpt>
      <trkpt lat="32.05263521789651" lon="118.80373549981711">
        <ele>12.24482281319797</ele>
        <time>2026-08-10T10:46:34Z</time>
      </trkpt>
      <trkpt lat="32.05232400754523" lon="118.80365436862249">
        <ele>12.857829404994845</ele>
        <time>2026-08-10T10:46:46Z</time>
      </trkpt>
      <trkpt lat="32.05216495990154" lon="118.80364736943446">
        <ele>13.679591489955783</ele>
        <time>2026-08-10T10:46:52Z</time>
      </trkpt>
      <trkpt lat="32.05207997748684" lon="118.80366841865919">
        <ele>13.510478330776095</ele>
        <time>2026-08-10T10:46:55Z</time>
      </trkpt>
      <trkpt lat="32.05195513765217" lon="118.80377664323875">
        <ele>13.404780698940158</ele>
        <time>2026-08-10T10:47:01Z</time>
      </trkpt>
      <trkpt lat="32.051925251191896" lon="118.80384578223813">
        <ele>13.15113384835422</ele>
        <time>2026-08-10T10:47:04Z</time>
      </trkpt>
      <trkpt lat="32.0519155629363" lon="118.8040261389401">
        <ele>14.979579282924533</ele>
        <time>2026-08-10T10:47:10Z</time>
      </trkpt>
      <trkpt lat="32.051932753591046" lon="118.80413334912224">
        <ele>12.678157163783908</ele>
        <time>2026-08-10T10:47:13Z</time>
      </trkpt>
      <trkpt lat="32.051973930529364" lon="118.80422953548907">
        <ele>15.307231260463595</ele>
        <time>2026-08-10T10:47:16Z</time>
      </trkpt>
      <trkpt lat="32.0520380794844" lon="118.8043066822192">
        <ele>13.637309385463595</ele>
        <time>2026-08-10T10:47:19Z</time>
      </trkpt>
      <trkpt lat="32.05217923519411" lon="118.8043778100658">
        <ele>14.38770611397922</ele>
        <time>2026-08-10T10:47:25Z</time>
      </trkpt>
      <trkpt lat="32.05243639757101" lon="118.8044379055002">
        <ele>13.80640728585422</ele>
        <time>2026-08-10T10:47:34Z</time>
      </trkpt>
      <trkpt lat="32.05276369477314" lon="118.80456612962223">
        <ele>13.499903989955783</ele>
        <time>2026-08-10T10:47:46Z</time>
      </trkpt>
      <trkpt lat="32.05298188190869" lon="118.80464526659144">
        <ele>14.419413877651095</ele>
        <time>2026-08-10T10:47:55Z</time>
      </trkpt>
      <trkpt lat="32.05312891115526" lon="118.80464324910595">
        <ele>11.293605161830783</ele>
        <time>2026-08-10T10:48:01Z</time>
      </trkpt>
      <trkpt lat="32.05319888465151" lon="118.80461919496564">
        <ele>12.804988218471408</ele>
        <time>2026-08-10T10:48:04Z</time>
      </trkpt>
      <trkpt lat="32.053319736278816" lon="118.80451898516367">
        <ele>12.762721372768283</ele>
        <time>2026-08-10T10:48:10Z</time>
      </trkpt>
      <trkpt lat="32.053368600026204" lon="118.80443481389074">
        <ele>13.721858335658908</ele>
        <time>2026-08-10T10:48:13Z</time>
      </trkpt>
      <trkpt lat="32.05338831219357" lon="118.8042674808348">
        <ele>12.096858335658908</ele>
        <time>2026-08-10T10:48:19Z</time>
      </trkpt>
      <trkpt lat="32.05337613818272" lon="118.80416928777993">
        <ele>10.913127256557345</ele>
        <time>2026-08-10T10:48:22Z</time>
      </trkpt>
      <trkpt lat="32.0533409574393" lon="118.80407009501623">
        <ele>7.768824888393283</ele>
        <time>2026-08-10T10:48:25Z</time>
      </trkpt>
      <trkpt lat="32.0532948215008" lon="118.80399795681339">
        <ele>12.403361631557345</ele>
        <time>2026-08-10T10:48:28Z</time>
      </trkpt>
      <trkpt lat="32.05323069906864" lon="118.80393584011526">
        <ele>13.912104917690158</ele>
        <time>2026-08-10T10:48:31Z</time>
      </trkpt>
      <trkpt lat="32.052953476933475" lon="118.80384368379896">
        <ele>12.265971494838595</ele>
        <time>2026-08-10T10:48:43Z</time>
      </trkpt>
      <trkpt lat="32.05263537080692" lon="118.80380240861338">
        <ele>11.166789365932345</ele>
        <time>2026-08-10T10:48:52Z</time>
      </trkpt>
      <trkpt lat="32.05253283631566" lon="118.80377586044125">
        <ele>12.139140440151095</ele>
        <time>2026-08-10T10:48:58Z</time>
      </trkpt>
      <trkpt lat="32.05254742252215" lon="118.8037330604279">
        <ele>12.741572691127658</ele>
        <time>2026-08-10T10:49:01Z</time>
      </trkpt>
      <trkpt lat="32.05253184693427" lon="118.8036905259306">
        <ele>12.065150571987033</ele>
        <time>2026-08-10T10:49:04Z</time>
      </trkpt>
      <trkpt lat="32.05227698836234" lon="118.80364936308322">
        <ele>7.726542783901095</ele>
        <time>2026-08-10T10:49:16Z</time>
      </trkpt>
      <trkpt lat="32.05209199408767" lon="118.80367643333398">
        <ele>12.56190044991672</ele>
        <time>2026-08-10T10:49:22Z</time>
      </trkpt>
      <trkpt lat="32.052017073108786" lon="118.80373154872896">
        <ele>10.934260679408908</ele>
        <time>2026-08-10T10:49:25Z</time>
      </trkpt>
      <trkpt lat="32.05196318124939" lon="118.80380068988302">
        <ele>13.964946104213595</ele>
        <time>2026-08-10T10:49:28Z</time>
      </trkpt>
      <trkpt lat="32.05191833679861" lon="118.80389588165666">
        <ele>13.721858335658908</ele>
        <time>2026-08-10T10:49:31Z</time>
      </trkpt>
      <trkpt lat="32.05189750306813" lon="118.80399407730535">
        <ele>8.495448423549533</ele>
        <time>2026-08-10T10:49:34Z</time>
      </trkpt>
      <trkpt lat="32.051946868560606" lon="118.8041974745756">
        <ele>13.690150571987033</ele>
        <time>2026-08-10T10:49:40Z</time>
      </trkpt>
      <trkpt lat="32.05198399046878" lon="118.80426259996344">
        <ele>11.832637144252658</ele>
        <time>2026-08-10T10:49:43Z</time>
      </trkpt>
      <trkpt lat="32.0521732566148" lon="118.80439083640722">
        <ele>13.658442808315158</ele>
        <time>2026-08-10T10:49:52Z</time>
      </trkpt>
      <trkpt lat="32.05242042202815" lon="118.80445393872805">
        <ele>14.990153623744845</ele>
        <time>2026-08-10T10:50:04Z</time>
      </trkpt>
      <trkpt lat="32.05251653453972" lon="118.80450603314527">
        <ele>12.160273863002658</ele>
        <time>2026-08-10T10:50:07Z</time>
      </trkpt>
      <trkpt lat="32.052863771419005" lon="118.80459718202926">
        <ele>12.477351499721408</ele>
        <time>2026-08-10T10:50:19Z</time>
      </trkpt>
      <trkpt lat="32.05308487679254" lon="118.80462922531933">
        <ele>14.218608213588595</ele>
        <time>2026-08-10T10:50:28Z</time>
      </trkpt>
      <trkpt lat="32.053232818571324" lon="118.80457710837533">
        <ele>15.381205869838595</ele>
        <time>2026-08-10T10:50:34Z</time>
      </trkpt>
      <trkpt lat="32.05329773838856" lon="118.80452299512977">
        <ele>14.208033872768283</ele>
        <time>2026-08-10T10:50:37Z</time>
      </trkpt>
      <trkpt lat="32.05337951317316" lon="118.80438371168187">
        <ele>13.15113384835422</ele>
        <time>2026-08-10T10:50:43Z</time>
      </trkpt>
      <trkpt lat="32.05338423960379" lon="118.80422639995423">
        <ele>12.001735044643283</ele>
        <time>2026-08-10T10:50:49Z</time>
      </trkpt>
      <trkpt lat="32.053336970518636" lon="118.80407811121476">
        <ele>6.690776182338595</ele>
        <time>2026-08-10T10:50:55Z</time>
      </trkpt>
      <trkpt lat="32.05326876684889" lon="118.80396990383633">
        <ele>13.238322569057345</ele>
        <time>2026-08-10T10:51:01Z</time>
      </trkpt>
      <trkpt lat="32.05296745739587" lon="118.8038306568375">
        <ele>13.299098325893283</ele>
        <time>2026-08-10T10:51:13Z</time>
      </trkpt>
      <trkpt lat="32.05265724021582" lon="118.80374551752857">
        <ele>13.700724912807345</ele>
        <time>2026-08-10T10:51:28Z</time>
      </trkpt>
      <trkpt lat="32.05236885542273" lon="118.80370249576919">
        <ele>11.33588726632297</ele>
        <time>2026-08-10T10:51:35Z</time>
      </trkpt>
      <trkpt lat="32.052378182044244" lon="118.80379786963384">
        <ele>10.448085142299533</ele>
        <time>2026-08-10T10:51:38Z</time>
      </trkpt>
      <trkpt lat="32.052377129281254" lon="118.80367111479642">
        <ele>13.774699522182345</ele>
        <time>2026-08-10T10:51:41Z</time>
      </trkpt>
      <trkpt lat="32.05232495556798" lon="118.80362430938014">
        <ele>-9.749455140903592</ele>
        <time>2026-08-10T10:51:44Z</time>
      </trkpt>
      <trkpt lat="32.052273909401094" lon="118.80360427464275">
        <ele>12.984660459682345</ele>
        <time>2026-08-10T10:51:47Z</time>
      </trkpt>
      <trkpt lat="32.05216789793565" lon="118.8036112981843">
        <ele>12.971461607143283</ele>
        <time>2026-08-10T10:51:50Z</time>
      </trkpt>
      <trkpt lat="32.05200006757484" lon="118.80373054831834">
        <ele>12.731013609096408</ele>
        <time>2026-08-10T10:51:59Z</time>
      </trkpt>
      <trkpt lat="32.05191229361449" lon="118.80387183479093">
        <ele>13.573893858119845</ele>
        <time>2026-08-10T10:52:05Z</time>
      </trkpt>
      <trkpt lat="32.05189940406449" lon="118.8039369644293">
        <ele>13.362513853237033</ele>
        <time>2026-08-10T10:52:08Z</time>
      </trkpt>
      <trkpt lat="32.05190065212671" lon="118.80407924517822">
        <ele>12.096858335658908</ele>
        <time>2026-08-10T10:52:11Z</time>
      </trkpt>
      <trkpt lat="32.05196798165228" lon="118.80425959548835">
        <ele>14.112910581752658</ele>
        <time>2026-08-10T10:52:17Z</time>
      </trkpt>
      <trkpt lat="32.052102225020974" lon="118.80438182507744">
        <ele>10.239344907924533</ele>
        <time>2026-08-10T10:52:23Z</time>
      </trkpt>
      <trkpt lat="32.05236341457246" lon="118.80445694992147">
        <ele>14.990153623744845</ele>
        <time>2026-08-10T10:52:35Z</time>
      </trkpt>
      <trkpt lat="32.052573661183835" lon="118.80457115701748">
        <ele>14.37714703194797</ele>
        <time>2026-08-10T10:52:44Z</time>
      </trkpt>
      <trkpt lat="32.05283983096537" lon="118.80463425777413">
        <ele>13.890971494838595</ele>
        <time>2026-08-10T10:52:56Z</time>
      </trkpt>
      <trkpt lat="32.05298593719132" lon="118.80467632785998">
        <ele>13.658442808315158</ele>
        <time>2026-08-10T10:53:02Z</time>
      </trkpt>
      <trkpt lat="32.05312097078229" lon="118.80467831943047">
        <ele>14.218608213588595</ele>
        <time>2026-08-10T10:53:09Z</time>
      </trkpt>
      <trkpt lat="32.053238884793075" lon="118.8046141813517">
        <ele>11.938319517299533</ele>
        <time>2026-08-10T10:53:15Z</time>
      </trkpt>
      <trkpt lat="32.05331279606844" lon="118.80455405532753">
        <ele>13.20661480538547</ele>
        <time>2026-08-10T10:53:18Z</time>
      </trkpt>
      <trkpt lat="32.05340053535819" lon="118.80439372959124">
        <ele>12.635890318080783</ele>
        <time>2026-08-10T10:53:24Z</time>
      </trkpt>
      <trkpt lat="32.05341934358633" lon="118.8042815057351">
        <ele>12.118007017299533</ele>
        <time>2026-08-10T10:53:27Z</time>
      </trkpt>
      <trkpt lat="32.05340414616704" lon="118.80417028718679">
        <ele>9.19300396554172</ele>
        <time>2026-08-10T10:53:30Z</time>
      </trkpt>
      <trkpt lat="32.053365969993045" lon="118.8040741006337">
        <ele>13.185481382533908</ele>
        <time>2026-08-10T10:53:33Z</time>
      </trkpt>
      <trkpt lat="32.053279760575535" lon="118.80396489293966">
        <ele>13.753566099330783</ele>
        <time>2026-08-10T10:53:39Z</time>
      </trkpt>
      <trkpt lat="32.05296446718433" lon="118.80383666896273">
        <ele>-18.838879274204373</ele>
        <time>2026-08-10T10:53:51Z</time>
      </trkpt>
      <trkpt lat="32.052634255988124" lon="118.8037575433253">
        <ele>13.058650327846408</ele>
        <time>2026-08-10T10:54:06Z</time>
      </trkpt>
      <trkpt lat="32.05234099741508" lon="118.80364635128495">
        <ele>14.197474790737033</ele>
        <time>2026-08-10T10:54:18Z</time>
      </trkpt>
      <trkpt lat="32.052156918098056" lon="118.80362432482255">
        <ele>14.176326109096408</ele>
        <time>2026-08-10T10:54:27Z</time>
      </trkpt>
      <trkpt lat="32.052085914439274" lon="118.80363134514917">
        <ele>9.975123716518283</ele>
        <time>2026-08-10T10:54:30Z</time>
      </trkpt>
      <trkpt lat="32.05197009919478" lon="118.80375259448998">
        <ele>11.705806089565158</ele>
        <time>2026-08-10T10:54:36Z</time>
      </trkpt>
      <trkpt lat="32.05188550039064" lon="118.80399407840827">
        <ele>13.595027280971408</ele>
        <time>2026-08-10T10:54:45Z</time>
      </trkpt>
      <trkpt lat="32.05188766843698" lon="118.80409026814206">
        <ele>13.86982281319797</ele>
        <time>2026-08-10T10:54:48Z</time>
      </trkpt>
      <trkpt lat="32.05190578600736" lon="118.80415539516311">
        <ele>13.457637144252658</ele>
        <time>2026-08-10T10:54:51Z</time>
      </trkpt>
      <trkpt lat="32.05195996063006" lon="118.80424857442436">
        <ele>13.721858335658908</ele>
        <time>2026-08-10T10:54:54Z</time>
      </trkpt>
      <trkpt lat="32.052141230219235" lon="118.80437981752564">
        <ele>13.54218609444797</ele>
        <time>2026-08-10T10:55:03Z</time>
      </trkpt>
      <trkpt lat="32.05232336011235" lon="118.80443090199267">
        <ele>13.71393902413547</ele>
        <time>2026-08-10T10:55:13Z</time>
      </trkpt>
      <trkpt lat="32.05239043811129" lon="118.80446696729102">
        <ele>13.79584820382297</ele>
        <time>2026-08-10T10:55:16Z</time>
      </trkpt>
      <trkpt lat="32.052665658902214" lon="118.80455812273505">
        <ele>12.984660459682345</ele>
        <time>2026-08-10T10:55:28Z</time>
      </trkpt>
      <trkpt lat="32.05290880950863" lon="118.8046132096918">
        <ele>13.531611753627658</ele>
        <time>2026-08-10T10:55:40Z</time>
      </trkpt>
      <trkpt lat="32.05304892140077" lon="118.80465928826789">
        <ele>10.405803037807345</ele>
        <time>2026-08-10T10:55:46Z</time>
      </trkpt>
      <trkpt lat="32.0531919164201" lon="118.80463823337641">
        <ele>15.708857847377658</ele>
        <time>2026-08-10T10:55:52Z</time>
      </trkpt>
      <trkpt lat="32.05334465073236" lon="118.80446687961444">
        <ele>13.309672666713595</ele>
        <time>2026-08-10T10:56:01Z</time>
      </trkpt>
      <trkpt lat="32.05336738273796" lon="118.8043105680056">
        <ele>12.68873150460422</ele>
        <time>2026-08-10T10:56:07Z</time>
      </trkpt>
      <trkpt lat="32.05335610576727" lon="118.80415325793372">
        <ele>12.255397154018283</ele>
        <time>2026-08-10T10:56:13Z</time>
      </trkpt>
      <trkpt lat="32.053291883669054" lon="118.80403402829398">
        <ele>13.552760435268283</ele>
        <time>2026-08-10T10:56:19Z</time>
      </trkpt>
      <trkpt lat="32.05318469405349" lon="118.80393885027328">
        <ele>14.06006939522922</ele>
        <time>2026-08-10T10:56:25Z</time>
      </trkpt>
      <trkpt lat="32.0528794342987" lon="118.80382866097652">
        <ele>7.018412901088595</ele>
        <time>2026-08-10T10:56:40Z</time>
      </trkpt>
      <trkpt lat="32.05255518961278" lon="118.80372949533117">
        <ele>3.6415818464010954</ele>
        <time>2026-08-10T10:56:56Z</time>
      </trkpt>
      <trkpt lat="32.052267975914425" lon="118.80364335207972">
        <ele>12.10743267647922</ele>
        <time>2026-08-10T10:57:08Z</time>
      </trkpt>
      <trkpt lat="32.0521299538346" lon="118.8036483746234">
        <ele>12.551326109096408</ele>
        <time>2026-08-10T10:57:14Z</time>
      </trkpt>
      <trkpt lat="32.052024001546485" lon="118.80368946522557">
        <ele>-11.741734193637967</ele>
        <time>2026-08-10T10:57:17Z</time>
      </trkpt>
      <trkpt lat="32.05195808432625" lon="118.8037455817785">
        <ele>13.436488462612033</ele>
        <time>2026-08-10T10:57:20Z</time>
      </trkpt>
      <trkpt lat="32.051918200831516" lon="118.80381772758545">
        <ele>11.927760435268283</ele>
        <time>2026-08-10T10:57:23Z</time>
      </trkpt>
      <trkpt lat="32.05189148776869" lon="118.80398606203714">
        <ele>9.340968443080783</ele>
        <time>2026-08-10T10:57:29Z</time>
      </trkpt>
      <trkpt lat="32.051955943999225" lon="118.80423955695771">
        <ele>10.006816221401095</ele>
        <time>2026-08-10T10:57:38Z</time>
      </trkpt>
      <trkpt lat="32.05218228663661" lon="118.80440686732537">
        <ele>6.426539732143283</ele>
        <time>2026-08-10T10:57:50Z</time>
      </trkpt>
      <trkpt lat="32.052421452031574" lon="118.80447097238287">
        <ele>10.585475279018283</ele>
        <time>2026-08-10T10:58:02Z</time>
      </trkpt>
      <trkpt lat="32.05256459080883" lon="118.80453208037014">
        <ele>5.932429624721408</ele>
        <time>2026-08-10T10:58:08Z</time>
      </trkpt>
      <trkpt lat="32.05278069505595" lon="118.80456412408641">
        <ele>10.860270811244845</ele>
        <time>2026-08-10T10:58:17Z</time>
      </trkpt>
      <trkpt lat="32.05297086542311" lon="118.80463725169872">
        <ele>12.794429136440158</ele>
        <time>2026-08-10T10:58:27Z</time>
      </trkpt>
      <trkpt lat="32.053124929562316" lon="118.8046542713424">
        <ele>10.796870542690158</ele>
        <time>2026-08-10T10:58:33Z</time>
      </trkpt>
      <trkpt lat="32.05323885497864" lon="118.80459714756594">
        <ele>11.483851743862033</ele>
        <time>2026-08-10T10:58:39Z</time>
      </trkpt>
      <trkpt lat="32.05336060242712" lon="118.80448234079734">
        <ele>12.329387022182345</ele>
        <time>2026-08-10T10:58:48Z</time>
      </trkpt>
      <trkpt lat="32.0533826151902" lon="118.80440027135963">
        <ele>12.868403745815158</ele>
        <time>2026-08-10T10:58:51Z</time>
      </trkpt>
      <trkpt lat="32.05339329581754" lon="118.8042574605561">
        <ele>12.49848492257297</ele>
        <time>2026-08-10T10:58:57Z</time>
      </trkpt>
      <trkpt lat="32.05336705580127" lon="118.80412319752556">
        <ele>13.07978375069797</ele>
        <time>2026-08-10T10:59:03Z</time>
      </trkpt>
      <trkpt lat="32.053285819495926" lon="118.80399795764063">
        <ele>14.165767027065158</ele>
        <time>2026-08-10T10:59:09Z</time>
      </trkpt>
      <trkpt lat="32.05315960477138" lon="118.80389075771105">
        <ele>13.47877056710422</ele>
        <time>2026-08-10T10:59:15Z</time>
      </trkpt>
      <trkpt lat="32.05290446078457" lon="118.80384068237774">
        <ele>11.103373838588595</ele>
        <time>2026-08-10T10:59:27Z</time>
      </trkpt>
      <trkpt lat="32.052646234280516" lon="118.80374351459281">
        <ele>11.53669293038547</ele>
        <time>2026-08-10T10:59:39Z</time>
      </trkpt>
      <trkpt lat="32.05230897461823" lon="118.80363733648085">
        <ele>10.923686338588595</ele>
        <time>2026-08-10T10:59:51Z</time>
      </trkpt>
      <trkpt lat="32.05218692478965" lon="118.80362432206499">
        <ele>12.646449400112033</ele>
        <time>2026-08-10T10:59:57Z</time>
      </trkpt>
      <trkpt lat="32.052067940004164" lon="118.80364838032233">
        <ele>10.987101865932345</ele>
        <time>2026-08-10T11:00:00Z</time>
      </trkpt>
      <trkpt lat="32.051989026814844" lon="118.8037085059233">
        <ele>14.408854795619845</ele>
        <time>2026-08-10T11:00:03Z</time>
      </trkpt>
      <trkpt lat="32.0518982904908" lon="118.8038718360777">
        <ele>13.647883726283908</ele>
        <time>2026-08-10T11:00:09Z</time>
      </trkpt>
      <trkpt lat="32.05188553180558" lon="118.80401211400634">
        <ele>13.090358091518283</ele>
        <time>2026-08-10T11:00:15Z</time>
      </trkpt>
      <trkpt lat="32.05191174715848" lon="118.8041323490725">
        <ele>13.28852398507297</ele>
        <time>2026-08-10T11:00:18Z</time>
      </trkpt>
      <trkpt lat="32.05195092539793" lon="118.80422953760291">
        <ele>11.113932920619845</ele>
        <time>2026-08-10T11:00:21Z</time>
      </trkpt>
      <trkpt lat="32.05208116257245" lon="118.80434876155061">
        <ele>12.456218076869845</ele>
        <time>2026-08-10T11:00:27Z</time>
      </trkpt>
      <trkpt lat="32.05235840294741" lon="118.8044509384712">
        <ele>0.8671983014792204</ele>
        <time>2026-08-10T11:00:39Z</time>
      </trkpt>
      <trkpt lat="32.05264962904003" lon="118.8045430944078">
        <ele>13.510478330776095</ele>
        <time>2026-08-10T11:00:51Z</time>
      </trkpt>
      <trkpt lat="32.05298486854294" lon="118.8046372504121">
        <ele>13.510478330776095</ele>
        <time>2026-08-10T11:01:03Z</time>
      </trkpt>
      <trkpt lat="32.053112916362075" lon="118.80464826051652">
        <ele>11.885478330776095</ele>
        <time>2026-08-10T11:01:09Z</time>
      </trkpt>
      <trkpt lat="32.05321187351634" lon="118.80461117787054">
        <ele>14.165767027065158</ele>
        <time>2026-08-10T11:01:12Z</time>
      </trkpt>
      <trkpt lat="32.05327280293613" lon="118.80456307688353">
        <ele>13.92267925851047</ele>
        <time>2026-08-10T11:01:15Z</time>
      </trkpt>
      <trkpt lat="32.05332369511192" lon="118.8044949371361">
        <ele>14.271449400112033</ele>
        <time>2026-08-10T11:01:18Z</time>
      </trkpt>
      <trkpt lat="32.05338241232547" lon="118.80432559636911">
        <ele>11.029383970424533</ele>
        <time>2026-08-10T11:01:24Z</time>
      </trkpt>
      <trkpt lat="32.053373148000645" lon="118.8041752999384">
        <ele>13.14319927804172</ele>
        <time>2026-08-10T11:01:30Z</time>
      </trkpt>
      <trkpt lat="32.053315883778225" lon="118.80403102015349">
        <ele>12.318812681362033</ele>
        <time>2026-08-10T11:01:36Z</time>
      </trkpt>
      <trkpt lat="32.05326277423644" lon="118.80397491427382">
        <ele>12.509059263393283</ele>
        <time>2026-08-10T11:01:39Z</time>
      </trkpt>
      <trkpt lat="32.05299750242609" lon="118.80385269753098">
        <ele>2.1962693464010954</ele>
        <time>2026-08-10T11:01:51Z</time>
      </trkpt>
      <trkpt lat="32.05265723324972" lon="118.80374150963492">
        <ele>11.304179502651095</ele>
        <time>2026-08-10T11:02:03Z</time>
      </trkpt>
      <trkpt lat="32.05251427758642" lon="118.8037079388507">
        <ele>11.864344907924533</ele>
        <time>2026-08-10T11:02:06Z</time>
      </trkpt>
      <trkpt lat="32.05223892942881" lon="118.8036203093996">
        <ele>10.006816221401095</ele>
        <time>2026-08-10T11:02:24Z</time>
      </trkpt>
      <trkpt lat="32.05215291372628" lon="118.80362232124742">
        <ele>12.276530576869845</ele>
        <time>2026-08-10T11:02:27Z</time>
      </trkpt>
      <trkpt lat="32.051996997263686" lon="118.80369046967984">
        <ele>1.2582505475729704</ele>
        <time>2026-08-10T11:02:33Z</time>
      </trkpt>
      <trkpt lat="32.0519231845218" lon="118.80380770738043">
        <ele>12.382228208705783</ele>
        <time>2026-08-10T11:02:39Z</time>
      </trkpt>
      <trkpt lat="32.051870484828065" lon="118.80398706594465">
        <ele>11.874903989955783</ele>
        <time>2026-08-10T11:02:45Z</time>
      </trkpt>
      <trkpt lat="32.05187563956324" lon="118.8040752395604">
        <ele>11.198481870815158</ele>
        <time>2026-08-10T11:02:48Z</time>
      </trkpt>
      <trkpt lat="32.051921943408125" lon="118.80424356800867">
        <ele>10.638331724330783</ele>
        <time>2026-08-10T11:02:51Z</time>
      </trkpt>
      <trkpt lat="32.05196704265045" lon="118.80429466495443">
        <ele>8.442591978237033</ele>
        <time>2026-08-10T11:02:57Z</time>
      </trkpt>
      <trkpt lat="32.05218627877393" lon="118.80440185703691">
        <ele>10.448085142299533</ele>
        <time>2026-08-10T11:03:06Z</time>
      </trkpt>
      <trkpt lat="32.052425468691276" lon="118.80447998988305">
        <ele>11.79035503976047</ele>
        <time>2026-08-10T11:03:21Z</time>
      </trkpt>
      <trkpt lat="32.05273165959016" lon="118.80455010077698">
        <ele>11.885478330776095</ele>
        <time>2026-08-10T11:03:37Z</time>
      </trkpt>
      <trkpt lat="32.05306689032368" lon="118.80463924685202">
        <ele>11.27247173897922</ele>
        <time>2026-08-10T11:03:55Z</time>
      </trkpt>
      <trkpt lat="32.053129897344" lon="118.80463523311064">
        <ele>12.001735044643283</ele>
        <time>2026-08-10T11:03:58Z</time>
      </trkpt>
      <trkpt lat="32.05330672111524" lon="118.80451197245665">
        <ele>11.061091734096408</ele>
        <time>2026-08-10T11:04:07Z</time>
      </trkpt>
      <trkpt lat="32.05337355560822" lon="118.8044087618349">
        <ele>11.769221616908908</ele>
        <time>2026-08-10T11:04:13Z</time>
      </trkpt>
      <trkpt lat="32.053397207533" lon="118.80420635913597">
        <ele>8.93934185616672</ele>
        <time>2026-08-10T11:04:22Z</time>
      </trkpt>
      <trkpt lat="32.05338707073831" lon="118.80412920756557">
        <ele>12.012309385463595</ele>
        <time>2026-08-10T11:04:25Z</time>
      </trkpt>
      <trkpt lat="32.05330082981829" lon="118.8040019641725">
        <ele>13.13264019601047</ele>
        <time>2026-08-10T11:04:31Z</time>
      </trkpt>
      <trkpt lat="32.053238716550226" lon="118.80394485717">
        <ele>10.870845152065158</ele>
        <time>2026-08-10T11:04:34Z</time>
      </trkpt>
      <trkpt lat="32.053000501351505" lon="118.80385169528002">
        <ele>11.050517393276095</ele>
        <time>2026-08-10T11:04:43Z</time>
      </trkpt>
      <trkpt lat="32.05282941792662" lon="118.80382565964798">
        <ele>11.557841612026095</ele>
        <time>2026-08-10T11:04:49Z</time>
      </trkpt>
      <trkpt lat="32.052517142834745" lon="118.80370745541805">
        <ele>12.762721372768283</ele>
        <time>2026-08-10T11:05:01Z</time>
      </trkpt>
      <trkpt lat="32.052167932730555" lon="118.80363133761185">
        <ele>13.246257139369845</ele>
        <time>2026-08-10T11:05:16Z</time>
      </trkpt>
      <trkpt lat="32.05209492862654" lon="118.80363835812311">
        <ele>12.318812681362033</ele>
        <time>2026-08-10T11:05:19Z</time>
      </trkpt>
      <trkpt lat="32.05200402493833" lon="118.80370549862614">
        <ele>11.219630552455783</ele>
        <time>2026-08-10T11:05:25Z</time>
      </trkpt>
      <trkpt lat="32.05193415212981" lon="118.80378766688342">
        <ele>10.384669614955783</ele>
        <time>2026-08-10T11:05:28Z</time>
      </trkpt>
      <trkpt lat="32.05188737696788" lon="118.80392293786163">
        <ele>11.832637144252658</ele>
        <time>2026-08-10T11:05:31Z</time>
      </trkpt>
      <trkpt lat="32.051900690550205" lon="118.80410128871826">
        <ele>12.794429136440158</ele>
        <time>2026-08-10T11:05:37Z</time>
      </trkpt>
      <trkpt lat="32.051933886637784" lon="118.80420949954153">
        <ele>8.664546323940158</ele>
        <time>2026-08-10T11:05:40Z</time>
      </trkpt>
      <trkpt lat="32.05197904007948" lon="118.80429165790443">
        <ele>11.198481870815158</ele>
        <time>2026-08-10T11:05:43Z</time>
      </trkpt>
      <trkpt lat="32.052204298547785" lon="118.80441087324046">
        <ele>5.319423032924533</ele>
        <time>2026-08-10T11:05:52Z</time>
      </trkpt>
      <trkpt lat="32.052489493474404" lon="118.80448599591388">
        <ele>11.431010557338595</ele>
        <time>2026-08-10T11:06:04Z</time>
      </trkpt>
      <trkpt lat="32.05262563771344" lon="118.80455111250508">
        <ele>12.43506939522922</ele>
        <time>2026-08-10T11:06:10Z</time>
      </trkpt>
      <trkpt lat="32.052740665102384" lon="118.8045521039229">
        <ele>12.022883726283908</ele>
        <time>2026-08-10T11:06:17Z</time>
      </trkpt>
      <trkpt lat="32.05301493487996" lon="118.80467131525253">
        <ele>10.934260679408908</ele>
        <time>2026-08-10T11:06:29Z</time>
      </trkpt>
      <trkpt lat="32.053077992789966" lon="118.8046963591785">
        <ele>13.309672666713595</ele>
        <time>2026-08-10T11:06:32Z</time>
      </trkpt>
      <trkpt lat="32.05324792538743" lon="118.8046362242541">
        <ele>11.039958311244845</ele>
        <time>2026-08-10T11:06:38Z</time>
      </trkpt>
      <trkpt lat="32.053303864197645" lon="118.80459413563055">
        <ele>11.251338316127658</ele>
        <time>2026-08-10T11:06:41Z</time>
      </trkpt>
      <trkpt lat="32.05337763531006" lon="118.80445385077539">
        <ele>8.632838560268283</ele>
        <time>2026-08-10T11:06:47Z</time>
      </trkpt>
      <trkpt lat="32.05339628074621" lon="118.80424844244452">
        <ele>9.425517393276095</ele>
        <time>2026-08-10T11:06:53Z</time>
      </trkpt>
      <trkpt lat="32.05338612118684" lon="118.80415826507729">
        <ele>7.768824888393283</ele>
        <time>2026-08-10T11:06:56Z</time>
      </trkpt>
      <trkpt lat="32.053304865617385" lon="118.8040220033618">
        <ele>11.230189634487033</ele>
        <time>2026-08-10T11:07:02Z</time>
      </trkpt>
      <trkpt lat="32.05320570919843" lon="118.80394486020323">
        <ele>5.826747251674533</ele>
        <time>2026-08-10T11:07:08Z</time>
      </trkpt>
      <trkpt lat="32.053118660161694" lon="118.80392783459762">
        <ele>11.33588726632297</ele>
        <time>2026-08-10T11:07:11Z</time>
      </trkpt>
      <trkpt lat="32.05285741545385" lon="118.80382064720061">
        <ele>11.98060162179172</ele>
        <time>2026-08-10T11:07:23Z</time>
      </trkpt>
      <trkpt lat="32.0527292911" lon="118.80376555038283">
        <ele>11.578975034877658</ele>
        <time>2026-08-10T11:07:29Z</time>
      </trkpt>
      <trkpt lat="32.05265028742458" lon="118.80377357343512">
        <ele>11.367595029994845</ele>
        <time>2026-08-10T11:07:32Z</time>
      </trkpt>
      <trkpt lat="32.05238804270139" lon="118.80366638640406">
        <ele>13.34138043038547</ele>
        <time>2026-08-10T11:07:47Z</time>
      </trkpt>
      <trkpt lat="32.05225994977068" lon="118.80362932521226">
        <ele>11.65296490304172</ele>
        <time>2026-08-10T11:07:53Z</time>
      </trkpt>
      <trkpt lat="32.05212897449427" lon="118.80366039837845">
        <ele>11.00825054757297</ele>
        <time>2026-08-10T11:07:59Z</time>
      </trkpt>
      <trkpt lat="32.05202310056927" lon="118.80374657777743">
        <ele>9.721461607143283</ele>
        <time>2026-08-10T11:08:05Z</time>
      </trkpt>
      <trkpt lat="32.05193632686529" lon="118.80388786419545">
        <ele>10.849711729213595</ele>
        <time>2026-08-10T11:08:11Z</time>
      </trkpt>
      <trkpt lat="32.05191249419928" lon="118.80398706208442">
        <ele>11.092799497768283</ele>
        <time>2026-08-10T11:08:14Z</time>
      </trkpt>
      <trkpt lat="32.05191769434324" lon="118.80410128715582">
        <ele>9.64747173897922</ele>
        <time>2026-08-10T11:08:17Z</time>
      </trkpt>
      <trkpt lat="32.05194387138741" lon="118.804199478813">
        <ele>31.776515318080783</ele>
        <time>2026-08-10T11:08:20Z</time>
      </trkpt>
      <trkpt lat="32.05197497446953" lon="118.80425458493603">
        <ele>10.006816221401095</ele>
        <time>2026-08-10T11:08:23Z</time>
      </trkpt>
      <trkpt lat="32.05217225289021" lon="118.80438883253126">
        <ele>11.124507261440158</ele>
        <time>2026-08-10T11:08:35Z</time>
      </trkpt>
      <trkpt lat="32.052287320561724" lon="118.80441286958109">
        <ele>9.013331724330783</ele>
        <time>2026-08-10T11:08:42Z</time>
      </trkpt>
      <trkpt lat="32.052350327607385" lon="118.80440885585406">
        <ele>7.494014097377658</ele>
        <time>2026-08-10T11:08:45Z</time>
      </trkpt>
      <trkpt lat="32.05262566225723" lon="118.80456514031789">
        <ele>12.287104917690158</ele>
        <time>2026-08-10T11:08:57Z</time>
      </trkpt>
      <trkpt lat="32.05289785792595" lon="118.80464226834712">
        <ele>11.84321148507297</ele>
        <time>2026-08-10T11:09:09Z</time>
      </trkpt>
      <trkpt lat="32.0530129326796" lon="118.8046703134479">
        <ele>4.222880674526095</ele>
        <time>2026-08-10T11:09:15Z</time>
      </trkpt>
      <trkpt lat="32.05317493543899" lon="118.8046512607829">
        <ele>10.997676206752658</ele>
        <time>2026-08-10T11:09:21Z</time>
      </trkpt>
      <trkpt lat="32.053305819053506" lon="118.80456808378452">
        <ele>12.118007017299533</ele>
        <time>2026-08-10T11:09:27Z</time>
      </trkpt>
      <trkpt lat="32.05339063470237" lon="118.80445184561067">
        <ele>11.27247173897922</ele>
        <time>2026-08-10T11:09:33Z</time>
      </trkpt>
      <trkpt lat="32.05339715684188" lon="118.80417730169354">
        <ele>11.621257139369845</ele>
        <time>2026-08-10T11:09:42Z</time>
      </trkpt>
      <trkpt lat="32.05337504535461" lon="118.80411618293303">
        <ele>11.420436216518283</ele>
        <time>2026-08-10T11:09:45Z</time>
      </trkpt>
      <trkpt lat="32.05329683765372" lon="118.80400697442879">
        <ele>11.33588726632297</ele>
        <time>2026-08-10T11:09:51Z</time>
      </trkpt>
      <trkpt lat="32.05319968692949" lon="118.80393283703495">
        <ele>11.705806089565158</ele>
        <time>2026-08-10T11:09:54Z</time>
      </trkpt>
      <trkpt lat="32.05289144742996" lon="118.8038346717228">
        <ele>10.574916196987033</ele>
        <time>2026-08-10T11:10:09Z</time>
      </trkpt>
      <trkpt lat="32.052569190992806" lon="118.80372849207112">
        <ele>11.230189634487033</ele>
        <time>2026-08-10T11:10:21Z</time>
      </trkpt>
      <trkpt lat="32.052304982426236" lon="118.80364234670698">
        <ele>8.495448423549533</ele>
        <time>2026-08-10T11:10:33Z</time>
      </trkpt>
      <trkpt lat="32.052119953344096" lon="118.80364937751443">
        <ele>9.33039410226047</ele>
        <time>2026-08-10T11:10:42Z</time>
      </trkpt>
      <trkpt lat="32.05204297619469" lon="118.8036724299489">
        <ele>0.7932084333151579</ele>
        <time>2026-08-10T11:10:45Z</time>
      </trkpt>
      <trkpt lat="32.05195707365407" lon="118.80373957003009">
        <ele>11.970027280971408</ele>
        <time>2026-08-10T11:10:48Z</time>
      </trkpt>
      <trkpt lat="32.05189429482853" lon="118.80387484237198">
        <ele>12.29767925851047</ele>
        <time>2026-08-10T11:10:54Z</time>
      </trkpt>
      <trkpt lat="32.05187058431894" lon="118.80404417868353">
        <ele>11.684672666713595</ele>
        <time>2026-08-10T11:11:00Z</time>
      </trkpt>
      <trkpt lat="32.05191883609428" lon="118.80418244743831">
        <ele>11.705806089565158</ele>
        <time>2026-08-10T11:11:06Z</time>
      </trkpt>
      <trkpt lat="32.05201305641189" lon="118.80429666469165">
        <ele>10.617183042690158</ele>
        <time>2026-08-10T11:11:13Z</time>
      </trkpt>
      <trkpt lat="32.052124182665864" lon="118.80435476949869">
        <ele>9.922267271205783</ele>
        <time>2026-08-10T11:11:19Z</time>
      </trkpt>
      <trkpt lat="32.05220123309886" lon="118.80437380010908">
        <ele>10.384669614955783</ele>
        <time>2026-08-10T11:11:22Z</time>
      </trkpt>
      <trkpt lat="32.05227717963303" lon="118.80444441284007">
        <ele>11.219630552455783</ele>
        <time>2026-08-10T11:11:28Z</time>
      </trkpt>
      <trkpt lat="32.05240366210515" lon="118.80443472602519">
        <ele>12.022883726283908</ele>
        <time>2026-08-10T11:11:31Z</time>
      </trkpt>
      <trkpt lat="32.052498552927446" lon="118.80443757051002">
        <ele>7.863932920619845</ele>
        <time>2026-08-10T11:11:34Z</time>
      </trkpt>
      <trkpt lat="32.05259054753357" lon="118.80450402237294">
        <ele>14.239741636440158</ele>
        <time>2026-08-10T11:11:40Z</time>
      </trkpt>
      <trkpt lat="32.05286876376518" lon="118.80459217163369">
        <ele>13.499903989955783</ele>
        <time>2026-08-10T11:11:52Z</time>
      </trkpt>
      <trkpt lat="32.05308591736377" lon="118.80465227095024">
        <ele>16.469828916713595</ele>
        <time>2026-08-10T11:12:01Z</time>
      </trkpt>
      <trkpt lat="32.05320689344983" lon="118.80462320218099">
        <ele>12.223689390346408</ele>
        <time>2026-08-10T11:12:07Z</time>
      </trkpt>
      <trkpt lat="32.05333175823112" lon="118.80453000590802">
        <ele>11.53669293038547</ele>
        <time>2026-08-10T11:12:13Z</time>
      </trkpt>
      <trkpt lat="32.05339150534218" lon="118.80437769867609">
        <ele>10.36353619210422</ele>
        <time>2026-08-10T11:12:19Z</time>
      </trkpt>
      <trkpt lat="32.053390237443324" lon="118.80422439544012">
        <ele>9.605204893276095</ele>
        <time>2026-08-10T11:12:25Z</time>
      </trkpt>
      <trkpt lat="32.05333597029589" lon="118.80407811130668">
        <ele>9.288127256557345</ele>
        <time>2026-08-10T11:12:31Z</time>
      </trkpt>
      <trkpt lat="32.05322175288886" lon="118.8039679042021">
        <ele>10.553767515346408</ele>
        <time>2026-08-10T11:12:37Z</time>
      </trkpt>
      <trkpt lat="32.05308658327551" lon="118.80388775849349">
        <ele>13.07978375069797</ele>
        <time>2026-08-10T11:12:43Z</time>
      </trkpt>
      <trkpt lat="32.052800378353865" lon="118.80380662479577">
        <ele>11.061091734096408</ele>
        <time>2026-08-10T11:12:55Z</time>
      </trkpt>
      <trkpt lat="32.05252014524465" lon="118.80370845711512">
        <ele>14.271449400112033</ele>
        <time>2026-08-10T11:13:07Z</time>
      </trkpt>
      <trkpt lat="32.05223093808316" lon="118.80362632196343">
        <ele>11.79035503976047</ele>
        <time>2026-08-10T11:13:19Z</time>
      </trkpt>
      <trkpt lat="32.05204401297132" lon="118.80369347127738">
        <ele>11.65296490304172</ele>
        <time>2026-08-10T11:13:28Z</time>
      </trkpt>
      <trkpt lat="32.05191928471627" lon="118.80386582229472">
        <ele>10.839137388393283</ele>
        <time>2026-08-10T11:13:37Z</time>
      </trkpt>
      <trkpt lat="32.05189651331614" lon="118.8040000892627">
        <ele>6.563945127651095</ele>
        <time>2026-08-10T11:13:43Z</time>
      </trkpt>
      <trkpt lat="32.05193777567328" lon="118.80414537242139">
        <ele>12.086299253627658</ele>
        <time>2026-08-10T11:13:49Z</time>
      </trkpt>
      <trkpt lat="32.0519769049727" lon="118.80421450549491">
        <ele>14.356013609096408</ele>
        <time>2026-08-10T11:13:52Z</time>
      </trkpt>
      <trkpt lat="32.05209110355515" lon="118.80431369122684">
        <ele>11.896052671596408</ele>
        <time>2026-08-10T11:13:58Z</time>
      </trkpt>
      <trkpt lat="32.05222128482955" lon="118.80440085183619">
        <ele>13.01636822335422</ele>
        <time>2026-08-10T11:14:04Z</time>
      </trkpt>
      <trkpt lat="32.05227229095153" lon="118.80439784119685">
        <ele>14.155192686244845</ele>
        <time>2026-08-10T11:14:07Z</time>
      </trkpt>
      <trkpt lat="32.05238039734394" lon="118.80444492454012">
        <ele>11.885478330776095</ele>
        <time>2026-08-10T11:14:13Z</time>
      </trkpt>
      <trkpt lat="32.05264759529125" lon="118.80452405685307">
        <ele>-4.774052308872342</ele>
        <time>2026-08-10T11:14:25Z</time>
      </trkpt>
      <trkpt lat="32.052904836681286" lon="118.80462924186156">
        <ele>11.029383970424533</ele>
        <time>2026-08-10T11:14:38Z</time>
      </trkpt>
      <trkpt lat="32.05299497429512" lon="118.8046963668062">
        <ele>10.313334776088595</ele>
        <time>2026-08-10T11:14:41Z</time>
      </trkpt>
      <trkpt lat="32.053024805544744" lon="118.80459616524583">
        <ele>8.992183042690158</ele>
        <time>2026-08-10T11:14:47Z</time>
      </trkpt>
      <trkpt lat="32.05316540397744" lon="118.80460457614578">
        <ele>9.806010557338595</ele>
        <time>2026-08-10T11:14:53Z</time>
      </trkpt>
      <trkpt lat="32.05336268277324" lon="118.80448290972527">
        <ele>11.705806089565158</ele>
        <time>2026-08-10T11:15:02Z</time>
      </trkpt>
      <trkpt lat="32.0534195028259" lon="118.80437268618402">
        <ele>11.737513853237033</ele>
        <time>2026-08-10T11:15:05Z</time>
      </trkpt>
      <trkpt lat="32.05342335497295" lon="118.80428751726109">
        <ele>12.530192686244845</ele>
        <time>2026-08-10T11:15:08Z</time>
      </trkpt>
      <trkpt lat="32.053316890983794" lon="118.80403502797434">
        <ele>12.42451031319797</ele>
        <time>2026-08-10T11:15:17Z</time>
      </trkpt>
      <trkpt lat="32.05315460365738" lon="118.80389075817064">
        <ele>11.58954937569797</ele>
        <time>2026-08-10T11:15:23Z</time>
      </trkpt>
      <trkpt lat="32.052843400135394" lon="118.80381363466498">
        <ele>11.58954937569797</ele>
        <time>2026-08-10T11:15:35Z</time>
      </trkpt>
      <trkpt lat="32.05255121484244" lon="118.80374452529844">
        <ele>12.477351499721408</ele>
        <time>2026-08-10T11:15:50Z</time>
      </trkpt>
      <trkpt lat="32.05241106001344" lon="118.80367339809528">
        <ele>11.504985166713595</ele>
        <time>2026-08-10T11:15:56Z</time>
      </trkpt>
      <trkpt lat="32.052221941295336" lon="118.80362932870517">
        <ele>11.01880962960422</ele>
        <time>2026-08-10T11:16:05Z</time>
      </trkpt>
      <trkpt lat="32.05208895164946" lon="118.8036523862795">
        <ele>7.69483502022922</ele>
        <time>2026-08-10T11:16:11Z</time>
      </trkpt>
      <trkpt lat="32.05197205088026" lon="118.80372453905316">
        <ele>11.219630552455783</ele>
        <time>2026-08-10T11:16:17Z</time>
      </trkpt>
      <trkpt lat="32.051907245432766" lon="118.80384478191749">
        <ele>11.769221616908908</ele>
        <time>2026-08-10T11:16:24Z</time>
      </trkpt>
      <trkpt lat="32.05186746845386" lon="118.80397804842438">
        <ele>10.289546323940158</ele>
        <time>2026-08-10T11:16:27Z</time>
      </trkpt>
      <trkpt lat="32.05187464283276" lon="118.80407724361004">
        <ele>11.959468198940158</ele>
        <time>2026-08-10T11:16:30Z</time>
      </trkpt>
      <trkpt lat="32.05190580348259" lon="118.80416541496544">
        <ele>13.848689390346408</ele>
        <time>2026-08-10T11:16:33Z</time>
      </trkpt>
      <trkpt lat="32.05202410610636" lon="118.80432371721234">
        <ele>12.255397154018283</ele>
        <time>2026-08-10T11:16:39Z</time>
      </trkpt>
      <trkpt lat="32.05213226147618" lon="118.80439885604736">
        <ele>11.684672666713595</ele>
        <time>2026-08-10T11:16:45Z</time>
      </trkpt>
      <trkpt lat="32.05226834609487" lon="118.80442990506276">
        <ele>12.583033872768283</ele>
        <time>2026-08-10T11:16:51Z</time>
      </trkpt>
      <trkpt lat="32.05233935842654" lon="118.8044278945685">
        <ele>12.75214703194797</ele>
        <time>2026-08-10T11:16:54Z</time>
      </trkpt>
      <trkpt lat="32.05249748474569" lon="118.80447998326608">
        <ele>11.20905621163547</ele>
        <time>2026-08-10T11:17:00Z</time>
      </trkpt>
      <trkpt lat="32.05261063086334" lon="118.80454910991061">
        <ele>18.26392681710422</ele>
        <time>2026-08-10T11:17:06Z</time>
      </trkpt>
      <trkpt lat="32.05270962839244" lon="118.80453507300307">
        <ele>10.860270811244845</ele>
        <time>2026-08-10T11:17:09Z</time>
      </trkpt>
      <trkpt lat="32.05284356538158" lon="118.80448195543838">
        <ele>10.712306333705783</ele>
        <time>2026-08-10T11:17:12Z</time>
      </trkpt>
      <trkpt lat="32.052734637470856" lon="118.80453707467808">
        <ele>10.744014097377658</ele>
        <time>2026-08-10T11:17:15Z</time>
      </trkpt>
      <trkpt lat="32.053034860389076" lon="118.80462622395119">
        <ele>9.362101865932345</ele>
        <time>2026-08-10T11:17:30Z</time>
      </trkpt>
      <trkpt lat="32.053097890214104" lon="118.8046352360515">
        <ele>11.52613384835422</ele>
        <time>2026-08-10T11:17:33Z</time>
      </trkpt>
      <trkpt lat="32.05321485138559" lon="118.8045981517589">
        <ele>11.304179502651095</ele>
        <time>2026-08-10T11:17:39Z</time>
      </trkpt>
      <trkpt lat="32.05333965837804" lon="118.80447189000013">
        <ele>12.583033872768283</ele>
        <time>2026-08-10T11:17:46Z</time>
      </trkpt>
      <trkpt lat="32.05338640971672" lon="118.80432359203564">
        <ele>12.403361631557345</ele>
        <time>2026-08-10T11:17:52Z</time>
      </trkpt>
      <trkpt lat="32.05335911866781" lon="118.80416027151941">
        <ele>13.489344907924533</ele>
        <time>2026-08-10T11:17:58Z</time>
      </trkpt>
      <trkpt lat="32.05332997419848" lon="118.80408111779502">
        <ele>10.775721861049533</ele>
        <time>2026-08-10T11:18:01Z</time>
      </trkpt>
      <trkpt lat="32.05328485767106" lon="118.8040200012441">
        <ele>12.382228208705783</ele>
        <time>2026-08-10T11:18:04Z</time>
      </trkpt>
      <trkpt lat="32.05315067252408" lon="118.80393083758577">
        <ele>12.276530576869845</ele>
        <time>2026-08-10T11:18:10Z</time>
      </trkpt>
      <trkpt lat="32.05286942509905" lon="118.80382465399653">
        <ele>12.68873150460422</ele>
        <time>2026-08-10T11:18:22Z</time>
      </trkpt>
      <trkpt lat="32.0525912167944" lon="118.80374051372814">
        <ele>11.66352398507297</ele>
        <time>2026-08-10T11:18:34Z</time>
      </trkpt>
      <trkpt lat="32.05236101405635" lon="118.80365336324957">
        <ele>11.65296490304172</ele>
        <time>2026-08-10T11:18:43Z</time>
      </trkpt>
      <trkpt lat="32.05221895802558" lon="118.80363934869689">
        <ele>10.680598570033908</ele>
        <time>2026-08-10T11:18:49Z</time>
      </trkpt>
      <trkpt lat="32.05211600466308" lon="118.80367943704492">
        <ele>10.95539410226047</ele>
        <time>2026-08-10T11:18:52Z</time>
      </trkpt>
      <trkpt lat="32.05203399855522" lon="118.80368645838894">
        <ele>10.870845152065158</ele>
        <time>2026-08-10T11:18:55Z</time>
      </trkpt>
      <trkpt lat="32.0519581191603" lon="118.80376562125055">
        <ele>12.572474790737033</ele>
        <time>2026-08-10T11:19:01Z</time>
      </trkpt>
      <trkpt lat="32.051896415605746" lon="118.80394397854157">
        <ele>12.56190044991672</ele>
        <time>2026-08-10T11:19:07Z</time>
      </trkpt>
      <trkpt lat="32.051877613816494" lon="118.80406020969572">
        <ele>7.071254087612033</ele>
        <time>2026-08-10T11:19:10Z</time>
      </trkpt>
      <trkpt lat="32.0518937955624" lon="118.80416241012745">
        <ele>7.409465147182345</ele>
        <time>2026-08-10T11:19:13Z</time>
      </trkpt>
      <trkpt lat="32.05194297257676" lon="118.80425759382233">
        <ele>11.885478330776095</ele>
        <time>2026-08-10T11:19:16Z</time>
      </trkpt>
      <trkpt lat="32.052006079344" lon="118.80431069309066">
        <ele>9.57349712960422</ele>
        <time>2026-08-10T11:19:19Z</time>
      </trkpt>
      <trkpt lat="32.052153225893534" lon="118.80437580848783">
        <ele>9.045039488002658</ele>
        <time>2026-08-10T11:19:25Z</time>
      </trkpt>
      <trkpt lat="32.05218730176038" lon="118.80441488274002">
        <ele>10.239344907924533</ele>
        <time>2026-08-10T11:19:28Z</time>
      </trkpt>
      <trkpt lat="32.05251652402557" lon="118.80450002123077">
        <ele>11.948893858119845</ele>
        <time>2026-08-10T11:19:43Z</time>
      </trkpt>
      <trkpt lat="32.05263567325288" lon="118.80457014933278">
        <ele>12.339946104213595</ele>
        <time>2026-08-10T11:19:49Z</time>
      </trkpt>
      <trkpt lat="32.0527697224107" lon="118.804581158874">
        <ele>13.510478330776095</ele>
        <time>2026-08-10T11:19:55Z</time>
      </trkpt>
      <trkpt lat="32.05301193245676" lon="118.8046703135398">
        <ele>12.096858335658908</ele>
        <time>2026-08-10T11:20:07Z</time>
      </trkpt>
      <trkpt lat="32.05313895373618" lon="118.80466629391488">
        <ele>13.164347959682345</ele>
        <time>2026-08-10T11:20:13Z</time>
      </trkpt>
      <trkpt lat="32.05326284980343" lon="118.804591133437">
        <ele>11.65296490304172</ele>
        <time>2026-08-10T11:20:19Z</time>
      </trkpt>
      <trkpt lat="32.05334070415552" lon="118.80449794153071">
        <ele>11.91718609444797</ele>
        <time>2026-08-10T11:20:25Z</time>
      </trkpt>
      <trkpt lat="32.05340253055126" lon="118.80439072345543">
        <ele>12.29767925851047</ele>
        <time>2026-08-10T11:20:28Z</time>
      </trkpt>
      <trkpt lat="32.053394213857615" lon="118.80421036733587">
        <ele>10.94483502022922</ele>
        <time>2026-08-10T11:20:34Z</time>
      </trkpt>
      <trkpt lat="32.0533690492589" lon="118.80411918942323">
        <ele>9.732020689174533</ele>
        <time>2026-08-10T11:20:37Z</time>
      </trkpt>
      <trkpt lat="32.05331688400098" lon="118.80403102006157">
        <ele>11.113932920619845</ele>
        <time>2026-08-10T11:20:40Z</time>
      </trkpt>
      <trkpt lat="32.05324573032109" lon="118.80395187036422">
        <ele>10.585475279018283</ele>
        <time>2026-08-10T11:20:43Z</time>
      </trkpt>
      <trkpt lat="32.05295547737918" lon="118.80384368361513">
        <ele>8.960490537807345</ele>
        <time>2026-08-10T11:20:55Z</time>
      </trkpt>
      <trkpt lat="32.052632250317124" lon="118.80375453758826">
        <ele>10.775721861049533</ele>
        <time>2026-08-10T11:21:11Z</time>
      </trkpt>
      <trkpt lat="32.05249313400156" lon="118.80370545367848">
        <ele>10.469218565151095</ele>
        <time>2026-08-10T11:21:17Z</time>
      </trkpt>
      <trkpt lat="32.052398144158076" lon="118.80372349792349">
        <ele>9.932841612026095</ele>
        <time>2026-08-10T11:21:20Z</time>
      </trkpt>
      <trkpt lat="32.052334081137" lon="118.8036954485665">
        <ele>10.405803037807345</ele>
        <time>2026-08-10T11:21:23Z</time>
      </trkpt>
      <trkpt lat="32.05226546027533" lon="118.80359750635898">
        <ele>10.43751080147922</ele>
        <time>2026-08-10T11:21:29Z</time>
      </trkpt>
      <trkpt lat="32.05221420072188" lon="118.8036052631798">
        <ele>9.83771832101047</ele>
        <time>2026-08-10T11:21:32Z</time>
      </trkpt>
      <trkpt lat="32.05207886242703" lon="118.80360228862487">
        <ele>7.63141949288547</ele>
        <time>2026-08-10T11:21:35Z</time>
      </trkpt>
      <trkpt lat="32.05201495080367" lon="118.80366141082914">
        <ele>9.922267271205783</ele>
        <time>2026-08-10T11:21:38Z</time>
      </trkpt>
      <trkpt lat="32.05201495080367" lon="118.80366141082914">
        <ele>22.299891822971404</ele>
        <time>2026-08-10T11:21:40Z</time>
      </trkpt>
    </trkseg>
  </trk>
</gpx>