<?xml version="1.0" encoding="UTF-8"?>
<gpx xmlns="http://www.topografix.com/GPX/1/1" xmlns:gpxtpx="http://www.garmin.com/xmlschemas/TrackPointExtension/v1" xmlns:xsi="http://www.w3.org/2001/XMLSchema-instance" xsi:schemaLocation="http://www.topografix.com/GPX/1/1 http://www.topografix.com/GPX/1/1/gpx.xsd" version="1.1" creator="gpx.py -- https://github.com/tkrajina/gpxpy">
  <trk>
    <name>gpx from keep</name>
    <type>Run</type>
    <trkseg>
      <trkpt lat="31.23119676572736" lon="121.39974071595431">
        <ele>7.511660628020763</ele>
        <time>2026-09-19T10:42:23Z</time>
      </trkpt>
      <trkpt lat="31.231173764399923" lon="121.39960070135797">
        <ele>6.32792191952467</ele>
        <time>2026-09-19T10:42:29Z</time>
      </trkpt>
      <trkpt lat="31.231041806797926" lon="121.39935768649227">
        <ele>4.1506872698664665</ele>
        <time>2026-09-19T10:42:38Z</time>
      </trkpt>
      <trkpt lat="31.230964837414863" lon="121.39928568598565">
        <ele>7.585642866790295</ele>
        <time>2026-09-19T10:42:41Z</time>
      </trkpt>
      <trkpt lat="31.230876874943334" lon="121.39923768899574">
        <ele>8.67954545468092</ele>
        <time>2026-09-19T10:42:44Z</time>
      </trkpt>
      <trkpt lat="31.230787916113872" lon="121.39923669665967">
        <ele>8.182799391448498</ele>
        <time>2026-09-19T10:42:47Z</time>
      </trkpt>
      <trkpt lat="31.230496058173415" lon="121.39933473176123">
        <ele>8.129950575530529</ele>
        <time>2026-09-19T10:42:59Z</time>
      </trkpt>
      <trkpt lat="31.230309150464024" lon="121.3994117559947">
        <ele>7.16816621273756</ele>
        <time>2026-09-19T10:43:08Z</time>
      </trkpt>
      <trkpt lat="31.230065265978716" lon="121.39944278054838">
        <ele>8.050684981048107</ele>
        <time>2026-09-19T10:43:17Z</time>
      </trkpt>
      <trkpt lat="31.22987336543568" lon="121.39957481181925">
        <ele>8.277918867766857</ele>
        <time>2026-09-19T10:43:26Z</time>
      </trkpt>
      <trkpt lat="31.22973644182123" lon="121.3997258415073">
        <ele>6.9197912737727165</ele>
        <time>2026-09-19T10:43:33Z</time>
      </trkpt>
      <trkpt lat="31.229678482165934" lon="121.39987286498726">
        <ele>7.966132216155529</ele>
        <time>2026-09-19T10:43:39Z</time>
      </trkpt>
      <trkpt lat="31.22966849519842" lon="121.39995987729716">
        <ele>8.129950575530529</ele>
        <time>2026-09-19T10:43:42Z</time>
      </trkpt>
      <trkpt lat="31.22971649400136" lon="121.40016490163644">
        <ele>7.944991163909435</ele>
        <time>2026-09-19T10:43:48Z</time>
      </trkpt>
      <trkpt lat="31.229812464903645" lon="121.400304914016">
        <ele>6.993773512542248</ele>
        <time>2026-09-19T10:43:54Z</time>
      </trkpt>
      <trkpt lat="31.22994341367851" lon="121.40038791538281">
        <ele>7.834017805755138</ele>
        <time>2026-09-19T10:44:00Z</time>
      </trkpt>
      <trkpt lat="31.23017330918694" lon="121.40040689830842">
        <ele>7.384829573333263</ele>
        <time>2026-09-19T10:44:09Z</time>
      </trkpt>
      <trkpt lat="31.230333229000166" lon="121.40035587640693">
        <ele>7.738894514739513</ele>
        <time>2026-09-19T10:44:15Z</time>
      </trkpt>
      <trkpt lat="31.230411192827344" lon="121.40035586960634">
        <ele>8.151091627776623</ele>
        <time>2026-09-19T10:44:18Z</time>
      </trkpt>
      <trkpt lat="31.23049215204113" lon="121.40032785823675">
        <ele>9.001902632415295</ele>
        <time>2026-09-19T10:44:21Z</time>
      </trkpt>
      <trkpt lat="31.23058410281373" lon="121.40026984142413">
        <ele>8.061251692473888</ele>
        <time>2026-09-19T10:44:24Z</time>
      </trkpt>
      <trkpt lat="31.230835978832673" lon="121.40020480981055">
        <ele>6.7929602190852165</ele>
        <time>2026-09-19T10:44:33Z</time>
      </trkpt>
      <trkpt lat="31.23104686934489" lon="121.40009477560214">
        <ele>8.568568281829357</ele>
        <time>2026-09-19T10:44:42Z</time>
      </trkpt>
      <trkpt lat="31.23118578528385" lon="121.39989773675484">
        <ele>6.3067846819758415</ele>
        <time>2026-09-19T10:44:51Z</time>
      </trkpt>
      <trkpt lat="31.231202770182804" lon="121.39982072537974">
        <ele>5.778327040374279</ele>
        <time>2026-09-19T10:44:54Z</time>
      </trkpt>
      <trkpt lat="31.231202753969423" lon="121.39963670300024">
        <ele>7.004344038665295</ele>
        <time>2026-09-19T10:45:00Z</time>
      </trkpt>
      <trkpt lat="31.231148765324708" lon="121.39946668861066">
        <ele>5.218165449798107</ele>
        <time>2026-09-19T10:45:06Z</time>
      </trkpt>
      <trkpt lat="31.231106779525355" lon="121.39939668484935">
        <ele>8.225073866546154</ele>
        <time>2026-09-19T10:45:09Z</time>
      </trkpt>
      <trkpt lat="31.23090986282462" lon="121.39928469068268">
        <ele>7.009627394378185</ele>
        <time>2026-09-19T10:45:18Z</time>
      </trkpt>
      <trkpt lat="31.23083989362476" lon="121.3992606944408">
        <ele>8.082392744719982</ele>
        <time>2026-09-19T10:45:21Z</time>
      </trkpt>
      <trkpt lat="31.230562025682666" lon="121.39930772329996">
        <ele>8.954340986907482</ele>
        <time>2026-09-19T10:45:33Z</time>
      </trkpt>
      <trkpt lat="31.230286160835885" lon="121.39940775758043">
        <ele>8.10352998226881</ele>
        <time>2026-09-19T10:45:45Z</time>
      </trkpt>
      <trkpt lat="31.23003228691881" lon="121.39951579134876">
        <ele>6.576296858489513</ele>
        <time>2026-09-19T10:45:57Z</time>
      </trkpt>
      <trkpt lat="31.229765424527617" lon="121.39968183368507">
        <ele>6.9832068011164665</ele>
        <time>2026-09-19T10:46:09Z</time>
      </trkpt>
      <trkpt lat="31.22969247035048" lon="121.3998158564883">
        <ele>7.590930037200451</ele>
        <time>2026-09-19T10:46:15Z</time>
      </trkpt>
      <trkpt lat="31.229677486060808" lon="121.39990886975922">
        <ele>5.994994215667248</ele>
        <time>2026-09-19T10:46:18Z</time>
      </trkpt>
      <trkpt lat="31.22969749250842" lon="121.4000668893815">
        <ele>7.427107863128185</ele>
        <time>2026-09-19T10:46:24Z</time>
      </trkpt>
      <trkpt lat="31.229812461739016" lon="121.4002769097837">
        <ele>7.934424452483654</ele>
        <time>2026-09-19T10:46:33Z</time>
      </trkpt>
      <trkpt lat="31.22999838709793" lon="121.40037890918342">
        <ele>7.1787329241633415</ele>
        <time>2026-09-19T10:46:42Z</time>
      </trkpt>
      <trkpt lat="31.23013732518094" lon="121.40040090050454">
        <ele>8.050684981048107</ele>
        <time>2026-09-19T10:46:48Z</time>
      </trkpt>
      <trkpt lat="31.230414190857218" lon="121.40035086857257">
        <ele>8.256781630218029</ele>
        <time>2026-09-19T10:47:00Z</time>
      </trkpt>
      <trkpt lat="31.230681057292568" lon="121.40026483221733">
        <ele>8.04011445492506</ele>
        <time>2026-09-19T10:47:12Z</time>
      </trkpt>
      <trkpt lat="31.230946922753287" lon="121.40016179387601">
        <ele>7.612067274749279</ele>
        <time>2026-09-19T10:47:24Z</time>
      </trkpt>
      <trkpt lat="31.231008890729566" lon="121.40013078402">
        <ele>8.631983809173107</ele>
        <time>2026-09-19T10:47:27Z</time>
      </trkpt>
      <trkpt lat="31.23111682983389" lon="121.4000257599053">
        <ele>9.223853163421154</ele>
        <time>2026-09-19T10:47:33Z</time>
      </trkpt>
      <trkpt lat="31.231193779676605" lon="121.39987773345781">
        <ele>7.871008925139904</ele>
        <time>2026-09-19T10:47:39Z</time>
      </trkpt>
      <trkpt lat="31.231217759857195" lon="121.39978371942892">
        <ele>7.68604951351881</ele>
        <time>2026-09-19T10:47:42Z</time>
      </trkpt>
      <trkpt lat="31.231209748807142" lon="121.3996136997174">
        <ele>8.151091627776623</ele>
        <time>2026-09-19T10:47:48Z</time>
      </trkpt>
      <trkpt lat="31.231151763248654" lon="121.39945768738028">
        <ele>8.536864332854748</ele>
        <time>2026-09-19T10:47:54Z</time>
      </trkpt>
      <trkpt lat="31.23111077737966" lon="121.39939268408415">
        <ele>7.405970625579357</ele>
        <time>2026-09-19T10:47:57Z</time>
      </trkpt>
      <trkpt lat="31.231011816954567" lon="121.39930468376669">
        <ele>7.231577925384045</ele>
        <time>2026-09-19T10:48:03Z</time>
      </trkpt>
      <trkpt lat="31.23089287015388" lon="121.39927669137982">
        <ele>7.26328568905592</ele>
        <time>2026-09-19T10:48:09Z</time>
      </trkpt>
      <trkpt lat="31.23081790201412" lon="121.39923369375678">
        <ele>8.124667219817638</ele>
        <time>2026-09-19T10:48:12Z</time>
      </trkpt>
      <trkpt lat="31.23061499932226" lon="121.39928171610849">
        <ele>8.309626631438732</ele>
        <time>2026-09-19T10:48:21Z</time>
      </trkpt>
      <trkpt lat="31.230355126781436" lon="121.399379748651">
        <ele>7.987269453704357</ele>
        <time>2026-09-19T10:48:33Z</time>
      </trkpt>
      <trkpt lat="31.230077262540686" lon="121.39947078250816">
        <ele>6.8880835101008415</ele>
        <time>2026-09-19T10:48:45Z</time>
      </trkpt>
      <trkpt lat="31.22993333247236" lon="121.39951079942857">
        <ele>7.923853926360607</ele>
        <time>2026-09-19T10:48:51Z</time>
      </trkpt>
      <trkpt lat="31.2297444319713" lon="121.39965483231776">
        <ele>10.132796339690685</ele>
        <time>2026-09-19T10:49:00Z</time>
      </trkpt>
      <trkpt lat="31.22967047891852" lon="121.39979785614338">
        <ele>7.966132216155529</ele>
        <time>2026-09-19T10:49:06Z</time>
      </trkpt>
      <trkpt lat="31.229651494799064" lon="121.39987386747048">
        <ele>7.590930037200451</ele>
        <time>2026-09-19T10:49:09Z</time>
      </trkpt>
      <trkpt lat="31.22969549696783" lon="121.40010089432512">
        <ele>8.277918867766857</ele>
        <time>2026-09-19T10:49:18Z</time>
      </trkpt>
      <trkpt lat="31.22980346783463" lon="121.40029391313307">
        <ele>7.738894514739513</ele>
        <time>2026-09-19T10:49:27Z</time>
      </trkpt>
      <trkpt lat="31.229856448712237" lon="121.40034191583581">
        <ele>8.071822218596935</ele>
        <time>2026-09-19T10:49:31Z</time>
      </trkpt>
      <trkpt lat="31.229994389305283" lon="121.40038190999975">
        <ele>8.558001570403576</ele>
        <time>2026-09-19T10:49:37Z</time>
      </trkpt>
      <trkpt lat="31.230218287720533" lon="121.40040189359941">
        <ele>7.997839979827404</ele>
        <time>2026-09-19T10:49:46Z</time>
      </trkpt>
      <trkpt lat="31.23032822947031" lon="121.40033987437643">
        <ele>8.008406691253185</ele>
        <time>2026-09-19T10:49:52Z</time>
      </trkpt>
      <trkpt lat="31.230430184016853" lon="121.4003558679498">
        <ele>7.8234472796320915</ele>
        <time>2026-09-19T10:49:55Z</time>
      </trkpt>
      <trkpt lat="31.2305041478566" lon="121.40033985903149">
        <ele>8.33076386898756</ele>
        <time>2026-09-19T10:49:58Z</time>
      </trkpt>
      <trkpt lat="31.230632080003893" lon="121.40026483648953">
        <ele>8.129950575530529</ele>
        <time>2026-09-19T10:50:04Z</time>
      </trkpt>
      <trkpt lat="31.23083298120734" lon="121.40021381139394">
        <ele>7.717757277190685</ele>
        <time>2026-09-19T10:50:13Z</time>
      </trkpt>
      <trkpt lat="31.231017884766676" lon="121.40011378081627">
        <ele>6.724261336028576</ele>
        <time>2026-09-19T10:50:22Z</time>
      </trkpt>
      <trkpt lat="31.23119678689259" lon="121.39996674492532">
        <ele>8.092959456145763</ele>
        <time>2026-09-19T10:50:31Z</time>
      </trkpt>
      <trkpt lat="31.231221767662067" lon="121.39988773231362">
        <ele>8.351904921233654</ele>
        <time>2026-09-19T10:50:34Z</time>
      </trkpt>
      <trkpt lat="31.231206764769095" lon="121.39978172013907">
        <ele>7.781172804534435</ele>
        <time>2026-09-19T10:50:37Z</time>
      </trkpt>
      <trkpt lat="31.231215747530825" lon="121.39963170128344">
        <ele>7.33198457211256</ele>
        <time>2026-09-19T10:50:43Z</time>
      </trkpt>
      <trkpt lat="31.231134767962356" lon="121.39941568439751">
        <ele>8.182799391448498</ele>
        <time>2026-09-19T10:50:53Z</time>
      </trkpt>
      <trkpt lat="31.23103380760047" lon="121.39931668304497">
        <ele>7.675482802093029</ele>
        <time>2026-09-19T10:50:59Z</time>
      </trkpt>
      <trkpt lat="31.23085688588321" lon="121.39926269315285">
        <ele>7.569788984954357</ele>
        <time>2026-09-19T10:51:08Z</time>
      </trkpt>
      <trkpt lat="31.230693960140822" lon="121.39924370552747">
        <ele>8.04011445492506</ele>
        <time>2026-09-19T10:51:14Z</time>
      </trkpt>
      <trkpt lat="31.230420094406682" lon="121.39934873980607">
        <ele>7.030764631927013</ele>
        <time>2026-09-19T10:51:26Z</time>
      </trkpt>
      <trkpt lat="31.230107244766284" lon="121.39941977444809">
        <ele>8.04011445492506</ele>
        <time>2026-09-19T10:51:41Z</time>
      </trkpt>
      <trkpt lat="31.230051273993322" lon="121.39946278391196">
        <ele>8.008406691253185</ele>
        <time>2026-09-19T10:51:44Z</time>
      </trkpt>
      <trkpt lat="31.229852372605183" lon="121.39954281004353">
        <ele>4.0555639788508415</ele>
        <time>2026-09-19T10:51:53Z</time>
      </trkpt>
      <trkpt lat="31.229701458690254" lon="121.39973284541034">
        <ele>8.214503340423107</ele>
        <time>2026-09-19T10:52:02Z</time>
      </trkpt>
      <trkpt lat="31.229683473520844" lon="121.39980485588801">
        <ele>8.351904921233654</ele>
        <time>2026-09-19T10:52:05Z</time>
      </trkpt>
      <trkpt lat="31.22967949137246" lon="121.3999728780814">
        <ele>8.526293806731701</ele>
        <time>2026-09-19T10:52:11Z</time>
      </trkpt>
      <trkpt lat="31.229755477617147" lon="121.40018090055543">
        <ele>8.267352156341076</ele>
        <time>2026-09-19T10:52:20Z</time>
      </trkpt>
      <trkpt lat="31.22983445186291" lon="121.40027990831712">
        <ele>7.781172804534435</ele>
        <time>2026-09-19T10:52:27Z</time>
      </trkpt>
      <trkpt lat="31.229915421555454" lon="121.40034391099965">
        <ele>7.33198457211256</ele>
        <time>2026-09-19T10:52:30Z</time>
      </trkpt>
      <trkpt lat="31.230055362052443" lon="121.40039090608701">
        <ele>7.834017805755138</ele>
        <time>2026-09-19T10:52:36Z</time>
      </trkpt>
      <trkpt lat="31.23022628236251" lon="121.40038789070918">
        <ele>8.129950575530529</ele>
        <time>2026-09-19T10:52:42Z</time>
      </trkpt>
      <trkpt lat="31.230536129812673" lon="121.40031185195762">
        <ele>8.108813337981701</ele>
        <time>2026-09-19T10:52:57Z</time>
      </trkpt>
      <trkpt lat="31.230672057906794" lon="121.40023282823574">
        <ele>7.543368391692638</ele>
        <time>2026-09-19T10:53:03Z</time>
      </trkpt>
      <trkpt lat="31.23097590697003" lon="121.40013978818406">
        <ele>6.940928511321545</ele>
        <time>2026-09-19T10:53:18Z</time>
      </trkpt>
      <trkpt lat="31.231145816303734" lon="121.4000247572396">
        <ele>7.643775038421154</ele>
        <time>2026-09-19T10:53:27Z</time>
      </trkpt>
      <trkpt lat="31.231179794172682" lon="121.39996074560375">
        <ele>7.892146162688732</ele>
        <time>2026-09-19T10:53:30Z</time>
      </trkpt>
      <trkpt lat="31.231221758549356" lon="121.39978971982819">
        <ele>6.370196394622326</ele>
        <time>2026-09-19T10:53:36Z</time>
      </trkpt>
      <trkpt lat="31.23121474749168" lon="121.39962570067235">
        <ele>7.384829573333263</ele>
        <time>2026-09-19T10:53:42Z</time>
      </trkpt>
      <trkpt lat="31.231157760166244" lon="121.39945368642792">
        <ele>7.934424452483654</ele>
        <time>2026-09-19T10:53:48Z</time>
      </trkpt>
      <trkpt lat="31.231058797854" lon="121.39934268348343">
        <ele>8.008406691253185</ele>
        <time>2026-09-19T10:53:54Z</time>
      </trkpt>
      <trkpt lat="31.230996824947642" lon="121.39931968657126">
        <ele>11.210845045745373</ele>
        <time>2026-09-19T10:53:57Z</time>
      </trkpt>
      <trkpt lat="31.2308888697164" lon="121.39924268842951">
        <ele>5.68320756405592</ele>
        <time>2026-09-19T10:54:03Z</time>
      </trkpt>
      <trkpt lat="31.23073494034287" lon="121.39923170080219">
        <ele>7.781172804534435</ele>
        <time>2026-09-19T10:54:09Z</time>
      </trkpt>
      <trkpt lat="31.23053703776001" lon="121.39931472617776">
        <ele>5.001498274505138</ele>
        <time>2026-09-19T10:54:18Z</time>
      </trkpt>
      <trkpt lat="31.230464071535717" lon="121.39931373244258">
        <ele>7.664912275969982</ele>
        <time>2026-09-19T10:54:22Z</time>
      </trkpt>
      <trkpt lat="31.230421093019736" lon="121.39933573840128">
        <ele>7.892146162688732</ele>
        <time>2026-09-19T10:54:25Z</time>
      </trkpt>
      <trkpt lat="31.230359121983813" lon="121.39933874411015">
        <ele>7.8234472796320915</ele>
        <time>2026-09-19T10:54:28Z</time>
      </trkpt>
      <trkpt lat="31.230299153044957" lon="121.39938375394718">
        <ele>6.835238508880138</ele>
        <time>2026-09-19T10:54:31Z</time>
      </trkpt>
      <trkpt lat="31.230163218338227" lon="121.39941376893408">
        <ele>7.4693823382258415</ele>
        <time>2026-09-19T10:54:37Z</time>
      </trkpt>
      <trkpt lat="31.22992833495015" lon="121.39951280008498">
        <ele>7.923853926360607</ele>
        <time>2026-09-19T10:54:49Z</time>
      </trkpt>
      <trkpt lat="31.229813394596064" lon="121.39959081887383">
        <ele>8.124667219817638</ele>
        <time>2026-09-19T10:54:55Z</time>
      </trkpt>
      <trkpt lat="31.229761424077974" lon="121.39965483083562">
        <ele>8.277918867766857</ele>
        <time>2026-09-19T10:54:58Z</time>
      </trkpt>
      <trkpt lat="31.229693469335093" lon="121.3998098556449">
        <ele>2.264105848968029</ele>
        <time>2026-09-19T10:55:04Z</time>
      </trkpt>
      <trkpt lat="31.22966849578931" lon="121.39996587810064">
        <ele>4.874671034514904</ele>
        <time>2026-09-19T10:55:10Z</time>
      </trkpt>
      <trkpt lat="31.229698496938248" lon="121.40011389590315">
        <ele>7.543368391692638</ele>
        <time>2026-09-19T10:55:16Z</time>
      </trkpt>
      <trkpt lat="31.229790468378823" lon="121.40024490691532">
        <ele>6.771822981536388</ele>
        <time>2026-09-19T10:55:22Z</time>
      </trkpt>
      <trkpt lat="31.229981392774036" lon="121.40035990771521">
        <ele>7.284422926604748</ele>
        <time>2026-09-19T10:55:32Z</time>
      </trkpt>
      <trkpt lat="31.230252270888954" lon="121.40039288922428">
        <ele>7.717757277190685</ele>
        <time>2026-09-19T10:55:44Z</time>
      </trkpt>
      <trkpt lat="31.2305281321573" lon="121.40029985083181">
        <ele>7.083613447844982</ele>
        <time>2026-09-19T10:55:56Z</time>
      </trkpt>
      <trkpt lat="31.230686049986037" lon="121.4002198250942">
        <ele>3.5693884417414665</ele>
        <time>2026-09-19T10:56:02Z</time>
      </trkpt>
      <trkpt lat="31.23091693708025" lon="121.40016579706958">
        <ele>7.416537337005138</ele>
        <time>2026-09-19T10:56:08Z</time>
      </trkpt>
      <trkpt lat="31.23110483752738" lon="121.40004676384487">
        <ele>7.7917395159602165</ele>
        <time>2026-09-19T10:56:17Z</time>
      </trkpt>
      <trkpt lat="31.231185787687693" lon="121.39992274003376">
        <ele>4.029143385589123</ele>
        <time>2026-09-19T10:56:23Z</time>
      </trkpt>
      <trkpt lat="31.23120976465092" lon="121.3997957216244">
        <ele>8.108813337981701</ele>
        <time>2026-09-19T10:56:29Z</time>
      </trkpt>
      <trkpt lat="31.2312017546006" lon="121.39963870332114">
        <ele>7.97669892758131</ele>
        <time>2026-09-19T10:56:35Z</time>
      </trkpt>
      <trkpt lat="31.23116675829724" lon="121.39948368888281">
        <ele>7.717757277190685</ele>
        <time>2026-09-19T10:56:41Z</time>
      </trkpt>
      <trkpt lat="31.231057798815492" lon="121.39934968428156">
        <ele>8.124667219817638</ele>
        <time>2026-09-19T10:56:50Z</time>
      </trkpt>
      <trkpt lat="31.23085088586694" lon="121.39922068964029">
        <ele>7.892146162688732</ele>
        <time>2026-09-19T10:56:59Z</time>
      </trkpt>
      <trkpt lat="31.23068596505566" lon="121.39926170796494">
        <ele>6.5657263323664665</ele>
        <time>2026-09-19T10:57:08Z</time>
      </trkpt>
      <trkpt lat="31.230633992168272" lon="121.39930571682345">
        <ele>8.277918867766857</ele>
        <time>2026-09-19T10:57:11Z</time>
      </trkpt>
      <trkpt lat="31.23029415529123" lon="121.39938275427961">
        <ele>7.7917395159602165</ele>
        <time>2026-09-19T10:57:29Z</time>
      </trkpt>
      <trkpt lat="31.23003428349523" lon="121.3994837876668">
        <ele>6.877512983977795</ele>
        <time>2026-09-19T10:57:38Z</time>
      </trkpt>
      <trkpt lat="31.229850377747503" lon="121.39959481610595">
        <ele>6.296214155852795</ele>
        <time>2026-09-19T10:57:47Z</time>
      </trkpt>
      <trkpt lat="31.229701465253722" lon="121.39980585444432">
        <ele>7.601496748626232</ele>
        <time>2026-09-19T10:57:56Z</time>
      </trkpt>
      <trkpt lat="31.22968248087618" lon="121.39987886541458">
        <ele>8.092959456145763</ele>
        <time>2026-09-19T10:58:00Z</time>
      </trkpt>
      <trkpt lat="31.22968749265905" lon="121.40002288417156">
        <ele>8.462878279387951</ele>
        <time>2026-09-19T10:58:06Z</time>
      </trkpt>
      <trkpt lat="31.229731487681665" lon="121.40017090119679">
        <ele>7.664912275969982</ele>
        <time>2026-09-19T10:58:12Z</time>
      </trkpt>
      <trkpt lat="31.229769478128905" lon="121.4002449087462">
        <ele>7.68604951351881</ele>
        <time>2026-09-19T10:58:15Z</time>
      </trkpt>
      <trkpt lat="31.229881436186147" lon="121.40033391242716">
        <ele>8.288489393889904</ele>
        <time>2026-09-19T10:58:21Z</time>
      </trkpt>
      <trkpt lat="31.230072356877173" lon="121.4004139082163">
        <ele>7.294993452727795</ele>
        <time>2026-09-19T10:58:30Z</time>
      </trkpt>
      <trkpt lat="31.23021029178575" lon="121.40040489476813">
        <ele>7.892146162688732</ele>
        <time>2026-09-19T10:58:39Z</time>
      </trkpt>
      <trkpt lat="31.230534132913007" lon="121.40033085503443">
        <ele>7.321417860686779</ele>
        <time>2026-09-19T10:58:51Z</time>
      </trkpt>
      <trkpt lat="31.230703042437" lon="121.40022282405451">
        <ele>8.203936628997326</ele>
        <time>2026-09-19T10:58:57Z</time>
      </trkpt>
      <trkpt lat="31.2310248812092" lon="121.40011077978065">
        <ele>7.707186751067638</ele>
        <time>2026-09-19T10:59:09Z</time>
      </trkpt>
      <trkpt lat="31.23114881279858" lon="121.40000375410902">
        <ele>8.018977217376232</ele>
        <time>2026-09-19T10:59:15Z</time>
      </trkpt>
      <trkpt lat="31.231195784221256" lon="121.39993474074741">
        <ele>5.736052565276623</ele>
        <time>2026-09-19T10:59:21Z</time>
      </trkpt>
      <trkpt lat="31.231212757435117" lon="121.39973071333932">
        <ele>7.860442213714123</ele>
        <time>2026-09-19T10:59:27Z</time>
      </trkpt>
      <trkpt lat="31.231177755542067" lon="121.39951369121053">
        <ele>6.74540238827467</ele>
        <time>2026-09-19T10:59:37Z</time>
      </trkpt>
      <trkpt lat="31.23114776381312" lon="121.39944068591065">
        <ele>8.774668745696545</ele>
        <time>2026-09-19T10:59:40Z</time>
      </trkpt>
      <trkpt lat="31.230951843779902" lon="121.39929068761172">
        <ele>7.16816621273756</ele>
        <time>2026-09-19T10:59:52Z</time>
      </trkpt>
      <trkpt lat="31.230813903405057" lon="121.39922669343714">
        <ele>7.966132216155529</ele>
        <time>2026-09-19T10:59:58Z</time>
      </trkpt>
      <trkpt lat="31.230745934192775" lon="121.3992156983208">
        <ele>5.1177588030695915</ele>
        <time>2026-09-19T11:00:04Z</time>
      </trkpt>
      <trkpt lat="31.230697958955837" lon="121.39925370614326">
        <ele>7.5645056292414665</ele>
        <time>2026-09-19T11:00:07Z</time>
      </trkpt>
      <trkpt lat="31.230443084027172" lon="121.39935273820797">
        <ele>7.81288056820631</ele>
        <time>2026-09-19T11:00:19Z</time>
      </trkpt>
      <trkpt lat="31.230397107886777" lon="121.39938774581738">
        <ele>7.987269453704357</ele>
        <time>2026-09-19T11:00:22Z</time>
      </trkpt>
      <trkpt lat="31.2302661692289" lon="121.3993957580705">
        <ele>7.643775038421154</ele>
        <time>2026-09-19T11:00:28Z</time>
      </trkpt>
      <trkpt lat="31.230162221047454" lon="121.39944377219796">
        <ele>6.164099745452404</ele>
        <time>2026-09-19T11:00:34Z</time>
      </trkpt>
      <trkpt lat="31.23009325306169" lon="121.39944377821382">
        <ele>7.316130690276623</ele>
        <time>2026-09-19T11:00:37Z</time>
      </trkpt>
      <trkpt lat="31.229813396577033" lon="121.39961482163422">
        <ele>8.061251692473888</ele>
        <time>2026-09-19T11:00:50Z</time>
      </trkpt>
      <trkpt lat="31.229693468329028" lon="121.39979885426341">
        <ele>6.90922074764967</ele>
        <time>2026-09-19T11:00:59Z</time>
      </trkpt>
      <trkpt lat="31.2296794806648" lon="121.39986186348219">
        <ele>7.643775038421154</ele>
        <time>2026-09-19T11:01:02Z</time>
      </trkpt>
      <trkpt lat="31.22971048740137" lon="121.40007588950462">
        <ele>7.294993452727795</ele>
        <time>2026-09-19T11:01:11Z</time>
      </trkpt>
      <trkpt lat="31.229767475200294" lon="121.40020990374705">
        <ele>7.3055639788508415</ele>
        <time>2026-09-19T11:01:17Z</time>
      </trkpt>
      <trkpt lat="31.229908425844805" lon="121.40035291299756">
        <ele>6.734831862151623</ele>
        <time>2026-09-19T11:01:26Z</time>
      </trkpt>
      <trkpt lat="31.23028625347683" lon="121.4003788840738">
        <ele>7.569788984954357</ele>
        <time>2026-09-19T11:01:44Z</time>
      </trkpt>
      <trkpt lat="31.230467165588234" lon="121.40034486302675">
        <ele>5.413695387542248</ele>
        <time>2026-09-19T11:01:53Z</time>
      </trkpt>
      <trkpt lat="31.230614086785565" lon="121.40025083596706">
        <ele>6.6291418597102165</ele>
        <time>2026-09-19T11:01:59Z</time>
      </trkpt>
      <trkpt lat="31.230930929843435" lon="121.40015879483815">
        <ele>7.342555098235607</ele>
        <time>2026-09-19T11:02:11Z</time>
      </trkpt>
      <trkpt lat="31.23108784673241" lon="121.40005976712982">
        <ele>4.742556624114513</ele>
        <time>2026-09-19T11:02:21Z</time>
      </trkpt>
      <trkpt lat="31.231190786925616" lon="121.39993874171356">
        <ele>3.8917456194758415</ele>
        <time>2026-09-19T11:02:27Z</time>
      </trkpt>
      <trkpt lat="31.231231754921232" lon="121.3998007203326">
        <ele>1.397437147796154</ele>
        <time>2026-09-19T11:02:33Z</time>
      </trkpt>
      <trkpt lat="31.23121874274234" lon="121.39959069628794">
        <ele>7.664912275969982</ele>
        <time>2026-09-19T11:02:42Z</time>
      </trkpt>
      <trkpt lat="31.23106979318665" lon="121.39934868313357">
        <ele>8.288489393889904</ele>
        <time>2026-09-19T11:02:54Z</time>
      </trkpt>
      <trkpt lat="31.230947843455734" lon="121.39925868483031">
        <ele>6.898654036223888</ele>
        <time>2026-09-19T11:03:03Z</time>
      </trkpt>
      <trkpt lat="31.230754931339455" lon="121.39923569944109">
        <ele>7.844588331878185</ele>
        <time>2026-09-19T11:03:12Z</time>
      </trkpt>
      <trkpt lat="31.230687963523376" lon="121.39925270691845">
        <ele>8.018977217376232</ele>
        <time>2026-09-19T11:03:15Z</time>
      </trkpt>
      <trkpt lat="31.230545035314808" lon="121.3993327272872">
        <ele>7.2738562151789665</ele>
        <time>2026-09-19T11:03:21Z</time>
      </trkpt>
      <trkpt lat="31.230483064271528" lon="121.39933573299565">
        <ele>7.33198457211256</ele>
        <time>2026-09-19T11:03:24Z</time>
      </trkpt>
      <trkpt lat="31.230430090628477" lon="121.39936074015831">
        <ele>6.650279097259045</ele>
        <time>2026-09-19T11:03:27Z</time>
      </trkpt>
      <trkpt lat="31.230326139002003" lon="121.39936274943055">
        <ele>7.384829573333263</ele>
        <time>2026-09-19T11:03:33Z</time>
      </trkpt>
      <trkpt lat="31.230160220474062" lon="121.3994237702493">
        <ele>8.10352998226881</ele>
        <time>2026-09-19T11:03:42Z</time>
      </trkpt>
      <trkpt lat="31.23010425047347" lon="121.39947678080362">
        <ele>6.713694624602795</ele>
        <time>2026-09-19T11:03:45Z</time>
      </trkpt>
      <trkpt lat="31.229847377749405" lon="121.39957781442696">
        <ele>6.576296858489513</ele>
        <time>2026-09-19T11:03:57Z</time>
      </trkpt>
      <trkpt lat="31.229796404469564" lon="121.39961482311637">
        <ele>7.342555098235607</ele>
        <time>2026-09-19T11:04:00Z</time>
      </trkpt>
      <trkpt lat="31.229753430530046" lon="121.39968683532774">
        <ele>5.39255814999342</ele>
        <time>2026-09-19T11:04:03Z</time>
      </trkpt>
      <trkpt lat="31.229689491629184" lon="121.40002188386016">
        <ele>6.803530745208263</ele>
        <time>2026-09-19T11:04:16Z</time>
      </trkpt>
      <trkpt lat="31.22974348146432" lon="121.40016489928244">
        <ele>6.898654036223888</ele>
        <time>2026-09-19T11:04:22Z</time>
      </trkpt>
      <trkpt lat="31.229845448675814" lon="121.40029690992546">
        <ele>7.39540009945631</ele>
        <time>2026-09-19T11:04:28Z</time>
      </trkpt>
      <trkpt lat="31.229970397879274" lon="121.40035990867425">
        <ele>7.189303450286388</ele>
        <time>2026-09-19T11:04:34Z</time>
      </trkpt>
      <trkpt lat="31.23010833745955" lon="121.40039090146615">
        <ele>5.4084082171320915</ele>
        <time>2026-09-19T11:04:40Z</time>
      </trkpt>
      <trkpt lat="31.230406191917986" lon="121.40032786573485">
        <ele>7.8551550433039665</ele>
        <time>2026-09-19T11:04:55Z</time>
      </trkpt>
      <trkpt lat="31.230676059274547" lon="121.40026183220414">
        <ele>6.544589094817638</ele>
        <time>2026-09-19T11:05:10Z</time>
      </trkpt>
      <trkpt lat="31.23081998810906" lon="121.40022181370591">
        <ele>7.384829573333263</ele>
        <time>2026-09-19T11:05:16Z</time>
      </trkpt>
      <trkpt lat="31.23104886810582" lon="121.40009177500545">
        <ele>5.133612684905529</ele>
        <time>2026-09-19T11:05:28Z</time>
      </trkpt>
      <trkpt lat="31.231145813686805" lon="121.3999987536909">
        <ele>7.046618513762951</ele>
        <time>2026-09-19T11:05:34Z</time>
      </trkpt>
      <trkpt lat="31.23121277144868" lon="121.39988373257884">
        <ele>6.713694624602795</ele>
        <time>2026-09-19T11:05:40Z</time>
      </trkpt>
      <trkpt lat="31.23122474623951" lon="121.39966570449131">
        <ele>7.33198457211256</ele>
        <time>2026-09-19T11:05:49Z</time>
      </trkpt>
      <trkpt lat="31.23118975109061" lon="121.39952769171424">
        <ele>7.046618513762951</ele>
        <time>2026-09-19T11:05:55Z</time>
      </trkpt>
      <trkpt lat="31.231074791514587" lon="121.39935768361502">
        <ele>4.805972151458263</ele>
        <time>2026-09-19T11:06:04Z</time>
      </trkpt>
      <trkpt lat="31.23078491816976" lon="121.39924669788212">
        <ele>6.491744093596935</ele>
        <time>2026-09-19T11:06:19Z</time>
      </trkpt>
      <trkpt lat="31.23045507903624" lon="121.39936073797863">
        <ele>3.6328039690852165</ele>
        <time>2026-09-19T11:06:38Z</time>
      </trkpt>
      <trkpt lat="31.230187209072177" lon="121.39943876948556">
        <ele>8.912066511809826</ele>
        <time>2026-09-19T11:06:50Z</time>
      </trkpt>
      <trkpt lat="31.229907347074256" lon="121.39954280524832">
        <ele>6.803530745208263</ele>
        <time>2026-09-19T11:07:05Z</time>
      </trkpt>
      <trkpt lat="31.22985737140681" lon="121.39955681117888">
        <ele>7.252718977630138</ele>
        <time>2026-09-19T11:07:08Z</time>
      </trkpt>
      <trkpt lat="31.229763420707567" lon="121.39962582726874">
        <ele>5.757189802825451</ele>
        <time>2026-09-19T11:07:11Z</time>
      </trkpt>
      <trkpt lat="31.2296844704221" lon="121.39977585218001">
        <ele>6.380766920745373</ele>
        <time>2026-09-19T11:07:17Z</time>
      </trkpt>
      <trkpt lat="31.229666486607833" lon="121.39986086448701">
        <ele>7.083613447844982</ele>
        <time>2026-09-19T11:07:20Z</time>
      </trkpt>
      <trkpt lat="31.229668493923636" lon="121.39994687556275">
        <ele>6.771822981536388</ele>
        <time>2026-09-19T11:07:23Z</time>
      </trkpt>
      <trkpt lat="31.229701491994888" lon="121.40007989084911">
        <ele>7.448245100677013</ele>
        <time>2026-09-19T11:07:29Z</time>
      </trkpt>
      <trkpt lat="31.229773472414504" lon="121.40020990322394">
        <ele>7.479952864348888</ele>
        <time>2026-09-19T11:07:35Z</time>
      </trkpt>
      <trkpt lat="31.229960405905572" lon="121.40038891405695">
        <ele>6.232798628509045</ele>
        <time>2026-09-19T11:07:51Z</time>
      </trkpt>
      <trkpt lat="31.23004537202348" lon="121.40043591405077">
        <ele>6.608000807464123</ele>
        <time>2026-09-19T11:07:54Z</time>
      </trkpt>
      <trkpt lat="31.230296243966787" lon="121.40033687670545">
        <ele>6.692553572356701</ele>
        <time>2026-09-19T11:08:06Z</time>
      </trkpt>
      <trkpt lat="31.23042718195076" lon="121.40032586359783">
        <ele>6.608000807464123</ele>
        <time>2026-09-19T11:08:12Z</time>
      </trkpt>
      <trkpt lat="31.230534126441686" lon="121.40027384638415">
        <ele>7.009627394378185</ele>
        <time>2026-09-19T11:08:18Z</time>
      </trkpt>
      <trkpt lat="31.2308259823762" lon="121.40019480921875">
        <ele>7.157595686614513</ele>
        <time>2026-09-19T11:08:27Z</time>
      </trkpt>
      <trkpt lat="31.231056863360966" lon="121.40008177290363">
        <ele>5.466540388762951</ele>
        <time>2026-09-19T11:08:39Z</time>
      </trkpt>
      <trkpt lat="31.231164800823137" lon="121.3999577465104">
        <ele>7.643775038421154</ele>
        <time>2026-09-19T11:08:46Z</time>
      </trkpt>
      <trkpt lat="31.231212766199256" lon="121.39982772539433">
        <ele>4.4413366839289665</ele>
        <time>2026-09-19T11:08:52Z</time>
      </trkpt>
      <trkpt lat="31.231221748655567" lon="121.39967770617652">
        <ele>5.931578688323498</ele>
        <time>2026-09-19T11:08:58Z</time>
      </trkpt>
      <trkpt lat="31.231135768768223" lon="121.39943268610644">
        <ele>6.68198686093092</ele>
        <time>2026-09-19T11:09:07Z</time>
      </trkpt>
      <trkpt lat="31.230987829396806" lon="121.3993236877571">
        <ele>6.7612524554133415</ele>
        <time>2026-09-19T11:09:16Z</time>
      </trkpt>
      <trkpt lat="31.230762930320005" lon="121.39927570261646">
        <ele>-0.07695097476243973</ele>
        <time>2026-09-19T11:09:28Z</time>
      </trkpt>
      <trkpt lat="31.23067697448149" lon="121.39933771628333">
        <ele>7.030764631927013</ele>
        <time>2026-09-19T11:09:34Z</time>
      </trkpt>
      <trkpt lat="31.230475070483433" lon="121.39937073726075">
        <ele>8.277918867766857</ele>
        <time>2026-09-19T11:09:43Z</time>
      </trkpt>
      <trkpt lat="31.230196205349436" lon="121.3994447693403">
        <ele>6.703124098479748</ele>
        <time>2026-09-19T11:09:58Z</time>
      </trkpt>
      <trkpt lat="31.229922337342856" lon="121.3995078000573">
        <ele>28.97220902889967</ele>
        <time>2026-09-19T11:10:08Z</time>
      </trkpt>
      <trkpt lat="31.22986036849255" lon="121.39953780878736">
        <ele>6.962065748870373</ele>
        <time>2026-09-19T11:10:11Z</time>
      </trkpt>
      <trkpt lat="31.2297684203196" lon="121.3996488295198">
        <ele>6.8246679827570915</ele>
        <time>2026-09-19T11:10:17Z</time>
      </trkpt>
      <trkpt lat="31.229714458213" lon="121.39979485193173">
        <ele>7.094180159270763</ele>
        <time>2026-09-19T11:10:23Z</time>
      </trkpt>
      <trkpt lat="31.229700472422795" lon="121.39987786371579">
        <ele>6.845809035003185</ele>
        <time>2026-09-19T11:10:26Z</time>
      </trkpt>
      <trkpt lat="31.22976247103583" lon="121.40014989546391">
        <ele>-0.6265420392155647</ele>
        <time>2026-09-19T11:10:35Z</time>
      </trkpt>
      <trkpt lat="31.229857440848214" lon="121.40027690586035">
        <ele>3.6328039690852165</ele>
        <time>2026-09-19T11:10:41Z</time>
      </trkpt>
      <trkpt lat="31.230048363310363" lon="121.40037390404588">
        <ele>5.894587568938732</ele>
        <time>2026-09-19T11:10:50Z</time>
      </trkpt>
      <trkpt lat="31.230118331530303" lon="121.40037989887692">
        <ele>6.486456923186779</ele>
        <time>2026-09-19T11:10:53Z</time>
      </trkpt>
      <trkpt lat="31.230295246856713" lon="121.40035788002929">
        <ele>6.253935866057873</ele>
        <time>2026-09-19T11:11:02Z</time>
      </trkpt>
      <trkpt lat="31.23035921405817" lon="121.4003308702922">
        <ele>6.6608496233820915</ele>
        <time>2026-09-19T11:11:08Z</time>
      </trkpt>
      <trkpt lat="31.230506144748627" lon="121.40032085594572">
        <ele>6.930357985198498</ele>
        <time>2026-09-19T11:11:11Z</time>
      </trkpt>
      <trkpt lat="31.23080099537773" lon="121.40020781330229">
        <ele>7.45881562680006</ele>
        <time>2026-09-19T11:11:26Z</time>
      </trkpt>
      <trkpt lat="31.230989900804396" lon="121.40014278739329">
        <ele>7.189303450286388</ele>
        <time>2026-09-19T11:11:35Z</time>
      </trkpt>
      <trkpt lat="31.231189788071628" lon="121.39994574273061">
        <ele>5.656783156096935</ele>
        <time>2026-09-19T11:11:50Z</time>
      </trkpt>
      <trkpt lat="31.23122276417673" lon="121.3998557280941">
        <ele>6.724261336028576</ele>
        <time>2026-09-19T11:11:53Z</time>
      </trkpt>
      <trkpt lat="31.231215745946187" lon="121.3996126990787">
        <ele>6.835238508880138</ele>
        <time>2026-09-19T11:12:02Z</time>
      </trkpt>
      <trkpt lat="31.231125768112136" lon="121.39936067947508">
        <ele>6.7612524554133415</ele>
        <time>2026-09-19T11:12:14Z</time>
      </trkpt>
      <trkpt lat="31.23108878254853" lon="121.39932267885061">
        <ele>6.586863569915295</ele>
        <time>2026-09-19T11:12:17Z</time>
      </trkpt>
      <trkpt lat="31.23102281109943" lon="121.39929368171748">
        <ele>7.025481276214123</ele>
        <time>2026-09-19T11:12:23Z</time>
      </trkpt>
      <trkpt lat="31.23086088552574" lon="121.39928469495493">
        <ele>6.296214155852795</ele>
        <time>2026-09-19T11:12:32Z</time>
      </trkpt>
      <trkpt lat="31.23077492800778" lon="121.39932270622798">
        <ele>6.195807509124279</ele>
        <time>2026-09-19T11:12:38Z</time>
      </trkpt>
      <trkpt lat="31.230674973582097" lon="121.39931171384633">
        <ele>6.142962507903576</ele>
        <time>2026-09-19T11:12:41Z</time>
      </trkpt>
      <trkpt lat="31.230351125764848" lon="121.39933974490887">
        <ele>8.954340986907482</ele>
        <time>2026-09-19T11:12:56Z</time>
      </trkpt>
      <trkpt lat="31.230032283575994" lon="121.39947278664782">
        <ele>6.61857133358717</ele>
        <time>2026-09-19T11:13:11Z</time>
      </trkpt>
      <trkpt lat="31.229833381345728" lon="121.39954181158822">
        <ele>6.6291418597102165</ele>
        <time>2026-09-19T11:13:23Z</time>
      </trkpt>
      <trkpt lat="31.22971444976404" lon="121.39969984028491">
        <ele>6.586863569915295</ele>
        <time>2026-09-19T11:13:29Z</time>
      </trkpt>
      <trkpt lat="31.22968247045108" lon="121.39976585111607">
        <ele>5.841742567718029</ele>
        <time>2026-09-19T11:13:32Z</time>
      </trkpt>
      <trkpt lat="31.22969048965337" lon="121.40000688172367">
        <ele>6.4706030413508415</ele>
        <time>2026-09-19T11:13:41Z</time>
      </trkpt>
      <trkpt lat="31.229757481269683" lon="121.40022290653299">
        <ele>7.955561690032482</ele>
        <time>2026-09-19T11:13:51Z</time>
      </trkpt>
      <trkpt lat="31.22986144409432" lon="121.40032191233367">
        <ele>6.68198686093092</ele>
        <time>2026-09-19T11:13:57Z</time>
      </trkpt>
      <trkpt lat="31.229965402062884" lon="121.40037591159344">
        <ele>6.5340185686945915</ele>
        <time>2026-09-19T11:14:00Z</time>
      </trkpt>
      <trkpt lat="31.230057358201762" lon="121.40036590201873">
        <ele>5.736052565276623</ele>
        <time>2026-09-19T11:14:03Z</time>
      </trkpt>
      <trkpt lat="31.23019329849361" lon="121.40039489468141">
        <ele>6.164099745452404</ele>
        <time>2026-09-19T11:14:09Z</time>
      </trkpt>
      <trkpt lat="31.230461165727395" lon="121.4003218600219">
        <ele>5.831175856292248</ele>
        <time>2026-09-19T11:14:21Z</time>
      </trkpt>
      <trkpt lat="31.230726035209273" lon="121.40025382664938">
        <ele>6.2433691546320915</ele>
        <time>2026-09-19T11:14:33Z</time>
      </trkpt>
      <trkpt lat="31.23084097914976" lon="121.40022881290894">
        <ele>5.582800917327404</ele>
        <time>2026-09-19T11:14:39Z</time>
      </trkpt>
      <trkpt lat="31.231142821057524" lon="121.40005776205646">
        <ele>7.384829573333263</ele>
        <time>2026-09-19T11:14:54Z</time>
      </trkpt>
      <trkpt lat="31.231231759822535" lon="121.39985372705291">
        <ele>6.222231917083263</ele>
        <time>2026-09-19T11:15:03Z</time>
      </trkpt>
      <trkpt lat="31.231202750807714" lon="121.39959869859976">
        <ele>0.8372755572199821</ele>
        <time>2026-09-19T11:15:12Z</time>
      </trkpt>
      <trkpt lat="31.231135769974184" lon="121.39944868781075">
        <ele>7.004344038665295</ele>
        <time>2026-09-19T11:15:18Z</time>
      </trkpt>
      <trkpt lat="31.231021815417495" lon="121.39934868731866">
        <ele>2.5336142107844353</ele>
        <time>2026-09-19T11:15:24Z</time>
      </trkpt>
      <trkpt lat="31.230880876808936" lon="121.39929269399956">
        <ele>6.713694624602795</ele>
        <time>2026-09-19T11:15:30Z</time>
      </trkpt>
      <trkpt lat="31.230680968185712" lon="121.39927370957028">
        <ele>4.018572859466076</ele>
        <time>2026-09-19T11:15:39Z</time>
      </trkpt>
      <trkpt lat="31.23053503952803" lon="121.39932672755488">
        <ele>6.576296858489513</ele>
        <time>2026-09-19T11:15:45Z</time>
      </trkpt>
      <trkpt lat="31.23047506664488" lon="121.39931673178334">
        <ele>6.100684218108654</ele>
        <time>2026-09-19T11:15:48Z</time>
      </trkpt>
      <trkpt lat="31.23018120873275" lon="121.39939676558555">
        <ele>6.4706030413508415</ele>
        <time>2026-09-19T11:16:01Z</time>
      </trkpt>
      <trkpt lat="31.22993033300432" lon="121.39949979848122">
        <ele>7.479952864348888</ele>
        <time>2026-09-19T11:16:13Z</time>
      </trkpt>
      <trkpt lat="31.229780412730996" lon="121.39962482567039">
        <ele>5.228735975921154</ele>
        <time>2026-09-19T11:16:19Z</time>
      </trkpt>
      <trkpt lat="31.22970246089465" lon="121.3997628490019">
        <ele>6.90922074764967</ele>
        <time>2026-09-19T11:16:25Z</time>
      </trkpt>
      <trkpt lat="31.229687483056942" lon="121.39992587112329">
        <ele>6.586863569915295</ele>
        <time>2026-09-19T11:16:31Z</time>
      </trkpt>
      <trkpt lat="31.22973248347497" lon="121.40013589607224">
        <ele>4.969794325530529</ele>
        <time>2026-09-19T11:16:40Z</time>
      </trkpt>
      <trkpt lat="31.22982146186399" lon="121.40031491475288">
        <ele>6.153533034026623</ele>
        <time>2026-09-19T11:16:49Z</time>
      </trkpt>
      <trkpt lat="31.22993641587339" lon="121.40037891458893">
        <ele>1.635241560637951</ele>
        <time>2026-09-19T11:16:55Z</time>
      </trkpt>
      <trkpt lat="31.2301843021987" lon="121.40039089484">
        <ele>5.862879805266857</ele>
        <time>2026-09-19T11:17:07Z</time>
      </trkpt>
      <trkpt lat="31.230443177757085" lon="121.40035386650733">
        <ele>5.725482039153576</ele>
        <time>2026-09-19T11:17:23Z</time>
      </trkpt>
      <trkpt lat="31.230702044555528" lon="121.40023782636128">
        <ele>6.222231917083263</ele>
        <time>2026-09-19T11:17:32Z</time>
      </trkpt>
      <trkpt lat="31.23093293020614" lon="121.40017079639811">
        <ele>6.401904158294201</ele>
        <time>2026-09-19T11:17:44Z</time>
      </trkpt>
      <trkpt lat="31.231154808919715" lon="121.3999927520923">
        <ele>5.672637037932873</ele>
        <time>2026-09-19T11:17:56Z</time>
      </trkpt>
      <trkpt lat="31.231196780190725" lon="121.39989773579575">
        <ele>5.614508680999279</ele>
        <time>2026-09-19T11:18:02Z</time>
      </trkpt>
      <trkpt lat="31.2312277496983" lon="121.39972171093801">
        <ele>6.068980269134045</ele>
        <time>2026-09-19T11:18:08Z</time>
      </trkpt>
      <trkpt lat="31.2311577643319" lon="121.3995076922932">
        <ele>5.9844275042414665</ele>
        <time>2026-09-19T11:18:17Z</time>
      </trkpt>
      <trkpt lat="31.23102281638927" lon="121.39936868927587">
        <ele>5.466540388762951</ele>
        <time>2026-09-19T11:18:26Z</time>
      </trkpt>
      <trkpt lat="31.230845891385535" lon="121.399268694696">
        <ele>5.799468092620373</ele>
        <time>2026-09-19T11:18:35Z</time>
      </trkpt>
      <trkpt lat="31.230664976557595" lon="121.39928771233913">
        <ele>8.161658339202404</ele>
        <time>2026-09-19T11:18:45Z</time>
      </trkpt>
      <trkpt lat="31.230378113954615" lon="121.39934974356966">
        <ele>6.058409743010998</ele>
        <time>2026-09-19T11:19:00Z</time>
      </trkpt>
      <trkpt lat="31.230071263648117" lon="121.39944878066595">
        <ele>6.2433691546320915</ele>
        <time>2026-09-19T11:19:15Z</time>
      </trkpt>
      <trkpt lat="31.229839379521586" lon="121.39955381241066">
        <ele>7.1470251604914665</ele>
        <time>2026-09-19T11:19:27Z</time>
      </trkpt>
      <trkpt lat="31.229733446769014" lon="121.39976584666962">
        <ele>6.2750769183039665</ele>
        <time>2026-09-19T11:19:36Z</time>
      </trkpt>
      <trkpt lat="31.229704482350243" lon="121.39999887941497">
        <ele>6.586863569915295</ele>
        <time>2026-09-19T11:19:45Z</time>
      </trkpt>
      <trkpt lat="31.229738480901375" lon="121.40013789583524">
        <ele>5.33442597836256</ele>
        <time>2026-09-19T11:19:51Z</time>
      </trkpt>
      <trkpt lat="31.229858443662287" lon="121.4003059101574">
        <ele>4.874671034514904</ele>
        <time>2026-09-19T11:20:00Z</time>
      </trkpt>
      <trkpt lat="31.22998539208066" lon="121.40036990891693">
        <ele>6.444182448089123</ele>
        <time>2026-09-19T11:20:06Z</time>
      </trkpt>
      <trkpt lat="31.230248271454073" lon="121.40038188785448">
        <ele>5.746619276702404</ele>
        <time>2026-09-19T11:20:19Z</time>
      </trkpt>
      <trkpt lat="31.230425180823012" lon="121.40030786102682">
        <ele>4.647437147796154</ele>
        <time>2026-09-19T11:20:28Z</time>
      </trkpt>
      <trkpt lat="31.230518137702262" lon="121.4003078529184">
        <ele>6.216944746673107</ele>
        <time>2026-09-19T11:20:31Z</time>
      </trkpt>
      <trkpt lat="31.230648071025904" lon="121.40025083300266">
        <ele>5.656783156096935</ele>
        <time>2026-09-19T11:20:43Z</time>
      </trkpt>
      <trkpt lat="31.230710042290386" lon="121.400250827597">
        <ele>6.164099745452404</ele>
        <time>2026-09-19T11:20:46Z</time>
      </trkpt>
      <trkpt lat="31.230965910223667" lon="121.40012678719859">
        <ele>6.058409743010998</ele>
        <time>2026-09-19T11:20:58Z</time>
      </trkpt>
      <trkpt lat="31.23112981791605" lon="121.39996675076704">
        <ele>5.873450331389904</ele>
        <time>2026-09-19T11:21:07Z</time>
      </trkpt>
      <trkpt lat="31.2311997736107" lon="121.39984272843607">
        <ele>6.20109086483717</ele>
        <time>2026-09-19T11:21:13Z</time>
      </trkpt>
      <trkpt lat="31.23122774579185" lon="121.39967670553446">
        <ele>5.704344801604748</ele>
        <time>2026-09-19T11:21:19Z</time>
      </trkpt>
      <trkpt lat="31.23119874724077" lon="121.39953169137428">
        <ele>6.03727250546217</ele>
        <time>2026-09-19T11:21:25Z</time>
      </trkpt>
      <trkpt lat="31.231132768591763" lon="121.39941168415147">
        <ele>3.5693884417414665</ele>
        <time>2026-09-19T11:21:31Z</time>
      </trkpt>
      <trkpt lat="31.231028810126116" lon="121.39931968378121">
        <ele>4.700282149016857</ele>
        <time>2026-09-19T11:21:37Z</time>
      </trkpt>
      <trkpt lat="31.2309588406749" lon="121.39929268719881">
        <ele>5.6620703265070915</ele>
        <time>2026-09-19T11:21:40Z</time>
      </trkpt>
      <trkpt lat="31.230773924139076" lon="121.39925970009818">
        <ele>5.831175856292248</ele>
        <time>2026-09-19T11:21:50Z</time>
      </trkpt>
      <trkpt lat="31.230566022790924" lon="121.3992927214639">
        <ele>5.91044145077467</ele>
        <time>2026-09-19T11:21:59Z</time>
      </trkpt>
      <trkpt lat="31.230392107462237" lon="121.39934974234903">
        <ele>6.486456923186779</ele>
        <time>2026-09-19T11:22:08Z</time>
      </trkpt>
      <trkpt lat="31.23034813134317" lon="121.39939775112957">
        <ele>6.724261336028576</ele>
        <time>2026-09-19T11:22:11Z</time>
      </trkpt>
      <trkpt lat="31.230092256504072" lon="121.39948278250124">
        <ele>5.371417097747326</ele>
        <time>2026-09-19T11:22:23Z</time>
      </trkpt>
      <trkpt lat="31.23003528303117" lon="121.3994837875796">
        <ele>-6.941578812897205</ele>
        <time>2026-09-19T11:22:26Z</time>
      </trkpt>
      <trkpt lat="31.22986037195902" lon="121.39958081363488">
        <ele>5.4084082171320915</ele>
        <time>2026-09-19T11:22:35Z</time>
      </trkpt>
      <trkpt lat="31.22980540238175" lon="121.3996398252392">
        <ele>6.608000807464123</ele>
        <time>2026-09-19T11:22:38Z</time>
      </trkpt>
      <trkpt lat="31.229730441123248" lon="121.39968583721361">
        <ele>5.302718214690685</ele>
        <time>2026-09-19T11:22:41Z</time>
      </trkpt>
      <trkpt lat="31.229679476203493" lon="121.39981385736942">
        <ele>6.058409743010998</ele>
        <time>2026-09-19T11:22:47Z</time>
      </trkpt>
      <trkpt lat="31.22966349781563" lon="121.39996287813459">
        <ele>4.46247773617506</ele>
        <time>2026-09-19T11:22:53Z</time>
      </trkpt>
      <trkpt lat="31.229716492608457" lon="121.40015189976201">
        <ele>6.132391981780529</ele>
        <time>2026-09-19T11:23:03Z</time>
      </trkpt>
      <trkpt lat="31.229796469279716" lon="121.4002779113291">
        <ele>2.9510946795344353</ele>
        <time>2026-09-19T11:23:09Z</time>
      </trkpt>
      <trkpt lat="31.229944412277177" lon="121.40037991404725">
        <ele>-17.96514219790697</ele>
        <time>2026-09-19T11:23:18Z</time>
      </trkpt>
      <trkpt lat="31.230024377379234" lon="121.40039891004278">
        <ele>6.639708571135998</ele>
        <time>2026-09-19T11:23:21Z</time>
      </trkpt>
      <trkpt lat="31.230147319834707" lon="121.40039489869199">
        <ele>4.62629609555006</ele>
        <time>2026-09-19T11:23:27Z</time>
      </trkpt>
      <trkpt lat="31.230310237243323" lon="121.40033487517779">
        <ele>4.8588171526789665</ele>
        <time>2026-09-19T11:23:36Z</time>
      </trkpt>
      <trkpt lat="31.230480157949128" lon="121.40033085974255">
        <ele>6.026701979339123</ele>
        <time>2026-09-19T11:23:45Z</time>
      </trkpt>
      <trkpt lat="31.230570108631944" lon="121.40026384174541">
        <ele>5.778327040374279</ele>
        <time>2026-09-19T11:23:48Z</time>
      </trkpt>
      <trkpt lat="31.230860963562193" lon="121.40017080267572">
        <ele>5.123045973479748</ele>
        <time>2026-09-19T11:24:03Z</time>
      </trkpt>
      <trkpt lat="31.231036872312757" lon="121.40007877422715">
        <ele>4.895808272063732</ele>
        <time>2026-09-19T11:24:12Z</time>
      </trkpt>
      <trkpt lat="31.23121577072565" lon="121.39989073322693">
        <ele>5.767760328948498</ele>
        <time>2026-09-19T11:24:24Z</time>
      </trkpt>
      <trkpt lat="31.23118975461915" lon="121.3995716966526">
        <ele>5.434832625091076</ele>
        <time>2026-09-19T11:24:36Z</time>
      </trkpt>
      <trkpt lat="31.231087788250772" lon="121.39939568640176">
        <ele>6.4706030413508415</ele>
        <time>2026-09-19T11:24:45Z</time>
      </trkpt>
      <trkpt lat="31.23087387909272" lon="121.39927869323238">
        <ele>6.058409743010998</ele>
        <time>2026-09-19T11:24:58Z</time>
      </trkpt>
      <trkpt lat="31.230565023254506" lon="121.39929272155109">
        <ele>4.018572859466076</ele>
        <time>2026-09-19T11:25:13Z</time>
      </trkpt>
      <trkpt lat="31.230331135466713" lon="121.3993457472609">
        <ele>5.646216444671154</ele>
        <time>2026-09-19T11:25:25Z</time>
      </trkpt>
      <trkpt lat="31.230272165277345" lon="121.39937975588754">
        <ele>5.165320448577404</ele>
        <time>2026-09-19T11:25:28Z</time>
      </trkpt>
      <trkpt lat="31.230049274236084" lon="121.3994537831194">
        <ele>4.2458105608820915</ele>
        <time>2026-09-19T11:25:43Z</time>
      </trkpt>
      <trkpt lat="31.22980440117131" lon="121.39961982299775">
        <ele>4.990931563079357</ele>
        <time>2026-09-19T11:25:52Z</time>
      </trkpt>
      <trkpt lat="31.229719451394637" lon="121.39974484530686">
        <ele>5.466540388762951</ele>
        <time>2026-09-19T11:25:58Z</time>
      </trkpt>
      <trkpt lat="31.22968248258903" lon="121.39989686775415">
        <ele>4.388491682708263</ele>
        <time>2026-09-19T11:26:04Z</time>
      </trkpt>
      <trkpt lat="31.229716488054546" lon="121.40010889362523">
        <ele>1.9734526202082634</ele>
        <time>2026-09-19T11:26:14Z</time>
      </trkpt>
      <trkpt lat="31.229832455277887" lon="121.40030191181688">
        <ele>5.466540388762951</ele>
        <time>2026-09-19T11:26:23Z</time>
      </trkpt>
      <trkpt lat="31.229968404312437" lon="121.40040691618154">
        <ele>5.387270979583263</ele>
        <time>2026-09-19T11:26:32Z</time>
      </trkpt>
      <trkpt lat="31.23018929987909" lon="121.40039089440407">
        <ele>4.68971162289381</ele>
        <time>2026-09-19T11:26:44Z</time>
      </trkpt>
      <trkpt lat="31.23040019688695" lon="121.40034686917639">
        <ele>3.5693884417414665</ele>
        <time>2026-09-19T11:26:53Z</time>
      </trkpt>
      <trkpt lat="31.230748021582475" lon="121.40022282013103">
        <ele>6.03727250546217</ele>
        <time>2026-09-19T11:27:08Z</time>
      </trkpt>
      <trkpt lat="31.231046868303807" lon="121.40008477419627">
        <ele>5.6620703265070915</ele>
        <time>2026-09-19T11:27:23Z</time>
      </trkpt>
      <trkpt lat="31.23120277353033" lon="121.39985672996623">
        <ele>5.054347090423107</ele>
        <time>2026-09-19T11:27:35Z</time>
      </trkpt>
      <trkpt lat="31.231198754649157" lon="121.39962270171895">
        <ele>4.721419386565685</ele>
        <time>2026-09-19T11:27:44Z</time>
      </trkpt>
      <trkpt lat="31.231173754208687" lon="121.39947268707914">
        <ele>7.860442213714123</ele>
        <time>2026-09-19T11:27:50Z</time>
      </trkpt>
      <trkpt lat="31.23111677394371" lon="121.39938368262712">
        <ele>5.0860510393977165</ele>
        <time>2026-09-19T11:27:53Z</time>
      </trkpt>
      <trkpt lat="31.23101381728386" lon="121.39932268538982">
        <ele>5.197028212249279</ele>
        <time>2026-09-19T11:27:59Z</time>
      </trkpt>
      <trkpt lat="31.230821904489453" lon="121.39929769963815">
        <ele>5.4084082171320915</ele>
        <time>2026-09-19T11:28:09Z</time>
      </trkpt>
      <trkpt lat="31.23076084111249" lon="121.39925857136404">
        <ele>5.355563215911388</ele>
        <time>2026-09-19T11:28:12Z</time>
      </trkpt>
      <trkpt lat="31.230552033276208" lon="121.39934972839903">
        <ele>5.561663679778576</ele>
        <time>2026-09-19T11:28:24Z</time>
      </trkpt>
      <trkpt lat="31.23030515055382" lon="121.3993877538386">
        <ele>5.313288740813732</ele>
        <time>2026-09-19T11:28:33Z</time>
      </trkpt>
      <trkpt lat="31.23007226524485" lon="121.39947578348522">
        <ele>5.186457686126232</ele>
        <time>2026-09-19T11:28:45Z</time>
      </trkpt>
      <trkpt lat="31.229896350986916" lon="121.39952780453524">
        <ele>3.780768446624279</ele>
        <time>2026-09-19T11:28:54Z</time>
      </trkpt>
      <trkpt lat="31.22983038539731" lon="121.39957481556823">
        <ele>3.5588179156184196</ele>
        <time>2026-09-19T11:28:57Z</time>
      </trkpt>
      <trkpt lat="31.229741438621964" lon="121.3997158398593">
        <ele>5.767760328948498</ele>
        <time>2026-09-19T11:29:03Z</time>
      </trkpt>
      <trkpt lat="31.229700476150388" lon="121.39991686880427">
        <ele>4.594588331878185</ele>
        <time>2026-09-19T11:29:12Z</time>
      </trkpt>
      <trkpt lat="31.22971448533708" lon="121.40007388887629">
        <ele>4.319792799651623</ele>
        <time>2026-09-19T11:29:19Z</time>
      </trkpt>
      <trkpt lat="31.229807460597193" lon="121.40024590558194">
        <ele>3.8600378558039665</ele>
        <time>2026-09-19T11:29:28Z</time>
      </trkpt>
      <trkpt lat="31.229928416561513" lon="121.40035291125385">
        <ele>5.096621565520763</ele>
        <time>2026-09-19T11:29:37Z</time>
      </trkpt>
      <trkpt lat="31.230161312165244" lon="121.40038489590775">
        <ele>18.207585386931896</ele>
        <time>2026-09-19T11:29:49Z</time>
      </trkpt>
      <trkpt lat="31.230503141600913" lon="121.40028085014006">
        <ele>4.948653273284435</ele>
        <time>2026-09-19T11:30:04Z</time>
      </trkpt>
      <trkpt lat="31.23079399774801" lon="121.40019981273996">
        <ele>4.906378798186779</ele>
        <time>2026-09-19T11:30:19Z</time>
      </trkpt>
      <trkpt lat="31.231029875244175" lon="121.40007577441769">
        <ele>1.9628859087824821</ele>
        <time>2026-09-19T11:30:31Z</time>
      </trkpt>
      <trkpt lat="31.231182788111887" lon="121.39991273897982">
        <ele>4.895808272063732</ele>
        <time>2026-09-19T11:30:41Z</time>
      </trkpt>
      <trkpt lat="31.231205757096905" lon="121.39968970900274">
        <ele>5.1177588030695915</ele>
        <time>2026-09-19T11:30:50Z</time>
      </trkpt>
      <trkpt lat="31.231195755871415" lon="121.3996207017485">
        <ele>4.525889448821545</ele>
        <time>2026-09-19T11:30:53Z</time>
      </trkpt>
      <trkpt lat="31.231161764610942" lon="121.39953469493442">
        <ele>4.615729384124279</ele>
        <time>2026-09-19T11:30:56Z</time>
      </trkpt>
      <trkpt lat="31.23109478813014" lon="121.39943769021237">
        <ele>4.5681677386164665</ele>
        <time>2026-09-19T11:31:02Z</time>
      </trkpt>
      <trkpt lat="31.230901866325546" lon="121.39928169108539">
        <ele>-3.4114999249577522</ele>
        <time>2026-09-19T11:31:14Z</time>
      </trkpt>
      <trkpt lat="31.230825899774935" lon="121.39925569517668">
        <ele>4.171824507415295</ele>
        <time>2026-09-19T11:31:17Z</time>
      </trkpt>
      <trkpt lat="31.230663976200958" lon="121.39927571124811">
        <ele>1.635241560637951</ele>
        <time>2026-09-19T11:31:23Z</time>
      </trkpt>
      <trkpt lat="31.230321140961916" lon="121.399357749355">
        <ele>4.573451094329357</ele>
        <time>2026-09-19T11:31:38Z</time>
      </trkpt>
      <trkpt lat="31.230024287365318" lon="121.39947378745353">
        <ele>4.235240034759045</ele>
        <time>2026-09-19T11:31:50Z</time>
      </trkpt>
      <trkpt lat="31.229841379318255" lon="121.39956281325041">
        <ele>1.376299910247326</ele>
        <time>2026-09-19T11:32:00Z</time>
      </trkpt>
      <trkpt lat="31.22974243555131" lon="121.3996858361674">
        <ele>3.8917456194758415</ele>
        <time>2026-09-19T11:32:06Z</time>
      </trkpt>
      <trkpt lat="31.22971145608918" lon="121.39975584735464">
        <ele>7.39540009945631</ele>
        <time>2026-09-19T11:32:09Z</time>
      </trkpt>
      <trkpt lat="31.229686483521316" lon="121.39992587121047">
        <ele>14.999863676726818</ele>
        <time>2026-09-19T11:32:15Z</time>
      </trkpt>
      <trkpt lat="31.229712486059064" lon="121.40007188877128">
        <ele>4.0555639788508415</ele>
        <time>2026-09-19T11:32:21Z</time>
      </trkpt>
      <trkpt lat="31.229859444908378" lon="121.40032091235528">
        <ele>4.420199446380138</ele>
        <time>2026-09-19T11:32:33Z</time>
      </trkpt>
      <trkpt lat="31.229888612222414" lon="121.40046311876327">
        <ele>4.46247773617506</ele>
        <time>2026-09-19T11:32:36Z</time>
      </trkpt>
      <trkpt lat="31.229944364265915" lon="121.40034574039828">
        <ele>4.161257795989513</ele>
        <time>2026-09-19T11:32:39Z</time>
      </trkpt>
      <trkpt lat="31.23021428234869" lon="121.4003398843157">
        <ele>4.224669508635998</ele>
        <time>2026-09-19T11:32:51Z</time>
      </trkpt>
      <trkpt lat="31.230270254648932" lon="121.40032487713322">
        <ele>5.614508680999279</ele>
        <time>2026-09-19T11:32:54Z</time>
      </trkpt>
      <trkpt lat="31.230270254648932" lon="121.40032487713322">
        <ele>4.121214807964861</ele>
        <time>2026-09-19T11:32:56Z</time>
      </trkpt>
    </trkseg>
  </trk>
</gpx>