<?xml version="1.0" encoding="UTF-8"?>
<gpx xmlns="http://www.topografix.com/GPX/1/1" xmlns:gpxtpx="http://www.garmin.com/xmlschemas/TrackPointExtension/v1" xmlns:xsi="http://www.w3.org/2001/XMLSchema-instance" xsi:schemaLocation="http://www.topografix.com/GPX/1/1 http://www.topografix.com/GPX/1/1/gpx.xsd" version="1.1" creator="gpx.py -- https://github.com/tkrajina/gpxpy">
  <trk>
    <name>gpx from keep</name>
    <type>Run</type>
    <trkseg>
      <trkpt lat="31.226677862280933" lon="121.39967310191442">
        <ele>22.633055601269007</ele>
        <time>2026-05-06T09:19:11Z</time>
      </trkpt>
      <trkpt lat="31.226753828766917" lon="121.39969609803279">
        <ele>28.45926943793893</ele>
        <time>2026-05-06T09:19:14Z</time>
      </trkpt>
      <trkpt lat="31.226831792429408" lon="121.39969709135302">
        <ele>32.195444975048304</ele>
        <time>2026-05-06T09:19:17Z</time>
      </trkpt>
      <trkpt lat="31.226816800651825" lon="121.39971109434507">
        <ele>23.132445249706507</ele>
        <time>2026-05-06T09:19:47Z</time>
      </trkpt>
      <trkpt lat="31.229692461199924" lon="121.39971384388959">
        <ele>12.545478008687496</ele>
        <time>2026-05-06T09:24:44Z</time>
      </trkpt>
      <trkpt lat="31.229711457253988" lon="121.39976884895866">
        <ele>12.84669604152441</ele>
        <time>2026-05-06T09:24:47Z</time>
      </trkpt>
      <trkpt lat="31.229728464989048" lon="121.39993586887104">
        <ele>13.013159893453121</ele>
        <time>2026-05-06T09:24:53Z</time>
      </trkpt>
      <trkpt lat="31.229774460390374" lon="121.40010188757869">
        <ele>12.106860302388668</ele>
        <time>2026-05-06T09:24:59Z</time>
      </trkpt>
      <trkpt lat="31.2298144510909" lon="121.40018889657614">
        <ele>13.377793453633785</ele>
        <time>2026-05-06T09:25:02Z</time>
      </trkpt>
      <trkpt lat="31.229917414461628" lon="121.40028990258911">
        <ele>12.931248806416988</ele>
        <time>2026-05-06T09:25:09Z</time>
      </trkpt>
      <trkpt lat="31.230012377344178" lon="121.40035090362153">
        <ele>13.45177759975195</ele>
        <time>2026-05-06T09:25:11Z</time>
      </trkpt>
      <trkpt lat="31.230104336509296" lon="121.40036689807611">
        <ele>13.639378689229488</ele>
        <time>2026-05-06T09:25:14Z</time>
      </trkpt>
      <trkpt lat="31.230229274355374" lon="121.40033088162646">
        <ele>12.595680378377438</ele>
        <time>2026-05-06T09:25:17Z</time>
      </trkpt>
      <trkpt lat="31.230376197466462" lon="121.40025385716504">
        <ele>13.441208980977535</ele>
        <time>2026-05-06T09:25:21Z</time>
      </trkpt>
      <trkpt lat="31.230690044638948" lon="121.40018782005488">
        <ele>13.20076098293066</ele>
        <time>2026-05-06T09:25:29Z</time>
      </trkpt>
      <trkpt lat="31.230864958179016" lon="121.4001377975757">
        <ele>12.305030964314938</ele>
        <time>2026-05-06T09:25:35Z</time>
      </trkpt>
      <trkpt lat="31.23100588440196" lon="121.40005677386253">
        <ele>16.202384136617184</ele>
        <time>2026-05-06T09:25:41Z</time>
      </trkpt>
      <trkpt lat="31.231068849144485" lon="121.39999676013298">
        <ele>-44.696743823587894</ele>
        <time>2026-05-06T09:25:44Z</time>
      </trkpt>
      <trkpt lat="31.23117678185273" lon="121.39981672714127">
        <ele>21.33368220180273</ele>
        <time>2026-05-06T09:25:50Z</time>
      </trkpt>
      <trkpt lat="31.231199763454086" lon="121.3997307144728">
        <ele>21.510714672505856</ele>
        <time>2026-05-06T09:25:53Z</time>
      </trkpt>
      <trkpt lat="31.231144768175444" lon="121.39947969036632">
        <ele>14.754420422017574</ele>
        <time>2026-05-06T09:25:59Z</time>
      </trkpt>
      <trkpt lat="31.231110779150395" lon="121.3994166865953">
        <ele>21.949332378804684</ele>
        <time>2026-05-06T09:26:03Z</time>
      </trkpt>
      <trkpt lat="31.230998823671705" lon="121.39931468589667">
        <ele>16.934296749532223</ele>
        <time>2026-05-06T09:26:05Z</time>
      </trkpt>
      <trkpt lat="31.230906862718648" lon="121.39926268879341">
        <ele>17.547303341329098</ele>
        <time>2026-05-06T09:26:09Z</time>
      </trkpt>
      <trkpt lat="31.230809906652386" lon="121.39924769579878">
        <ele>-8.798807956278324</ele>
        <time>2026-05-06T09:26:11Z</time>
      </trkpt>
      <trkpt lat="31.23059301152076" lon="121.39931072089603">
        <ele>21.98104204982519</ele>
        <time>2026-05-06T09:26:20Z</time>
      </trkpt>
      <trkpt lat="31.23038611423576" lon="121.3994047485476">
        <ele>21.10644831508398</ele>
        <time>2026-05-06T09:26:26Z</time>
      </trkpt>
      <trkpt lat="31.230086258211227" lon="121.39946878150741">
        <ele>5.292439602315426</ele>
        <time>2026-05-06T09:26:38Z</time>
      </trkpt>
      <trkpt lat="31.229973313593543" lon="121.3995067955008">
        <ele>20.271491192281246</ele>
        <time>2026-05-06T09:26:42Z</time>
      </trkpt>
      <trkpt lat="31.229888358310202" lon="121.39957281028448">
        <ele>20.062750957906246</ele>
        <time>2026-05-06T09:26:44Z</time>
      </trkpt>
      <trkpt lat="31.229773425435347" lon="121.3997348393768">
        <ele>6.262153767049313</ele>
        <time>2026-05-06T09:26:51Z</time>
      </trkpt>
      <trkpt lat="31.22974444870387" lon="121.39984285538107">
        <ele>20.792018078267574</ele>
        <time>2026-05-06T09:26:54Z</time>
      </trkpt>
      <trkpt lat="31.22973945958975" lon="121.39993286751475">
        <ele>10.574344776570797</ele>
        <time>2026-05-06T09:26:57Z</time>
      </trkpt>
      <trkpt lat="31.2298004563998" lon="121.40017789619623">
        <ele>21.13551440089941</ele>
        <time>2026-05-06T09:27:03Z</time>
      </trkpt>
      <trkpt lat="31.229843444439936" lon="121.40025090318787">
        <ele>-49.33657727390528</ele>
        <time>2026-05-06T09:27:06Z</time>
      </trkpt>
      <trkpt lat="31.2299913895292" lon="121.40037190870454">
        <ele>4.761338375508785</ele>
        <time>2026-05-06T09:27:12Z</time>
      </trkpt>
      <trkpt lat="31.230066358242784" lon="121.40040190685171">
        <ele>20.11295046657324</ele>
        <time>2026-05-06T09:27:15Z</time>
      </trkpt>
      <trkpt lat="31.230183303839432" lon="121.40040089649396">
        <ele>13.5971023067832</ele>
        <time>2026-05-06T09:27:18Z</time>
      </trkpt>
      <trkpt lat="31.230284254170734" lon="121.40037688393672">
        <ele>-26.517899371683598</ele>
        <time>2026-05-06T09:27:21Z</time>
      </trkpt>
      <trkpt lat="31.230503140029164" lon="121.40026684803641">
        <ele>19.896285198628902</ele>
        <time>2026-05-06T09:27:27Z</time>
      </trkpt>
      <trkpt lat="31.230753016202645" lon="121.4001948155835">
        <ele>19.94648852199316</ele>
        <time>2026-05-06T09:27:36Z</time>
      </trkpt>
      <trkpt lat="31.230928931091633" lon="121.40016179544541">
        <ele>17.3094989284873</ele>
        <time>2026-05-06T09:27:42Z</time>
      </trkpt>
      <trkpt lat="31.23114880941411" lon="121.39996974951305">
        <ele>20.5515700802207</ele>
        <time>2026-05-06T09:27:51Z</time>
      </trkpt>
      <trkpt lat="31.231190779274062" lon="121.3998587312693">
        <ele>7.710118435323238</ele>
        <time>2026-05-06T09:27:54Z</time>
      </trkpt>
      <trkpt lat="31.23121475677395" lon="121.39973371353038">
        <ele>-56.692667819559574</ele>
        <time>2026-05-06T09:27:57Z</time>
      </trkpt>
      <trkpt lat="31.23121774460586" lon="121.39960769832727">
        <ele>21.489575527608395</ele>
        <time>2026-05-06T09:28:00Z</time>
      </trkpt>
      <trkpt lat="31.231186751139294" lon="121.39951069009501">
        <ele>8.814586780965328</ele>
        <time>2026-05-06T09:28:03Z</time>
      </trkpt>
      <trkpt lat="31.23112677218783" lon="121.39942268583277">
        <ele>-1.183777667582035</ele>
        <time>2026-05-06T09:28:06Z</time>
      </trkpt>
      <trkpt lat="31.230862882699117" lon="121.39925669204753">
        <ele>18.131243847310543</ele>
        <time>2026-05-06T09:28:15Z</time>
      </trkpt>
      <trkpt lat="31.230777921949226" lon="121.39925469926493">
        <ele>20.51986040920019</ele>
        <time>2026-05-06T09:28:18Z</time>
      </trkpt>
      <trkpt lat="31.23070995604515" lon="121.39929270890882">
        <ele>18.75746264308691</ele>
        <time>2026-05-06T09:28:21Z</time>
      </trkpt>
      <trkpt lat="31.230619999074804" lon="121.39931171864167">
        <ele>20.04160799831152</ele>
        <time>2026-05-06T09:28:24Z</time>
      </trkpt>
      <trkpt lat="31.23045408204126" lon="121.3993957416793">
        <ele>-7.926859714090824</ele>
        <time>2026-05-06T09:28:30Z</time>
      </trkpt>
      <trkpt lat="31.230187211427268" lon="121.3994697728096">
        <ele>20.81315340846777</ele>
        <time>2026-05-06T09:28:39Z</time>
      </trkpt>
      <trkpt lat="31.229939334800147" lon="121.39957480606499">
        <ele>19.60299029201269</ele>
        <time>2026-05-06T09:28:48Z</time>
      </trkpt>
      <trkpt lat="31.229862374996774" lon="121.39962881898629">
        <ele>18.61213793605566</ele>
        <time>2026-05-06T09:28:51Z</time>
      </trkpt>
      <trkpt lat="31.229797411399996" lon="121.39970183328884">
        <ele>20.54099764674902</ele>
        <time>2026-05-06T09:28:54Z</time>
      </trkpt>
      <trkpt lat="31.229731456424272" lon="121.39986085881999">
        <ele>20.08388438075781</ele>
        <time>2026-05-06T09:29:00Z</time>
      </trkpt>
      <trkpt lat="31.229725476535613" lon="121.40003788292044">
        <ele>18.945065639913082</ele>
        <time>2026-05-06T09:29:06Z</time>
      </trkpt>
      <trkpt lat="31.229797459091944" lon="121.40018989820412">
        <ele>19.737746380269527</ele>
        <time>2026-05-06T09:29:12Z</time>
      </trkpt>
      <trkpt lat="31.22984944243438" lon="121.4002579037094">
        <ele>13.731858395040035</ele>
        <time>2026-05-06T09:29:15Z</time>
      </trkpt>
      <trkpt lat="31.229982391498428" lon="121.40035290654583">
        <ele>22.430224560201168</ele>
        <time>2026-05-06T09:29:21Z</time>
      </trkpt>
      <trkpt lat="31.230191298716427" lon="121.40038889391698">
        <ele>21.8040057644248</ele>
        <time>2026-05-06T09:29:27Z</time>
      </trkpt>
      <trkpt lat="31.23048015249001" lon="121.40028285244674">
        <ele>19.13266672939062</ele>
        <time>2026-05-06T09:29:39Z</time>
      </trkpt>
      <trkpt lat="31.230626078015685" lon="121.40022183062041">
        <ele>17.359700344502926</ele>
        <time>2026-05-06T09:29:45Z</time>
      </trkpt>
      <trkpt lat="31.230957912243117" lon="121.40011078562232">
        <ele>18.77860178798437</ele>
        <time>2026-05-06T09:30:00Z</time>
      </trkpt>
      <trkpt lat="31.231050863559794" lon="121.40005676993901">
        <ele>20.781445644795895</ele>
        <time>2026-05-06T09:30:03Z</time>
      </trkpt>
      <trkpt lat="31.23112981989805" lon="121.39998675346004">
        <ele>19.81173052638769</ele>
        <time>2026-05-06T09:30:06Z</time>
      </trkpt>
      <trkpt lat="31.231183785827838" lon="121.39989373640763">
        <ele>19.822299145162106</ele>
        <time>2026-05-06T09:30:09Z</time>
      </trkpt>
      <trkpt lat="31.231212760549393" lon="121.3997657176321">
        <ele>-3.046580173075199</ele>
        <time>2026-05-06T09:30:12Z</time>
      </trkpt>
      <trkpt lat="31.2312127533384" lon="121.39968370767588">
        <ele>-29.498385287821293</ele>
        <time>2026-05-06T09:30:15Z</time>
      </trkpt>
      <trkpt lat="31.23117775640936" lon="121.39952469242752">
        <ele>22.74201311916113</ele>
        <time>2026-05-06T09:30:18Z</time>
      </trkpt>
      <trkpt lat="31.231064797806653" lon="121.39938068685062">
        <ele>16.202384136617184</ele>
        <time>2026-05-06T09:30:24Z</time>
      </trkpt>
      <trkpt lat="31.23092785400773" lon="121.39927768842617">
        <ele>20.41681208461523</ele>
        <time>2026-05-06T09:30:30Z</time>
      </trkpt>
      <trkpt lat="31.230744940238832" lon="121.39929870645072">
        <ele>10.510926388204098</ele>
        <time>2026-05-06T09:30:36Z</time>
      </trkpt>
      <trkpt lat="31.230610008114617" lon="121.3993737257992">
        <ele>19.34140696376562</ele>
        <time>2026-05-06T09:30:42Z</time>
      </trkpt>
      <trkpt lat="31.230305153585206" lon="121.399428758136">
        <ele>20.25034823268652</ele>
        <time>2026-05-06T09:30:54Z</time>
      </trkpt>
      <trkpt lat="31.23016222433511" lon="121.3994867768335">
        <ele>18.61213793605566</ele>
        <time>2026-05-06T09:31:00Z</time>
      </trkpt>
      <trkpt lat="31.23003928257307" lon="121.39950178919727">
        <ele>-25.989447452127934</ele>
        <time>2026-05-06T09:31:06Z</time>
      </trkpt>
      <trkpt lat="31.22993533479851" lon="121.39955180381605">
        <ele>0.7424384579062462</ele>
        <time>2026-05-06T09:31:12Z</time>
      </trkpt>
      <trkpt lat="31.22988436361694" lon="121.39961481544404">
        <ele>21.700955532491207</ele>
        <time>2026-05-06T09:31:15Z</time>
      </trkpt>
      <trkpt lat="31.22980040784796" lon="121.39967683003844">
        <ele>0.16906466335058212</ele>
        <time>2026-05-06T09:31:18Z</time>
      </trkpt>
      <trkpt lat="31.229746447402924" lon="121.39983885469667">
        <ele>13.544255398213863</ele>
        <time>2026-05-06T09:31:24Z</time>
      </trkpt>
      <trkpt lat="31.229745467554633" lon="121.40004088159054">
        <ele>6.24100985378027</ele>
        <time>2026-05-06T09:31:30Z</time>
      </trkpt>
      <trkpt lat="31.229769465659192" lon="121.40012989198931">
        <ele>14.244458340108395</ele>
        <time>2026-05-06T09:31:33Z</time>
      </trkpt>
      <trkpt lat="31.229825450028915" lon="121.40022590104736">
        <ele>12.99202074855566</ele>
        <time>2026-05-06T09:31:36Z</time>
      </trkpt>
      <trkpt lat="31.22990742205575" lon="121.40031590740739">
        <ele>9.448730610311031</ele>
        <time>2026-05-06T09:31:39Z</time>
      </trkpt>
      <trkpt lat="31.230058360660326" lon="121.40039090582546">
        <ele>20.44851603358984</ele>
        <time>2026-05-06T09:31:45Z</time>
      </trkpt>
      <trkpt lat="31.230164312654175" lon="121.40040089815051">
        <ele>22.971888683736324</ele>
        <time>2026-05-06T09:31:48Z</time>
      </trkpt>
      <trkpt lat="31.230385197557244" lon="121.40029186208825">
        <ele>20.90827288478613</ele>
        <time>2026-05-06T09:31:54Z</time>
      </trkpt>
      <trkpt lat="31.23057110716375" lon="121.40025484031274">
        <ele>19.550143383443356</ele>
        <time>2026-05-06T09:32:03Z</time>
      </trkpt>
      <trkpt lat="31.230686047470698" lon="121.40019682171742">
        <ele>17.756039761006832</ele>
        <time>2026-05-06T09:32:06Z</time>
      </trkpt>
      <trkpt lat="31.230947916350754" lon="121.40010578578641">
        <ele>19.946484707295895</ele>
        <time>2026-05-06T09:32:18Z</time>
      </trkpt>
      <trkpt lat="31.231081845233454" lon="121.40001776186082">
        <ele>19.60298838466406</ele>
        <time>2026-05-06T09:32:24Z</time>
      </trkpt>
      <trkpt lat="31.231182787343187" lon="121.3999047379312">
        <ele>19.634696148335934</ele>
        <time>2026-05-06T09:32:30Z</time>
      </trkpt>
      <trkpt lat="31.231215765273333" lon="121.39983272576754">
        <ele>17.005633495748043</ele>
        <time>2026-05-06T09:32:33Z</time>
      </trkpt>
      <trkpt lat="31.23123474101354" lon="121.39965870279245">
        <ele>8.83572306483984</ele>
        <time>2026-05-06T09:32:39Z</time>
      </trkpt>
      <trkpt lat="31.231199744415747" lon="121.39950168797196">
        <ele>-2.285608150064945</ele>
        <time>2026-05-06T09:32:45Z</time>
      </trkpt>
      <trkpt lat="31.231103779454923" lon="121.39937668303716">
        <ele>18.059900425374508</ele>
        <time>2026-05-06T09:32:51Z</time>
      </trkpt>
      <trkpt lat="31.23096383780958" lon="121.39928468597446">
        <ele>18.205225132405758</ele>
        <time>2026-05-06T09:32:57Z</time>
      </trkpt>
      <trkpt lat="31.230882873904882" lon="121.39926369098316">
        <ele>19.55014242976904</ele>
        <time>2026-05-06T09:33:00Z</time>
      </trkpt>
      <trkpt lat="31.230730945217346" lon="121.39927670550439">
        <ele>1.503412388265133</ele>
        <time>2026-05-06T09:33:06Z</time>
      </trkpt>
      <trkpt lat="31.23061000631817" lon="121.39934872324041">
        <ele>19.206648014485836</ele>
        <time>2026-05-06T09:33:12Z</time>
      </trkpt>
      <trkpt lat="31.23046707325686" lon="121.39935773662565">
        <ele>20.760303638875484</ele>
        <time>2026-05-06T09:33:18Z</time>
      </trkpt>
      <trkpt lat="31.23034613360038" lon="121.3994157531892">
        <ele>20.760303638875484</ele>
        <time>2026-05-06T09:33:24Z</time>
      </trkpt>
      <trkpt lat="31.23005827143395" lon="121.39947178427282">
        <ele>18.173517368733883</ele>
        <time>2026-05-06T09:33:36Z</time>
      </trkpt>
      <trkpt lat="31.229875361688823" lon="121.3995398077029">
        <ele>-11.451658107340336</ele>
        <time>2026-05-06T09:33:45Z</time>
      </trkpt>
      <trkpt lat="31.229812396047624" lon="121.39960282033742">
        <ele>20.91619696468115</ele>
        <time>2026-05-06T09:33:48Z</time>
      </trkpt>
      <trkpt lat="31.22973145022819" lon="121.39979385032451">
        <ele>18.392824314534664</ele>
        <time>2026-05-06T09:33:54Z</time>
      </trkpt>
      <trkpt lat="31.22972246487647" lon="121.39990586544289">
        <ele>19.301767490804195</ele>
        <time>2026-05-06T09:33:57Z</time>
      </trkpt>
      <trkpt lat="31.229752466043752" lon="121.40005788333404">
        <ele>-2.068944789469242</ele>
        <time>2026-05-06T09:34:03Z</time>
      </trkpt>
      <trkpt lat="31.229852439595188" lon="121.40024490150984">
        <ele>-8.539873458445072</ele>
        <time>2026-05-06T09:34:09Z</time>
      </trkpt>
      <trkpt lat="31.22991441835038" lon="121.40031190618762">
        <ele>18.42453160136938</ele>
        <time>2026-05-06T09:34:12Z</time>
      </trkpt>
      <trkpt lat="31.230061356811362" lon="121.4003699022908">
        <ele>20.926765106618404</ele>
        <time>2026-05-06T09:34:18Z</time>
      </trkpt>
      <trkpt lat="31.23019029800886" lon="121.40037889244371">
        <ele>20.74973263591528</ele>
        <time>2026-05-06T09:34:24Z</time>
      </trkpt>
      <trkpt lat="31.230407192488027" lon="121.4003368670277">
        <ele>17.568435333669186</ele>
        <time>2026-05-06T09:34:33Z</time>
      </trkpt>
      <trkpt lat="31.230575107434543" lon="121.40027384280945">
        <ele>15.211526535451412</ele>
        <time>2026-05-06T09:34:39Z</time>
      </trkpt>
      <trkpt lat="31.230638070809032" lon="121.40020682736719">
        <ele>19.89627804607153</ele>
        <time>2026-05-06T09:34:43Z</time>
      </trkpt>
      <trkpt lat="31.23097690103786" lon="121.40008778072072">
        <ele>16.067622803151608</ele>
        <time>2026-05-06T09:34:54Z</time>
      </trkpt>
      <trkpt lat="31.231059859083842" lon="121.40005376873799">
        <ele>19.801156662404537</ele>
        <time>2026-05-06T09:34:57Z</time>
      </trkpt>
      <trkpt lat="31.231190782586733" lon="121.3998937357973">
        <ele>14.619657181203365</ele>
        <time>2026-05-06T09:35:03Z</time>
      </trkpt>
      <trkpt lat="31.23123475389788" lon="121.39980472057307">
        <ele>18.976766251027584</ele>
        <time>2026-05-06T09:35:06Z</time>
      </trkpt>
      <trkpt lat="31.231246739241556" lon="121.39970270698693">
        <ele>15.964574478566647</ele>
        <time>2026-05-06T09:35:10Z</time>
      </trkpt>
      <trkpt lat="31.23120973815603" lon="121.39948068480757">
        <ele>15.224738739430904</ele>
        <time>2026-05-06T09:35:15Z</time>
      </trkpt>
      <trkpt lat="31.23111377013254" lon="121.39931067547064">
        <ele>20.95847287029028</ele>
        <time>2026-05-06T09:35:21Z</time>
      </trkpt>
      <trkpt lat="31.231057792102593" lon="121.39925267465857">
        <ele>20.321683548390865</ele>
        <time>2026-05-06T09:35:25Z</time>
      </trkpt>
      <trkpt lat="31.230983825309494" lon="121.39923667957065">
        <ele>20.45908322185278</ele>
        <time>2026-05-06T09:35:27Z</time>
      </trkpt>
      <trkpt lat="31.23085688454198" lon="121.39924269121956">
        <ele>19.394246719777584</ele>
        <time>2026-05-06T09:35:30Z</time>
      </trkpt>
      <trkpt lat="31.230554032277702" lon="121.39934872812293">
        <ele>8.87535347789526</ele>
        <time>2026-05-06T09:35:39Z</time>
      </trkpt>
      <trkpt lat="31.23034213332032" lon="121.39938675050897">
        <ele>22.847697876393795</ele>
        <time>2026-05-06T09:35:48Z</time>
      </trkpt>
      <trkpt lat="31.230159225417665" lon="121.39948277665975">
        <ele>17.132459305226803</ele>
        <time>2026-05-06T09:35:55Z</time>
      </trkpt>
      <trkpt lat="31.230015295280918" lon="121.39952179349459">
        <ele>13.504617355763912</ele>
        <time>2026-05-06T09:36:03Z</time>
      </trkpt>
      <trkpt lat="31.230015295280918" lon="121.39952179349459">
        <ele>19.973158382810652</ele>
        <time>2026-05-06T09:36:06Z</time>
      </trkpt>
    </trkseg>
  </trk>
</gpx>