<?xml version="1.0" encoding="UTF-8"?>
<gpx xmlns="http://www.topografix.com/GPX/1/1" xmlns:gpxtpx="http://www.garmin.com/xmlschemas/TrackPointExtension/v1" xmlns:xsi="http://www.w3.org/2001/XMLSchema-instance" xsi:schemaLocation="http://www.topografix.com/GPX/1/1 http://www.topografix.com/GPX/1/1/gpx.xsd" version="1.1" creator="gpx.py -- https://github.com/tkrajina/gpxpy">
  <trk>
    <name>gpx from keep</name>
    <type>Run</type>
    <trkseg>
      <trkpt lat="32.05193233120375" lon="118.8038908704905">
        <ele>7.637656942941248</ele>
        <time>2026-08-23T10:32:07Z</time>
      </trkpt>
      <trkpt lat="32.051921611411565" lon="118.8040531918019">
        <ele>6.966514364816248</ele>
        <time>2026-08-23T10:32:13Z</time>
      </trkpt>
      <trkpt lat="32.051933767791716" lon="118.8041413648692">
        <ele>7.732780233956873</ele>
        <time>2026-08-23T10:32:16Z</time>
      </trkpt>
      <trkpt lat="32.05197092811156" lon="118.80422853378346">
        <ele>8.414481894113123</ele>
        <time>2026-08-23T10:32:19Z</time>
      </trkpt>
      <trkpt lat="32.052028066756186" lon="118.80430067124296">
        <ele>6.715499655343592</ele>
        <time>2026-08-23T10:32:22Z</time>
      </trkpt>
      <trkpt lat="32.05218524178427" lon="118.80438081546568">
        <ele>8.488464132882655</ele>
        <time>2026-08-23T10:32:28Z</time>
      </trkpt>
      <trkpt lat="32.05249545276539" lon="118.80446194771558">
        <ele>9.328712240792811</ele>
        <time>2026-08-23T10:32:40Z</time>
      </trkpt>
      <trkpt lat="32.05270668031418" lon="118.80456513287388">
        <ele>9.347205893136561</ele>
        <time>2026-08-23T10:32:46Z</time>
      </trkpt>
      <trkpt lat="32.052980878177195" lon="118.80464326270734">
        <ele>9.25473000202328</ele>
        <time>2026-08-23T10:32:55Z</time>
      </trkpt>
      <trkpt lat="32.05303692223594" lon="118.80466129334721">
        <ele>8.477897421456873</ele>
        <time>2026-08-23T10:32:58Z</time>
      </trkpt>
      <trkpt lat="32.0531449427909" lon="118.80465927944539">
        <ele>7.888671652413905</ele>
        <time>2026-08-23T10:33:01Z</time>
      </trkpt>
      <trkpt lat="32.05321791168732" lon="118.80463221905977">
        <ele>8.488464132882655</ele>
        <time>2026-08-23T10:33:05Z</time>
      </trkpt>
      <trkpt lat="32.053344762879625" lon="118.80453100669946">
        <ele>2.4957883516326547</ele>
        <time>2026-08-23T10:33:11Z</time>
      </trkpt>
      <trkpt lat="32.05340953561199" lon="118.80439272678005">
        <ele>8.969360128976405</ele>
        <time>2026-08-23T10:33:17Z</time>
      </trkpt>
      <trkpt lat="32.053438269116654" lon="118.80423641480517">
        <ele>8.824035421945155</ele>
        <time>2026-08-23T10:33:20Z</time>
      </trkpt>
      <trkpt lat="32.05339897908977" lon="118.8040750995794">
        <ele>8.79232765827328</ele>
        <time>2026-08-23T10:33:26Z</time>
      </trkpt>
      <trkpt lat="32.053311771193414" lon="118.80396689395255">
        <ele>5.906966940499842</ele>
        <time>2026-08-23T10:33:29Z</time>
      </trkpt>
      <trkpt lat="32.05316555554815" lon="118.8038616998666">
        <ele>7.397208944894373</ele>
        <time>2026-08-23T10:33:35Z</time>
      </trkpt>
      <trkpt lat="32.052867354956774" lon="118.80378457520305">
        <ele>8.570380941964686</ele>
        <time>2026-08-23T10:33:47Z</time>
      </trkpt>
      <trkpt lat="32.0527783246675" lon="118.80377857153944">
        <ele>8.562454001046717</ele>
        <time>2026-08-23T10:33:50Z</time>
      </trkpt>
      <trkpt lat="32.05247507950597" lon="118.8036763981293">
        <ele>8.351066366769373</ele>
        <time>2026-08-23T10:34:02Z</time>
      </trkpt>
      <trkpt lat="32.052241959675456" lon="118.80363734263942">
        <ele>7.616515890695155</ele>
        <time>2026-08-23T10:34:11Z</time>
      </trkpt>
      <trkpt lat="32.0521069678465" lon="118.80365939842864">
        <ele>6.966514364816248</ele>
        <time>2026-08-23T10:34:17Z</time>
      </trkpt>
      <trkpt lat="32.05202302395425" lon="118.80370249096148">
        <ele>8.541312948800623</ele>
        <time>2026-08-23T10:34:20Z</time>
      </trkpt>
      <trkpt lat="32.051902261747834" lon="118.80385480212861">
        <ele>9.043342367745936</ele>
        <time>2026-08-23T10:34:26Z</time>
      </trkpt>
      <trkpt lat="32.05189042473381" lon="118.80394999095356">
        <ele>9.265296713449061</ele>
        <time>2026-08-23T10:34:29Z</time>
      </trkpt>
      <trkpt lat="32.05192781013877" lon="118.8041664149238">
        <ele>9.304931418038905</ele>
        <time>2026-08-23T10:34:35Z</time>
      </trkpt>
      <trkpt lat="32.051977978636586" lon="118.80425658862386">
        <ele>9.410621420480311</ele>
        <time>2026-08-23T10:34:38Z</time>
      </trkpt>
      <trkpt lat="32.05203208514437" lon="118.80431069070114">
        <ele>7.154121176339686</ele>
        <time>2026-08-23T10:34:41Z</time>
      </trkpt>
      <trkpt lat="32.05229834928295" lon="118.80442789833654">
        <ele>9.830741659738123</ele>
        <time>2026-08-23T10:34:54Z</time>
      </trkpt>
      <trkpt lat="32.05255955639407" lon="118.80451304309447">
        <ele>9.011634604074061</ele>
        <time>2026-08-23T10:35:06Z</time>
      </trkpt>
      <trkpt lat="32.05282870400145" lon="118.80456311768839">
        <ele>8.85574318561703</ele>
        <time>2026-08-23T10:35:18Z</time>
      </trkpt>
      <trkpt lat="32.053081886649046" lon="118.80463523752192">
        <ele>4.321601645089686</ele>
        <time>2026-08-23T10:35:30Z</time>
      </trkpt>
      <trkpt lat="32.05321389676336" lon="118.80462420352535">
        <ele>7.930946127511561</ele>
        <time>2026-08-23T10:35:36Z</time>
      </trkpt>
      <trkpt lat="32.05330581028734" lon="118.8045630738507">
        <ele>8.676070944406092</ele>
        <time>2026-08-23T10:35:42Z</time>
      </trkpt>
      <trkpt lat="32.053404597536634" lon="118.8044287986743">
        <ele>4.268752829171717</ele>
        <time>2026-08-23T10:35:48Z</time>
      </trkpt>
      <trkpt lat="32.05342847682382" lon="118.8043566536199">
        <ele>8.60208107624203</ele>
        <time>2026-08-23T10:35:51Z</time>
      </trkpt>
      <trkpt lat="32.05341419383843" lon="118.8041963377642">
        <ele>7.206962362863123</ele>
        <time>2026-08-23T10:35:57Z</time>
      </trkpt>
      <trkpt lat="32.05336694053091" lon="118.8040570669035">
        <ele>8.771186606027186</ele>
        <time>2026-08-23T10:36:03Z</time>
      </trkpt>
      <trkpt lat="32.053183615349504" lon="118.80389376143269">
        <ele>9.233588949777186</ele>
        <time>2026-08-23T10:36:12Z</time>
      </trkpt>
      <trkpt lat="32.05288335678061" lon="118.80378357175826">
        <ele>7.365501181222498</ele>
        <time>2026-08-23T10:36:24Z</time>
      </trkpt>
      <trkpt lat="32.05261114638296" lon="118.80369742705034">
        <ele>6.683791891671717</ele>
        <time>2026-08-23T10:36:37Z</time>
      </trkpt>
      <trkpt lat="32.052344925235346" lon="118.80360426811644">
        <ele>8.057777182199061</ele>
        <time>2026-08-23T10:36:49Z</time>
      </trkpt>
      <trkpt lat="32.052273878092535" lon="118.80358623916574">
        <ele>7.77505470905453</ele>
        <time>2026-08-23T10:36:52Z</time>
      </trkpt>
      <trkpt lat="32.05214686194105" lon="118.80359326463551">
        <ele>7.962653891183436</ele>
        <time>2026-08-23T10:36:55Z</time>
      </trkpt>
      <trkpt lat="32.052064892356455" lon="118.80362132736487">
        <ele>8.781760946847498</ele>
        <time>2026-08-23T10:36:58Z</time>
      </trkpt>
      <trkpt lat="32.051980969324966" lon="118.8036764435368">
        <ele>9.223022238351405</ele>
        <time>2026-08-23T10:37:01Z</time>
      </trkpt>
      <trkpt lat="32.05192012810124" lon="118.80377564448185">
        <ele>8.612655417062342</ele>
        <time>2026-08-23T10:37:04Z</time>
      </trkpt>
      <trkpt lat="32.05187744276836" lon="118.80396201587119">
        <ele>9.452895895577967</ele>
        <time>2026-08-23T10:37:10Z</time>
      </trkpt>
      <trkpt lat="32.051888694859564" lon="118.80410529773836">
        <ele>9.096191183663905</ele>
        <time>2026-08-23T10:37:13Z</time>
      </trkpt>
      <trkpt lat="32.051964991476815" lon="118.80426560765538">
        <ele>7.77505470905453</ele>
        <time>2026-08-23T10:37:19Z</time>
      </trkpt>
      <trkpt lat="32.05210421496343" lon="118.8043758129911">
        <ele>9.12789894733578</ele>
        <time>2026-08-23T10:37:25Z</time>
      </trkpt>
      <trkpt lat="32.052281338486466" lon="118.80442389196084">
        <ele>9.957572714425623</ele>
        <time>2026-08-23T10:37:31Z</time>
      </trkpt>
      <trkpt lat="32.05260961661683" lon="118.80454109411114">
        <ele>5.854118124581873</ele>
        <time>2026-08-23T10:37:43Z</time>
      </trkpt>
      <trkpt lat="32.0529178834358" lon="118.80465429036587">
        <ele>6.892532126046717</ele>
        <time>2026-08-23T10:37:55Z</time>
      </trkpt>
      <trkpt lat="32.05312598769008" lon="118.80468733686847">
        <ele>9.201881186105311</ele>
        <time>2026-08-23T10:38:04Z</time>
      </trkpt>
      <trkpt lat="32.053218964541166" lon="118.80466227860948">
        <ele>7.909812704659998</ele>
        <time>2026-08-23T10:38:07Z</time>
      </trkpt>
      <trkpt lat="32.05333284260128" lon="118.80457810117194">
        <ele>7.962653891183436</ele>
        <time>2026-08-23T10:38:13Z</time>
      </trkpt>
      <trkpt lat="32.053380742856234" lon="118.8045149716135">
        <ele>9.022208944894373</ele>
        <time>2026-08-23T10:38:16Z</time>
      </trkpt>
      <trkpt lat="32.053418474596526" lon="118.80435665453899">
        <ele>8.718345419503748</ele>
        <time>2026-08-23T10:38:22Z</time>
      </trkpt>
      <trkpt lat="32.05342524698743" lon="118.80422539420455">
        <ele>7.973220602609217</ele>
        <time>2026-08-23T10:38:25Z</time>
      </trkpt>
      <trkpt lat="32.05341009333273" lon="118.80413922524995">
        <ele>9.19131447467953</ele>
        <time>2026-08-23T10:38:28Z</time>
      </trkpt>
      <trkpt lat="32.05333283345604" lon="118.80399995727589">
        <ele>8.488464132882655</ele>
        <time>2026-08-23T10:38:34Z</time>
      </trkpt>
      <trkpt lat="32.05327971521752" lon="118.80393884154124">
        <ele>4.94253517780453</ele>
        <time>2026-08-23T10:38:37Z</time>
      </trkpt>
      <trkpt lat="32.05302845007669" lon="118.80381862753332">
        <ele>8.19253517780453</ele>
        <time>2026-08-23T10:38:49Z</time>
      </trkpt>
      <trkpt lat="32.05293236944304" lon="118.80378456922836">
        <ele>9.201881186105311</ele>
        <time>2026-08-23T10:38:52Z</time>
      </trkpt>
      <trkpt lat="32.0527923103684" lon="118.80376855051342">
        <ele>7.492332235909998</ele>
        <time>2026-08-23T10:38:58Z</time>
      </trkpt>
      <trkpt lat="32.05249907789521" lon="118.80367238803417">
        <ele>8.181960836984217</ele>
        <time>2026-08-23T10:39:10Z</time>
      </trkpt>
      <trkpt lat="32.052209870775336" lon="118.80359025293193">
        <ele>8.707778708077967</ele>
        <time>2026-08-23T10:39:22Z</time>
      </trkpt>
      <trkpt lat="32.0521258537781" lon="118.80359126262404">
        <ele>8.499038473702967</ele>
        <time>2026-08-23T10:39:25Z</time>
      </trkpt>
      <trkpt lat="32.05199594830519" lon="118.8036624145476">
        <ele>8.72891213092953</ele>
        <time>2026-08-23T10:39:31Z</time>
      </trkpt>
      <trkpt lat="32.05190620686728" lon="118.80382273856176">
        <ele>8.940292135812342</ele>
        <time>2026-08-23T10:39:37Z</time>
      </trkpt>
      <trkpt lat="32.05187751256725" lon="118.80400209496426">
        <ele>9.180740133859217</ele>
        <time>2026-08-23T10:39:43Z</time>
      </trkpt>
      <trkpt lat="32.05190285000346" lon="118.80419246871551">
        <ele>9.085624472238123</ele>
        <time>2026-08-23T10:39:49Z</time>
      </trkpt>
      <trkpt lat="32.05200712331286" lon="118.8043357425703">
        <ele>8.750053183175623</ele>
        <time>2026-08-23T10:39:55Z</time>
      </trkpt>
      <trkpt lat="32.05220331233372" lon="118.80441888920706">
        <ele>7.804115072824061</ele>
        <time>2026-08-23T10:40:04Z</time>
      </trkpt>
      <trkpt lat="32.05248651383194" lon="118.80449802001647">
        <ele>8.580947653390467</ele>
        <time>2026-08-23T10:40:16Z</time>
      </trkpt>
      <trkpt lat="32.05272272946938" lon="118.80459118306412">
        <ele>9.735618368722498</ele>
        <time>2026-08-23T10:40:29Z</time>
      </trkpt>
      <trkpt lat="32.053067941425816" lon="118.80466830441657">
        <ele>9.579726950265467</ele>
        <time>2026-08-23T10:40:38Z</time>
      </trkpt>
      <trkpt lat="32.0531899528167" lon="118.80465927530983">
        <ele>10.042121664620936</ele>
        <time>2026-08-23T10:40:41Z</time>
      </trkpt>
      <trkpt lat="32.05327489982863" lon="118.80461818599345">
        <ele>9.590293661691248</ele>
        <time>2026-08-23T10:40:44Z</time>
      </trkpt>
      <trkpt lat="32.05333680316764" lon="118.80455505510841">
        <ele>7.122413412667811</ele>
        <time>2026-08-23T10:40:47Z</time>
      </trkpt>
      <trkpt lat="32.05340354653161" lon="118.80439974121995">
        <ele>7.743346945382655</ele>
        <time>2026-08-23T10:40:53Z</time>
      </trkpt>
      <trkpt lat="32.05342637663408" lon="118.80429954077435">
        <ele>8.898017660714686</ele>
        <time>2026-08-23T10:40:56Z</time>
      </trkpt>
      <trkpt lat="32.05342217464489" lon="118.80418431325991">
        <ele>9.357772604562342</ele>
        <time>2026-08-23T10:40:59Z</time>
      </trkpt>
      <trkpt lat="32.05339502186095" lon="118.8041001494241">
        <ele>9.159606711007655</ele>
        <time>2026-08-23T10:41:02Z</time>
      </trkpt>
      <trkpt lat="32.053281708685766" lon="118.80393483345092">
        <ele>9.389480368234217</ele>
        <time>2026-08-23T10:41:08Z</time>
      </trkpt>
      <trkpt lat="32.053172569310746" lon="118.80386871305124">
        <ele>9.799033896066248</ele>
        <time>2026-08-23T10:41:11Z</time>
      </trkpt>
      <trkpt lat="32.05304750485241" lon="118.80384768305919">
        <ele>4.836845175363123</ele>
        <time>2026-08-23T10:41:14Z</time>
      </trkpt>
      <trkpt lat="32.052876348252205" lon="118.80377956450549">
        <ele>8.467330710031092</ele>
        <time>2026-08-23T10:41:20Z</time>
      </trkpt>
      <trkpt lat="32.05272725756173" lon="118.80374651306776">
        <ele>8.990501181222498</ele>
        <time>2026-08-23T10:41:26Z</time>
      </trkpt>
      <trkpt lat="32.052376975863474" lon="118.8036293144577">
        <ele>9.304931418038905</ele>
        <time>2026-08-23T10:41:41Z</time>
      </trkpt>
      <trkpt lat="32.052205876840446" lon="118.80359426118318">
        <ele>6.210830465890467</ele>
        <time>2026-08-23T10:41:47Z</time>
      </trkpt>
      <trkpt lat="32.05204588985764" lon="118.8036223310827">
        <ele>9.265296713449061</ele>
        <time>2026-08-23T10:41:53Z</time>
      </trkpt>
      <trkpt lat="32.0519251013468" lon="118.80375961244145">
        <ele>9.442329184152186</ele>
        <time>2026-08-23T10:41:59Z</time>
      </trkpt>
      <trkpt lat="32.051879251386616" lon="118.80385179831697">
        <ele>9.799033896066248</ele>
        <time>2026-08-23T10:42:02Z</time>
      </trkpt>
      <trkpt lat="32.051864422421545" lon="118.80395199729688">
        <ele>7.888671652413905</ele>
        <time>2026-08-23T10:42:05Z</time>
      </trkpt>
      <trkpt lat="32.05189175492625" lon="118.80413936476948">
        <ele>8.948219076730311</ele>
        <time>2026-08-23T10:42:11Z</time>
      </trkpt>
      <trkpt lat="32.05192490560942" lon="118.80422152414218">
        <ele>9.075050131417811</ele>
        <time>2026-08-23T10:42:14Z</time>
      </trkpt>
      <trkpt lat="32.05203815297997" lon="118.80434876550247">
        <ele>8.152900473214686</ele>
        <time>2026-08-23T10:42:20Z</time>
      </trkpt>
      <trkpt lat="32.05235436002037" lon="118.80442689120542">
        <ele>10.39883400592953</ele>
        <time>2026-08-23T10:42:36Z</time>
      </trkpt>
      <trkpt lat="32.05267064248626" lon="118.80454810241002">
        <ele>8.089484945870936</ele>
        <time>2026-08-23T10:42:51Z</time>
      </trkpt>
      <trkpt lat="32.052951875223265" lon="118.80464526934846">
        <ele>10.08175636921078</ele>
        <time>2026-08-23T10:43:00Z</time>
      </trkpt>
      <trkpt lat="32.05305290825624" lon="118.80465127199486">
        <ele>9.904723898507655</ele>
        <time>2026-08-23T10:43:03Z</time>
      </trkpt>
      <trkpt lat="32.05322288999833" lon="118.80461919275997">
        <ele>9.075050131417811</ele>
        <time>2026-08-23T10:43:09Z</time>
      </trkpt>
      <trkpt lat="32.05330782125229" lon="118.80456908558753">
        <ele>8.266517416574061</ele>
        <time>2026-08-23T10:43:12Z</time>
      </trkpt>
      <trkpt lat="32.0533567375104" lon="118.80451497381922">
        <ele>8.707778708077967</ele>
        <time>2026-08-23T10:43:15Z</time>
      </trkpt>
      <trkpt lat="32.053419443316095" lon="118.80433861874795">
        <ele>8.781760946847498</ele>
        <time>2026-08-23T10:43:21Z</time>
      </trkpt>
      <trkpt lat="32.05342331474219" lon="118.80426447167203">
        <ele>8.319358603097498</ele>
        <time>2026-08-23T10:43:24Z</time>
      </trkpt>
      <trkpt lat="32.05335294788901" lon="118.8040630800621">
        <ele>8.203101889230311</ele>
        <time>2026-08-23T10:43:33Z</time>
      </trkpt>
      <trkpt lat="32.053206644886885" lon="118.80390778698292">
        <ele>9.93643166217953</ele>
        <time>2026-08-23T10:43:42Z</time>
      </trkpt>
      <trkpt lat="32.05302547554906" lon="118.80383365743094">
        <ele>9.548019186593592</ele>
        <time>2026-08-23T10:43:51Z</time>
      </trkpt>
      <trkpt lat="32.05296839488768" lon="118.80379458566117">
        <ele>9.138465658761561</ele>
        <time>2026-08-23T10:43:54Z</time>
      </trkpt>
      <trkpt lat="32.052840340228656" lon="118.80377956781454">
        <ele>9.075050131417811</ele>
        <time>2026-08-23T10:44:00Z</time>
      </trkpt>
      <trkpt lat="32.05256908305973" lon="118.8036663697667">
        <ele>8.372207419015467</ele>
        <time>2026-08-23T10:44:12Z</time>
      </trkpt>
      <trkpt lat="32.05225787626331" lon="118.80358724260725">
        <ele>7.846397177316248</ele>
        <time>2026-08-23T10:44:28Z</time>
      </trkpt>
      <trkpt lat="32.05205088401413" lon="118.80361832273768">
        <ele>9.463462607003748</ele>
        <time>2026-08-23T10:44:37Z</time>
      </trkpt>
      <trkpt lat="32.05200395705146" lon="118.80366642170063">
        <ele>9.777892843820155</ele>
        <time>2026-08-23T10:44:40Z</time>
      </trkpt>
      <trkpt lat="32.05192018036756" lon="118.80380570370728">
        <ele>9.06448341999203</ele>
        <time>2026-08-23T10:44:43Z</time>
      </trkpt>
      <trkpt lat="32.05187749337026" lon="118.80399107321105">
        <ele>8.351066366769373</ele>
        <time>2026-08-23T10:44:49Z</time>
      </trkpt>
      <trkpt lat="32.0519258778601" lon="118.8042054923528">
        <ele>5.843551413156092</ele>
        <time>2026-08-23T10:44:58Z</time>
      </trkpt>
      <trkpt lat="32.052009090511454" lon="118.8043167047112">
        <ele>6.704932943917811</ele>
        <time>2026-08-23T10:45:04Z</time>
      </trkpt>
      <trkpt lat="32.052124243934166" lon="118.80438983892654">
        <ele>9.053916708566248</ele>
        <time>2026-08-23T10:45:10Z</time>
      </trkpt>
      <trkpt lat="32.05239740989278" lon="118.80444993290207">
        <ele>9.548019186593592</ele>
        <time>2026-08-23T10:45:22Z</time>
      </trkpt>
      <trkpt lat="32.052672602617086" lon="118.8045250565416">
        <ele>9.883590475656092</ele>
        <time>2026-08-23T10:45:34Z</time>
      </trkpt>
      <trkpt lat="32.052803752785124" lon="118.80459418158166">
        <ele>9.389480368234217</ele>
        <time>2026-08-23T10:45:37Z</time>
      </trkpt>
      <trkpt lat="32.05305590015276" lon="118.80464626177879">
        <ele>9.767326132394373</ele>
        <time>2026-08-23T10:45:46Z</time>
      </trkpt>
      <trkpt lat="32.05327988691119" lon="118.80461016963369">
        <ele>7.574241415597498</ele>
        <time>2026-08-23T10:45:55Z</time>
      </trkpt>
      <trkpt lat="32.053338831664284" lon="118.80457108671217">
        <ele>7.994361654855311</ele>
        <time>2026-08-23T10:45:58Z</time>
      </trkpt>
      <trkpt lat="32.0534046062934" lon="118.80443380859742">
        <ele>8.85574318561703</ele>
        <time>2026-08-23T10:46:04Z</time>
      </trkpt>
      <trkpt lat="32.053429359808" lon="118.8042895206743">
        <ele>8.676070944406092</ele>
        <time>2026-08-23T10:46:10Z</time>
      </trkpt>
      <trkpt lat="32.05340901973931" lon="118.80409714219954">
        <ele>8.121192709542811</ele>
        <time>2026-08-23T10:46:17Z</time>
      </trkpt>
      <trkpt lat="32.053205635944764" lon="118.80390277719435">
        <ele>9.06448341999203</ele>
        <time>2026-08-23T10:46:29Z</time>
      </trkpt>
      <trkpt lat="32.05295138587249" lon="118.80379158130106">
        <ele>7.817329184152186</ele>
        <time>2026-08-23T10:46:44Z</time>
      </trkpt>
      <trkpt lat="32.0526652123949" lon="118.80372848324696">
        <ele>7.45797707233578</ele>
        <time>2026-08-23T10:46:59Z</time>
      </trkpt>
      <trkpt lat="32.052485998429134" lon="118.80362830246693">
        <ele>8.015502707101405</ele>
        <time>2026-08-23T10:47:08Z</time>
      </trkpt>
      <trkpt lat="32.05232894428187" lon="118.80361729521286">
        <ele>8.298225180245936</ele>
        <time>2026-08-23T10:47:14Z</time>
      </trkpt>
      <trkpt lat="32.05219986332708" lon="118.80358724793861">
        <ele>8.467330710031092</ele>
        <time>2026-08-23T10:47:20Z</time>
      </trkpt>
      <trkpt lat="32.052128857925936" lon="118.80359326629005">
        <ele>8.477897421456873</ele>
        <time>2026-08-23T10:47:23Z</time>
      </trkpt>
      <trkpt lat="32.052065892579535" lon="118.80362132727295">
        <ele>8.876884237863123</ele>
        <time>2026-08-23T10:47:26Z</time>
      </trkpt>
      <trkpt lat="32.05196309240813" lon="118.8037495892128">
        <ele>7.71163918171078</ele>
        <time>2026-08-23T10:47:32Z</time>
      </trkpt>
      <trkpt lat="32.0519033317081" lon="118.80389488105943">
        <ele>10.900863424874842</ele>
        <time>2026-08-23T10:47:38Z</time>
      </trkpt>
      <trkpt lat="32.05189660059566" lon="118.80405018816423">
        <ele>8.467330710031092</ele>
        <time>2026-08-23T10:47:44Z</time>
      </trkpt>
      <trkpt lat="32.05191375284614" lon="118.8041353548281">
        <ele>8.142326132394373</ele>
        <time>2026-08-23T10:47:47Z</time>
      </trkpt>
      <trkpt lat="32.05199800408626" lon="118.80426861056837">
        <ele>8.958793417550623</ele>
        <time>2026-08-23T10:47:53Z</time>
      </trkpt>
      <trkpt lat="32.05215521583647" lon="118.80436979640206">
        <ele>8.898017660714686</ele>
        <time>2026-08-23T10:48:03Z</time>
      </trkpt>
      <trkpt lat="32.05244447468003" lon="118.80448099012229">
        <ele>7.206962362863123</ele>
        <time>2026-08-23T10:48:18Z</time>
      </trkpt>
      <trkpt lat="32.052692687712955" lon="118.80457114608123">
        <ele>7.899238363839686</ele>
        <time>2026-08-23T10:48:30Z</time>
      </trkpt>
      <trkpt lat="32.0528187613894" lon="118.80459718616481">
        <ele>7.867530600167811</ele>
        <time>2026-08-23T10:48:36Z</time>
      </trkpt>
      <trkpt lat="32.053050942901855" lon="118.8046713119441">
        <ele>8.488464132882655</ele>
        <time>2026-08-23T10:48:48Z</time>
      </trkpt>
      <trkpt lat="32.05317793435295" lon="118.80465025851909">
        <ele>7.52139259967953</ele>
        <time>2026-08-23T10:48:54Z</time>
      </trkpt>
      <trkpt lat="32.053289843543375" lon="118.80458411704583">
        <ele>7.952087179757655</ele>
        <time>2026-08-23T10:49:00Z</time>
      </trkpt>
      <trkpt lat="32.053344762879625" lon="118.80453100669946">
        <ele>7.92037941608578</ele>
        <time>2026-08-23T10:49:03Z</time>
      </trkpt>
      <trkpt lat="32.05340452224299" lon="118.80438571335193">
        <ele>7.98379494342953</ele>
        <time>2026-08-23T10:49:09Z</time>
      </trkpt>
      <trkpt lat="32.053425248735884" lon="118.80422639618588">
        <ele>7.878104940988123</ele>
        <time>2026-08-23T10:49:15Z</time>
      </trkpt>
      <trkpt lat="32.05342011128561" lon="118.80414824215077">
        <ele>8.026069418527186</ele>
        <time>2026-08-23T10:49:18Z</time>
      </trkpt>
      <trkpt lat="32.05339396225991" lon="118.80406608222972">
        <ele>7.196395651437342</ele>
        <time>2026-08-23T10:49:21Z</time>
      </trkpt>
      <trkpt lat="32.05335685625504" lon="118.80400997484725">
        <ele>7.164687887765467</ele>
        <time>2026-08-23T10:49:25Z</time>
      </trkpt>
      <trkpt lat="32.05309550683282" lon="118.80384266877161">
        <ele>7.143546835519373</ele>
        <time>2026-08-23T10:49:37Z</time>
      </trkpt>
      <trkpt lat="32.05292343364845" lon="118.80382264508349">
        <ele>7.732780233956873</ele>
        <time>2026-08-23T10:49:46Z</time>
      </trkpt>
      <trkpt lat="32.0528373656924" lon="118.80379459770243">
        <ele>7.238670126534998</ele>
        <time>2026-08-23T10:49:52Z</time>
      </trkpt>
      <trkpt lat="32.052783374564676" lon="118.80380662635837">
        <ele>5.592536703683436</ele>
        <time>2026-08-23T10:49:55Z</time>
      </trkpt>
      <trkpt lat="32.05274230270722" lon="118.80377055905703">
        <ele>7.418342367745936</ele>
        <time>2026-08-23T10:49:58Z</time>
      </trkpt>
      <trkpt lat="32.05244703323378" lon="118.80365335534452">
        <ele>7.029929892159998</ele>
        <time>2026-08-23T10:50:10Z</time>
      </trkpt>
      <trkpt lat="32.052169912299014" lon="118.80361931377067">
        <ele>8.707778708077967</ele>
        <time>2026-08-23T10:50:22Z</time>
      </trkpt>
      <trkpt lat="32.05200200534231" lon="118.80369447711047">
        <ele>9.00106789264828</ele>
        <time>2026-08-23T10:50:28Z</time>
      </trkpt>
      <trkpt lat="32.051957138098395" lon="118.80377664305493">
        <ele>8.509605185128748</ele>
        <time>2026-08-23T10:50:31Z</time>
      </trkpt>
      <trkpt lat="32.05190050024724" lon="118.8039920730746">
        <ele>8.499038473702967</ele>
        <time>2026-08-23T10:50:37Z</time>
      </trkpt>
      <trkpt lat="32.05191874522608" lon="118.80413034446964">
        <ele>7.407775656320155</ele>
        <time>2026-08-23T10:50:44Z</time>
      </trkpt>
      <trkpt lat="32.05198202325564" lon="118.804281637806">
        <ele>7.941512838937342</ele>
        <time>2026-08-23T10:50:50Z</time>
      </trkpt>
      <trkpt lat="32.05208821664606" lon="118.80437882041275">
        <ele>6.408996359445155</ele>
        <time>2026-08-23T10:50:56Z</time>
      </trkpt>
      <trkpt lat="32.05220832921012" lon="118.80442790660778">
        <ele>8.351066366769373</ele>
        <time>2026-08-23T10:50:59Z</time>
      </trkpt>
      <trkpt lat="32.05240243728354" lon="118.80446496221788">
        <ele>8.979926840402186</ele>
        <time>2026-08-23T10:51:05Z</time>
      </trkpt>
      <trkpt lat="32.052694693418786" lon="118.804574151858">
        <ele>8.654929892159998</ele>
        <time>2026-08-23T10:51:17Z</time>
      </trkpt>
      <trkpt lat="32.05287877300842" lon="118.80459617866349">
        <ele>7.701072470284998</ele>
        <time>2026-08-23T10:51:23Z</time>
      </trkpt>
      <trkpt lat="32.05307090875823" lon="118.80464926636445">
        <ele>8.203101889230311</ele>
        <time>2026-08-23T10:51:32Z</time>
      </trkpt>
      <trkpt lat="32.05321092065305" lon="118.80463823163026">
        <ele>7.386642233468592</ele>
        <time>2026-08-23T10:51:38Z</time>
      </trkpt>
      <trkpt lat="32.05330085651495" lon="118.80459012795752">
        <ele>8.528098837472498</ele>
        <time>2026-08-23T10:51:44Z</time>
      </trkpt>
      <trkpt lat="32.053336785637484" lon="118.80454503524325">
        <ele>6.578101889230311</ele>
        <time>2026-08-23T10:51:47Z</time>
      </trkpt>
      <trkpt lat="32.05335465821546" lon="118.80446988465104">
        <ele>7.291518942452967</ele>
        <time>2026-08-23T10:51:53Z</time>
      </trkpt>
      <trkpt lat="32.053429433293395" lon="118.80433160394726">
        <ele>7.627082602120936</ele>
        <time>2026-08-23T10:51:59Z</time>
      </trkpt>
      <trkpt lat="32.053411126755236" lon="118.80415826277948">
        <ele>8.245376364327967</ele>
        <time>2026-08-23T10:52:08Z</time>
      </trkpt>
      <trkpt lat="32.053268747656986" lon="118.80395888208858">
        <ele>6.35879494342953</ele>
        <time>2026-08-23T10:52:14Z</time>
      </trkpt>
      <trkpt lat="32.053210631827255" lon="118.80389977080668">
        <ele>8.509605185128748</ele>
        <time>2026-08-23T10:52:17Z</time>
      </trkpt>
      <trkpt lat="32.0529114274888" lon="118.80382064223707">
        <ele>7.291518942452967</ele>
        <time>2026-08-23T10:52:29Z</time>
      </trkpt>
      <trkpt lat="32.05281932335411" lon="118.8037725559271">
        <ele>7.553100363351405</ele>
        <time>2026-08-23T10:52:36Z</time>
      </trkpt>
      <trkpt lat="32.05263320874377" lon="118.80373049013473">
        <ele>7.492332235909998</ele>
        <time>2026-08-23T10:52:48Z</time>
      </trkpt>
      <trkpt lat="32.05256512220106" lon="118.80368941549793">
        <ele>7.040504232980311</ele>
        <time>2026-08-23T10:52:54Z</time>
      </trkpt>
      <trkpt lat="32.05229397823297" lon="118.80364134574637">
        <ele>5.592536703683436</ele>
        <time>2026-08-23T10:53:09Z</time>
      </trkpt>
      <trkpt lat="32.05215397659019" lon="118.80365839213648">
        <ele>5.571395651437342</ele>
        <time>2026-08-23T10:53:15Z</time>
      </trkpt>
      <trkpt lat="32.05208403930325" lon="118.8037034873273">
        <ele>7.291518942452967</ele>
        <time>2026-08-23T10:53:18Z</time>
      </trkpt>
      <trkpt lat="32.051950099957686" lon="118.80375560224903">
        <ele>7.270377890206873</ele>
        <time>2026-08-23T10:53:21Z</time>
      </trkpt>
      <trkpt lat="32.05188448097179" lon="118.80398305674842">
        <ele>6.715499655343592</ele>
        <time>2026-08-23T10:53:30Z</time>
      </trkpt>
      <trkpt lat="32.05190978689984" lon="118.80415539479549">
        <ele>8.174033896066248</ele>
        <time>2026-08-23T10:53:36Z</time>
      </trkpt>
      <trkpt lat="32.05194995839898" lon="118.80424857534342">
        <ele>8.131759420968592</ele>
        <time>2026-08-23T10:53:39Z</time>
      </trkpt>
      <trkpt lat="32.0520050721224" lon="118.80430668525204">
        <ele>7.386642233468592</ele>
        <time>2026-08-23T10:53:42Z</time>
      </trkpt>
      <trkpt lat="32.052122194472005" lon="118.80436178356649">
        <ele>11.677688376046717</ele>
        <time>2026-08-23T10:53:49Z</time>
      </trkpt>
      <trkpt lat="32.05217421132224" lon="118.80436478473803">
        <ele>5.727287069894373</ele>
        <time>2026-08-23T10:53:52Z</time>
      </trkpt>
      <trkpt lat="32.05221682977788" lon="118.80436672148159">
        <ele>4.176276938058436</ele>
        <time>2026-08-23T10:53:55Z</time>
      </trkpt>
      <trkpt lat="32.05233642792743" lon="118.80443867986418">
        <ele>7.58480812702328</ele>
        <time>2026-08-23T10:54:01Z</time>
      </trkpt>
      <trkpt lat="32.05246339483445" lon="118.80443289309545">
        <ele>8.425048605538905</ele>
        <time>2026-08-23T10:54:07Z</time>
      </trkpt>
      <trkpt lat="32.05268466138463" lon="118.80455711900228">
        <ele>7.846397177316248</ele>
        <time>2026-08-23T10:54:19Z</time>
      </trkpt>
      <trkpt lat="32.05284875930767" lon="118.80459217347172">
        <ele>8.089484945870936</ele>
        <time>2026-08-23T10:54:28Z</time>
      </trkpt>
      <trkpt lat="32.05295488817255" lon="118.80465228298927">
        <ele>7.83847023639828</ele>
        <time>2026-08-23T10:54:34Z</time>
      </trkpt>
      <trkpt lat="32.05310598498884" lon="118.80468834069518">
        <ele>8.781760946847498</ele>
        <time>2026-08-23T10:54:43Z</time>
      </trkpt>
      <trkpt lat="32.053294895514284" lon="118.80461317421762">
        <ele>6.44070412311703</ele>
        <time>2026-08-23T10:54:52Z</time>
      </trkpt>
      <trkpt lat="32.053342800997996" lon="118.80455305058383">
        <ele>7.764480368234217</ele>
        <time>2026-08-23T10:54:55Z</time>
      </trkpt>
      <trkpt lat="32.05340742489345" lon="118.80432960200324">
        <ele>7.52139259967953</ele>
        <time>2026-08-23T10:55:04Z</time>
      </trkpt>
      <trkpt lat="32.053414276011736" lon="118.8042434308819">
        <ele>7.888671652413905</ele>
        <time>2026-08-23T10:55:07Z</time>
      </trkpt>
      <trkpt lat="32.05337405211955" lon="118.80412019094327">
        <ele>2.601478354074061</ele>
        <time>2026-08-23T10:55:13Z</time>
      </trkpt>
      <trkpt lat="32.053231713246355" lon="118.80394385583666">
        <ele>7.080131308175623</ele>
        <time>2026-08-23T10:55:25Z</time>
      </trkpt>
      <trkpt lat="32.05315961872111" lon="118.80389877351844">
        <ele>4.773429648019373</ele>
        <time>2026-08-23T10:55:31Z</time>
      </trkpt>
      <trkpt lat="32.053096585503674" lon="118.80388775757433">
        <ele>5.29660011921078</ele>
        <time>2026-08-23T10:55:34Z</time>
      </trkpt>
      <trkpt lat="32.05284838730991" lon="118.80380561840927">
        <ele>8.078910605050623</ele>
        <time>2026-08-23T10:55:49Z</time>
      </trkpt>
      <trkpt lat="32.05275634589587" lon="118.8037936031735">
        <ele>7.827895895577967</ele>
        <time>2026-08-23T10:55:56Z</time>
      </trkpt>
      <trkpt lat="32.05245909682598" lon="118.8036884232688">
        <ele>7.83847023639828</ele>
        <time>2026-08-23T10:56:14Z</time>
      </trkpt>
      <trkpt lat="32.052234989436215" lon="118.80365537877519">
        <ele>8.036636129952967</ele>
        <time>2026-08-23T10:56:26Z</time>
      </trkpt>
      <trkpt lat="32.052100025463716" lon="118.80369346613003">
        <ele>6.23196388874203</ele>
        <time>2026-08-23T10:56:32Z</time>
      </trkpt>
      <trkpt lat="32.05202808949407" lon="118.80373956350407">
        <ele>8.707778708077967</ele>
        <time>2026-08-23T10:56:35Z</time>
      </trkpt>
      <trkpt lat="32.05192325771782" lon="118.80384979032245">
        <ele>8.760619894601405</ele>
        <time>2026-08-23T10:56:38Z</time>
      </trkpt>
      <trkpt lat="32.051883499944395" lon="118.8039940785921">
        <ele>7.143546835519373</ele>
        <time>2026-08-23T10:56:44Z</time>
      </trkpt>
      <trkpt lat="32.05189475210121" lon="118.80413736053403">
        <ele>8.372207419015467</ele>
        <time>2026-08-23T10:56:50Z</time>
      </trkpt>
      <trkpt lat="32.05195299404664" lon="118.8042686147041">
        <ele>8.245376364327967</ele>
        <time>2026-08-23T10:56:56Z</time>
      </trkpt>
      <trkpt lat="32.05205717997224" lon="118.80436178954022">
        <ele>8.824035421945155</ele>
        <time>2026-08-23T10:57:03Z</time>
      </trkpt>
      <trkpt lat="32.05218526979637" lon="118.80439684720838">
        <ele>8.04721047077328</ele>
        <time>2026-08-23T10:57:09Z</time>
      </trkpt>
      <trkpt lat="32.05245953234501" lon="118.80451205029875">
        <ele>8.467330710031092</ele>
        <time>2026-08-23T10:57:30Z</time>
      </trkpt>
      <trkpt lat="32.05272171697168" lon="118.80458416924631">
        <ele>7.827895895577967</ele>
        <time>2026-08-23T10:57:42Z</time>
      </trkpt>
      <trkpt lat="32.05277773120779" lon="118.8045851660869">
        <ele>8.676070944406092</ele>
        <time>2026-08-23T10:57:45Z</time>
      </trkpt>
      <trkpt lat="32.05285983717712" lon="118.80463525792396">
        <ele>8.528098837472498</ele>
        <time>2026-08-23T10:57:51Z</time>
      </trkpt>
      <trkpt lat="32.05296792616114" lon="118.80467232156028">
        <ele>9.286430136300623</ele>
        <time>2026-08-23T10:57:54Z</time>
      </trkpt>
      <trkpt lat="32.05315795621476" lon="118.80466529018041">
        <ele>7.542533651925623</ele>
        <time>2026-08-23T10:58:00Z</time>
      </trkpt>
      <trkpt lat="32.05326887919925" lon="118.80460716468228">
        <ele>8.372207419015467</ele>
        <time>2026-08-23T10:58:06Z</time>
      </trkpt>
      <trkpt lat="32.05333974073389" lon="118.80451898332556">
        <ele>7.344360128976405</ele>
        <time>2026-08-23T10:58:12Z</time>
      </trkpt>
      <trkpt lat="32.05340744064332" lon="118.80433861985085">
        <ele>7.77505470905453</ele>
        <time>2026-08-23T10:58:22Z</time>
      </trkpt>
      <trkpt lat="32.05339709742618" lon="118.80414323436463">
        <ele>7.500259176827967</ele>
        <time>2026-08-23T10:58:31Z</time>
      </trkpt>
      <trkpt lat="32.05331180434636" lon="118.8039859315206">
        <ele>8.277084127999842</ele>
        <time>2026-08-23T10:58:37Z</time>
      </trkpt>
      <trkpt lat="32.05318760926597" lon="118.80388975316153">
        <ele>8.057777182199061</ele>
        <time>2026-08-23T10:58:43Z</time>
      </trkpt>
      <trkpt lat="32.05292041729639" lon="118.80381362758733">
        <ele>8.372207419015467</ele>
        <time>2026-08-23T10:58:55Z</time>
      </trkpt>
      <trkpt lat="32.05263217543806" lon="118.80371145273881">
        <ele>8.990501181222498</ele>
        <time>2026-08-23T10:59:10Z</time>
      </trkpt>
      <trkpt lat="32.05236301798281" lon="118.80365536700958">
        <ele>7.83847023639828</ele>
        <time>2026-08-23T10:59:26Z</time>
      </trkpt>
      <trkpt lat="32.052177952360736" lon="118.80364135640895">
        <ele>7.428916708566248</ele>
        <time>2026-08-23T10:59:35Z</time>
      </trkpt>
      <trkpt lat="32.05199497767008" lon="118.80367944816692">
        <ele>8.562454001046717</ele>
        <time>2026-08-23T10:59:41Z</time>
      </trkpt>
      <trkpt lat="32.051907208833086" lon="118.80382374044457">
        <ele>6.998222128488123</ele>
        <time>2026-08-23T10:59:47Z</time>
      </trkpt>
      <trkpt lat="32.05190159647349" lon="118.80404718176945">
        <ele>7.132980124093592</ele>
        <time>2026-08-23T10:59:53Z</time>
      </trkpt>
      <trkpt lat="32.05191880638313" lon="118.80416541377065">
        <ele>9.442329184152186</ele>
        <time>2026-08-23T10:59:56Z</time>
      </trkpt>
      <trkpt lat="32.05198406043907" lon="118.80430267925178">
        <ele>9.233588949777186</ele>
        <time>2026-08-23T10:59:59Z</time>
      </trkpt>
      <trkpt lat="32.05208220830527" lon="118.80437481302927">
        <ele>8.887450949288905</ele>
        <time>2026-08-23T11:00:02Z</time>
      </trkpt>
      <trkpt lat="32.05235743775979" lon="118.80447097826462">
        <ele>8.876884237863123</ele>
        <time>2026-08-23T11:00:14Z</time>
      </trkpt>
      <trkpt lat="32.05266067707284" lon="118.80456914504843">
        <ele>8.078910605050623</ele>
        <time>2026-08-23T11:00:29Z</time>
      </trkpt>
      <trkpt lat="32.052926831059764" lon="118.80462322791345">
        <ele>9.075050131417811</ele>
        <time>2026-08-23T11:00:41Z</time>
      </trkpt>
      <trkpt lat="32.05308795114623" lon="118.80467130854377">
        <ele>9.25473000202328</ele>
        <time>2026-08-23T11:00:47Z</time>
      </trkpt>
      <trkpt lat="32.053227943737866" lon="118.80464925193591">
        <ele>8.372207419015467</ele>
        <time>2026-08-23T11:00:54Z</time>
      </trkpt>
      <trkpt lat="32.05336773645557" lon="118.80451296883639">
        <ele>8.60208107624203</ele>
        <time>2026-08-23T11:01:03Z</time>
      </trkpt>
      <trkpt lat="32.05338720705382" lon="118.8042073620361">
        <ele>7.563674704171717</ele>
        <time>2026-08-23T11:01:18Z</time>
      </trkpt>
      <trkpt lat="32.05336402718298" lon="118.80410716612883">
        <ele>7.92037941608578</ele>
        <time>2026-08-23T11:01:24Z</time>
      </trkpt>
      <trkpt lat="32.05318861297608" lon="118.80389175702132">
        <ele>7.796188131906092</ele>
        <time>2026-08-23T11:01:33Z</time>
      </trkpt>
      <trkpt lat="32.05303345641875" lon="118.80382163299781">
        <ele>8.078910605050623</ele>
        <time>2026-08-23T11:01:42Z</time>
      </trkpt>
      <trkpt lat="32.052738272205076" lon="118.80375352587136">
        <ele>6.744567648507655</ele>
        <time>2026-08-23T11:01:57Z</time>
      </trkpt>
      <trkpt lat="32.05264321445581" lon="118.80373249316197">
        <ele>7.973220602609217</ele>
        <time>2026-08-23T11:02:03Z</time>
      </trkpt>
      <trkpt lat="32.052599145448525" lon="118.80369843012602">
        <ele>6.35879494342953</ele>
        <time>2026-08-23T11:02:06Z</time>
      </trkpt>
      <trkpt lat="32.0522818972698" lon="118.80359625813917">
        <ele>7.500259176827967</ele>
        <time>2026-08-23T11:02:22Z</time>
      </trkpt>
      <trkpt lat="32.05213786167284" lon="118.80359426743371">
        <ele>7.280944601632655</ele>
        <time>2026-08-23T11:02:28Z</time>
      </trkpt>
      <trkpt lat="32.05201299387031" lon="118.8036864603192">
        <ele>7.627082602120936</ele>
        <time>2026-08-23T11:02:34Z</time>
      </trkpt>
      <trkpt lat="32.05194517200644" lon="118.80379768561451">
        <ele>7.973220602609217</ele>
        <time>2026-08-23T11:02:40Z</time>
      </trkpt>
      <trkpt lat="32.05192541858739" lon="118.80394197192275">
        <ele>8.004928366281092</ele>
        <time>2026-08-23T11:02:52Z</time>
      </trkpt>
      <trkpt lat="32.05196289485619" lon="118.80421049885729">
        <ele>7.616515890695155</ele>
        <time>2026-08-23T11:02:58Z</time>
      </trkpt>
      <trkpt lat="32.05202705078806" lon="118.80429165349301">
        <ele>7.52139259967953</ele>
        <time>2026-08-23T11:03:01Z</time>
      </trkpt>
      <trkpt lat="32.052364383266905" lon="118.80443891410194">
        <ele>7.468551413156092</ele>
        <time>2026-08-23T11:03:19Z</time>
      </trkpt>
      <trkpt lat="32.052423431455644" lon="118.80445894837737">
        <ele>7.679931418038905</ele>
        <time>2026-08-23T11:03:23Z</time>
      </trkpt>
      <trkpt lat="32.05252161978588" lon="118.80455412802245">
        <ele>7.637656942941248</ele>
        <time>2026-08-23T11:03:29Z</time>
      </trkpt>
      <trkpt lat="32.0526306423342" lon="118.80455311601865">
        <ele>7.930946127511561</ele>
        <time>2026-08-23T11:03:35Z</time>
      </trkpt>
      <trkpt lat="32.05291183648721" lon="118.80462823923051">
        <ele>7.270377890206873</ele>
        <time>2026-08-23T11:03:47Z</time>
      </trkpt>
      <trkpt lat="32.053075955491344" lon="118.80467531760043">
        <ele>7.796188131906092</ele>
        <time>2026-08-23T11:03:56Z</time>
      </trkpt>
      <trkpt lat="32.05315795796939" lon="118.80466629216875">
        <ele>7.743346945382655</ele>
        <time>2026-08-23T11:03:59Z</time>
      </trkpt>
      <trkpt lat="32.05332483205239" lon="118.80457309197256">
        <ele>7.732780233956873</ele>
        <time>2026-08-23T11:04:08Z</time>
      </trkpt>
      <trkpt lat="32.05339266492777" lon="118.80446887917338">
        <ele>8.121192709542811</ele>
        <time>2026-08-23T11:04:14Z</time>
      </trkpt>
      <trkpt lat="32.053411551815316" lon="118.80440174445297">
        <ele>6.871398703195155</ele>
        <time>2026-08-23T11:04:17Z</time>
      </trkpt>
      <trkpt lat="32.053406309206764" lon="118.80426347125255">
        <ele>7.553100363351405</ele>
        <time>2026-08-23T11:04:23Z</time>
      </trkpt>
      <trkpt lat="32.053345962045555" lon="118.80407209851428">
        <ele>6.829116598702967</ele>
        <time>2026-08-23T11:04:32Z</time>
      </trkpt>
      <trkpt lat="32.05321265843128" lon="118.8039148002648">
        <ele>7.679931418038905</ele>
        <time>2026-08-23T11:04:41Z</time>
      </trkpt>
      <trkpt lat="32.05294239257811" lon="118.80379659199961">
        <ele>6.327087179757655</ele>
        <time>2026-08-23T11:04:56Z</time>
      </trkpt>
      <trkpt lat="32.052809352482655" lon="118.80379059237919">
        <ele>6.284812704659998</ele>
        <time>2026-08-23T11:05:02Z</time>
      </trkpt>
      <trkpt lat="32.052761390571256" lon="118.8038186520753">
        <ele>6.768348471261561</ele>
        <time>2026-08-23T11:05:05Z</time>
      </trkpt>
      <trkpt lat="32.05270738201948" lon="118.80382066098817">
        <ele>7.616515890695155</ele>
        <time>2026-08-23T11:05:08Z</time>
      </trkpt>
      <trkpt lat="32.052432043811194" lon="118.80366137249919">
        <ele>6.083999411202967</ele>
        <time>2026-08-23T11:05:20Z</time>
      </trkpt>
      <trkpt lat="32.05220588031918" lon="118.80359626512507">
        <ele>5.119567648507655</ele>
        <time>2026-08-23T11:05:33Z</time>
      </trkpt>
      <trkpt lat="32.05208492639581" lon="118.8036383590423">
        <ele>8.110618368722498</ele>
        <time>2026-08-23T11:05:39Z</time>
      </trkpt>
      <trkpt lat="32.051951058384134" lon="118.80373155479543">
        <ele>7.605949179269373</ele>
        <time>2026-08-23T11:05:45Z</time>
      </trkpt>
      <trkpt lat="32.05188033355123" lon="118.80389889107715">
        <ele>6.955947653390467</ele>
        <time>2026-08-23T11:05:54Z</time>
      </trkpt>
      <trkpt lat="32.05189769337423" lon="118.80410329295255">
        <ele>7.743346945382655</ele>
        <time>2026-08-23T11:06:03Z</time>
      </trkpt>
      <trkpt lat="32.0519629403151" lon="118.80423655036991">
        <ele>6.818549887277186</ele>
        <time>2026-08-23T11:06:09Z</time>
      </trkpt>
      <trkpt lat="32.05206822969139" lon="118.80438884208918">
        <ele>6.903098837472498</ele>
        <time>2026-08-23T11:06:18Z</time>
      </trkpt>
      <trkpt lat="32.05227526010701" lon="118.80437980521056">
        <ele>5.906966940499842</ele>
        <time>2026-08-23T11:06:27Z</time>
      </trkpt>
      <trkpt lat="32.05239636238132" lon="118.8044228794075">
        <ele>6.818549887277186</ele>
        <time>2026-08-23T11:06:33Z</time>
      </trkpt>
      <trkpt lat="32.052641678097096" lon="118.80457215275504">
        <ele>7.64822365436703</ele>
        <time>2026-08-23T11:06:45Z</time>
      </trkpt>
      <trkpt lat="32.052932867480386" lon="118.80464326711858">
        <ele>7.31265236530453</ele>
        <time>2026-08-23T11:06:54Z</time>
      </trkpt>
      <trkpt lat="32.05308393270864" lon="118.80466128902786">
        <ele>7.500259176827967</ele>
        <time>2026-08-23T11:07:01Z</time>
      </trkpt>
      <trkpt lat="32.053223918286555" lon="118.80463522447187">
        <ele>6.588668600656092</ele>
        <time>2026-08-23T11:07:07Z</time>
      </trkpt>
      <trkpt lat="32.05334974821918" lon="118.80452198836466">
        <ele>4.353309408761561</ele>
        <time>2026-08-23T11:07:16Z</time>
      </trkpt>
      <trkpt lat="32.05342342670724" lon="118.80432859854972">
        <ele>6.157981649972498</ele>
        <time>2026-08-23T11:07:25Z</time>
      </trkpt>
      <trkpt lat="32.05335603238819" lon="118.80411117478185">
        <ele>6.136840597726405</ele>
        <time>2026-08-23T11:07:37Z</time>
      </trkpt>
      <trkpt lat="32.05330285644431" lon="118.80401699365578">
        <ele>5.550254599191248</ele>
        <time>2026-08-23T11:07:43Z</time>
      </trkpt>
      <trkpt lat="32.05320668325627" lon="118.80392983046195">
        <ele>6.221397177316248</ele>
        <time>2026-08-23T11:07:49Z</time>
      </trkpt>
      <trkpt lat="32.05293948950092" lon="118.80385270286217">
        <ele>5.592536703683436</ele>
        <time>2026-08-23T11:08:07Z</time>
      </trkpt>
      <trkpt lat="32.05269826503025" lon="118.80375453152168">
        <ele>5.685012594796717</ele>
        <time>2026-08-23T11:08:19Z</time>
      </trkpt>
      <trkpt lat="32.05243205773431" lon="118.80366938827612">
        <ele>7.71163918171078</ele>
        <time>2026-08-23T11:08:34Z</time>
      </trkpt>
      <trkpt lat="32.05217695561778" lon="118.80364336044431">
        <ele>8.60208107624203</ele>
        <time>2026-08-23T11:08:47Z</time>
      </trkpt>
      <trkpt lat="32.05212296445449" lon="118.80365538907003">
        <ele>8.813468710519373</ele>
        <time>2026-08-23T11:08:50Z</time>
      </trkpt>
      <trkpt lat="32.051953123270366" lon="118.80376862763151">
        <ele>7.397208944894373</ele>
        <time>2026-08-23T11:08:56Z</time>
      </trkpt>
      <trkpt lat="32.05189939534305" lon="118.80393195454658">
        <ele>7.616515890695155</ele>
        <time>2026-08-23T11:09:02Z</time>
      </trkpt>
      <trkpt lat="32.05192270069893" lon="118.80410429263415">
        <ele>6.29537941608578</ele>
        <time>2026-08-23T11:09:08Z</time>
      </trkpt>
      <trkpt lat="32.05201607282684" lon="118.80430568225852">
        <ele>6.052291647531092</ele>
        <time>2026-08-23T11:09:17Z</time>
      </trkpt>
      <trkpt lat="32.05205315457605" lon="118.80434776214065">
        <ele>5.716720358468592</ele>
        <time>2026-08-23T11:09:20Z</time>
      </trkpt>
      <trkpt lat="32.05223925908054" lon="118.80438381645433">
        <ele>5.980949179269373</ele>
        <time>2026-08-23T11:09:29Z</time>
      </trkpt>
      <trkpt lat="32.052328394505544" lon="118.80444993924337">
        <ele>6.083999411202967</ele>
        <time>2026-08-23T11:09:35Z</time>
      </trkpt>
      <trkpt lat="32.0526096288874" lon="118.80454810801604">
        <ele>5.338874594308436</ele>
        <time>2026-08-23T11:09:50Z</time>
      </trkpt>
      <trkpt lat="32.05278671392614" lon="118.80457414340306">
        <ele>6.578101889230311</ele>
        <time>2026-08-23T11:10:02Z</time>
      </trkpt>
      <trkpt lat="32.05293984448136" lon="118.80462923864503">
        <ele>7.143546835519373</ele>
        <time>2026-08-23T11:10:08Z</time>
      </trkpt>
      <trkpt lat="32.053157922879514" lon="118.80464625240484">
        <ele>7.10391213092953</ele>
        <time>2026-08-23T11:10:17Z</time>
      </trkpt>
      <trkpt lat="32.0532678491637" lon="118.80459013099032">
        <ele>6.77627541217953</ele>
        <time>2026-08-23T11:10:23Z</time>
      </trkpt>
      <trkpt lat="32.05334570702156" lon="118.80449894305687">
        <ele>1.584205404855311</ele>
        <time>2026-08-23T11:10:29Z</time>
      </trkpt>
      <trkpt lat="32.053393364035465" lon="118.8042965378599">
        <ele>4.87911965046078</ele>
        <time>2026-08-23T11:10:38Z</time>
      </trkpt>
      <trkpt lat="32.05337412550404" lon="118.80416227410127">
        <ele>5.476272360421717</ele>
        <time>2026-08-23T11:10:45Z</time>
      </trkpt>
      <trkpt lat="32.0532717849659" lon="118.80397992333299">
        <ele>5.42343117389828</ele>
        <time>2026-08-23T11:10:54Z</time>
      </trkpt>
      <trkpt lat="32.05322868990173" lon="118.80393083041629">
        <ele>5.603103415109217</ele>
        <time>2026-08-23T11:10:57Z</time>
      </trkpt>
      <trkpt lat="32.053119609808974" lon="118.80389877719512">
        <ele>5.013877646066248</ele>
        <time>2026-08-23T11:11:03Z</time>
      </trkpt>
      <trkpt lat="32.053060635029354" lon="118.8039208260939">
        <ele>1.8986356416717172</ele>
        <time>2026-08-23T11:11:06Z</time>
      </trkpt>
      <trkpt lat="32.05301055064871" lon="118.80387874769757">
        <ele>4.773429648019373</ele>
        <time>2026-08-23T11:11:12Z</time>
      </trkpt>
      <trkpt lat="32.05286946344203" lon="118.8038466974453">
        <ele>5.89639259967953</ele>
        <time>2026-08-23T11:11:18Z</time>
      </trkpt>
      <trkpt lat="32.052618196693224" lon="118.8037254816477">
        <ele>3.7878644624724984</ele>
        <time>2026-08-23T11:11:27Z</time>
      </trkpt>
      <trkpt lat="32.052331962348504" lon="118.80362731465108">
        <ele>4.87911965046078</ele>
        <time>2026-08-23T11:11:42Z</time>
      </trkpt>
      <trkpt lat="32.05227591506569" lon="118.80360728037229">
        <ele>5.003310934640467</ele>
        <time>2026-08-23T11:11:45Z</time>
      </trkpt>
      <trkpt lat="32.0521109060974" lon="118.80362332707939">
        <ele>2.538062826730311</ele>
        <time>2026-08-23T11:11:51Z</time>
      </trkpt>
      <trkpt lat="32.05195615181181" lon="118.80378465893897">
        <ele>5.748428122140467</ele>
        <time>2026-08-23T11:12:03Z</time>
      </trkpt>
      <trkpt lat="32.051913353121066" lon="118.80390590187619">
        <ele>5.235824362374842</ele>
        <time>2026-08-23T11:12:09Z</time>
      </trkpt>
      <trkpt lat="32.051898700584296" lon="118.804107300778">
        <ele>5.465705648995936</ele>
        <time>2026-08-23T11:12:18Z</time>
      </trkpt>
      <trkpt lat="32.05196495300189" lon="118.80424356405675">
        <ele>3.4205854097381234</ele>
        <time>2026-08-23T11:12:24Z</time>
      </trkpt>
      <trkpt lat="32.052046154764646" lon="118.80434876476724">
        <ele>5.89639259967953</ele>
        <time>2026-08-23T11:12:27Z</time>
      </trkpt>
      <trkpt lat="32.05214126698555" lon="118.80440085918843">
        <ele>6.69436623249203</ele>
        <time>2026-08-23T11:12:30Z</time>
      </trkpt>
      <trkpt lat="32.05244444489721" lon="118.80446395637284">
        <ele>5.685012594796717</ele>
        <time>2026-08-23T11:12:43Z</time>
      </trkpt>
      <trkpt lat="32.05266566416166" lon="118.804561128695">
        <ele>5.465705648995936</ele>
        <time>2026-08-23T11:12:55Z</time>
      </trkpt>
      <trkpt lat="32.05271768802597" lon="118.80456813782325">
        <ele>5.225257650949061</ele>
        <time>2026-08-23T11:12:58Z</time>
      </trkpt>
      <trkpt lat="32.05277067178945" lon="118.80455210116584">
        <ele>6.284812704659998</ele>
        <time>2026-08-23T11:13:01Z</time>
      </trkpt>
      <trkpt lat="32.05285972493674" lon="118.80457113073365">
        <ele>6.556968466378748</ele>
        <time>2026-08-23T11:13:04Z</time>
      </trkpt>
      <trkpt lat="32.05301691251567" lon="118.80465828922047">
        <ele>6.369361654855311</ele>
        <time>2026-08-23T11:13:10Z</time>
      </trkpt>
      <trkpt lat="32.05312596838675" lon="118.80467631499391">
        <ele>5.917533651925623</ele>
        <time>2026-08-23T11:13:13Z</time>
      </trkpt>
      <trkpt lat="32.053197954599014" lon="118.80465927457462">
        <ele>4.458999411202967</ele>
        <time>2026-08-23T11:13:16Z</time>
      </trkpt>
      <trkpt lat="32.05333272164951" lon="118.80450896410947">
        <ele>4.572616354562342</ele>
        <time>2026-08-23T11:13:25Z</time>
      </trkpt>
      <trkpt lat="32.05340241678021" lon="118.80432559453092">
        <ele>4.458999411202967</ele>
        <time>2026-08-23T11:13:34Z</time>
      </trkpt>
      <trkpt lat="32.05336909643136" lon="118.80414624287823">
        <ele>5.497413412667811</ele>
        <time>2026-08-23T11:13:43Z</time>
      </trkpt>
      <trkpt lat="32.05321968091986" lon="118.80392682333762">
        <ele>2.770583883859217</ele>
        <time>2026-08-23T11:13:56Z</time>
      </trkpt>
      <trkpt lat="32.05316261241452" lon="118.80389476533887">
        <ele>4.741721884347498</ele>
        <time>2026-08-23T11:13:59Z</time>
      </trkpt>
      <trkpt lat="32.05287839399615" lon="118.80380561565174">
        <ele>4.123428122140467</ele>
        <time>2026-08-23T11:14:17Z</time>
      </trkpt>
      <trkpt lat="32.05256719577089" lon="118.80373149817454">
        <ele>5.465705648995936</ele>
        <time>2026-08-23T11:14:35Z</time>
      </trkpt>
      <trkpt lat="32.05226396980217" lon="118.80364034653223">
        <ele>5.204124228097498</ele>
        <time>2026-08-23T11:14:50Z</time>
      </trkpt>
      <trkpt lat="32.052174953431624" lon="118.80364235865642">
        <ele>5.045585409738123</ele>
        <time>2026-08-23T11:14:56Z</time>
      </trkpt>
      <trkpt lat="32.05206401569219" lon="118.80369246746648">
        <ele>4.501273886300623</ele>
        <time>2026-08-23T11:15:02Z</time>
      </trkpt>
      <trkpt lat="32.051973143410095" lon="118.80377764355823">
        <ele>5.938674704171717</ele>
        <time>2026-08-23T11:15:08Z</time>
      </trkpt>
      <trkpt lat="32.051908303182586" lon="118.80387784701199">
        <ele>4.982169882394373</ele>
        <time>2026-08-23T11:15:11Z</time>
      </trkpt>
      <trkpt lat="32.05189043869037" lon="118.80395800676848">
        <ele>3.6927411714568734</ele>
        <time>2026-08-23T11:15:14Z</time>
      </trkpt>
      <trkpt lat="32.05190971526633" lon="118.80411431362299">
        <ele>4.992736593820155</ele>
        <time>2026-08-23T11:15:21Z</time>
      </trkpt>
      <trkpt lat="32.05206718570383" lon="118.80436379258819">
        <ele>4.75228859577328</ele>
        <time>2026-08-23T11:15:33Z</time>
      </trkpt>
      <trkpt lat="32.05229036150967" lon="118.80443591494866">
        <ele>2.4957883516326547</ele>
        <time>2026-08-23T11:15:48Z</time>
      </trkpt>
      <trkpt lat="32.05252347652696" lon="118.80447196499404">
        <ele>-0.09363578166812658</ele>
        <time>2026-08-23T11:15:57Z</time>
      </trkpt>
      <trkpt lat="32.052822709677045" lon="118.80456712618678">
        <ele>4.260825888253748</ele>
        <time>2026-08-23T11:16:12Z</time>
      </trkpt>
      <trkpt lat="32.05312089709295" lon="118.80463623592563">
        <ele>5.875259176827967</ele>
        <time>2026-08-23T11:16:27Z</time>
      </trkpt>
      <trkpt lat="32.05320489826642" lon="118.80462620832789">
        <ele>5.098426596261561</ele>
        <time>2026-08-23T11:16:30Z</time>
      </trkpt>
      <trkpt lat="32.05336773645557" lon="118.80451296883639">
        <ele>5.130134359933436</ele>
        <time>2026-08-23T11:16:39Z</time>
      </trkpt>
      <trkpt lat="32.05341254153268" lon="118.80439573245644">
        <ele>-4.411117776297033</ele>
        <time>2026-08-23T11:16:45Z</time>
      </trkpt>
      <trkpt lat="32.053425411404106" lon="118.80431958051972">
        <ele>-1.538963540457189</ele>
        <time>2026-08-23T11:16:48Z</time>
      </trkpt>
      <trkpt lat="32.053330895848106" lon="118.80403602866576">
        <ele>4.646598593331873</ele>
        <time>2026-08-23T11:17:00Z</time>
      </trkpt>
      <trkpt lat="32.05324769587874" lon="118.80393183064642">
        <ele>4.332168356515467</ele>
        <time>2026-08-23T11:17:06Z</time>
      </trkpt>
      <trkpt lat="32.052962437111816" lon="118.80381963557458">
        <ele>4.017738119699061</ele>
        <time>2026-08-23T11:17:22Z</time>
      </trkpt>
      <trkpt lat="32.052672294070945" lon="118.80377457338687">
        <ele>4.564689413644373</ele>
        <time>2026-08-23T11:17:43Z</time>
      </trkpt>
      <trkpt lat="32.0523890220406" lon="118.80365436264776">
        <ele>4.123428122140467</ele>
        <time>2026-08-23T11:17:55Z</time>
      </trkpt>
      <trkpt lat="32.05225990627869" lon="118.80360427592963">
        <ele>2.865707174874842</ele>
        <time>2026-08-23T11:18:04Z</time>
      </trkpt>
      <trkpt lat="32.05206691368062" lon="118.80363335083875">
        <ele>3.3888776460662484</ele>
        <time>2026-08-23T11:18:13Z</time>
      </trkpt>
      <trkpt lat="32.05195707539555" lon="118.80374057200345">
        <ele>5.674445883370936</ele>
        <time>2026-08-23T11:18:19Z</time>
      </trkpt>
      <trkpt lat="32.0519014551022" lon="118.80396602157347">
        <ele>8.203101889230311</ele>
        <time>2026-08-23T11:18:28Z</time>
      </trkpt>
      <trkpt lat="32.051939821554356" lon="118.80417142372276">
        <ele>5.370582357980311</ele>
        <time>2026-08-23T11:18:37Z</time>
      </trkpt>
      <trkpt lat="32.05205213335185" lon="118.80433573843463">
        <ele>2.5909116426482797</ele>
        <time>2026-08-23T11:18:46Z</time>
      </trkpt>
      <trkpt lat="32.052256388957936" lon="118.80445595777002">
        <ele>4.762862936593592</ele>
        <time>2026-08-23T11:19:02Z</time>
      </trkpt>
      <trkpt lat="32.052507483471324" lon="118.8044779783763">
        <ele>4.469566122628748</ele>
        <time>2026-08-23T11:19:14Z</time>
      </trkpt>
      <trkpt lat="32.05277172987041" lon="118.8045851666383">
        <ele>4.81570412311703</ele>
        <time>2026-08-23T11:19:26Z</time>
      </trkpt>
      <trkpt lat="32.05300591883726" lon="118.80466330017269">
        <ele>2.5803449312224984</ele>
        <time>2026-08-23T11:19:38Z</time>
      </trkpt>
      <trkpt lat="32.05313093089916" lon="118.80465427079099">
        <ele>5.698226706124842</ele>
        <time>2026-08-23T11:19:45Z</time>
      </trkpt>
      <trkpt lat="32.05329882801403" lon="118.80457409634893">
        <ele>4.900260702706873</ele>
        <time>2026-08-23T11:19:54Z</time>
      </trkpt>
      <trkpt lat="32.05337939940854" lon="118.80431858276472">
        <ele>4.34274269733578</ele>
        <time>2026-08-23T11:20:06Z</time>
      </trkpt>
      <trkpt lat="32.05335501644462" lon="118.80410215705926">
        <ele>4.741721884347498</ele>
        <time>2026-08-23T11:20:12Z</time>
      </trkpt>
      <trkpt lat="32.05332285566311" lon="118.80401398588376">
        <ele>4.572616354562342</ele>
        <time>2026-08-23T11:20:15Z</time>
      </trkpt>
      <trkpt lat="32.05325773997264" lon="118.8039558771688">
        <ele>2.905341879464686</ele>
        <time>2026-08-23T11:20:18Z</time>
      </trkpt>
      <trkpt lat="32.052971463515696" lon="118.80383366239448">
        <ele>3.8512799898162484</ele>
        <time>2026-08-23T11:20:30Z</time>
      </trkpt>
      <trkpt lat="32.05290740220175" lon="118.80380661496058">
        <ele>0.7783124605193734</ele>
        <time>2026-08-23T11:20:33Z</time>
      </trkpt>
      <trkpt lat="32.0527433133819" lon="118.80377657080861">
        <ele>5.539687887765467</ele>
        <time>2026-08-23T11:20:42Z</time>
      </trkpt>
      <trkpt lat="32.052484097178265" lon="118.80368541505341">
        <ele>4.395583883859217</ele>
        <time>2026-08-23T11:21:00Z</time>
      </trkpt>
      <trkpt lat="32.05222696677005" lon="118.80364335584838">
        <ele>1.7004621187224984</ele>
        <time>2026-08-23T11:21:16Z</time>
      </trkpt>
      <trkpt lat="32.0521060006918" lon="118.80367843599176">
        <ele>4.060012594796717</ele>
        <time>2026-08-23T11:21:22Z</time>
      </trkpt>
      <trkpt lat="32.05197722445088" lon="118.80382373401059">
        <ele>4.60696388874203</ele>
        <time>2026-08-23T11:21:31Z</time>
      </trkpt>
      <trkpt lat="32.05193136411278" lon="118.80390990812623">
        <ele>4.720580832101405</ele>
        <time>2026-08-23T11:21:37Z</time>
      </trkpt>
      <trkpt lat="32.05195087644536" lon="118.80420148213142">
        <ele>4.049445883370936</ele>
        <time>2026-08-23T11:21:46Z</time>
      </trkpt>
      <trkpt lat="32.05197900684372" lon="118.80427262024263">
        <ele>5.370582357980311</ele>
        <time>2026-08-23T11:21:49Z</time>
      </trkpt>
      <trkpt lat="32.05207023538988" lon="118.80439184785719">
        <ele>4.268752829171717</ele>
        <time>2026-08-23T11:21:55Z</time>
      </trkpt>
      <trkpt lat="32.052341437695524" lon="118.80447298370555">
        <ele>4.049445883370936</ele>
        <time>2026-08-23T11:22:13Z</time>
      </trkpt>
      <trkpt lat="32.05266072441654" lon="118.80459619869795">
        <ele>5.098426596261561</ele>
        <time>2026-08-23T11:22:31Z</time>
      </trkpt>
      <trkpt lat="32.05284382133201" lon="118.80462824547978">
        <ele>3.1167218843474984</ele>
        <time>2026-08-23T11:22:37Z</time>
      </trkpt>
      <trkpt lat="32.0529088919571" lon="118.80466030312222">
        <ele>4.197410360909998</ele>
        <time>2026-08-23T11:22:46Z</time>
      </trkpt>
      <trkpt lat="32.053129960504286" lon="118.80467130468395">
        <ele>3.745582357980311</ele>
        <time>2026-08-23T11:22:55Z</time>
      </trkpt>
      <trkpt lat="32.05327887265805" lon="118.80460215382634">
        <ele>3.6081845918670297</ele>
        <time>2026-08-23T11:23:04Z</time>
      </trkpt>
      <trkpt lat="32.05332180333253" lon="118.80455706046018">
        <ele>3.6927411714568734</ele>
        <time>2026-08-23T11:23:07Z</time>
      </trkpt>
      <trkpt lat="32.053330712441976" lon="118.80450395436416">
        <ele>3.914687887765467</ele>
        <time>2026-08-23T11:23:14Z</time>
      </trkpt>
      <trkpt lat="32.05336263547228" lon="118.80445585612398">
        <ele>3.568549887277186</ele>
        <time>2026-08-23T11:23:17Z</time>
      </trkpt>
      <trkpt lat="32.05337833970196" lon="118.80428451545015">
        <ele>3.5579831758514047</ele>
        <time>2026-08-23T11:23:23Z</time>
      </trkpt>
      <trkpt lat="32.05336202324399" lon="118.80410516235389">
        <ele>4.268752829171717</ele>
        <time>2026-08-23T11:23:26Z</time>
      </trkpt>
      <trkpt lat="32.05324667821419" lon="118.80392181097382">
        <ele>1.1138837495818734</ele>
        <time>2026-08-23T11:23:32Z</time>
      </trkpt>
      <trkpt lat="32.05298445944147" lon="118.80382965330003">
        <ele>-2.786117776297033</ele>
        <time>2026-08-23T11:23:44Z</time>
      </trkpt>
      <trkpt lat="32.05266719891075" lon="118.80372046727831">
        <ele>3.3254621187224984</ele>
        <time>2026-08-23T11:24:02Z</time>
      </trkpt>
      <trkpt lat="32.05255416675386" lon="118.8037164697731">
        <ele>4.374442831613123</ele>
        <time>2026-08-23T11:24:08Z</time>
      </trkpt>
      <trkpt lat="32.05228295838006" lon="118.80363132704116">
        <ele>3.840705648995936</ele>
        <time>2026-08-23T11:24:23Z</time>
      </trkpt>
      <trkpt lat="32.05222595088699" lon="118.80363433819527">
        <ele>-0.3446581205353141</ele>
        <time>2026-08-23T11:24:26Z</time>
      </trkpt>
      <trkpt lat="32.052179015234636" lon="118.80367742730944">
        <ele>4.406150595284998</ele>
        <time>2026-08-23T11:24:29Z</time>
      </trkpt>
      <trkpt lat="32.052082038857094" lon="118.80370348751113">
        <ele>4.311034933663905</ele>
        <time>2026-08-23T11:24:32Z</time>
      </trkpt>
      <trkpt lat="32.05198017807285" lon="118.80379668042322">
        <ele>4.311034933663905</ele>
        <time>2026-08-23T11:24:38Z</time>
      </trkpt>
      <trkpt lat="32.051900430454104" lon="118.80395199398808">
        <ele>4.826278463937342</ele>
        <time>2026-08-23T11:24:44Z</time>
      </trkpt>
      <trkpt lat="32.0519066307639" lon="118.80406621890226">
        <ele>4.554122702218592</ele>
        <time>2026-08-23T11:24:47Z</time>
      </trkpt>
      <trkpt lat="32.05199202548663" lon="118.80428163688696">
        <ele>2.937049643136561</ele>
        <time>2026-08-23T11:24:57Z</time>
      </trkpt>
      <trkpt lat="32.052074224026946" lon="118.80438483360223">
        <ele>3.9648969331756234</ele>
        <time>2026-08-23T11:25:03Z</time>
      </trkpt>
      <trkpt lat="32.052176343089286" lon="118.80443993336436">
        <ele>4.646598593331873</ele>
        <time>2026-08-23T11:25:09Z</time>
      </trkpt>
      <trkpt lat="32.05224738169562" lon="118.80445295264224">
        <ele>5.748428122140467</ele>
        <time>2026-08-23T11:25:12Z</time>
      </trkpt>
      <trkpt lat="32.05239038731345" lon="118.80443790972774">
        <ele>4.614890829659998</ele>
        <time>2026-08-23T11:25:18Z</time>
      </trkpt>
      <trkpt lat="32.05264963429885" lon="118.80454610036705">
        <ele>3.6610334077849984</ele>
        <time>2026-08-23T11:25:33Z</time>
      </trkpt>
      <trkpt lat="32.05290178514912" lon="118.80460018449884">
        <ele>3.4522931734099984</ele>
        <time>2026-08-23T11:25:48Z</time>
      </trkpt>
      <trkpt lat="32.05301592632946" lon="118.80466630521867">
        <ele>4.406150595284998</ele>
        <time>2026-08-23T11:25:54Z</time>
      </trkpt>
      <trkpt lat="32.05310800298454" lon="118.80469836039917">
        <ele>5.035011068917811</ele>
        <time>2026-08-23T11:26:00Z</time>
      </trkpt>
      <trkpt lat="32.05318395147996" lon="118.80465927586124">
        <ele>3.808997885324061</ele>
        <time>2026-08-23T11:26:06Z</time>
      </trkpt>
      <trkpt lat="32.053321703427805" lon="118.8044999472483">
        <ele>3.986030356027186</ele>
        <time>2026-08-23T11:26:15Z</time>
      </trkpt>
      <trkpt lat="32.0533724485985" lon="118.80434764091656">
        <ele>2.675460592843592</ele>
        <time>2026-08-23T11:26:24Z</time>
      </trkpt>
      <trkpt lat="32.05337929969491" lon="118.80426146977031">
        <ele>3.9437558809295297</ele>
        <time>2026-08-23T11:26:30Z</time>
      </trkpt>
      <trkpt lat="32.053351137857106" lon="118.804172296019">
        <ele>3.4945676485076547</ele>
        <time>2026-08-23T11:26:36Z</time>
      </trkpt>
      <trkpt lat="32.05321879060892" lon="118.80398994797855">
        <ele>3.9331891695037484</ele>
        <time>2026-08-23T11:26:48Z</time>
      </trkpt>
      <trkpt lat="32.05310962850721" lon="118.80391080182733">
        <ele>3.9437558809295297</ele>
        <time>2026-08-23T11:26:54Z</time>
      </trkpt>
      <trkpt lat="32.05279240270899" lon="118.80382165514993">
        <ele>3.473434225656092</ele>
        <time>2026-08-23T11:27:12Z</time>
      </trkpt>
      <trkpt lat="32.052510224858885" lon="118.80375555077582">
        <ele>2.3821714082732797</ele>
        <time>2026-08-23T11:27:27Z</time>
      </trkpt>
      <trkpt lat="32.052280970113614" lon="118.80363834102624">
        <ele>3.251479879952967</ele>
        <time>2026-08-23T11:27:39Z</time>
      </trkpt>
      <trkpt lat="32.05210997547703" lon="118.80366340604105">
        <ele>3.3888776460662484</ele>
        <time>2026-08-23T11:27:49Z</time>
      </trkpt>
      <trkpt lat="32.05201404632086" lon="118.8037165194085">
        <ele>1.3543241182342172</ele>
        <time>2026-08-23T11:27:52Z</time>
      </trkpt>
      <trkpt lat="32.0519213723455" lon="118.80391592090251">
        <ele>4.060012594796717</ele>
        <time>2026-08-23T11:27:58Z</time>
      </trkpt>
      <trkpt lat="32.05189753622849" lon="118.80401311488124">
        <ele>3.986030356027186</ele>
        <time>2026-08-23T11:28:01Z</time>
      </trkpt>
      <trkpt lat="32.051919780393945" lon="118.80415038397587">
        <ele>2.865707174874842</ele>
        <time>2026-08-23T11:28:07Z</time>
      </trkpt>
      <trkpt lat="32.052020115713276" lon="118.80432972947746">
        <ele>1.7533109346404672</ele>
        <time>2026-08-23T11:28:16Z</time>
      </trkpt>
      <trkpt lat="32.05208721642299" lon="118.80437882050465">
        <ele>2.707168356515467</ele>
        <time>2026-08-23T11:28:22Z</time>
      </trkpt>
      <trkpt lat="32.052387461969616" lon="118.80448099536072">
        <ele>3.713874594308436</ele>
        <time>2026-08-23T11:28:37Z</time>
      </trkpt>
      <trkpt lat="32.05265471431085" lon="118.80459118931338">
        <ele>1.742744223214686</ele>
        <time>2026-08-23T11:28:52Z</time>
      </trkpt>
      <trkpt lat="32.05293992518553" lon="118.80467533009889">
        <ele>4.34274269733578</ele>
        <time>2026-08-23T11:29:07Z</time>
      </trkpt>
      <trkpt lat="32.05306400371132" lon="118.80470437637622">
        <ele>3.1986310640349984</ele>
        <time>2026-08-23T11:29:14Z</time>
      </trkpt>
      <trkpt lat="32.053175972507766" lon="118.80467230244494">
        <ele>4.289893881417811</ele>
        <time>2026-08-23T11:29:20Z</time>
      </trkpt>
      <trkpt lat="32.053337791119134" lon="118.80454804111073">
        <ele>2.915908590890467</ele>
        <time>2026-08-23T11:29:29Z</time>
      </trkpt>
      <trkpt lat="32.05339555000252" lon="118.80440274790764">
        <ele>3.0850141206756234</ele>
        <time>2026-08-23T11:29:38Z</time>
      </trkpt>
      <trkpt lat="32.0534103048508" lon="118.8042604649392">
        <ele>3.618758932687342</ele>
        <time>2026-08-23T11:29:44Z</time>
      </trkpt>
      <trkpt lat="32.05339318042102" lon="118.80419132979033">
        <ele>3.7244489351287484</ele>
        <time>2026-08-23T11:29:47Z</time>
      </trkpt>
      <trkpt lat="32.05328185176628" lon="118.80401699558598">
        <ele>4.406150595284998</ele>
        <time>2026-08-23T11:29:56Z</time>
      </trkpt>
      <trkpt lat="32.05321269854721" lon="118.80393784572298">
        <ele>3.6293256441131234</ele>
        <time>2026-08-23T11:30:02Z</time>
      </trkpt>
      <trkpt lat="32.05311459125791" lon="118.80388875789563">
        <ele>3.0533063570037484</ele>
        <time>2026-08-23T11:30:08Z</time>
      </trkpt>
      <trkpt lat="32.05296451076079" lon="118.80386171834196">
        <ele>3.890907065011561</ele>
        <time>2026-08-23T11:30:17Z</time>
      </trkpt>
      <trkpt lat="32.05289950324815" lon="118.80386573221818">
        <ele>3.914687887765467</ele>
        <time>2026-08-23T11:30:20Z</time>
      </trkpt>
      <trkpt lat="32.05271238313404" lon="118.80382066052859">
        <ele>2.937049643136561</ele>
        <time>2026-08-23T11:30:29Z</time>
      </trkpt>
      <trkpt lat="32.05245512726947" lon="118.80370645914418">
        <ele>3.4840009370818734</ele>
        <time>2026-08-23T11:30:41Z</time>
      </trkpt>
      <trkpt lat="32.05229496279623" lon="118.8036323279097">
        <ele>0.6092069307342172</ele>
        <time>2026-08-23T11:30:50Z</time>
      </trkpt>
    </trkseg>
  </trk>
</gpx>