<?xml version="1.0" encoding="UTF-8"?>
<gpx xmlns="http://www.topografix.com/GPX/1/1" xmlns:gpxtpx="http://www.garmin.com/xmlschemas/TrackPointExtension/v1" xmlns:xsi="http://www.w3.org/2001/XMLSchema-instance" xsi:schemaLocation="http://www.topografix.com/GPX/1/1 http://www.topografix.com/GPX/1/1/gpx.xsd" version="1.1" creator="gpx.py -- https://github.com/tkrajina/gpxpy">
  <trk>
    <name>gpx from keep</name>
    <type>Run</type>
    <trkseg>
      <trkpt lat="31.22568827750638" lon="121.39900012021357">
        <ele>19.775745465420187</ele>
        <time>2026-09-29T09:29:39Z</time>
      </trkpt>
      <trkpt lat="31.22541440476309" lon="121.39898214260558">
        <ele>16.026358201168478</ele>
        <time>2026-09-29T09:29:51Z</time>
      </trkpt>
      <trkpt lat="31.225249480450355" lon="121.39895315461904">
        <ele>16.298512532375753</ele>
        <time>2026-09-29T09:29:57Z</time>
      </trkpt>
      <trkpt lat="31.22497061180516" lon="121.39896517991473">
        <ele>19.47452552523464</ele>
        <time>2026-09-29T09:30:06Z</time>
      </trkpt>
      <trkpt lat="31.224889650530177" lon="121.39897918812277">
        <ele>15.19404227938503</ele>
        <time>2026-09-29T09:30:09Z</time>
      </trkpt>
      <trkpt lat="31.224796696468353" lon="121.39902119973296">
        <ele>19.881435467861593</ele>
        <time>2026-09-29T09:30:12Z</time>
      </trkpt>
      <trkpt lat="31.224713739764027" lon="121.39909621345384">
        <ele>17.379202916286886</ele>
        <time>2026-09-29T09:30:15Z</time>
      </trkpt>
      <trkpt lat="31.224639786067467" lon="121.39927723677016">
        <ele>17.318430020473897</ele>
        <time>2026-09-29T09:30:21Z</time>
      </trkpt>
      <trkpt lat="31.22462381072231" lon="121.39951126251367">
        <ele>19.358265950344503</ele>
        <time>2026-09-29T09:30:27Z</time>
      </trkpt>
      <trkpt lat="31.224703785907153" lon="121.39966627324955">
        <ele>20.38082606997341</ele>
        <time>2026-09-29T09:30:33Z</time>
      </trkpt>
      <trkpt lat="31.22479675034665" lon="121.39975827625034">
        <ele>19.796882702969015</ele>
        <time>2026-09-29T09:30:36Z</time>
      </trkpt>
      <trkpt lat="31.224875717202803" lon="121.39980127470788">
        <ele>20.44159801211208</ele>
        <time>2026-09-29T09:30:39Z</time>
      </trkpt>
      <trkpt lat="31.224971672852984" lon="121.39980826721873">
        <ele>19.839159085415304</ele>
        <time>2026-09-29T09:30:42Z</time>
      </trkpt>
      <trkpt lat="31.225171583598787" lon="121.39985625588233">
        <ele>19.577574803493917</ele>
        <time>2026-09-29T09:30:51Z</time>
      </trkpt>
      <trkpt lat="31.225541412320702" lon="121.39987722633485">
        <ele>20.22493179049343</ele>
        <time>2026-09-29T09:31:03Z</time>
      </trkpt>
      <trkpt lat="31.22582327660159" lon="121.39983719661855">
        <ele>20.547288968227804</ele>
        <time>2026-09-29T09:31:15Z</time>
      </trkpt>
      <trkpt lat="31.225898239023554" lon="121.39981018666276">
        <ele>21.56720645632595</ele>
        <time>2026-09-29T09:31:18Z</time>
      </trkpt>
      <trkpt lat="31.226070139474906" lon="121.39959014524601">
        <ele>19.265786244533956</ele>
        <time>2026-09-29T09:31:27Z</time>
      </trkpt>
      <trkpt lat="31.22610011554618" lon="121.399465128749">
        <ele>20.692613675259054</ele>
        <time>2026-09-29T09:31:30Z</time>
      </trkpt>
      <trkpt lat="31.2261061046715" lon="121.39935611678975">
        <ele>18.901152684353292</ele>
        <time>2026-09-29T09:31:33Z</time>
      </trkpt>
      <trkpt lat="31.226058115196558" lon="121.39918010382267">
        <ele>9.095673634670675</ele>
        <time>2026-09-29T09:31:39Z</time>
      </trkpt>
      <trkpt lat="31.225959155392943" lon="121.39908110351826">
        <ele>20.48387439455837</ele>
        <time>2026-09-29T09:31:45Z</time>
      </trkpt>
      <trkpt lat="31.22584220669081" lon="121.39902210863687">
        <ele>20.055826260708272</ele>
        <time>2026-09-29T09:31:48Z</time>
      </trkpt>
      <trkpt lat="31.225531350486477" lon="121.39899113315093">
        <ele>20.787736012600362</ele>
        <time>2026-09-29T09:32:00Z</time>
      </trkpt>
      <trkpt lat="31.225255479440218" lon="121.39898615679606">
        <ele>19.567005231045187</ele>
        <time>2026-09-29T09:32:12Z</time>
      </trkpt>
      <trkpt lat="31.224949622963067" lon="121.39898918371837">
        <ele>20.076964451931417</ele>
        <time>2026-09-29T09:32:24Z</time>
      </trkpt>
      <trkpt lat="31.22486566255249" lon="121.39899319137238">
        <ele>20.359687878750265</ele>
        <time>2026-09-29T09:32:27Z</time>
      </trkpt>
      <trkpt lat="31.224787700971866" lon="121.39902620094071">
        <ele>20.08753307070583</ele>
        <time>2026-09-29T09:32:30Z</time>
      </trkpt>
      <trkpt lat="31.224643779271403" lon="121.39920322931869">
        <ele>20.047899319790304</ele>
        <time>2026-09-29T09:32:39Z</time>
      </trkpt>
      <trkpt lat="31.224609802546386" lon="121.39931224284462">
        <ele>17.43204791750759</ele>
        <time>2026-09-29T09:32:42Z</time>
      </trkpt>
      <trkpt lat="31.224596822600756" lon="121.39950126376796">
        <ele>16.879812791012228</ele>
        <time>2026-09-29T09:32:48Z</time>
      </trkpt>
      <trkpt lat="31.22464680975686" lon="121.39963227422561">
        <ele>19.506233288906515</ele>
        <time>2026-09-29T09:32:51Z</time>
      </trkpt>
      <trkpt lat="31.224731778773275" lon="121.3997352790978">
        <ele>18.806030347011983</ele>
        <time>2026-09-29T09:32:54Z</time>
      </trkpt>
      <trkpt lat="31.224806748542754" lon="121.39979027934628">
        <ele>20.890784337185323</ele>
        <time>2026-09-29T09:32:57Z</time>
      </trkpt>
      <trkpt lat="31.224955683770997" lon="121.39984527330297">
        <ele>13.724937512539327</ele>
        <time>2026-09-29T09:33:00Z</time>
      </trkpt>
      <trkpt lat="31.225311517092685" lon="121.39984624239817">
        <ele>20.193224026821554</ele>
        <time>2026-09-29T09:33:09Z</time>
      </trkpt>
      <trkpt lat="31.22564835746873" lon="121.39982621047659">
        <ele>19.693834378384054</ele>
        <time>2026-09-29T09:33:21Z</time>
      </trkpt>
      <trkpt lat="31.22579428961283" lon="121.39983119838372">
        <ele>20.264565541408956</ele>
        <time>2026-09-29T09:33:27Z</time>
      </trkpt>
      <trkpt lat="31.22586325466406" lon="121.39980218870846">
        <ele>20.38082606997341</ele>
        <time>2026-09-29T09:33:30Z</time>
      </trkpt>
      <trkpt lat="31.225980191806798" lon="121.39971116730992">
        <ele>20.787736012600362</ele>
        <time>2026-09-29T09:33:36Z</time>
      </trkpt>
      <trkpt lat="31.226044154612957" lon="121.39962615166247">
        <ele>20.108671261928976</ele>
        <time>2026-09-29T09:33:39Z</time>
      </trkpt>
      <trkpt lat="31.226082129183734" lon="121.39953213765688">
        <ele>19.44281871523708</ele>
        <time>2026-09-29T09:33:42Z</time>
      </trkpt>
      <trkpt lat="31.226096114469097" lon="121.39942612493428">
        <ele>18.256437375210226</ele>
        <time>2026-09-29T09:33:45Z</time>
      </trkpt>
      <trkpt lat="31.226072111501523" lon="121.39922410673795">
        <ele>21.014971806667745</ele>
        <time>2026-09-29T09:33:51Z</time>
      </trkpt>
      <trkpt lat="31.225982146439467" lon="121.39911110416651">
        <ele>19.014770581386983</ele>
        <time>2026-09-29T09:33:54Z</time>
      </trkpt>
      <trkpt lat="31.22573425536886" lon="121.39898911528925">
        <ele>20.12980945315212</ele>
        <time>2026-09-29T09:34:03Z</time>
      </trkpt>
      <trkpt lat="31.22543639320718" lon="121.39895913880477">
        <ele>19.24464805331081</ele>
        <time>2026-09-29T09:34:15Z</time>
      </trkpt>
      <trkpt lat="31.22524548302713" lon="121.39896615602456">
        <ele>18.599932744167745</ele>
        <time>2026-09-29T09:34:24Z</time>
      </trkpt>
      <trkpt lat="31.225054571528062" lon="121.3989481712131">
        <ele>19.796882702969015</ele>
        <time>2026-09-29T09:34:33Z</time>
      </trkpt>
      <trkpt lat="31.2248756575882" lon="121.3989881900861">
        <ele>18.370055272243917</ele>
        <time>2026-09-29T09:34:42Z</time>
      </trkpt>
      <trkpt lat="31.22480269359902" lon="121.39902019912546">
        <ele>19.67269618716091</ele>
        <time>2026-09-29T09:34:45Z</time>
      </trkpt>
      <trkpt lat="31.224729731306375" lon="121.39908021065078">
        <ele>14.036726071499288</ele>
        <time>2026-09-29T09:34:48Z</time>
      </trkpt>
      <trkpt lat="31.224651777155522" lon="121.39922823098885">
        <ele>19.68326575960964</ele>
        <time>2026-09-29T09:34:54Z</time>
      </trkpt>
      <trkpt lat="31.224624795721823" lon="121.39931524183659">
        <ele>20.63976867403835</ele>
        <time>2026-09-29T09:34:57Z</time>
      </trkpt>
      <trkpt lat="31.224613809800687" lon="121.3994382554813">
        <ele>19.82859046664089</ele>
        <time>2026-09-29T09:35:00Z</time>
      </trkpt>
      <trkpt lat="31.22465380472399" lon="121.39961127117975">
        <ele>19.93163879122585</ele>
        <time>2026-09-29T09:35:06Z</time>
      </trkpt>
      <trkpt lat="31.224752769016717" lon="121.39973627738922">
        <ele>18.256437375210226</ele>
        <time>2026-09-29T09:35:12Z</time>
      </trkpt>
      <trkpt lat="31.22489870779781" lon="121.39981627458997">
        <ele>18.473103596828878</ele>
        <time>2026-09-29T09:35:18Z</time>
      </trkpt>
      <trkpt lat="31.225102614987044" lon="121.39984626061677">
        <ele>18.755827023647726</ele>
        <time>2026-09-29T09:35:27Z</time>
      </trkpt>
      <trkpt lat="31.225246546232235" lon="121.39983224628064">
        <ele>19.31863124575466</ele>
        <time>2026-09-29T09:35:33Z</time>
      </trkpt>
      <trkpt lat="31.22552741530846" lon="121.39983922267612">
        <ele>19.0781842013821</ele>
        <time>2026-09-29T09:35:45Z</time>
      </trkpt>
      <trkpt lat="31.225778296821147" lon="121.39982819939776">
        <ele>19.495663716457784</ele>
        <time>2026-09-29T09:35:57Z</time>
      </trkpt>
      <trkpt lat="31.225932218500162" lon="121.39975917734738">
        <ele>20.161517216823995</ele>
        <time>2026-09-29T09:36:03Z</time>
      </trkpt>
      <trkpt lat="31.225980192243973" lon="121.39971616791397">
        <ele>20.317411496303976</ele>
        <time>2026-09-29T09:36:06Z</time>
      </trkpt>
      <trkpt lat="31.226065141895024" lon="121.39959114579624">
        <ele>19.38997276034206</ele>
        <time>2026-09-29T09:36:12Z</time>
      </trkpt>
      <trkpt lat="31.22610511116049" lon="121.39943812542228">
        <ele>19.32920081820339</ele>
        <time>2026-09-29T09:36:18Z</time>
      </trkpt>
      <trkpt lat="31.226097110321078" lon="121.39937611962604">
        <ele>17.963145329616964</ele>
        <time>2026-09-29T09:36:21Z</time>
      </trkpt>
      <trkpt lat="31.226059122500697" lon="121.39929711495643">
        <ele>19.223509862087667</ele>
        <time>2026-09-29T09:36:24Z</time>
      </trkpt>
      <trkpt lat="31.22601413300709" lon="121.399136103624">
        <ele>19.82859046664089</ele>
        <time>2026-09-29T09:36:30Z</time>
      </trkpt>
      <trkpt lat="31.22576324286014" lon="121.39900811434468">
        <ele>19.057046963833272</ele>
        <time>2026-09-29T09:36:42Z</time>
      </trkpt>
      <trkpt lat="31.225493368664612" lon="121.39899813704533">
        <ele>18.858876301907003</ele>
        <time>2026-09-29T09:36:54Z</time>
      </trkpt>
      <trkpt lat="31.225182512972047" lon="121.39897416217107">
        <ele>19.265786244533956</ele>
        <time>2026-09-29T09:37:09Z</time>
      </trkpt>
      <trkpt lat="31.224882654418213" lon="121.39899018964158">
        <ele>19.400542332790792</ele>
        <time>2026-09-29T09:37:21Z</time>
      </trkpt>
      <trkpt lat="31.224828681071873" lon="121.39901419635322">
        <ele>18.224730565212667</ele>
        <time>2026-09-29T09:37:24Z</time>
      </trkpt>
      <trkpt lat="31.224731732414696" lon="121.39911421348525">
        <ele>19.88936240877956</ele>
        <time>2026-09-29T09:37:30Z</time>
      </trkpt>
      <trkpt lat="31.224663773258893" lon="121.39925423243976">
        <ele>20.232858731411397</ele>
        <time>2026-09-29T09:37:36Z</time>
      </trkpt>
      <trkpt lat="31.224628801494166" lon="121.39942125237322">
        <ele>19.881435467861593</ele>
        <time>2026-09-29T09:37:42Z</time>
      </trkpt>
      <trkpt lat="31.224683794093846" lon="121.39965227334157">
        <ele>17.53773887362331</ele>
        <time>2026-09-29T09:37:51Z</time>
      </trkpt>
      <trkpt lat="31.224764764900936" lon="121.39975327842467">
        <ele>19.98448474612087</ele>
        <time>2026-09-29T09:37:57Z</time>
      </trkpt>
      <trkpt lat="31.224847731425356" lon="121.39981327865726">
        <ele>19.545867039822042</ele>
        <time>2026-09-29T09:38:00Z</time>
      </trkpt>
      <trkpt lat="31.225083622679268" lon="121.39983326061645">
        <ele>19.48509509768337</ele>
        <time>2026-09-29T09:38:09Z</time>
      </trkpt>
      <trkpt lat="31.225233552135702" lon="121.3998302471599">
        <ele>19.662127568386495</ele>
        <time>2026-09-29T09:38:16Z</time>
      </trkpt>
      <trkpt lat="31.225289527488847" lon="121.39984724444372">
        <ele>21.400743558071554</ele>
        <time>2026-09-29T09:38:19Z</time>
      </trkpt>
      <trkpt lat="31.225554398985608" lon="121.39979921526847">
        <ele>17.93143756594509</ele>
        <time>2026-09-29T09:38:31Z</time>
      </trkpt>
      <trkpt lat="31.2257363141743" lon="121.39980319990482">
        <ele>19.12046058382839</ele>
        <time>2026-09-29T09:38:40Z</time>
      </trkpt>
      <trkpt lat="31.225896236146458" lon="121.39976818159654">
        <ele>20.005622937344015</ele>
        <time>2026-09-29T09:38:46Z</time>
      </trkpt>
      <trkpt lat="31.226004178585423" lon="121.39968816245596">
        <ele>19.33712775912136</ele>
        <time>2026-09-29T09:38:52Z</time>
      </trkpt>
      <trkpt lat="31.22607313668497" lon="121.39957314304841">
        <ele>20.306841923855245</ele>
        <time>2026-09-29T09:38:58Z</time>
      </trkpt>
      <trkpt lat="31.226099115937362" lon="121.39946412872843">
        <ele>19.7863140841946</ele>
        <time>2026-09-29T09:39:01Z</time>
      </trkpt>
      <trkpt lat="31.22605911771233" lon="121.3992261080616">
        <ele>19.59871299471706</ele>
        <time>2026-09-29T09:39:10Z</time>
      </trkpt>
      <trkpt lat="31.22593016696089" lon="121.39904710309622">
        <ele>18.827168538235128</ele>
        <time>2026-09-29T09:39:19Z</time>
      </trkpt>
      <trkpt lat="31.22562630574371" lon="121.39898612445555">
        <ele>19.995053364895284</ele>
        <time>2026-09-29T09:39:31Z</time>
      </trkpt>
      <trkpt lat="31.225335440607033" lon="121.39896114777167">
        <ele>19.910500600002706</ele>
        <time>2026-09-29T09:39:43Z</time>
      </trkpt>
      <trkpt lat="31.225006595153737" lon="121.39896917710338">
        <ele>20.22493179049343</ele>
        <time>2026-09-29T09:39:58Z</time>
      </trkpt>
      <trkpt lat="31.224798696043997" lon="121.39903020032138">
        <ele>20.462736203335226</ele>
        <time>2026-09-29T09:40:07Z</time>
      </trkpt>
      <trkpt lat="31.224745723627315" lon="121.3990772089935">
        <ele>19.379404141567647</ele>
        <time>2026-09-29T09:40:10Z</time>
      </trkpt>
      <trkpt lat="31.224663770348762" lon="121.39921022823494">
        <ele>18.660705639980733</ele>
        <time>2026-09-29T09:40:16Z</time>
      </trkpt>
      <trkpt lat="31.224637791031036" lon="121.39933524271216">
        <ele>17.796681477688253</ele>
        <time>2026-09-29T09:40:22Z</time>
      </trkpt>
      <trkpt lat="31.224636797742924" lon="121.39942125167586">
        <ele>19.265786244533956</ele>
        <time>2026-09-29T09:40:25Z</time>
      </trkpt>
      <trkpt lat="31.224671795457397" lon="121.399601268459">
        <ele>20.43102843966335</ele>
        <time>2026-09-29T09:40:31Z</time>
      </trkpt>
      <trkpt lat="31.224751767725735" lon="121.39971627504701">
        <ele>19.860298230312765</ele>
        <time>2026-09-29T09:40:37Z</time>
      </trkpt>
      <trkpt lat="31.224908702835442" lon="121.39981327333993">
        <ele>19.74403770174831</ele>
        <time>2026-09-29T09:40:43Z</time>
      </trkpt>
      <trkpt lat="31.224984669529725" lon="121.39983826988234">
        <ele>20.317411496303976</ele>
        <time>2026-09-29T09:40:46Z</time>
      </trkpt>
      <trkpt lat="31.22527653264584" lon="121.39983724430135">
        <ele>20.317411496303976</ele>
        <time>2026-09-29T09:40:58Z</time>
      </trkpt>
      <trkpt lat="31.225471440966764" lon="121.39983322679426">
        <ele>19.839159085415304</ele>
        <time>2026-09-29T09:41:07Z</time>
      </trkpt>
      <trkpt lat="31.22560338179134" lon="121.3998612188666">
        <ele>17.40034110751003</ele>
        <time>2026-09-29T09:41:14Z</time>
      </trkpt>
      <trkpt lat="31.2258432642032" lon="121.39980419070294">
        <ele>18.14017780032009</ele>
        <time>2026-09-29T09:41:23Z</time>
      </trkpt>
      <trkpt lat="31.226004179450694" lon="121.39969816365334">
        <ele>18.806030347011983</ele>
        <time>2026-09-29T09:41:32Z</time>
      </trkpt>
      <trkpt lat="31.226049153028583" lon="121.39963515227473">
        <ele>18.422901227138937</ele>
        <time>2026-09-29T09:41:35Z</time>
      </trkpt>
      <trkpt lat="31.22608812277237" lon="121.39948613206997">
        <ele>20.12980945315212</ele>
        <time>2026-09-29T09:41:41Z</time>
      </trkpt>
      <trkpt lat="31.226084114458473" lon="121.3993491179944">
        <ele>19.33712775912136</ele>
        <time>2026-09-29T09:41:47Z</time>
      </trkpt>
      <trkpt lat="31.22606811753559" lon="121.39928611308636">
        <ele>13.13306815829128</ele>
        <time>2026-09-29T09:41:50Z</time>
      </trkpt>
      <trkpt lat="31.226072109033613" lon="121.39918610316025">
        <ele>19.535298421047628</ele>
        <time>2026-09-29T09:41:53Z</time>
      </trkpt>
      <trkpt lat="31.226003139147547" lon="121.3991521060382">
        <ele>23.548912121914327</ele>
        <time>2026-09-29T09:41:56Z</time>
      </trkpt>
      <trkpt lat="31.225953157488863" lon="121.39906910299318">
        <ele>18.848306729458272</ele>
        <time>2026-09-29T09:41:59Z</time>
      </trkpt>
      <trkpt lat="31.225953157488863" lon="121.39906910299318">
        <ele>8.057871921919286</ele>
        <time>2026-09-29T09:42:01Z</time>
      </trkpt>
    </trkseg>
  </trk>
</gpx>