<?xml version="1.0" encoding="UTF-8"?>
<gpx xmlns="http://www.topografix.com/GPX/1/1" xmlns:gpxtpx="http://www.garmin.com/xmlschemas/TrackPointExtension/v1" xmlns:xsi="http://www.w3.org/2001/XMLSchema-instance" xsi:schemaLocation="http://www.topografix.com/GPX/1/1 http://www.topografix.com/GPX/1/1/gpx.xsd" version="1.1" creator="gpx.py -- https://github.com/tkrajina/gpxpy">
  <trk>
    <name>gpx from keep</name>
    <type>Run</type>
    <trkseg>
      <trkpt lat="31.229957415622597" lon="121.40045892538902">
        <ele>15.98084840271622</ele>
        <time>2026-05-29T11:03:06Z</time>
      </trkpt>
      <trkpt lat="31.23008834288761" lon="121.40035789807686">
        <ele>22.19547662232071</ele>
        <time>2026-05-29T11:03:15Z</time>
      </trkpt>
      <trkpt lat="31.23036620750139" lon="121.40030186525951">
        <ele>20.04995021317154</ele>
        <time>2026-05-29T11:03:27Z</time>
      </trkpt>
      <trkpt lat="31.230449165178776" lon="121.40026785289446">
        <ele>12.442844004370272</ele>
        <time>2026-05-29T11:03:30Z</time>
      </trkpt>
      <trkpt lat="31.230780002172583" lon="121.40018081118906">
        <ele>18.09202537033707</ele>
        <time>2026-05-29T11:03:42Z</time>
      </trkpt>
      <trkpt lat="31.230851967086636" lon="121.40016480259229">
        <ele>19.613975138403475</ele>
        <time>2026-05-29T11:03:46Z</time>
      </trkpt>
      <trkpt lat="31.231094841342124" lon="121.40003876361183">
        <ele>-29.495327382348478</ele>
        <time>2026-05-29T11:03:55Z</time>
      </trkpt>
      <trkpt lat="31.231202778370918" lon="121.39990773658025">
        <ele>19.769870371557772</ele>
        <time>2026-05-29T11:03:58Z</time>
      </trkpt>
      <trkpt lat="31.231222756278893" lon="121.39976971725491">
        <ele>8.537563891150057</ele>
        <time>2026-05-29T11:04:01Z</time>
      </trkpt>
      <trkpt lat="31.23114177379237" lon="121.39953369656679">
        <ele>17.687758059240878</ele>
        <time>2026-05-29T11:04:07Z</time>
      </trkpt>
      <trkpt lat="31.23107979387854" lon="121.39942168982513">
        <ele>17.415603728033602</ele>
        <time>2026-05-29T11:04:10Z</time>
      </trkpt>
      <trkpt lat="31.230898871470355" lon="121.39933569672532">
        <ele>16.59385642502457</ele>
        <time>2026-05-29T11:04:16Z</time>
      </trkpt>
      <trkpt lat="31.2307739282609" lon="121.3993197060144">
        <ele>16.115604967810214</ele>
        <time>2026-05-29T11:04:19Z</time>
      </trkpt>
      <trkpt lat="31.230439088483944" lon="121.39938874225928">
        <ele>16.031052202917635</ele>
        <time>2026-05-29T11:04:31Z</time>
      </trkpt>
      <trkpt lat="31.230152227435273" lon="121.39946677553723">
        <ele>17.09324607346207</ele>
        <time>2026-05-29T11:04:43Z</time>
      </trkpt>
      <trkpt lat="31.229964318792156" lon="121.39951979771965">
        <ele>16.68897828552872</ele>
        <time>2026-05-29T11:04:52Z</time>
      </trkpt>
      <trkpt lat="31.229901351951295" lon="121.39956880869772">
        <ele>16.79202708695084</ele>
        <time>2026-05-29T11:04:55Z</time>
      </trkpt>
      <trkpt lat="31.22978442085925" lon="121.39974083915037">
        <ele>17.09324607346207</ele>
        <time>2026-05-29T11:05:01Z</time>
      </trkpt>
      <trkpt lat="31.229761437943694" lon="121.39981184996819">
        <ele>16.39568600151688</ele>
        <time>2026-05-29T11:05:04Z</time>
      </trkpt>
      <trkpt lat="31.229755458969606" lon="121.40000187537618">
        <ele>3.6810644576326013</ele>
        <time>2026-05-29T11:05:10Z</time>
      </trkpt>
      <trkpt lat="31.229774460285753" lon="121.4001008874375">
        <ele>18.11316475365311</ele>
        <time>2026-05-29T11:05:13Z</time>
      </trkpt>
      <trkpt lat="31.229855438535665" lon="121.40024790169473">
        <ele>19.801577896811068</ele>
        <time>2026-05-29T11:05:19Z</time>
      </trkpt>
      <trkpt lat="31.22990942067123" lon="121.40031190662356">
        <ele>16.678409905172884</ele>
        <time>2026-05-29T11:05:22Z</time>
      </trkpt>
      <trkpt lat="31.23004736365773" lon="121.40037290397757">
        <ele>15.803817362524569</ele>
        <time>2026-05-29T11:05:28Z</time>
      </trkpt>
      <trkpt lat="31.23011333314921" lon="121.40037389837879">
        <ele>14.554021806456149</ele>
        <time>2026-05-29T11:05:31Z</time>
      </trkpt>
      <trkpt lat="31.230391195907686" lon="121.40030186307983">
        <ele>9.203417272306979</ele>
        <time>2026-05-29T11:05:43Z</time>
      </trkpt>
      <trkpt lat="31.230656065212198" lon="121.40023182948268">
        <ele>14.242233724333346</ele>
        <time>2026-05-29T11:05:55Z</time>
      </trkpt>
      <trkpt lat="31.23090294260048" lon="121.40015679699111">
        <ele>-7.759980707429349</ele>
        <time>2026-05-29T11:06:05Z</time>
      </trkpt>
      <trkpt lat="31.231062857694457" lon="121.40005376847643">
        <ele>18.218857259489596</ele>
        <time>2026-05-29T11:06:11Z</time>
      </trkpt>
      <trkpt lat="31.23116679619524" lon="121.39991974129516">
        <ele>17.415605993010104</ele>
        <time>2026-05-29T11:06:17Z</time>
      </trkpt>
      <trkpt lat="31.231185781964975" lon="121.39986273221949">
        <ele>19.864994020201266</ele>
        <time>2026-05-29T11:06:20Z</time>
      </trkpt>
      <trkpt lat="31.23119676581603" lon="121.39974171607659">
        <ele>18.081459016539156</ele>
        <time>2026-05-29T11:06:23Z</time>
      </trkpt>
      <trkpt lat="31.23118576387036" lon="121.39966070730077">
        <ele>17.75910183880478</ele>
        <time>2026-05-29T11:06:26Z</time>
      </trkpt>
      <trkpt lat="31.231154771639023" lon="121.39958170084076">
        <ele>17.426175088621676</ele>
        <time>2026-05-29T11:06:29Z</time>
      </trkpt>
      <trkpt lat="31.230928858924337" lon="121.39935469603839">
        <ele>15.854021997191012</ele>
        <time>2026-05-29T11:06:41Z</time>
      </trkpt>
      <trkpt lat="31.23077192765787" lon="121.39929770399759">
        <ele>16.699549646116793</ele>
        <time>2026-05-29T11:06:47Z</time>
      </trkpt>
      <trkpt lat="31.23057202153443" lon="121.3993147231262">
        <ele>17.18837067577988</ele>
        <time>2026-05-29T11:06:56Z</time>
      </trkpt>
      <trkpt lat="31.230514051107537" lon="121.39935273201765">
        <ele>16.718045682646334</ele>
        <time>2026-05-29T11:06:59Z</time>
      </trkpt>
      <trkpt lat="31.230472074726883" lon="121.39940974157328">
        <ele>16.271501512266695</ele>
        <time>2026-05-29T11:07:02Z</time>
      </trkpt>
      <trkpt lat="31.230204201865014" lon="121.39944776896324">
        <ele>16.260932416655123</ele>
        <time>2026-05-29T11:07:11Z</time>
      </trkpt>
      <trkpt lat="31.230050278959872" lon="121.39952079033233">
        <ele>13.877601117826998</ele>
        <time>2026-05-29T11:07:17Z</time>
      </trkpt>
      <trkpt lat="31.22989436199428" lon="121.39965081876939">
        <ele>17.167232484556735</ele>
        <time>2026-05-29T11:07:26Z</time>
      </trkpt>
      <trkpt lat="31.229843392407407" lon="121.39972883254312">
        <ele>16.823736638762057</ele>
        <time>2026-05-29T11:07:29Z</time>
      </trkpt>
      <trkpt lat="31.229799429220844" lon="121.39990685886058">
        <ele>18.7922305772081</ele>
        <time>2026-05-29T11:07:35Z</time>
      </trkpt>
      <trkpt lat="31.229817440845462" lon="121.40010588439502">
        <ele>15.43918511364609</ele>
        <time>2026-05-29T11:07:41Z</time>
      </trkpt>
      <trkpt lat="31.22986043301088" lon="121.40021889696301">
        <ele>18.176580877043307</ele>
        <time>2026-05-29T11:07:44Z</time>
      </trkpt>
      <trkpt lat="31.22993740835927" lon="121.40031790509686">
        <ele>9.620897741056979</ele>
        <time>2026-05-29T11:07:47Z</time>
      </trkpt>
      <trkpt lat="31.230250267845715" lon="121.40035888410739">
        <ele>16.23979422543198</ele>
        <time>2026-05-29T11:07:56Z</time>
      </trkpt>
      <trkpt lat="31.230425182878168" lon="121.40032586377221">
        <ele>19.656254262663424</ele>
        <time>2026-05-29T11:08:02Z</time>
      </trkpt>
      <trkpt lat="31.23073002860719" lon="121.40021081993325">
        <ele>21.4265775391832</ele>
        <time>2026-05-29T11:08:14Z</time>
      </trkpt>
      <trkpt lat="31.230969908370806" lon="121.40012678684982">
        <ele>15.127396554686129</ele>
        <time>2026-05-29T11:08:26Z</time>
      </trkpt>
      <trkpt lat="31.23103786835212" lon="121.40004476941002">
        <ele>18.14487335179001</ele>
        <time>2026-05-29T11:08:29Z</time>
      </trkpt>
      <trkpt lat="31.231116831154168" lon="121.40003876169366">
        <ele>5.514803619123995</ele>
        <time>2026-05-29T11:08:32Z</time>
      </trkpt>
      <trkpt lat="31.231199779280264" lon="121.39990273618734">
        <ele>1.123344630934298</ele>
        <time>2026-05-29T11:08:38Z</time>
      </trkpt>
      <trkpt lat="31.23123075703485" lon="121.39981872268562">
        <ele>17.07210943195969</ele>
        <time>2026-05-29T11:08:41Z</time>
      </trkpt>
      <trkpt lat="31.231231751483655" lon="121.39976271560504">
        <ele>17.571499557234347</ele>
        <time>2026-05-29T11:08:44Z</time>
      </trkpt>
      <trkpt lat="31.231176761289145" lon="121.39957969869485">
        <ele>18.187149257399142</ele>
        <time>2026-05-29T11:08:50Z</time>
      </trkpt>
      <trkpt lat="31.231060802901627" lon="121.39942469179854">
        <ele>19.37353012058884</ele>
        <time>2026-05-29T11:09:00Z</time>
      </trkpt>
      <trkpt lat="31.230956845240236" lon="121.39934469257962">
        <ele>17.050971240736544</ele>
        <time>2026-05-29T11:09:03Z</time>
      </trkpt>
      <trkpt lat="31.230688966468247" lon="121.39930271173">
        <ele>17.71946689579636</ele>
        <time>2026-05-29T11:09:15Z</time>
      </trkpt>
      <trkpt lat="31.230465076794165" lon="121.39939374051201">
        <ele>18.261132926680148</ele>
        <time>2026-05-29T11:09:24Z</time>
      </trkpt>
      <trkpt lat="31.230288161395354" lon="121.39942775951232">
        <ele>3.945293159224093</ele>
        <time>2026-05-29T11:09:33Z</time>
      </trkpt>
      <trkpt lat="31.2300123010013" lon="121.399575799814">
        <ele>16.813167304731905</ele>
        <time>2026-05-29T11:09:48Z</time>
      </trkpt>
      <trkpt lat="31.229901356391746" lon="121.39962281488872">
        <ele>16.17902156803757</ele>
        <time>2026-05-29T11:09:57Z</time>
      </trkpt>
      <trkpt lat="31.2297914191227" lon="121.39975784062602">
        <ele>17.249142379499972</ele>
        <time>2026-05-29T11:10:09Z</time>
      </trkpt>
      <trkpt lat="31.229748449850558" lon="121.3998748591428">
        <ele>17.167232246138155</ele>
        <time>2026-05-29T11:10:15Z</time>
      </trkpt>
      <trkpt lat="31.229733480475833" lon="121.40011189256809">
        <ele>17.769670219160616</ele>
        <time>2026-05-29T11:10:24Z</time>
      </trkpt>
      <trkpt lat="31.229817464063466" lon="121.4003179155591">
        <ele>17.39446756336838</ele>
        <time>2026-05-29T11:10:33Z</time>
      </trkpt>
      <trkpt lat="31.229868447086986" lon="121.40037592005044">
        <ele>17.708898277021945</ele>
        <time>2026-05-29T11:10:36Z</time>
      </trkpt>
      <trkpt lat="31.2301523202323" lon="121.40041790187233">
        <ele>16.760321826674044</ele>
        <time>2026-05-29T11:10:48Z</time>
      </trkpt>
      <trkpt lat="31.230364216833344" lon="121.40037487665053">
        <ele>17.249142379499972</ele>
        <time>2026-05-29T11:10:57Z</time>
      </trkpt>
      <trkpt lat="31.23069504537571" lon="121.40021582372023">
        <ele>14.221096725203097</ele>
        <time>2026-05-29T11:11:09Z</time>
      </trkpt>
      <trkpt lat="31.231030874367423" lon="121.40007177377151">
        <ele>13.555243701674044</ele>
        <time>2026-05-29T11:11:21Z</time>
      </trkpt>
      <trkpt lat="31.231129820595942" lon="121.39999375440756">
        <ele>17.061541290022433</ele>
        <time>2026-05-29T11:11:24Z</time>
      </trkpt>
      <trkpt lat="31.231183787072077" lon="121.39990673810584">
        <ele>12.751992435194552</ele>
        <time>2026-05-29T11:11:27Z</time>
      </trkpt>
      <trkpt lat="31.231206769904432" lon="121.39983772718834">
        <ele>16.480241031385958</ele>
        <time>2026-05-29T11:11:30Z</time>
      </trkpt>
      <trkpt lat="31.231201758689934" lon="121.39968670899299">
        <ele>15.917436570860445</ele>
        <time>2026-05-29T11:11:36Z</time>
      </trkpt>
      <trkpt lat="31.231179762614374" lon="121.39961270221754">
        <ele>17.737963647581637</ele>
        <time>2026-05-29T11:11:39Z</time>
      </trkpt>
      <trkpt lat="31.23104981048413" lon="121.39945769627361">
        <ele>17.59263846371323</ele>
        <time>2026-05-29T11:11:49Z</time>
      </trkpt>
      <trkpt lat="31.230877885522744" lon="121.39939570471151">
        <ele>15.875160188414156</ele>
        <time>2026-05-29T11:11:58Z</time>
      </trkpt>
      <trkpt lat="31.230710961664524" lon="121.39937871750887">
        <ele>14.762762994505465</ele>
        <time>2026-05-29T11:12:04Z</time>
      </trkpt>
      <trkpt lat="31.230429094887423" lon="121.39941274563728">
        <ele>16.260932416655123</ele>
        <time>2026-05-29T11:12:16Z</time>
      </trkpt>
      <trkpt lat="31.23013723347956" lon="121.39945477555422">
        <ele>15.69812795612961</ele>
        <time>2026-05-29T11:12:28Z</time>
      </trkpt>
      <trkpt lat="31.229901352113455" lon="121.3995708089243">
        <ele>16.813167543150485</ele>
        <time>2026-05-29T11:12:40Z</time>
      </trkpt>
      <trkpt lat="31.22984938119911" lon="121.39963082035256">
        <ele>15.521095723845065</ele>
        <time>2026-05-29T11:12:43Z</time>
      </trkpt>
      <trkpt lat="31.229787423591077" lon="121.39978684456817">
        <ele>17.04304549191147</ele>
        <time>2026-05-29T11:12:49Z</time>
      </trkpt>
      <trkpt lat="31.229779449839437" lon="121.40002187601351">
        <ele>17.354833574034274</ele>
        <time>2026-05-29T11:12:55Z</time>
      </trkpt>
      <trkpt lat="31.229818447719236" lon="121.4001748941915">
        <ele>17.23857352230698</ele>
        <time>2026-05-29T11:13:01Z</time>
      </trkpt>
      <trkpt lat="31.229932407160515" lon="121.40028690082826">
        <ele>15.251583547331393</ele>
        <time>2026-05-29T11:13:07Z</time>
      </trkpt>
      <trkpt lat="31.230042362152354" lon="121.40033989931172">
        <ele>16.8448748299852</ele>
        <time>2026-05-29T11:13:13Z</time>
      </trkpt>
      <trkpt lat="31.230223279790746" lon="121.40035388568843">
        <ele>17.18837067577988</ele>
        <time>2026-05-29T11:13:22Z</time>
      </trkpt>
      <trkpt lat="31.230353212058457" lon="121.40028886442485">
        <ele>17.510727853514254</ele>
        <time>2026-05-29T11:13:31Z</time>
      </trkpt>
      <trkpt lat="31.230607087924636" lon="121.40023183375487">
        <ele>17.5318660447374</ele>
        <time>2026-05-29T11:13:43Z</time>
      </trkpt>
      <trkpt lat="31.23069403933728" lon="121.40015581506941">
        <ele>15.177599878050387</ele>
        <time>2026-05-29T11:13:49Z</time>
      </trkpt>
      <trkpt lat="31.231103833636745" lon="121.40000375803255">
        <ele>9.557483644224703</ele>
        <time>2026-05-29T11:14:01Z</time>
      </trkpt>
      <trkpt lat="31.23116779602213" lon="121.39992274160318">
        <ele>16.916216821409762</ele>
        <time>2026-05-29T11:14:04Z</time>
      </trkpt>
      <trkpt lat="31.231203771479404" lon="121.39983972770472">
        <ele>16.7920298287645</ele>
        <time>2026-05-29T11:14:07Z</time>
      </trkpt>
      <trkpt lat="31.231202756681483" lon="121.39966870676469">
        <ele>4.970496625639498</ele>
        <time>2026-05-29T11:14:13Z</time>
      </trkpt>
      <trkpt lat="31.231136775790066" lon="121.39952969655756">
        <ele>16.480241269804537</ele>
        <time>2026-05-29T11:14:20Z</time>
      </trkpt>
      <trkpt lat="31.230911866656648" lon="121.39935269731669">
        <ele>15.563372344709933</ele>
        <time>2026-05-29T11:14:29Z</time>
      </trkpt>
      <trkpt lat="31.23084189675253" lon="121.39931970008557">
        <ele>16.229225368238986</ele>
        <time>2026-05-29T11:14:32Z</time>
      </trkpt>
      <trkpt lat="31.230573025121398" lon="121.39937172881922">
        <ele>7.438379497267306</ele>
        <time>2026-05-29T11:14:44Z</time>
      </trkpt>
      <trkpt lat="31.230241183721" lon="121.39943476435225">
        <ele>15.959713191725314</ele>
        <time>2026-05-29T11:14:59Z</time>
      </trkpt>
      <trkpt lat="31.229920344026123" lon="121.39957980828991">
        <ele>15.740404576994479</ele>
        <time>2026-05-29T11:15:14Z</time>
      </trkpt>
      <trkpt lat="31.22983439197749" lon="121.39967582695526">
        <ele>15.542234153486788</ele>
        <time>2026-05-29T11:15:20Z</time>
      </trkpt>
      <trkpt lat="31.229774432459347" lon="121.39981784959163">
        <ele>16.374550313688815</ele>
        <time>2026-05-29T11:15:26Z</time>
      </trkpt>
      <trkpt lat="31.229746456728456" lon="121.39993686743422">
        <ele>15.928005904890597</ele>
        <time>2026-05-29T11:15:29Z</time>
      </trkpt>
      <trkpt lat="31.2298014556117" lon="121.40017489567363">
        <ele>16.34548541996628</ele>
        <time>2026-05-29T11:15:38Z</time>
      </trkpt>
      <trkpt lat="31.229931411830293" lon="121.40032390653636">
        <ele>16.29263994190842</ele>
        <time>2026-05-29T11:15:47Z</time>
      </trkpt>
      <trkpt lat="31.22997839277655" lon="121.40034790612316">
        <ele>16.179022044874728</ele>
        <time>2026-05-29T11:15:50Z</time>
      </trkpt>
      <trkpt lat="31.230291246631303" lon="121.40033987760233">
        <ele>16.324347228743136</ele>
        <time>2026-05-29T11:16:02Z</time>
      </trkpt>
      <trkpt lat="31.23058310260555" lon="121.40026384061197">
        <ele>15.116827935911715</ele>
        <time>2026-05-29T11:16:17Z</time>
      </trkpt>
      <trkpt lat="31.230845970296652" lon="121.40016880369396">
        <ele>16.062761993147433</ele>
        <time>2026-05-29T11:16:35Z</time>
      </trkpt>
      <trkpt lat="31.231001894502008" lon="121.4001357853447">
        <ele>14.628007263876498</ele>
        <time>2026-05-29T11:16:44Z</time>
      </trkpt>
      <trkpt lat="31.23104686747413" lon="121.40007677307536">
        <ele>15.761542768217623</ele>
        <time>2026-05-29T11:16:47Z</time>
      </trkpt>
      <trkpt lat="31.231068850448054" lon="121.40000976190153">
        <ele>16.282070846296847</ele>
        <time>2026-05-29T11:16:50Z</time>
      </trkpt>
      <trkpt lat="31.231221764921138" lon="121.39985872856641">
        <ele>16.282070846296847</ele>
        <time>2026-05-29T11:16:56Z</time>
      </trkpt>
      <trkpt lat="31.231228755036245" lon="121.39978671884361">
        <ele>15.928005904890597</ele>
        <time>2026-05-29T11:16:59Z</time>
      </trkpt>
      <trkpt lat="31.231179757956305" lon="121.39955569571698">
        <ele>17.05097219441086</ele>
        <time>2026-05-29T11:17:08Z</time>
      </trkpt>
      <trkpt lat="31.231122777058562" lon="121.39946269044648">
        <ele>15.99142047856003</ele>
        <time>2026-05-29T11:17:11Z</time>
      </trkpt>
      <trkpt lat="31.23100282652218" lon="121.39938069225637">
        <ele>15.761542768217623</ele>
        <time>2026-05-29T11:17:17Z</time>
      </trkpt>
      <trkpt lat="31.230880880376723" lon="121.3993436991045">
        <ele>15.156461925245821</ele>
        <time>2026-05-29T11:17:23Z</time>
      </trkpt>
      <trkpt lat="31.230526048438765" lon="121.39939273508953">
        <ele>14.263373465277255</ele>
        <time>2026-05-29T11:17:39Z</time>
      </trkpt>
      <trkpt lat="31.230448085411826" lon="121.39940374303737">
        <ele>15.59507963154465</ele>
        <time>2026-05-29T11:17:42Z</time>
      </trkpt>
      <trkpt lat="31.230284166277997" lon="121.39946776413649">
        <ele>15.531665057875216</ele>
        <time>2026-05-29T11:17:48Z</time>
      </trkpt>
      <trkpt lat="31.229986317776234" lon="121.3996328086412">
        <ele>14.876381129957736</ele>
        <time>2026-05-29T11:18:00Z</time>
      </trkpt>
      <trkpt lat="31.229847390815035" lon="121.3997318325595">
        <ele>15.428616256453097</ele>
        <time>2026-05-29T11:18:06Z</time>
      </trkpt>
      <trkpt lat="31.22979842150075" lon="121.39981984775189">
        <ele>15.928005904890597</ele>
        <time>2026-05-29T11:18:09Z</time>
      </trkpt>
      <trkpt lat="31.22977344732937" lon="121.39996886934867">
        <ele>16.366623611189425</ele>
        <time>2026-05-29T11:18:15Z</time>
      </trkpt>
      <trkpt lat="31.229792455935293" lon="121.4001388912704">
        <ele>15.676990003325045</ele>
        <time>2026-05-29T11:18:21Z</time>
      </trkpt>
      <trkpt lat="31.22986044046897" lon="121.4002859069547">
        <ele>15.272721976973116</ele>
        <time>2026-05-29T11:18:27Z</time>
      </trkpt>
      <trkpt lat="31.229936413543733" lon="121.4003589114838">
        <ele>15.344063491560519</ele>
        <time>2026-05-29T11:18:30Z</time>
      </trkpt>
      <trkpt lat="31.230096342323574" lon="121.40038490157485">
        <ele>15.803819150663912</ele>
        <time>2026-05-29T11:18:36Z</time>
      </trkpt>
      <trkpt lat="31.230380200668517" lon="121.40029886358393">
        <ele>15.460323543287814</ele>
        <time>2026-05-29T11:18:48Z</time>
      </trkpt>
      <trkpt lat="31.230585097240944" lon="121.40022383449028">
        <ele>15.293860168196261</ele>
        <time>2026-05-29T11:18:57Z</time>
      </trkpt>
      <trkpt lat="31.230817816323388" lon="121.40019012966721">
        <ele>15.89629861805588</ele>
        <time>2026-05-29T11:19:09Z</time>
      </trkpt>
      <trkpt lat="31.23088495147549" lon="121.40016179928172">
        <ele>14.80239746067673</ele>
        <time>2026-05-29T11:19:12Z</time>
      </trkpt>
      <trkpt lat="31.230934923528526" lon="121.40011678847875">
        <ele>14.606869072653353</ele>
        <time>2026-05-29T11:19:15Z</time>
      </trkpt>
      <trkpt lat="31.23103987061264" lon="121.4000757735458">
        <ele>16.79202970955521</ele>
        <time>2026-05-29T11:19:21Z</time>
      </trkpt>
      <trkpt lat="31.23113981171258" lon="121.39995074775587">
        <ele>14.490609020926058</ele>
        <time>2026-05-29T11:19:30Z</time>
      </trkpt>
      <trkpt lat="31.23119976204848" lon="121.39971471253179">
        <ele>15.354632587172091</ele>
        <time>2026-05-29T11:19:42Z</time>
      </trkpt>
      <trkpt lat="31.231180760993944" lon="121.39959870051793">
        <ele>15.314998359419405</ele>
        <time>2026-05-29T11:19:48Z</time>
      </trkpt>
      <trkpt lat="31.23114577217881" lon="121.39953669655246">
        <ele>16.699549884535372</ele>
        <time>2026-05-29T11:19:51Z</time>
      </trkpt>
      <trkpt lat="31.231046810585827" lon="121.39944069471679">
        <ele>15.209307403303683</ele>
        <time>2026-05-29T11:19:57Z</time>
      </trkpt>
      <trkpt lat="31.23087688322941" lon="121.39935770087848">
        <ele>15.875160426832736</ele>
        <time>2026-05-29T11:20:06Z</time>
      </trkpt>
      <trkpt lat="31.23081990906654" lon="121.39934970503258">
        <ele>15.407478065229952</ele>
        <time>2026-05-29T11:20:09Z</time>
      </trkpt>
      <trkpt lat="31.230546040788884" lon="121.39941473564652">
        <ele>14.635934085585177</ele>
        <time>2026-05-29T11:20:24Z</time>
      </trkpt>
      <trkpt lat="31.230243188864815" lon="121.39951377273162">
        <ele>14.14711341354996</ele>
        <time>2026-05-29T11:20:39Z</time>
      </trkpt>
      <trkpt lat="31.229936341150314" lon="121.39963481323376">
        <ele>15.510526866652071</ele>
        <time>2026-05-29T11:20:58Z</time>
      </trkpt>
      <trkpt lat="31.229864378566123" lon="121.39968182505372">
        <ele>15.69812819454819</ele>
        <time>2026-05-29T11:21:01Z</time>
      </trkpt>
      <trkpt lat="31.22979242217874" lon="121.39979684538159">
        <ele>15.39690896961838</ele>
        <time>2026-05-29T11:21:07Z</time>
      </trkpt>
      <trkpt lat="31.22975145460161" lon="121.3999388672635">
        <ele>15.283291072584689</ele>
        <time>2026-05-29T11:21:13Z</time>
      </trkpt>
      <trkpt lat="31.229783457155325" lon="121.40011088806712">
        <ele>15.407478065229952</ele>
        <time>2026-05-29T11:21:22Z</time>
      </trkpt>
      <trkpt lat="31.229854437559137" lon="121.40023489985074">
        <ele>15.449754447676241</ele>
        <time>2026-05-29T11:21:31Z</time>
      </trkpt>
      <trkpt lat="31.22998138908208" lon="121.40032790278906">
        <ele>18.14487382862717</ele>
        <time>2026-05-29T11:21:37Z</time>
      </trkpt>
      <trkpt lat="31.23019529382414" lon="121.40036288952197">
        <ele>12.13105842564255</ele>
        <time>2026-05-29T11:21:46Z</time>
      </trkpt>
      <trkpt lat="31.230326231552077" lon="121.40034987609074">
        <ele>19.249344081617892</ele>
        <time>2026-05-29T11:21:52Z</time>
      </trkpt>
      <trkpt lat="31.230637077239194" lon="121.40026083545486">
        <ele>14.720486850477755</ele>
        <time>2026-05-29T11:22:04Z</time>
      </trkpt>
      <trkpt lat="31.23072802778815" lon="121.40019481776321">
        <ele>14.398129434324801</ele>
        <time>2026-05-29T11:22:07Z</time>
      </trkpt>
      <trkpt lat="31.230918933693466" lon="121.40014279358371">
        <ele>19.656254739500582</ele>
        <time>2026-05-29T11:22:16Z</time>
      </trkpt>
      <trkpt lat="31.23108484740337" lon="121.40005276641958">
        <ele>18.760523767210543</ele>
        <time>2026-05-29T11:22:22Z</time>
      </trkpt>
      <trkpt lat="31.23117979231125" lon="121.39994174307085">
        <ele>18.229426831938326</ele>
        <time>2026-05-29T11:22:28Z</time>
      </trkpt>
      <trkpt lat="31.231225758339303" lon="121.39980772173487">
        <ele>18.541215390898287</ele>
        <time>2026-05-29T11:22:31Z</time>
      </trkpt>
      <trkpt lat="31.231237744018078" lon="121.39970970861476">
        <ele>17.99954888317734</ele>
        <time>2026-05-29T11:22:34Z</time>
      </trkpt>
      <trkpt lat="31.231221744501646" lon="121.39962870041091">
        <ele>18.2399959275499</ele>
        <time>2026-05-29T11:22:37Z</time>
      </trkpt>
      <trkpt lat="31.231115780071256" lon="121.39945969073403">
        <ele>0.4099311539903283</ele>
        <time>2026-05-29T11:22:46Z</time>
      </trkpt>
      <trkpt lat="31.230973835881628" lon="121.39932368897774">
        <ele>-3.6538858702406287</ele>
        <time>2026-05-29T11:22:52Z</time>
      </trkpt>
      <trkpt lat="31.230740941816475" lon="121.39929470640361">
        <ele>12.347723932005465</ele>
        <time>2026-05-29T11:23:01Z</time>
      </trkpt>
      <trkpt lat="31.23057702182952" lon="121.39935172642294">
        <ele>14.596299142576754</ele>
        <time>2026-05-29T11:23:08Z</time>
      </trkpt>
      <trkpt lat="31.230492065379828" lon="121.39940873972466">
        <ele>17.23857304546982</ele>
        <time>2026-05-29T11:23:11Z</time>
      </trkpt>
      <trkpt lat="31.230306156073894" lon="121.39946776221838">
        <ele>17.73796317074448</ele>
        <time>2026-05-29T11:23:20Z</time>
      </trkpt>
      <trkpt lat="31.230165223875364" lon="121.39949877788288">
        <ele>13.304227323271334</ele>
        <time>2026-05-29T11:23:26Z</time>
      </trkpt>
      <trkpt lat="31.229855382228653" lon="121.39967582512436">
        <ele>18.644262761808932</ele>
        <time>2026-05-29T11:23:38Z</time>
      </trkpt>
      <trkpt lat="31.229807410003723" lon="121.3997388369007">
        <ele>18.010117025114596</ele>
        <time>2026-05-29T11:23:41Z</time>
      </trkpt>
      <trkpt lat="31.229748453188076" lon="121.39990986370019">
        <ele>16.969061345793307</ele>
        <time>2026-05-29T11:23:47Z</time>
      </trkpt>
      <trkpt lat="31.22974647037501" lon="121.40007288594666">
        <ele>16.6361345956102</ele>
        <time>2026-05-29T11:23:53Z</time>
      </trkpt>
      <trkpt lat="31.229762471249455" lon="121.4001518957515">
        <ele>19.83328625652939</ele>
        <time>2026-05-29T11:23:56Z</time>
      </trkpt>
      <trkpt lat="31.229838447875807" lon="121.40026090511692">
        <ele>14.720486135222018</ele>
        <time>2026-05-29T11:24:02Z</time>
      </trkpt>
      <trkpt lat="31.229918418437343" lon="121.40032890843489">
        <ele>19.53999373409897</ele>
        <time>2026-05-29T11:24:05Z</time>
      </trkpt>
      <trkpt lat="31.2300853478968" lon="121.40038890315871">
        <ele>18.406458348967135</ele>
        <time>2026-05-29T11:24:11Z</time>
      </trkpt>
      <trkpt lat="31.23027925555663" lon="121.4003688831289">
        <ele>-4.610389261506498</ele>
        <time>2026-05-29T11:24:20Z</time>
      </trkpt>
      <trkpt lat="31.230545119105575" lon="121.40025384243039">
        <ele>16.792028875090182</ele>
        <time>2026-05-29T11:24:32Z</time>
      </trkpt>
      <trkpt lat="31.23085496430379" lon="121.40015180045629">
        <ele>19.12515685055405</ele>
        <time>2026-05-29T11:24:47Z</time>
      </trkpt>
      <trkpt lat="31.231032873958213" lon="121.40007677429601">
        <ele>16.905646772123873</ele>
        <time>2026-05-29T11:24:53Z</time>
      </trkpt>
      <trkpt lat="31.23120877037756" lon="121.39985272893011">
        <ele>-15.036800890229642</ele>
        <time>2026-05-29T11:25:02Z</time>
      </trkpt>
      <trkpt lat="31.231253737749004" lon="121.39972270879235">
        <ele>6.17537257168442</ele>
        <time>2026-05-29T11:25:05Z</time>
      </trkpt>
      <trkpt lat="31.23124373273411" lon="121.39960969629101">
        <ele>19.333896131254733</ele>
        <time>2026-05-29T11:25:08Z</time>
      </trkpt>
      <trkpt lat="31.231094785082465" lon="121.39939668589562">
        <ele>0.12456461880356073</ele>
        <time>2026-05-29T11:25:17Z</time>
      </trkpt>
      <trkpt lat="31.230975834116002" lon="121.39931168760252">
        <ele>15.198736638762057</ele>
        <time>2026-05-29T11:25:23Z</time>
      </trkpt>
      <trkpt lat="31.23069096679537" lon="121.39932071335123">
        <ele>18.604628057219088</ele>
        <time>2026-05-29T11:25:35Z</time>
      </trkpt>
      <trkpt lat="31.23039811150656" lon="121.39944275151518">
        <ele>15.418045491911471</ele>
        <time>2026-05-29T11:25:48Z</time>
      </trkpt>
      <trkpt lat="31.23012524694809" lon="121.39955578770046">
        <ele>17.082678289152682</ele>
        <time>2026-05-29T11:25:57Z</time>
      </trkpt>
      <trkpt lat="31.229984314648043" lon="121.39958380316567">
        <ele>15.906866044737399</ele>
        <time>2026-05-29T11:26:03Z</time>
      </trkpt>
      <trkpt lat="31.229821399910364" lon="121.39969783071598">
        <ele>16.105036706663668</ele>
        <time>2026-05-29T11:26:09Z</time>
      </trkpt>
      <trkpt lat="31.229769440100082" lon="121.3998748573119">
        <ele>18.5623516747728</ele>
        <time>2026-05-29T11:26:15Z</time>
      </trkpt>
      <trkpt lat="31.229769454785867" lon="121.40002487729663">
        <ele>19.21763560269028</ele>
        <time>2026-05-29T11:26:21Z</time>
      </trkpt>
      <trkpt lat="31.229834443875387" lon="121.40020789761196">
        <ele>-13.89534047152847</ele>
        <time>2026-05-29T11:26:27Z</time>
      </trkpt>
      <trkpt lat="31.22989142607868" lon="121.40028590425196">
        <ele>-20.236799745820463</ele>
        <time>2026-05-29T11:26:30Z</time>
      </trkpt>
      <trkpt lat="31.230005383381954" lon="121.40037490795042">
        <ele>18.187150449492037</ele>
        <time>2026-05-29T11:26:36Z</time>
      </trkpt>
      <trkpt lat="31.230056360533073" lon="121.40038190459424">
        <ele>19.497718305327</ele>
        <time>2026-05-29T11:26:39Z</time>
      </trkpt>
      <trkpt lat="31.230364210707982" lon="121.40032186847905">
        <ele>12.670082540251315</ele>
        <time>2026-05-29T11:26:51Z</time>
      </trkpt>
      <trkpt lat="31.230666055979388" lon="121.40018982243899">
        <ele>14.09691044781357</ele>
        <time>2026-05-29T11:27:06Z</time>
      </trkpt>
      <trkpt lat="31.23080498864886" lon="121.4001628064012">
        <ele>14.812966794706881</ele>
        <time>2026-05-29T11:27:12Z</time>
      </trkpt>
      <trkpt lat="31.231023876784477" lon="121.40006377326638">
        <ele>15.418047399260104</ele>
        <time>2026-05-29T11:27:21Z</time>
      </trkpt>
      <trkpt lat="31.231081845233454" lon="121.40001776186082">
        <ele>17.188371152617037</ele>
        <time>2026-05-29T11:27:24Z</time>
      </trkpt>
      <trkpt lat="31.23117478875828" lon="121.399880735503">
        <ele>16.34548565838486</ele>
        <time>2026-05-29T11:27:30Z</time>
      </trkpt>
      <trkpt lat="31.23120276834787" lon="121.3998007228611">
        <ele>15.021706313826144</ele>
        <time>2026-05-29T11:27:33Z</time>
      </trkpt>
      <trkpt lat="31.231208758231823" lon="121.39971871223108">
        <ele>-15.56525733973831</ele>
        <time>2026-05-29T11:27:37Z</time>
      </trkpt>
      <trkpt lat="31.231167762710243" lon="121.39954569564038">
        <ele>18.052395553328097</ele>
        <time>2026-05-29T11:27:43Z</time>
      </trkpt>
      <trkpt lat="31.231061799633146" lon="121.39938668773337">
        <ele>10.181061477400362</ele>
        <time>2026-05-29T11:27:52Z</time>
      </trkpt>
      <trkpt lat="31.23099282792642" lon="121.39933568852955">
        <ele>18.654833526350558</ele>
        <time>2026-05-29T11:27:55Z</time>
      </trkpt>
      <trkpt lat="31.230882875538757" lon="121.39928769333203">
        <ele>18.40646001789719</ele>
        <time>2026-05-29T11:27:58Z</time>
      </trkpt>
      <trkpt lat="31.230695961915824" lon="121.39928370924274">
        <ele>19.384101123549044</ele>
        <time>2026-05-29T11:28:07Z</time>
      </trkpt>
      <trkpt lat="31.23061799979305" lon="121.399308718517">
        <ele>17.238574714399874</ele>
        <time>2026-05-29T11:28:10Z</time>
      </trkpt>
      <trkpt lat="31.230538041346946" lon="121.3993717318708">
        <ele>16.87394115421921</ele>
        <time>2026-05-29T11:28:13Z</time>
      </trkpt>
      <trkpt lat="31.23026717500821" lon="121.39947876680912">
        <ele>13.106058330275118</ele>
        <time>2026-05-29T11:28:25Z</time>
      </trkpt>
      <trkpt lat="31.229982315903406" lon="121.39958780379655">
        <ele>7.549356670118868</ele>
        <time>2026-05-29T11:28:37Z</time>
      </trkpt>
      <trkpt lat="31.229898358285638" lon="121.3996288158476">
        <ele>15.980852336622775</ele>
        <time>2026-05-29T11:28:40Z</time>
      </trkpt>
      <trkpt lat="31.22980041245835" lon="121.39972983641374">
        <ele>-16.1465585520491</ele>
        <time>2026-05-29T11:28:46Z</time>
      </trkpt>
      <trkpt lat="31.229760439605045" lon="121.3998248516976">
        <ele>11.813984126783907</ele>
        <time>2026-05-29T11:28:49Z</time>
      </trkpt>
      <trkpt lat="31.22975045989259" lon="121.39998787391377">
        <ele>17.08267852757126</ele>
        <time>2026-05-29T11:28:55Z</time>
      </trkpt>
      <trkpt lat="31.229791455868718" lon="121.40013389064242">
        <ele>19.154221267439425</ele>
        <time>2026-05-29T11:29:01Z</time>
      </trkpt>
      <trkpt lat="31.229945406939397" lon="121.40033790746138">
        <ele>16.147313327528536</ele>
        <time>2026-05-29T11:29:11Z</time>
      </trkpt>
      <trkpt lat="31.230028373995136" lon="121.40038590765961">
        <ele>15.21987506840378</ele>
        <time>2026-05-29T11:29:14Z</time>
      </trkpt>
      <trkpt lat="31.230231278404876" lon="121.40037388809081">
        <ele>13.793047280050814</ele>
        <time>2026-05-29T11:29:23Z</time>
      </trkpt>
      <trkpt lat="31.230370206214463" lon="121.40030686567007">
        <ele>12.131056995131075</ele>
        <time>2026-05-29T11:29:29Z</time>
      </trkpt>
      <trkpt lat="31.230746018036346" lon="121.40018181429886">
        <ele>12.516828984953463</ele>
        <time>2026-05-29T11:29:41Z</time>
      </trkpt>
      <trkpt lat="31.230957911194942" lon="121.40010078420802">
        <ele>16.303207607008517</ele>
        <time>2026-05-29T11:29:47Z</time>
      </trkpt>
      <trkpt lat="31.23109683508024" lon="121.39998575620214">
        <ele>10.286750049330294</ele>
        <time>2026-05-29T11:29:53Z</time>
      </trkpt>
      <trkpt lat="31.231195769320138" lon="121.39977572035266">
        <ele>15.085119456984103</ele>
        <time>2026-05-29T11:30:02Z</time>
      </trkpt>
      <trkpt lat="31.2312027557441" lon="121.3996577054646">
        <ele>15.304428071714938</ele>
        <time>2026-05-29T11:30:05Z</time>
      </trkpt>
      <trkpt lat="31.231152767669226" lon="121.399520694164">
        <ele>15.793248862959445</ele>
        <time>2026-05-29T11:30:11Z</time>
      </trkpt>
      <trkpt lat="31.231104783800514" lon="121.39944168976633">
        <ele>16.78145930264145</ele>
        <time>2026-05-29T11:30:14Z</time>
      </trkpt>
      <trkpt lat="31.23105080523959" lon="121.39939368941955">
        <ele>14.950363607145846</ele>
        <time>2026-05-29T11:30:17Z</time>
      </trkpt>
      <trkpt lat="31.230915863382805" lon="121.3993326949403">
        <ele>14.628006071783602</ele>
        <time>2026-05-29T11:30:23Z</time>
      </trkpt>
      <trkpt lat="31.230767930691687" lon="121.3993147060373">
        <ele>13.941014857031405</ele>
        <time>2026-05-29T11:30:29Z</time>
      </trkpt>
      <trkpt lat="31.230497062913788" lon="121.39940673907915">
        <ele>14.429835529066622</ele>
        <time>2026-05-29T11:30:41Z</time>
      </trkpt>
      <trkpt lat="31.2301932111194" lon="121.39950177577057">
        <ele>14.355851859785616</ele>
        <time>2026-05-29T11:30:56Z</time>
      </trkpt>
      <trkpt lat="31.23011924860986" lon="121.39954178665303">
        <ele>12.907885761000216</ele>
        <time>2026-05-29T11:30:59Z</time>
      </trkpt>
      <trkpt lat="31.230007301703644" lon="121.39955579798844">
        <ele>14.950363607145846</ele>
        <time>2026-05-29T11:31:05Z</time>
      </trkpt>
      <trkpt lat="31.22983738947349" lon="121.39966282515314">
        <ele>13.711137027479708</ele>
        <time>2026-05-29T11:31:14Z</time>
      </trkpt>
      <trkpt lat="31.22977043982504" lon="121.3998768574834">
        <ele>18.332473964430392</ele>
        <time>2026-05-29T11:31:23Z</time>
      </trkpt>
      <trkpt lat="31.229765450945035" lon="121.39996786991195">
        <ele>17.46845027897507</ele>
        <time>2026-05-29T11:31:26Z</time>
      </trkpt>
      <trkpt lat="31.229778452538554" lon="121.40004387912771">
        <ele>-7.553882866166532</ele>
        <time>2026-05-29T11:31:29Z</time>
      </trkpt>
      <trkpt lat="31.229880425158246" lon="121.40023189713953">
        <ele>18.92698642704636</ele>
        <time>2026-05-29T11:31:38Z</time>
      </trkpt>
      <trkpt lat="31.230007376557285" lon="121.40032389991025">
        <ele>18.863571853376925</ele>
        <time>2026-05-29T11:31:44Z</time>
      </trkpt>
      <trkpt lat="31.23014731389296" lon="121.40034389077253">
        <ele>19.801579208113253</ele>
        <time>2026-05-29T11:31:50Z</time>
      </trkpt>
      <trkpt lat="31.230476152211974" lon="121.40026384994104">
        <ele>10.006669730879366</ele>
        <time>2026-05-29T11:32:05Z</time>
      </trkpt>
      <trkpt lat="31.23061308382174" lon="121.40021983145891">
        <ele>18.916417808271945</ele>
        <time>2026-05-29T11:32:11Z</time>
      </trkpt>
      <trkpt lat="31.23081898237666" lon="121.4001648054695">
        <ele>9.90097972843796</ele>
        <time>2026-05-29T11:32:20Z</time>
      </trkpt>
      <trkpt lat="31.23113881315734" lon="121.39996074917852">
        <ele>18.343044967390597</ele>
        <time>2026-05-29T11:32:35Z</time>
      </trkpt>
      <trkpt lat="31.231193781006944" lon="121.39989173527526">
        <ele>10.640816421248019</ele>
        <time>2026-05-29T11:32:38Z</time>
      </trkpt>
      <trkpt lat="31.231215764717806" lon="121.39982672500597">
        <ele>18.279630393721163</ele>
        <time>2026-05-29T11:32:41Z</time>
      </trkpt>
      <trkpt lat="31.231202749495584" lon="121.39958269676958">
        <ele>16.593859405256808</ele>
        <time>2026-05-29T11:32:50Z</time>
      </trkpt>
      <trkpt lat="31.231177754836445" lon="121.39950469021953">
        <ele>17.582070083357394</ele>
        <time>2026-05-29T11:32:53Z</time>
      </trkpt>
      <trkpt lat="31.23113676868081" lon="121.3994376865504">
        <ele>3.0680596539750695</ele>
        <time>2026-05-29T11:32:56Z</time>
      </trkpt>
      <trkpt lat="31.231006822436395" lon="121.39934968872822">
        <ele>16.84487506840378</ele>
        <time>2026-05-29T11:33:05Z</time>
      </trkpt>
      <trkpt lat="31.230817905929335" lon="121.39929169939371">
        <ele>16.324347228743136</ele>
        <time>2026-05-29T11:33:11Z</time>
      </trkpt>
      <trkpt lat="31.23074493982506" lon="121.39929270585722">
        <ele>17.14609453175217</ele>
        <time>2026-05-29T11:33:14Z</time>
      </trkpt>
      <trkpt lat="31.23054004401661" lon="121.39942073680152">
        <ele>18.290199012495577</ele>
        <time>2026-05-29T11:33:23Z</time>
      </trkpt>
      <trkpt lat="31.2303341439324" lon="121.39947876096758">
        <ele>14.657072276808321</ele>
        <time>2026-05-29T11:33:32Z</time>
      </trkpt>
      <trkpt lat="31.23015023778268" lon="121.3995857889209">
        <ele>14.989998788572848</ele>
        <time>2026-05-29T11:33:41Z</time>
      </trkpt>
      <trkpt lat="31.23001830150606" lon="121.39961580387681">
        <ele>9.758296460844576</ele>
        <time>2026-05-29T11:33:47Z</time>
      </trkpt>
      <trkpt lat="31.229889367737208" lon="121.39969082394865">
        <ele>13.4495529839769</ele>
        <time>2026-05-29T11:33:53Z</time>
      </trkpt>
      <trkpt lat="31.2298373960762" lon="121.39973883428513">
        <ele>13.803617686964571</ele>
        <time>2026-05-29T11:33:56Z</time>
      </trkpt>
      <trkpt lat="31.229810413185074" lon="121.39978984293715">
        <ele>13.58695122692734</ele>
        <time>2026-05-29T11:33:59Z</time>
      </trkpt>
      <trkpt lat="31.22977944943541" lon="121.40001787546586">
        <ele>14.221096963621676</ele>
        <time>2026-05-29T11:34:08Z</time>
      </trkpt>
      <trkpt lat="31.22981544976007" lon="121.40018089532431">
        <ele>13.38878068421036</ele>
        <time>2026-05-29T11:34:14Z</time>
      </trkpt>
      <trkpt lat="31.229875437481006" lon="121.40032091096032">
        <ele>9.266833395697176</ele>
        <time>2026-05-29T11:34:20Z</time>
      </trkpt>
    </trkseg>
  </trk>
</gpx>