<?xml version="1.0" encoding="UTF-8"?>
<gpx xmlns="http://www.topografix.com/GPX/1/1" xmlns:gpxtpx="http://www.garmin.com/xmlschemas/TrackPointExtension/v1" xmlns:xsi="http://www.w3.org/2001/XMLSchema-instance" xsi:schemaLocation="http://www.topografix.com/GPX/1/1 http://www.topografix.com/GPX/1/1/gpx.xsd" version="1.1" creator="gpx.py -- https://github.com/tkrajina/gpxpy">
  <trk>
    <name>gpx from keep</name>
    <type>Run</type>
    <trkseg>
      <trkpt lat="31.229700468855587" lon="121.3998398588346">
        <ele>14.234533430077136</ele>
        <time>2026-06-17T09:19:53Z</time>
      </trkpt>
      <trkpt lat="31.229829442612488" lon="121.40017489323245">
        <ele>18.28249561879784</ele>
        <time>2026-06-17T09:20:08Z</time>
      </trkpt>
      <trkpt lat="31.22994940588968" lon="121.40034490818931">
        <ele>2.1831227550283074</ele>
        <time>2026-06-17T09:20:11Z</time>
      </trkpt>
      <trkpt lat="31.230070354153682" lon="121.4003829035296">
        <ele>9.58148777578026</ele>
        <time>2026-06-17T09:20:14Z</time>
      </trkpt>
      <trkpt lat="31.230199293366283" lon="121.40037489103632">
        <ele>18.639204145409167</ele>
        <time>2026-06-17T09:20:17Z</time>
      </trkpt>
      <trkpt lat="31.230356212934687" lon="121.4003088671948">
        <ele>17.740831495262682</ele>
        <time>2026-06-17T09:20:20Z</time>
      </trkpt>
      <trkpt lat="31.23065106941299" lon="121.4002488324431">
        <ele>17.373556257225573</ele>
        <time>2026-06-17T09:20:26Z</time>
      </trkpt>
      <trkpt lat="31.231027875447165" lon="121.4000687736144">
        <ele>-4.721139787696302</ele>
        <time>2026-06-17T09:20:35Z</time>
      </trkpt>
      <trkpt lat="31.231110828000777" lon="121.3999797541717">
        <ele>20.229852796532214</ele>
        <time>2026-06-17T09:20:38Z</time>
      </trkpt>
      <trkpt lat="31.231174787246395" lon="121.399864733436">
        <ele>18.890218854881823</ele>
        <time>2026-06-17T09:20:41Z</time>
      </trkpt>
      <trkpt lat="31.231208761595372" lon="121.39975671687087">
        <ele>-1.9943140735849738</ele>
        <time>2026-06-17T09:20:44Z</time>
      </trkpt>
      <trkpt lat="31.23121175047622" lon="121.39964470315161">
        <ele>17.656278730370104</ele>
        <time>2026-06-17T09:20:47Z</time>
      </trkpt>
      <trkpt lat="31.231182755285555" lon="121.39953969366132">
        <ele>17.709123731590807</ele>
        <time>2026-06-17T09:20:50Z</time>
      </trkpt>
      <trkpt lat="31.23112877367079" lon="121.39945468906365">
        <ele>-33.63025844004005</ele>
        <time>2026-06-17T09:20:53Z</time>
      </trkpt>
      <trkpt lat="31.230983833089727" lon="121.39934969073357">
        <ele>13.470914960838854</ele>
        <time>2026-06-17T09:20:59Z</time>
      </trkpt>
      <trkpt lat="31.230698960457037" lon="121.39928270888291">
        <ele>1.253042341209948</ele>
        <time>2026-06-17T09:21:11Z</time>
      </trkpt>
      <trkpt lat="31.230434088630098" lon="121.39935873960503">
        <ele>18.158308149315417</ele>
        <time>2026-06-17T09:21:23Z</time>
      </trkpt>
      <trkpt lat="31.23029915145289" lon="121.3993617516822">
        <ele>16.734125257469714</ele>
        <time>2026-06-17T09:21:29Z</time>
      </trkpt>
      <trkpt lat="31.230169216447926" lon="121.39942576967597">
        <ele>0.6373921642079949</ele>
        <time>2026-06-17T09:21:32Z</time>
      </trkpt>
      <trkpt lat="31.230122237657692" lon="121.39941777292957">
        <ele>18.544080854393542</ele>
        <time>2026-06-17T09:21:35Z</time>
      </trkpt>
      <trkpt lat="31.22998530515768" lon="121.39946979042122">
        <ele>18.649774671532214</ele>
        <time>2026-06-17T09:21:41Z</time>
      </trkpt>
      <trkpt lat="31.229848376959797" lon="121.39957381388537">
        <ele>18.28249561879784</ele>
        <time>2026-06-17T09:21:47Z</time>
      </trkpt>
      <trkpt lat="31.229802402934983" lon="121.39962982433381">
        <ele>16.924368024803698</ele>
        <time>2026-06-17T09:21:50Z</time>
      </trkpt>
      <trkpt lat="31.229754437737718" lon="121.39977384582899">
        <ele>6.894296766258776</ele>
        <time>2026-06-17T09:21:53Z</time>
      </trkpt>
      <trkpt lat="31.22975345494316" lon="121.39995186881805">
        <ele>17.41583073232323</ele>
        <time>2026-06-17T09:21:59Z</time>
      </trkpt>
      <trkpt lat="31.229840438153914" lon="121.4001808931447">
        <ele>19.423959852196276</ele>
        <time>2026-06-17T09:22:08Z</time>
      </trkpt>
      <trkpt lat="31.229917412210938" lon="121.4002698995776">
        <ele>15.238596082665026</ele>
        <time>2026-06-17T09:22:11Z</time>
      </trkpt>
      <trkpt lat="31.23012432560438" lon="121.40035289416544">
        <ele>18.430463911034167</ele>
        <time>2026-06-17T09:22:20Z</time>
      </trkpt>
      <trkpt lat="31.230247269121296" lon="121.40035788421424">
        <ele>10.36624348256737</ele>
        <time>2026-06-17T09:22:26Z</time>
      </trkpt>
      <trkpt lat="31.230472159827347" lon="121.40031485799464">
        <ele>5.118688703514636</ele>
        <time>2026-06-17T09:22:35Z</time>
      </trkpt>
      <trkpt lat="31.23080698966153" lon="121.40018080883497">
        <ele>-7.746543764136732</ele>
        <time>2026-06-17T09:22:47Z</time>
      </trkpt>
      <trkpt lat="31.231027876481157" lon="121.40007877501186">
        <ele>11.483926893211901</ele>
        <time>2026-06-17T09:22:56Z</time>
      </trkpt>
      <trkpt lat="31.23108784407515" lon="121.40003376353327">
        <ele>18.723756910301745</ele>
        <time>2026-06-17T09:22:59Z</time>
      </trkpt>
      <trkpt lat="31.231202771014306" lon="121.39982972651998">
        <ele>-7.883941530250013</ele>
        <time>2026-06-17T09:23:08Z</time>
      </trkpt>
      <trkpt lat="31.23121975561114" lon="121.39974671468343">
        <ele>19.519079328514636</ele>
        <time>2026-06-17T09:23:11Z</time>
      </trkpt>
      <trkpt lat="31.231161764531432" lon="121.39953369482299">
        <ele>11.872339368797839</ele>
        <time>2026-06-17T09:23:20Z</time>
      </trkpt>
      <trkpt lat="31.23104380804261" lon="121.3993876894065">
        <ele>17.614000440575182</ele>
        <time>2026-06-17T09:23:26Z</time>
      </trkpt>
      <trkpt lat="31.230913862072835" lon="121.39930069191409">
        <ele>17.730260969139636</ele>
        <time>2026-06-17T09:23:32Z</time>
      </trkpt>
      <trkpt lat="31.23079891384266" lon="121.39927869977153">
        <ele>15.83575260732323</ele>
        <time>2026-06-17T09:23:38Z</time>
      </trkpt>
      <trkpt lat="31.230632992008935" lon="121.39929671601777">
        <ele>17.20709049794823</ele>
        <time>2026-06-17T09:23:44Z</time>
      </trkpt>
      <trkpt lat="31.23035812430497" lon="121.39936474684552">
        <ele>10.292261243797839</ele>
        <time>2026-06-17T09:24:05Z</time>
      </trkpt>
      <trkpt lat="31.23007926168937" lon="121.3994717824419">
        <ele>17.47924625966698</ele>
        <time>2026-06-17T09:24:17Z</time>
      </trkpt>
      <trkpt lat="31.22997231390116" lon="121.39950479536813">
        <ele>10.741445661522448</ele>
        <time>2026-06-17T09:24:23Z</time>
      </trkpt>
      <trkpt lat="31.229807399695243" lon="121.39961882262031">
        <ele>17.228227735497057</ele>
        <time>2026-06-17T09:24:29Z</time>
      </trkpt>
      <trkpt lat="31.22973844106863" lon="121.39972784157598">
        <ele>13.859331251122057</ele>
        <time>2026-06-17T09:24:32Z</time>
      </trkpt>
      <trkpt lat="31.229709470433754" lon="121.39990086592235">
        <ele>-0.6890314808115363</ele>
        <time>2026-06-17T09:24:35Z</time>
      </trkpt>
      <trkpt lat="31.229719475284924" lon="121.39999787797142">
        <ele>18.515016675926745</ele>
        <time>2026-06-17T09:24:38Z</time>
      </trkpt>
      <trkpt lat="31.229850438753605" lon="121.40022889931117">
        <ele>14.57010090444237</ele>
        <time>2026-06-17T09:24:47Z</time>
      </trkpt>
      <trkpt lat="31.230022370169113" lon="121.40032889936758">
        <ele>9.486368299461901</ele>
        <time>2026-06-17T09:24:56Z</time>
      </trkpt>
      <trkpt lat="31.230078345908186" lon="121.40034389678837">
        <ele>14.004655958153307</ele>
        <time>2026-06-17T09:24:59Z</time>
      </trkpt>
      <trkpt lat="31.23036520978699" lon="121.40031786778114">
        <ele>16.652212263084948</ele>
        <time>2026-06-17T09:25:11Z</time>
      </trkpt>
      <trkpt lat="31.230572111305882" lon="121.40029584638948">
        <ele>7.512586713768542</ele>
        <time>2026-06-17T09:25:20Z</time>
      </trkpt>
      <trkpt lat="31.230773005092065" lon="121.40017781136352">
        <ele>7.866651655174792</ele>
        <time>2026-06-17T09:25:26Z</time>
      </trkpt>
      <trkpt lat="31.231023878644866" lon="121.40008177578088">
        <ele>3.8556805858388543</ele>
        <time>2026-06-17T09:25:32Z</time>
      </trkpt>
      <trkpt lat="31.231109831360254" lon="121.40000875819041">
        <ele>-36.99123179819435</ele>
        <time>2026-06-17T09:25:35Z</time>
      </trkpt>
      <trkpt lat="31.231166795327862" lon="121.39991074011239">
        <ele>16.454042554832995</ele>
        <time>2026-06-17T09:25:38Z</time>
      </trkpt>
      <trkpt lat="31.231205765866413" lon="121.39978872109842">
        <ele>17.04855549428612</ele>
        <time>2026-06-17T09:25:41Z</time>
      </trkpt>
      <trkpt lat="31.231211755445738" lon="121.39970271003858">
        <ele>18.232294202782214</ele>
        <time>2026-06-17T09:25:44Z</time>
      </trkpt>
      <trkpt lat="31.231187752175167" lon="121.39952969211089">
        <ele>8.358114362694323</ele>
        <time>2026-06-17T09:25:47Z</time>
      </trkpt>
      <trkpt lat="31.231144764976356" lon="121.39943768585289">
        <ele>17.854448438622057</ele>
        <time>2026-06-17T09:25:50Z</time>
      </trkpt>
      <trkpt lat="31.230916858491824" lon="121.39926868850559">
        <ele>11.50506413076073</ele>
        <time>2026-06-17T09:26:02Z</time>
      </trkpt>
      <trkpt lat="31.23062399494567" lon="121.3992787150295">
        <ele>17.133108259178698</ele>
        <time>2026-06-17T09:26:14Z</time>
      </trkpt>
      <trkpt lat="31.23055402753115" lon="121.3992807213288">
        <ele>-3.3524416675791144</ele>
        <time>2026-06-17T09:26:17Z</time>
      </trkpt>
      <trkpt lat="31.230392107676483" lon="121.39935274265453">
        <ele>7.731897474266589</ele>
        <time>2026-06-17T09:26:26Z</time>
      </trkpt>
      <trkpt lat="31.230319142392528" lon="121.39936475024582">
        <ele>10.450796247459948</ele>
        <time>2026-06-17T09:26:32Z</time>
      </trkpt>
      <trkpt lat="31.23021719447919" lon="121.39942976591436">
        <ele>8.630270124413073</ele>
        <time>2026-06-17T09:26:35Z</time>
      </trkpt>
      <trkpt lat="31.230167216112118" lon="121.39940876806048">
        <ele>5.203241468407214</ele>
        <time>2026-06-17T09:26:38Z</time>
      </trkpt>
      <trkpt lat="31.229955320468164" lon="121.39948779499001">
        <ele>16.91379749868065</ele>
        <time>2026-06-17T09:26:47Z</time>
      </trkpt>
      <trkpt lat="31.229875361848418" lon="121.39954180792643">
        <ele>17.35241520497948</ele>
        <time>2026-06-17T09:26:50Z</time>
      </trkpt>
      <trkpt lat="31.229785413359657" lon="121.39965982933255">
        <ele>5.985353589989245</ele>
        <time>2026-06-17T09:26:56Z</time>
      </trkpt>
      <trkpt lat="31.229713463098264" lon="121.3998428580838">
        <ele>17.709123731590807</ele>
        <time>2026-06-17T09:27:02Z</time>
      </trkpt>
      <trkpt lat="31.229733477032173" lon="121.40007888791916">
        <ele>10.030676008202136</ele>
        <time>2026-06-17T09:27:11Z</time>
      </trkpt>
      <trkpt lat="31.229854442240875" lon="121.40027690612192">
        <ele>-3.4977663746103644</ele>
        <time>2026-06-17T09:27:20Z</time>
      </trkpt>
      <trkpt lat="31.229930412752744" lon="121.40032790723554">
        <ele>19.225790143944323</ele>
        <time>2026-06-17T09:27:23Z</time>
      </trkpt>
      <trkpt lat="31.23011333256624" lon="121.40036889760184">
        <ele>12.897543073631823</ele>
        <time>2026-06-17T09:27:32Z</time>
      </trkpt>
      <trkpt lat="31.23041418706381" lon="121.40031786350897">
        <ele>12.194696546532214</ele>
        <time>2026-06-17T09:27:44Z</time>
      </trkpt>
      <trkpt lat="31.230622085199023" lon="121.400269838111">
        <ele>17.8121739635244</ele>
        <time>2026-06-17T09:27:53Z</time>
      </trkpt>
      <trkpt lat="31.230885951656802" lon="121.40016780006171">
        <ele>13.901605726219714</ele>
        <time>2026-06-17T09:28:02Z</time>
      </trkpt>
      <trkpt lat="31.23106185846532" lon="121.40005676897994">
        <ele>8.558927656151354</ele>
        <time>2026-06-17T09:28:11Z</time>
      </trkpt>
      <trkpt lat="31.23121177545625" lon="121.39992073750331">
        <ele>0.3758069286122918</ele>
        <time>2026-06-17T09:28:14Z</time>
      </trkpt>
      <trkpt lat="31.231222747849504" lon="121.39967370561394">
        <ele>-1.983743547461927</ele>
        <time>2026-06-17T09:28:23Z</time>
      </trkpt>
      <trkpt lat="31.231167760487104" lon="121.39951769252423">
        <ele>15.479044080711901</ele>
        <time>2026-06-17T09:28:29Z</time>
      </trkpt>
      <trkpt lat="31.231056800066135" lon="121.39936068549116">
        <ele>19.048757673241198</ele>
        <time>2026-06-17T09:28:36Z</time>
      </trkpt>
      <trkpt lat="31.230989827075266" lon="121.39930368558548">
        <ele>13.378435255028307</ele>
        <time>2026-06-17T09:28:39Z</time>
      </trkpt>
      <trkpt lat="31.23093085275441" lon="121.39927968836065">
        <ele>-8.415038942359388</ele>
        <time>2026-06-17T09:28:42Z</time>
      </trkpt>
      <trkpt lat="31.23066197767398" lon="121.39928371220714">
        <ele>3.2373906383290887</ele>
        <time>2026-06-17T09:28:54Z</time>
      </trkpt>
      <trkpt lat="31.23039110792597" lon="121.39934974243623">
        <ele>18.441034437157214</ele>
        <time>2026-06-17T09:29:06Z</time>
      </trkpt>
      <trkpt lat="31.230173211639155" lon="121.39938576513988">
        <ele>7.166448713280261</ele>
        <time>2026-06-17T09:29:15Z</time>
      </trkpt>
      <trkpt lat="31.229918340695896" lon="121.3995268025061">
        <ele>-8.132314561866224</ele>
        <time>2026-06-17T09:29:27Z</time>
      </trkpt>
      <trkpt lat="31.229846377239614" lon="121.39956581315347">
        <ele>-21.599985002540052</ele>
        <time>2026-06-17T09:29:30Z</time>
      </trkpt>
      <trkpt lat="31.229785410576678" lon="121.39962682546691">
        <ele>-23.798356889747083</ele>
        <time>2026-06-17T09:29:33Z</time>
      </trkpt>
      <trkpt lat="31.22973245381052" lon="121.39983785578988">
        <ele>19.20464909169823</ele>
        <time>2026-06-17T09:29:42Z</time>
      </trkpt>
      <trkpt lat="31.22974346504301" lon="121.40000687710287">
        <ele>17.62457096669823</ele>
        <time>2026-06-17T09:29:48Z</time>
      </trkpt>
      <trkpt lat="31.22982844655153" lon="121.40020689798831">
        <ele>15.941442609764636</ele>
        <time>2026-06-17T09:29:57Z</time>
      </trkpt>
      <trkpt lat="31.22988442977958" lon="121.40028990546622">
        <ele>19.34204685781151</ele>
        <time>2026-06-17T09:30:00Z</time>
      </trkpt>
      <trkpt lat="31.23001337862035" lon="121.40036590585491">
        <ele>9.457300306297839</ele>
        <time>2026-06-17T09:30:06Z</time>
      </trkpt>
      <trkpt lat="31.230115334681813" lon="121.40039490148193">
        <ele>17.362985731102526</ele>
        <time>2026-06-17T09:30:12Z</time>
      </trkpt>
      <trkpt lat="31.230163311941308" lon="121.40039089667091">
        <ele>15.489614606834948</ele>
        <time>2026-06-17T09:30:15Z</time>
      </trkpt>
      <trkpt lat="31.230332225548807" lon="121.40032187126903">
        <ele>8.421529890038073</ele>
        <time>2026-06-17T09:30:21Z</time>
      </trkpt>
      <trkpt lat="31.230618089416815" lon="121.40029084162241">
        <ele>3.884744764305651</ele>
        <time>2026-06-17T09:30:33Z</time>
      </trkpt>
      <trkpt lat="31.23072703197519" lon="121.4002288228484">
        <ele>17.33127796743065</ele>
        <time>2026-06-17T09:30:36Z</time>
      </trkpt>
      <trkpt lat="31.230903943425346" lon="121.40016879863701">
        <ele>16.609937787987292</ele>
        <time>2026-06-17T09:30:42Z</time>
      </trkpt>
      <trkpt lat="31.231056861397647" lon="121.40006277024995">
        <ele>18.303636671043932</ele>
        <time>2026-06-17T09:30:48Z</time>
      </trkpt>
      <trkpt lat="31.23116878740606" lon="121.39983673037423">
        <ele>18.335340620018542</ele>
        <time>2026-06-17T09:30:54Z</time>
      </trkpt>
      <trkpt lat="31.231193763432245" lon="121.39969871112736">
        <ele>20.05282032582909</ele>
        <time>2026-06-17T09:30:57Z</time>
      </trkpt>
      <trkpt lat="31.23117776041906" lon="121.39957469803927">
        <ele>18.607496381737292</ele>
        <time>2026-06-17T09:31:00Z</time>
      </trkpt>
      <trkpt lat="31.231134772574926" lon="121.39947669091275">
        <ele>18.69204914662987</ele>
        <time>2026-06-17T09:31:03Z</time>
      </trkpt>
      <trkpt lat="31.23102481503061" lon="121.39936268848598">
        <ele>14.36136067006737</ele>
        <time>2026-06-17T09:31:09Z</time>
      </trkpt>
      <trkpt lat="31.23086188706682" lon="121.39931369774168">
        <ele>12.289819837547839</ele>
        <time>2026-06-17T09:31:15Z</time>
      </trkpt>
      <trkpt lat="31.230508051905133" lon="121.39932472970797">
        <ele>13.021730543114245</ele>
        <time>2026-06-17T09:31:30Z</time>
      </trkpt>
      <trkpt lat="31.2304460814273" lon="121.39933573622159">
        <ele>14.926809431053698</ele>
        <time>2026-06-17T09:31:33Z</time>
      </trkpt>
      <trkpt lat="31.23038611225978" lon="121.39937774574166">
        <ele>-10.335971712134778</ele>
        <time>2026-06-17T09:31:36Z</time>
      </trkpt>
      <trkpt lat="31.230168219097056" lon="121.39945477285144">
        <ele>12.93981754872948</ele>
        <time>2026-06-17T09:31:48Z</time>
      </trkpt>
      <trkpt lat="31.230123242507016" lon="121.39948778034272">
        <ele>13.367868543602526</ele>
        <time>2026-06-17T09:31:51Z</time>
      </trkpt>
    </trkseg>
  </trk>
</gpx>