<?xml version="1.0" encoding="UTF-8"?>
<gpx xmlns="http://www.topografix.com/GPX/1/1" xmlns:gpxtpx="http://www.garmin.com/xmlschemas/TrackPointExtension/v1" xmlns:xsi="http://www.w3.org/2001/XMLSchema-instance" xsi:schemaLocation="http://www.topografix.com/GPX/1/1 http://www.topografix.com/GPX/1/1/gpx.xsd" version="1.1" creator="gpx.py -- https://github.com/tkrajina/gpxpy">
  <trk>
    <name>gpx from keep</name>
    <type>Run</type>
    <trkseg>
      <trkpt lat="31.23093492384464" lon="121.400119788905">
        <ele>21.732317755930126</ele>
        <time>2026-06-26T11:08:51Z</time>
      </trkpt>
      <trkpt lat="31.23102987328591" lon="121.40005677176998">
        <ele>24.768294165842235</ele>
        <time>2026-06-26T11:08:51Z</time>
      </trkpt>
      <trkpt lat="31.231128814662135" lon="121.3999287457954">
        <ele>22.76808817218989</ele>
        <time>2026-06-26T11:08:51Z</time>
      </trkpt>
      <trkpt lat="31.23116778945476" lon="121.39985373263306">
        <ele>23.753660987131298</ele>
        <time>2026-06-26T11:08:51Z</time>
      </trkpt>
      <trkpt lat="31.2311897645914" lon="121.39969071051739">
        <ele>24.03638346027583</ele>
        <time>2026-06-26T11:08:51Z</time>
      </trkpt>
      <trkpt lat="31.23116376512358" lon="121.39955269677459">
        <ele>21.27256281208247</ele>
        <time>2026-06-26T11:08:51Z</time>
      </trkpt>
      <trkpt lat="31.231067799286972" lon="121.39941969066048">
        <ele>23.85670358967036</ele>
        <time>2026-06-26T11:08:51Z</time>
      </trkpt>
      <trkpt lat="31.230998826356092" lon="121.39935268973123">
        <ele>19.145533393137157</ele>
        <time>2026-06-26T11:08:51Z</time>
      </trkpt>
      <trkpt lat="31.230770928744505" lon="121.39930670497812">
        <ele>14.761999915353954</ele>
        <time>2026-06-26T11:08:51Z</time>
      </trkpt>
      <trkpt lat="31.230481066980918" lon="121.39936073571175">
        <ele>22.181505988352</ele>
        <time>2026-06-26T11:08:51Z</time>
      </trkpt>
      <trkpt lat="31.230130239104373" lon="121.39948577951456">
        <ele>9.543509314768016</ele>
        <time>2026-06-26T11:08:51Z</time>
      </trkpt>
      <trkpt lat="31.229965319198254" lon="121.39953079885291">
        <ele>23.291258643381298</ele>
        <time>2026-06-26T11:08:51Z</time>
      </trkpt>
      <trkpt lat="31.229851380270656" lon="121.39963082017819">
        <ele>21.60549051593989</ele>
        <time>2026-06-26T11:08:51Z</time>
      </trkpt>
      <trkpt lat="31.229761434397467" lon="121.39977284509473">
        <ele>21.62662775348872</ele>
        <time>2026-06-26T11:08:51Z</time>
      </trkpt>
      <trkpt lat="31.229729457823307" lon="121.3998658596378">
        <ele>11.633547614328563</ele>
        <time>2026-06-26T11:08:51Z</time>
      </trkpt>
      <trkpt lat="31.22973746893638" lon="121.40001787912765">
        <ele>22.580488990060985</ele>
        <time>2026-06-26T11:08:51Z</time>
      </trkpt>
      <trkpt lat="31.229842452457355" lon="121.40031791337947">
        <ele>22.75752146076411</ele>
        <time>2026-06-26T11:08:51Z</time>
      </trkpt>
      <trkpt lat="31.229881437799513" lon="121.40034791458015">
        <ele>21.742888282053173</ele>
        <time>2026-06-26T11:08:51Z</time>
      </trkpt>
      <trkpt lat="31.229924415881875" lon="121.4003309082182">
        <ele>23.12479669880122</ele>
        <time>2026-06-26T11:08:51Z</time>
      </trkpt>
      <trkpt lat="31.230069352749727" lon="121.40036690112763">
        <ele>22.863211463205516</ele>
        <time>2026-06-26T11:08:51Z</time>
      </trkpt>
      <trkpt lat="31.23018230032032" lon="121.4003668912756">
        <ele>23.523779700510204</ele>
        <time>2026-06-26T11:08:51Z</time>
      </trkpt>
      <trkpt lat="31.23039819266155" lon="121.40030186246952">
        <ele>22.05731851886958</ele>
        <time>2026-06-26T11:08:51Z</time>
      </trkpt>
      <trkpt lat="31.230520137230478" lon="121.40031185335263">
        <ele>6.573592017404735</ele>
        <time>2026-06-26T11:08:51Z</time>
      </trkpt>
      <trkpt lat="31.23075501977242" lon="121.40023582144369">
        <ele>20.297564337961376</ele>
        <time>2026-06-26T11:08:51Z</time>
      </trkpt>
      <trkpt lat="31.231014885106678" lon="121.40010377966198">
        <ele>21.27256281208247</ele>
        <time>2026-06-26T11:08:51Z</time>
      </trkpt>
      <trkpt lat="31.231101838610243" lon="121.4000437636917">
        <ele>15.441065619699657</ele>
        <time>2026-06-26T11:08:51Z</time>
      </trkpt>
      <trkpt lat="31.231193781962503" lon="121.39990173657975">
        <ele>21.040041754953563</ele>
        <time>2026-06-26T11:08:51Z</time>
      </trkpt>
      <trkpt lat="31.231225746203716" lon="121.39967070499638">
        <ele>20.464026282541454</ele>
        <time>2026-06-26T11:08:51Z</time>
      </trkpt>
      <trkpt lat="31.231119774908386" lon="121.39941568570536">
        <ele>21.11402780842036</ele>
        <time>2026-06-26T11:08:51Z</time>
      </trkpt>
      <trkpt lat="31.231009819840317" lon="121.39933268674451">
        <ele>22.318903754465282</ele>
        <time>2026-06-26T11:08:51Z</time>
      </trkpt>
      <trkpt lat="31.230864883467277" lon="121.39928169431138">
        <ele>21.941057990305126</ele>
        <time>2026-06-26T11:08:51Z</time>
      </trkpt>
      <trkpt lat="31.23074893783383" lon="121.39929070531105">
        <ele>17.723990271799266</ele>
        <time>2026-06-26T11:08:51Z</time>
      </trkpt>
      <trkpt lat="31.230448083873096" lon="121.39938274085277">
        <ele>20.088824103586376</ele>
        <time>2026-06-26T11:08:51Z</time>
      </trkpt>
      <trkpt lat="31.23010725055182" lon="121.39949578261125">
        <ele>23.219919989816844</ele>
        <time>2026-06-26T11:08:51Z</time>
      </trkpt>
      <trkpt lat="31.229909350031384" lon="121.39959081050402">
        <ele>22.675608466379344</ele>
        <time>2026-06-26T11:08:51Z</time>
      </trkpt>
      <trkpt lat="31.229789416247936" lon="121.3997148355535">
        <ele>23.42865640949458</ele>
        <time>2026-06-26T11:08:51Z</time>
      </trkpt>
      <trkpt lat="31.22974444455627" lon="121.3997978496917">
        <ele>23.806502173654735</ele>
        <time>2026-06-26T11:08:51Z</time>
      </trkpt>
      <trkpt lat="31.229720471839563" lon="121.39996787383527">
        <ele>3.762213538400829</ele>
        <time>2026-06-26T11:08:51Z</time>
      </trkpt>
      <trkpt lat="31.229738474399863" lon="121.40007588706345">
        <ele>17.671141455881298</ele>
        <time>2026-06-26T11:08:51Z</time>
      </trkpt>
      <trkpt lat="31.229813454500782" lon="121.40021590061885">
        <ele>21.230284522287548</ele>
        <time>2026-06-26T11:08:51Z</time>
      </trkpt>
      <trkpt lat="31.229881431964102" lon="121.40029690678679">
        <ele>19.06362039875239</ele>
        <time>2026-06-26T11:08:51Z</time>
      </trkpt>
      <trkpt lat="31.230101341177715" lon="121.40039490270254">
        <ele>22.27662546467036</ele>
        <time>2026-06-26T11:08:51Z</time>
      </trkpt>
      <trkpt lat="31.230254268319914" lon="121.40037888686378">
        <ele>22.223780463449657</ele>
        <time>2026-06-26T11:08:51Z</time>
      </trkpt>
      <trkpt lat="31.230546124039346" lon="121.4003018495658">
        <ele>22.91605646442622</ele>
        <time>2026-06-26T11:08:51Z</time>
      </trkpt>
      <trkpt lat="31.230680054751762" lon="121.40023782827942">
        <ele>23.39695246051997</ele>
        <time>2026-06-26T11:08:51Z</time>
      </trkpt>
      <trkpt lat="31.23091893540247" lon="121.40015879588441">
        <ele>22.683535407297313</ele>
        <time>2026-06-26T11:08:51Z</time>
      </trkpt>
      <trkpt lat="31.231005890324766" lon="121.40011378186254">
        <ele>21.711180518381298</ele>
        <time>2026-06-26T11:08:51Z</time>
      </trkpt>
      <trkpt lat="31.23111582667991" lon="121.39998975508645">
        <ele>22.287195990793407</ele>
        <time>2026-06-26T11:08:51Z</time>
      </trkpt>
      <trkpt lat="31.231173788936964" lon="121.3998777352016">
        <ele>21.62662775348872</ele>
        <time>2026-06-26T11:08:51Z</time>
      </trkpt>
      <trkpt lat="31.231198762074555" lon="121.39970971201517">
        <ele>23.63739664386958</ele>
        <time>2026-06-26T11:08:51Z</time>
      </trkpt>
      <trkpt lat="31.231154767059135" lon="121.39952469443288">
        <ele>21.594919989816844</ele>
        <time>2026-06-26T11:08:51Z</time>
      </trkpt>
      <trkpt lat="31.231123776901228" lon="121.39946669079039">
        <ele>7.450827430002391</ele>
        <time>2026-06-26T11:08:51Z</time>
      </trkpt>
      <trkpt lat="31.230923858343374" lon="121.39931369233597">
        <ele>23.19877893757075</ele>
        <time>2026-06-26T11:08:51Z</time>
      </trkpt>
      <trkpt lat="31.23078691892673" lon="121.39927170013289">
        <ele>-44.65217321086675</ele>
        <time>2026-06-26T11:08:51Z</time>
      </trkpt>
      <trkpt lat="31.230679974588007" lon="121.39935871815682">
        <ele>20.979265998117626</ele>
        <time>2026-06-26T11:08:51Z</time>
      </trkpt>
      <trkpt lat="31.230601013816862" lon="121.39939472875855">
        <ele>21.856501410715282</ele>
        <time>2026-06-26T11:08:51Z</time>
      </trkpt>
      <trkpt lat="31.230398111657575" lon="121.39944475172854">
        <ele>22.192068885080516</ele>
        <time>2026-06-26T11:08:51Z</time>
      </trkpt>
      <trkpt lat="31.230306153421118" lon="121.39943275847278">
        <ele>20.915850470773876</ele>
        <time>2026-06-26T11:08:51Z</time>
      </trkpt>
      <trkpt lat="31.230034287334828" lon="121.39953279305965">
        <ele>20.23414499592036</ele>
        <time>2026-06-26T11:08:51Z</time>
      </trkpt>
      <trkpt lat="31.229919345553817" lon="121.39959280986105">
        <ele>21.89084894489497</ele>
        <time>2026-06-26T11:08:51Z</time>
      </trkpt>
      <trkpt lat="31.229786417553306" lon="121.39971383569419">
        <ele>23.251620124094188</ele>
        <time>2026-06-26T11:08:51Z</time>
      </trkpt>
      <trkpt lat="31.229726459876687" lon="121.39987286080238">
        <ele>22.297762702219188</ele>
        <time>2026-06-26T11:08:51Z</time>
      </trkpt>
      <trkpt lat="31.22974947420526" lon="121.40012289273548">
        <ele>21.534144232980907</ele>
        <time>2026-06-26T11:08:51Z</time>
      </trkpt>
      <trkpt lat="31.2298794328925" lon="121.40029690696116">
        <ele>20.696543524973094</ele>
        <time>2026-06-26T11:08:51Z</time>
      </trkpt>
      <trkpt lat="31.229974394633004" lon="121.4003479064719">
        <ele>20.255282233469188</ele>
        <time>2026-06-26T11:08:51Z</time>
      </trkpt>
      <trkpt lat="31.230222283866283" lon="121.40038489058938">
        <ele>21.029471228830516</ele>
        <time>2026-06-26T11:08:51Z</time>
      </trkpt>
      <trkpt lat="31.230548119839025" lon="121.40027284501328">
        <ele>17.356707404367626</ele>
        <time>2026-06-26T11:08:55Z</time>
      </trkpt>
      <trkpt lat="31.230770004867082" lon="121.4001628094528">
        <ele>21.470728705637157</ele>
        <time>2026-06-26T11:08:55Z</time>
      </trkpt>
      <trkpt lat="31.2309709054871" lon="121.4001037834983">
        <ele>20.276423285715282</ele>
        <time>2026-06-26T11:08:55Z</time>
      </trkpt>
      <trkpt lat="31.23105286130287" lon="121.40004376796398">
        <ele>10.756308387033641</ele>
        <time>2026-06-26T11:08:55Z</time>
      </trkpt>
      <trkpt lat="31.231132815248053" lon="121.39995374876628">
        <ele>22.131296942941844</ele>
        <time>2026-06-26T11:08:56Z</time>
      </trkpt>
      <trkpt lat="31.231189779174635" lon="121.39985273058673">
        <ele>21.79572946857661</ele>
        <time>2026-06-26T11:08:56Z</time>
      </trkpt>
      <trkpt lat="31.231212758319376" lon="121.39974071455927">
        <ele>-3.615018059499562</ele>
        <time>2026-06-26T11:08:56Z</time>
      </trkpt>
      <trkpt lat="31.23114476786741" lon="121.39947568993247">
        <ele>14.40528757404536</ele>
        <time>2026-06-26T11:08:56Z</time>
      </trkpt>
      <trkpt lat="31.23109778339982" lon="121.39939268521762">
        <ele>20.131094763986766</ele>
        <time>2026-06-26T11:08:56Z</time>
      </trkpt>
      <trkpt lat="31.230892868330685" lon="121.39924968875503">
        <ele>21.396746466867626</ele>
        <time>2026-06-26T11:08:56Z</time>
      </trkpt>
      <trkpt lat="31.230678971937397" lon="121.39931471379707">
        <ele>6.092696021310985</ele>
        <time>2026-06-26T11:08:56Z</time>
      </trkpt>
      <trkpt lat="31.23055203638511" lon="121.39939273282266">
        <ele>20.81016046833247</ele>
        <time>2026-06-26T11:08:56Z</time>
      </trkpt>
      <trkpt lat="31.230249184285455" lon="121.39949076968439">
        <ele>18.989634345285594</ele>
        <time>2026-06-26T11:08:56Z</time>
      </trkpt>
      <trkpt lat="31.229969318617112" lon="121.39954680029068">
        <ele>20.23414499592036</ele>
        <time>2026-06-26T11:08:56Z</time>
      </trkpt>
      <trkpt lat="31.22982739471336" lon="121.39966982685343">
        <ele>19.44938928913325</ele>
        <time>2026-06-26T11:08:56Z</time>
      </trkpt>
      <trkpt lat="31.22975144112379" lon="121.399795848831">
        <ele>19.639632056467235</ele>
        <time>2026-06-26T11:08:56Z</time>
      </trkpt>
      <trkpt lat="31.229730462992922" lon="121.39992486724239">
        <ele>16.006506751291454</ele>
        <time>2026-06-26T11:08:56Z</time>
      </trkpt>
      <trkpt lat="31.22976446629225" lon="121.40011389014893">
        <ele>13.641672919504344</ele>
        <time>2026-06-26T11:08:57Z</time>
      </trkpt>
      <trkpt lat="31.229859438127033" lon="121.40026090328602">
        <ele>18.905081580393016</ele>
        <time>2026-06-26T11:08:57Z</time>
      </trkpt>
      <trkpt lat="31.230078351849937" lon="121.40039490470782">
        <ele>18.16260416340083</ele>
        <time>2026-06-26T11:08:57Z</time>
      </trkpt>
      <trkpt lat="31.230271257872772" lon="121.4003568819671">
        <ele>21.848574469797313</ele>
        <time>2026-06-26T11:08:57Z</time>
      </trkpt>
      <trkpt lat="31.23057310590253" lon="121.40025183969082">
        <ele>22.036177466623485</ele>
        <time>2026-06-26T11:08:57Z</time>
      </trkpt>
      <trkpt lat="31.230857964952133" lon="121.40017080293728">
        <ele>20.96869547199458</ele>
        <time>2026-06-26T11:08:57Z</time>
      </trkpt>
      <trkpt lat="31.23101688660083" lon="121.40012678275194">
        <ele>11.308543036691844</ele>
        <time>2026-06-26T11:08:57Z</time>
      </trkpt>
      <trkpt lat="31.2311508050575" lon="121.39993474467094">
        <ele>20.527437995187938</ele>
        <time>2026-06-26T11:08:57Z</time>
      </trkpt>
      <trkpt lat="31.231205767874126" lon="121.39981072385622">
        <ele>20.286989997141063</ele>
        <time>2026-06-26T11:08:57Z</time>
      </trkpt>
      <trkpt lat="31.23121275446175" lon="121.39969670923075">
        <ele>21.0109737617895</ele>
        <time>2026-06-26T11:08:57Z</time>
      </trkpt>
      <trkpt lat="31.23119075423733" lon="121.39957269667882">
        <ele>20.37154276203364</ele>
        <time>2026-06-26T11:08:57Z</time>
      </trkpt>
      <trkpt lat="31.231158763243588" lon="121.39949969132742">
        <ele>22.01503641437739</ele>
        <time>2026-06-26T11:08:57Z</time>
      </trkpt>
      <trkpt lat="31.231011821411958" lon="121.39936769013225">
        <ele>16.207320044748485</ele>
        <time>2026-06-26T11:08:57Z</time>
      </trkpt>
      <trkpt lat="31.230853889387006" lon="121.39929369645245">
        <ele>9.176230262033641</ele>
        <time>2026-06-26T11:08:58Z</time>
      </trkpt>
      <trkpt lat="31.230548037509184" lon="121.399382732134">
        <ele>21.188006232492626</ele>
        <time>2026-06-26T11:08:58Z</time>
      </trkpt>
      <trkpt lat="31.230306152897064" lon="121.39942575773138">
        <ele>23.283327887766063</ele>
        <time>2026-06-26T11:08:58Z</time>
      </trkpt>
      <trkpt lat="31.23016222495579" lon="121.39949477770662">
        <ele>20.767885993234813</ele>
        <time>2026-06-26T11:08:58Z</time>
      </trkpt>
      <trkpt lat="31.230109249546054" lon="121.39949478232751">
        <ele>20.50630075763911</ele>
        <time>2026-06-26T11:08:58Z</time>
      </trkpt>
      <trkpt lat="31.22982139461725" lon="121.39963582337683">
        <ele>8.497164557687938</ele>
        <time>2026-06-26T11:08:58Z</time>
      </trkpt>
      <trkpt lat="31.22972645245889" lon="121.39979285063544">
        <ele>21.198576758615673</ele>
        <time>2026-06-26T11:08:58Z</time>
      </trkpt>
      <trkpt lat="31.22971547985933" lon="121.40002488200462">
        <ele>11.61240656208247</ele>
        <time>2026-06-26T11:08:58Z</time>
      </trkpt>
      <trkpt lat="31.229767471073973" lon="121.400171898203">
        <ele>14.62723810505122</ele>
        <time>2026-06-26T11:08:58Z</time>
      </trkpt>
      <trkpt lat="31.22986244067076" lon="121.40029590829187">
        <ele>21.962191413156688</ele>
        <time>2026-06-26T11:08:58Z</time>
      </trkpt>
      <trkpt lat="31.230003385128455" lon="121.40038190921508">
        <ele>14.281100104562938</ele>
        <time>2026-06-26T11:08:58Z</time>
      </trkpt>
      <trkpt lat="31.230162312405252" lon="121.4003908967581">
        <ele>12.241267035715282</ele>
        <time>2026-06-26T11:08:58Z</time>
      </trkpt>
      <trkpt lat="31.230441170685985" lon="121.4002838559978">
        <ele>20.64369852375239</ele>
        <time>2026-06-26T11:08:59Z</time>
      </trkpt>
      <trkpt lat="31.23078800118297" lon="121.40020581414227">
        <ele>20.15223581623286</ele>
        <time>2026-06-26T11:08:59Z</time>
      </trkpt>
      <trkpt lat="31.230998895997732" lon="121.4001367857493">
        <ele>21.57377893757075</ele>
        <time>2026-06-26T11:08:59Z</time>
      </trkpt>
      <trkpt lat="31.231126821885315" lon="121.39999275453361">
        <ele>16.373781989328563</ele>
        <time>2026-06-26T11:08:59Z</time>
      </trkpt>
      <trkpt lat="31.231214761518014" lon="121.39978672006427">
        <ele>18.17317087482661</ele>
        <time>2026-06-26T11:08:59Z</time>
      </trkpt>
      <trkpt lat="31.231198750939875" lon="121.39957769654916">
        <ele>22.633330176584423</ele>
        <time>2026-06-26T11:08:59Z</time>
      </trkpt>
      <trkpt lat="31.231161759995636" lon="121.39947568845025">
        <ele>19.44938928913325</ele>
        <time>2026-06-26T11:08:59Z</time>
      </trkpt>
      <trkpt lat="31.231068795954158" lon="121.39938068650187">
        <ele>20.58028299640864</ele>
        <time>2026-06-26T11:08:59Z</time>
      </trkpt>
      <trkpt lat="31.231007822832588" lon="121.3993616898658">
        <ele>20.464022467844188</ele>
        <time>2026-06-26T11:08:59Z</time>
      </trkpt>
      <trkpt lat="31.23083589473919" lon="121.3992496937248">
        <ele>19.502234290353954</ele>
        <time>2026-06-26T11:08:59Z</time>
      </trkpt>
      <trkpt lat="31.230676976409715" lon="121.39936471903265">
        <ele>20.820730994455516</ele>
        <time>2026-06-26T11:08:59Z</time>
      </trkpt>
      <trkpt lat="31.230619004669126" lon="121.39938372604716">
        <ele>10.650618384592235</ele>
        <time>2026-06-26T11:08:59Z</time>
      </trkpt>
      <trkpt lat="31.2304560795826" lon="121.39937473932913">
        <ele>18.44532663654536</ele>
        <time>2026-06-26T11:08:59Z</time>
      </trkpt>
      <trkpt lat="31.23015322812415" lon="121.39948177707419">
        <ele>19.502234290353954</ele>
        <time>2026-06-26T11:09:00Z</time>
      </trkpt>
      <trkpt lat="31.230006302006895" lon="121.39955379785064">
        <ele>23.502634833566844</ele>
        <time>2026-06-26T11:09:00Z</time>
      </trkpt>
      <trkpt lat="31.22992734036995" lon="121.39957480711122">
        <ele>19.43882257770747</ele>
        <time>2026-06-26T11:09:00Z</time>
      </trkpt>
      <trkpt lat="31.22981240210524" lon="121.39967482875453">
        <ele>19.293494055978954</ele>
        <time>2026-06-26T11:09:00Z</time>
      </trkpt>
      <trkpt lat="31.229746445644142" lon="121.39981985228552">
        <ele>18.572153876535594</ele>
        <time>2026-06-26T11:09:00Z</time>
      </trkpt>
      <trkpt lat="31.22973646809252" lon="121.40000487744082">
        <ele>18.833739112131298</ele>
        <time>2026-06-26T11:09:00Z</time>
      </trkpt>
      <trkpt lat="31.22978546509782" lon="121.40019389983412">
        <ele>19.650202582590282</ele>
        <time>2026-06-26T11:09:00Z</time>
      </trkpt>
      <trkpt lat="31.229872433997443" lon="121.40027790470302">
        <ele>19.378046820871532</ele>
        <time>2026-06-26T11:09:00Z</time>
      </trkpt>
      <trkpt lat="31.229969395685206" lon="121.40033690521533">
        <ele>19.837805579416454</ele>
        <time>2026-06-26T11:24:52Z</time>
      </trkpt>
      <trkpt lat="31.23012133107554" lon="121.40038789986374">
        <ele>18.74918634723872</ele>
        <time>2026-06-26T11:09:00Z</time>
      </trkpt>
      <trkpt lat="31.230422181305347" lon="121.40029986007366">
        <ele>19.187804053537548</ele>
        <time>2026-06-26T11:09:00Z</time>
      </trkpt>
      <trkpt lat="31.230663063074008" lon="121.40024183035551">
        <ele>18.371340583078563</ele>
        <time>2026-06-26T11:09:01Z</time>
      </trkpt>
      <trkpt lat="31.23096591128337" lon="121.40013678862654">
        <ele>18.477034400217235</ele>
        <time>2026-06-26T11:09:01Z</time>
      </trkpt>
      <trkpt lat="31.231125827802693" lon="121.4000467620139">
        <ele>21.36503870319575</ele>
        <time>2026-06-26T11:09:01Z</time>
      </trkpt>
      <trkpt lat="31.23119078411917" lon="121.39990973788868">
        <ele>20.464022467844188</ele>
        <time>2026-06-26T11:09:01Z</time>
      </trkpt>
      <trkpt lat="31.231214754056765" lon="121.39970270977702">
        <ele>20.64369852375239</ele>
        <time>2026-06-26T11:09:01Z</time>
      </trkpt>
      <trkpt lat="31.231164764419766" lon="121.39954969635048">
        <ele>18.79146463703364</ele>
        <time>2026-06-26T11:09:01Z</time>
      </trkpt>
      <trkpt lat="31.231082791598002" lon="121.39940968830108">
        <ele>20.767885993234813</ele>
        <time>2026-06-26T11:09:01Z</time>
      </trkpt>
      <trkpt lat="31.230902866479155" lon="121.39929069188399">
        <ele>19.378046820871532</ele>
        <time>2026-06-26T11:09:01Z</time>
      </trkpt>
      <trkpt lat="31.23084289455244" lon="121.39929469751037">
        <ele>19.293494055978954</ele>
        <time>2026-06-26T11:09:01Z</time>
      </trkpt>
      <trkpt lat="31.230748940548352" lon="121.39932970919848">
        <ele>19.940851996652782</ele>
        <time>2026-06-26T11:09:01Z</time>
      </trkpt>
      <trkpt lat="31.23068996760972" lon="121.39932571394021">
        <ele>18.844309638254344</ele>
        <time>2026-06-26T11:09:01Z</time>
      </trkpt>
      <trkpt lat="31.23054104148466" lon="121.39939273378172">
        <ele>19.555079291574657</ele>
        <time>2026-06-26T11:09:01Z</time>
      </trkpt>
      <trkpt lat="31.230296159038282" lon="121.39944576072838">
        <ele>12.899191687814891</ele>
        <time>2026-06-26T11:09:01Z</time>
      </trkpt>
      <trkpt lat="31.230093259243727" lon="121.3995237869157">
        <ele>18.989634345285594</ele>
        <time>2026-06-26T11:09:01Z</time>
      </trkpt>
      <trkpt lat="31.229965319436516" lon="121.39953379918686">
        <ele>19.124388526193798</ele>
        <time>2026-06-26T11:09:02Z</time>
      </trkpt>
      <trkpt lat="31.22981939859846" lon="121.39967182778808">
        <ele>18.152033637277782</ele>
        <time>2026-06-26T11:09:02Z</time>
      </trkpt>
      <trkpt lat="31.22975144601343" lon="121.39984885553739">
        <ele>19.177237342111766</ele>
        <time>2026-06-26T11:09:02Z</time>
      </trkpt>
      <trkpt lat="31.229751465995164" lon="121.40005288272737">
        <ele>19.59735758136958</ele>
        <time>2026-06-26T11:09:02Z</time>
      </trkpt>
      <trkpt lat="31.229823450627194" lon="121.40022290077877">
        <ele>15.914027045480907</ele>
        <time>2026-06-26T11:09:02Z</time>
      </trkpt>
      <trkpt lat="31.229878432677765" lon="121.40029090614048">
        <ele>20.707110236398876</ele>
        <time>2026-06-26T11:09:02Z</time>
      </trkpt>
      <trkpt lat="31.23005835785409" lon="121.40036690208667">
        <ele>18.93678934406489</ele>
        <time>2026-06-26T11:09:02Z</time>
      </trkpt>
      <trkpt lat="31.230307237945713" lon="121.40032887451949">
        <ele>19.124388526193798</ele>
        <time>2026-06-26T11:09:02Z</time>
      </trkpt>
      <trkpt lat="31.230616083421786" lon="121.40022883252628">
        <ele>20.057112525217235</ele>
        <time>2026-06-26T11:09:02Z</time>
      </trkpt>
      <trkpt lat="31.230677051750835" lon="121.40019782264835">
        <ele>20.350405524484813</ele>
        <time>2026-06-26T11:09:02Z</time>
      </trkpt>
      <trkpt lat="31.230819986027804" lon="121.4002028109124">
        <ele>19.272356818430126</ele>
        <time>2026-06-26T11:09:02Z</time>
      </trkpt>
      <trkpt lat="31.23100588938001" lon="121.40010478058804">
        <ele>18.989634345285594</ele>
        <time>2026-06-26T11:09:03Z</time>
      </trkpt>
      <trkpt lat="31.23112982049611" lon="121.39999275427203">
        <ele>18.54044611286372</ele>
        <time>2026-06-26T11:09:03Z</time>
      </trkpt>
      <trkpt lat="31.23120977132365" lon="121.3998677307709">
        <ele>20.181299994699657</ele>
        <time>2026-06-26T11:09:03Z</time>
      </trkpt>
      <trkpt lat="31.231231741469948" lon="121.3996477017597">
        <ele>19.074187110178173</ele>
        <time>2026-06-26T11:09:03Z</time>
      </trkpt>
      <trkpt lat="31.23114576595085" lon="121.39945668779602">
        <ele>17.89044840168208</ele>
        <time>2026-06-26T11:09:03Z</time>
      </trkpt>
      <trkpt lat="31.2308728812751" lon="121.39930369578661">
        <ele>19.124388526193798</ele>
        <time>2026-06-26T11:09:03Z</time>
      </trkpt>
      <trkpt lat="31.230822903819156" lon="121.39929469925414">
        <ele>14.249396155588329</ele>
        <time>2026-06-26T11:09:03Z</time>
      </trkpt>
      <trkpt lat="31.230544038493047" lon="121.3993707312448">
        <ele>17.607725928537548</ele>
        <time>2026-06-26T11:09:03Z</time>
      </trkpt>
      <trkpt lat="31.23030315369224" lon="121.39941775714877">
        <ele>10.703463385812938</ele>
        <time>2026-06-26T11:09:03Z</time>
      </trkpt>
      <trkpt lat="31.23007426664436" lon="121.39950578658505">
        <ele>19.156096289865673</ele>
        <time>2026-06-26T11:09:03Z</time>
      </trkpt>
      <trkpt lat="31.229823397341697" lon="121.39967882827108">
        <ele>18.23658640217036</ele>
        <time>2026-06-26T11:09:04Z</time>
      </trkpt>
      <trkpt lat="31.229772425899643" lon="121.39973483946399">
        <ele>19.124388526193798</ele>
        <time>2026-06-26T11:09:04Z</time>
      </trkpt>
      <trkpt lat="31.22974744243535" lon="121.39978984842983">
        <ele>19.335772345773876</ele>
        <time>2026-06-26T11:09:04Z</time>
      </trkpt>
      <trkpt lat="31.229730464060374" lon="121.39993586869667">
        <ele>20.474592993967235</ele>
        <time>2026-06-26T11:09:04Z</time>
      </trkpt>
      <trkpt lat="31.229760464495556" lon="121.40007888556518">
        <ele>18.413618872873485</ele>
        <time>2026-06-26T11:09:04Z</time>
      </trkpt>
      <trkpt lat="31.2298814337824" lon="121.40031290921704">
        <ele>19.919714759103954</ele>
        <time>2026-06-26T11:09:04Z</time>
      </trkpt>
      <trkpt lat="31.22996239687011" lon="121.40031890306983">
        <ele>19.639632056467235</ele>
        <time>2026-06-26T11:09:04Z</time>
      </trkpt>
      <trkpt lat="31.230080348694816" lon="121.40037590156707">
        <ele>18.466463874094188</ele>
        <time>2026-06-26T11:09:04Z</time>
      </trkpt>
      <trkpt lat="31.23034622077678" lon="121.40033687234612">
        <ele>18.823172400705516</ele>
        <time>2026-06-26T11:09:04Z</time>
      </trkpt>
      <trkpt lat="31.23061008830617" lon="121.40024783586888">
        <ele>17.86931116413325</ele>
        <time>2026-06-26T11:09:04Z</time>
      </trkpt>
      <trkpt lat="31.23075002032583" lon="121.40021981951415">
        <ele>18.434756110422313</ele>
        <time>2026-06-26T11:09:04Z</time>
      </trkpt>
      <trkpt lat="31.231021882074046" lon="121.40010577933441">
        <ele>18.331709693185985</ele>
        <time>2026-06-26T11:09:04Z</time>
      </trkpt>
      <trkpt lat="31.23116480329344" lon="121.39998274986812">
        <ele>17.816466162912548</ele>
        <time>2026-06-26T11:09:04Z</time>
      </trkpt>
      <trkpt lat="31.231221763704536" lon="121.39984572690098">
        <ele>20.49837381672114</ele>
        <time>2026-06-26T11:09:04Z</time>
      </trkpt>
      <trkpt lat="31.23123374413332" lon="121.39968970656142">
        <ele>19.02134210895747</ele>
        <time>2026-06-26T11:09:05Z</time>
      </trkpt>
      <trkpt lat="31.231193750992134" lon="121.39954969382197">
        <ele>16.80183298420161</ele>
        <time>2026-06-26T11:09:05Z</time>
      </trkpt>
      <trkpt lat="31.231055801033204" lon="121.39936768629592">
        <ele>18.339632819406688</ele>
        <time>2026-06-26T11:09:05Z</time>
      </trkpt>
      <trkpt lat="31.23092885334018" lon="121.39927468804528">
        <ele>18.45589334797114</ele>
        <time>2026-06-26T11:09:05Z</time>
      </trkpt>
      <trkpt lat="31.230786918791015" lon="121.39926969993766">
        <ele>17.985571692697704</ele>
        <time>2026-06-26T11:09:05Z</time>
      </trkpt>
      <trkpt lat="31.230721949934626" lon="121.39928470707414">
        <ele>17.95386392902583</ele>
        <time>2026-06-26T11:09:05Z</time>
      </trkpt>
      <trkpt lat="31.2306689776242" lon="121.39932971617355">
        <ele>19.88008005451411</ele>
        <time>2026-06-26T11:09:05Z</time>
      </trkpt>
      <trkpt lat="31.230363124828276" lon="121.3994037504483">
        <ele>17.504675696603954</ele>
        <time>2026-06-26T11:09:05Z</time>
      </trkpt>
      <trkpt lat="31.230149228140213" lon="121.39945777482998">
        <ele>19.124388526193798</ele>
        <time>2026-06-26T11:09:05Z</time>
      </trkpt>
      <trkpt lat="31.22989735933674" lon="121.39963581675073">
        <ele>16.059351752512157</ele>
        <time>2026-06-26T11:09:05Z</time>
      </trkpt>
      <trkpt lat="31.22977742517624" lon="121.39975284123152">
        <ele>19.356909583322704</ele>
        <time>2026-06-26T11:09:05Z</time>
      </trkpt>
      <trkpt lat="31.229741447138224" lon="121.39981085158593">
        <ele>19.47052652668208</ele>
        <time>2026-06-26T11:09:05Z</time>
      </trkpt>
      <trkpt lat="31.2297274652589" lon="121.39993386869332">
        <ele>18.93678934406489</ele>
        <time>2026-06-26T11:09:05Z</time>
      </trkpt>
      <trkpt lat="31.22977347164958" lon="121.40020290219697">
        <ele>18.706911872141063</ele>
        <time>2026-06-26T11:09:05Z</time>
      </trkpt>
      <trkpt lat="31.22984344903839" lon="121.40029190934314">
        <ele>19.23008234333247</ele>
        <time>2026-06-26T11:09:06Z</time>
      </trkpt>
      <trkpt lat="31.23007235475173" lon="121.40039590538758">
        <ele>19.24064905475825</ele>
        <time>2026-06-26T11:09:06Z</time>
      </trkpt>
      <trkpt lat="31.23033922448385" lon="121.40034087357112">
        <ele>18.466463874094188</ele>
        <time>2026-06-26T11:09:06Z</time>
      </trkpt>
      <trkpt lat="31.230509138369158" lon="121.40027684901484">
        <ele>18.93678934406489</ele>
        <time>2026-06-26T11:09:06Z</time>
      </trkpt>
      <trkpt lat="31.230597096451426" lon="121.40026683984078">
        <ele>17.31443292926997</ele>
        <time>2026-06-26T11:09:06Z</time>
      </trkpt>
      <trkpt lat="31.23082097888433" lon="121.40014080184156">
        <ele>19.901217292062938</ele>
        <time>2026-06-26T11:09:06Z</time>
      </trkpt>
      <trkpt lat="31.230957911718473" lon="121.40010578491452">
        <ele>18.321139167062938</ele>
        <time>2026-06-26T11:09:06Z</time>
      </trkpt>
      <trkpt lat="31.231103834138782" lon="121.40000875871355">
        <ele>18.498171637766063</ele>
        <time>2026-06-26T11:09:06Z</time>
      </trkpt>
      <trkpt lat="31.231186780189606" lon="121.39984873033616">
        <ele>18.339632819406688</ele>
        <time>2026-06-26T11:09:06Z</time>
      </trkpt>
      <trkpt lat="31.231211761012386" lon="121.39976571771929">
        <ele>19.618494818918407</ele>
        <time>2026-06-26T11:09:06Z</time>
      </trkpt>
      <trkpt lat="31.23117776025655" lon="121.39957269781229">
        <ele>11.54106409382075</ele>
        <time>2026-06-26T11:09:06Z</time>
      </trkpt>
      <trkpt lat="31.23109678826164" lon="121.39945169153219">
        <ele>14.89939386676997</ele>
        <time>2026-06-26T11:09:06Z</time>
      </trkpt>
      <trkpt lat="31.230981832105815" lon="121.39932268817988">
        <ele>17.68170816730708</ele>
        <time>2026-06-26T11:09:06Z</time>
      </trkpt>
      <trkpt lat="31.23074194218325" lon="121.39930670750658">
        <ele>18.392481635324657</ele>
        <time>2026-06-26T11:09:07Z</time>
      </trkpt>
      <trkpt lat="31.230530046437902" lon="121.3993907345329">
        <ele>16.822970221750438</ele>
        <time>2026-06-26T11:09:07Z</time>
      </trkpt>
      <trkpt lat="31.2302451803722" lon="121.3994147618899">
        <ele>18.54044611286372</ele>
        <time>2026-06-26T11:09:07Z</time>
      </trkpt>
      <trkpt lat="31.23010625416345" lon="121.3995357871165">
        <ele>7.178667853586376</ele>
        <time>2026-06-26T11:09:07Z</time>
      </trkpt>
      <trkpt lat="31.229950330264803" lon="121.39958180590207">
        <ele>16.614229987375438</ele>
        <time>2026-06-26T11:09:07Z</time>
      </trkpt>
      <trkpt lat="31.229832392306662" lon="121.399668826299">
        <ele>15.956305335275829</ele>
        <time>2026-06-26T11:09:07Z</time>
      </trkpt>
      <trkpt lat="31.22977742366658" lon="121.39973583915003">
        <ele>19.481097052805126</ele>
        <time>2026-06-26T11:09:07Z</time>
      </trkpt>
      <trkpt lat="31.229719469557597" lon="121.3999398701861">
        <ele>16.74898416828364</ele>
        <time>2026-06-26T11:09:07Z</time>
      </trkpt>
      <trkpt lat="31.229763465393045" lon="121.40010088839654">
        <ele>18.16260416340083</ele>
        <time>2026-06-26T11:09:07Z</time>
      </trkpt>
      <trkpt lat="31.2297684719058" lon="121.40018389985838">
        <ele>18.611788581125438</ele>
        <time>2026-06-26T11:09:07Z</time>
      </trkpt>
      <trkpt lat="31.229834448284514" lon="121.40024790352561">
        <ele>18.017275641672313</ele>
        <time>2026-06-26T11:09:07Z</time>
      </trkpt>
      <trkpt lat="31.229995386160557" lon="121.40035890633985">
        <ele>13.475207160227</ele>
        <time>2026-06-26T11:09:07Z</time>
      </trkpt>
      <trkpt lat="31.23018929858973" lon="121.4003798926867">
        <ele>11.873991797678173</ele>
        <time>2026-06-26T11:09:07Z</time>
      </trkpt>
      <trkpt lat="31.2304681599757" lon="121.40029985606306">
        <ele>18.529879401437938</ele>
        <time>2026-06-26T11:09:08Z</time>
      </trkpt>
      <trkpt lat="31.230651071085358" lon="121.4002638346832">
        <ele>13.224192450754344</ele>
        <time>2026-06-26T11:09:08Z</time>
      </trkpt>
      <trkpt lat="31.23091293925593" lon="121.40016879785232">
        <ele>18.424189398996532</ele>
        <time>2026-06-26T11:09:08Z</time>
      </trkpt>
      <trkpt lat="31.231087846835212" lon="121.40006076726884">
        <ele>12.701021979562938</ele>
        <time>2026-06-26T11:09:08Z</time>
      </trkpt>
      <trkpt lat="31.2311747959964" lon="121.3999557453713">
        <ele>18.215449164621532</ele>
        <time>2026-06-26T11:09:08Z</time>
      </trkpt>
      <trkpt lat="31.23123575197688" lon="121.39978871848272">
        <ele>18.675204108469188</ele>
        <time>2026-06-26T11:09:08Z</time>
      </trkpt>
      <trkpt lat="31.23121174846342" lon="121.39962070035347">
        <ele>19.44938928913325</ele>
        <time>2026-06-26T11:09:08Z</time>
      </trkpt>
      <trkpt lat="31.231185753657446" lon="121.39953669306486">
        <ele>-9.264201332814991</ele>
        <time>2026-06-26T11:09:08Z</time>
      </trkpt>
      <trkpt lat="31.230973833383082" lon="121.39928768539782">
        <ele>18.152033637277782</ele>
        <time>2026-06-26T11:09:08Z</time>
      </trkpt>
      <trkpt lat="31.230856886696436" lon="121.39927469432288">
        <ele>18.268294165842235</ele>
        <time>2026-06-26T11:09:08Z</time>
      </trkpt>
      <trkpt lat="31.23071295562276" lon="121.39930671003503">
        <ele>19.396544287912548</ele>
        <time>2026-06-26T11:09:08Z</time>
      </trkpt>
      <trkpt lat="31.23044508592122" lon="121.39939174204777">
        <ele>18.02784616779536</ele>
        <time>2026-06-26T11:09:08Z</time>
      </trkpt>
      <trkpt lat="31.230372119115728" lon="121.39938274747901">
        <ele>13.726225684396923</ele>
        <time>2026-06-26T11:09:08Z</time>
      </trkpt>
      <trkpt lat="31.230103251709334" lon="121.3994867819775">
        <ele>17.901018927805126</ele>
        <time>2026-06-26T11:09:09Z</time>
      </trkpt>
      <trkpt lat="31.229931337460155" lon="121.39956180529082">
        <ele>16.540247748605907</ele>
        <time>2026-06-26T11:09:09Z</time>
      </trkpt>
      <trkpt lat="31.229832392392144" lon="121.39966982641751">
        <ele>19.314635108225048</ele>
        <time>2026-06-26T11:09:09Z</time>
      </trkpt>
      <trkpt lat="31.229746451252662" lon="121.39987985996429">
        <ele>18.048983405344188</ele>
        <time>2026-06-26T11:09:09Z</time>
      </trkpt>
      <trkpt lat="31.229747469807354" lon="121.40007188571981">
        <ele>17.734553168527782</ele>
        <time>2026-06-26T11:09:09Z</time>
      </trkpt>
      <trkpt lat="31.229888428941408" lon="121.40029890647953">
        <ele>19.396544287912548</ele>
        <time>2026-06-26T11:09:09Z</time>
      </trkpt>
      <trkpt lat="31.229992387320852" lon="121.40035690629205">
        <ele>18.87337381672114</ele>
        <time>2026-06-26T11:09:09Z</time>
      </trkpt>
      <trkpt lat="31.23012333049976" lon="121.40039090015837">
        <ele>15.723784278146923</ele>
        <time>2026-06-26T11:09:09Z</time>
      </trkpt>
      <trkpt lat="31.23042418254094" lon="121.40031886278972">
        <ele>19.08475763630122</ele>
        <time>2026-06-26T11:09:09Z</time>
      </trkpt>
      <trkpt lat="31.230690052004867" lon="121.40025482993738">
        <ele>19.396544287912548</ele>
        <time>2026-06-26T11:09:09Z</time>
      </trkpt>
      <trkpt lat="31.23087695486013" lon="121.40015879954633">
        <ele>19.282927344553173</ele>
        <time>2026-06-26T11:09:09Z</time>
      </trkpt>
      <trkpt lat="31.230946920722584" lon="121.40014279114241">
        <ele>17.82703287433833</ele>
        <time>2026-06-26T11:09:09Z</time>
      </trkpt>
      <trkpt lat="31.23114580903222" lon="121.39995174736603">
        <ele>18.551016638986766</ele>
        <time>2026-06-26T11:09:10Z</time>
      </trkpt>
      <trkpt lat="31.231234750094735" lon="121.39976271534346">
        <ele>19.356909583322704</ele>
        <time>2026-06-26T11:09:10Z</time>
      </trkpt>
      <trkpt lat="31.231221745846344" lon="121.39964470227972">
        <ele>19.523371527902782</ele>
        <time>2026-06-26T11:09:10Z</time>
      </trkpt>
      <trkpt lat="31.231196750568625" lon="121.39956169491099">
        <ele>18.289431403391063</ele>
        <time>2026-06-26T11:09:10Z</time>
      </trkpt>
      <trkpt lat="31.231060799368638" lon="121.39937668678631">
        <ele>18.360773871652782</ele>
        <time>2026-06-26T11:09:10Z</time>
      </trkpt>
      <trkpt lat="31.23084089700599" lon="121.39931669987247">
        <ele>18.572153876535594</ele>
        <time>2026-06-26T11:09:10Z</time>
      </trkpt>
      <trkpt lat="31.230677973452877" lon="121.39932971538886">
        <ele>34.79571802448481</ele>
        <time>2026-06-26T11:09:10Z</time>
      </trkpt>
      <trkpt lat="31.23061700321613" lon="121.3993507228336">
        <ele>17.74512369465083</ele>
        <time>2026-06-26T11:09:10Z</time>
      </trkpt>
      <trkpt lat="31.23056202821305" lon="121.3993437269176">
        <ele>18.038416693918407</ele>
        <time>2026-06-26T11:09:10Z</time>
      </trkpt>
      <trkpt lat="31.23029615790934" lon="121.39943075913257">
        <ele>17.879877875559032</ele>
        <time>2026-06-26T11:09:10Z</time>
      </trkpt>
      <trkpt lat="31.230188209590704" lon="121.3994517707862">
        <ele>18.989634345285594</ele>
        <time>2026-06-26T11:09:10Z</time>
      </trkpt>
      <trkpt lat="31.229960324161667" lon="121.39956380298825">
        <ele>19.710974524728954</ele>
        <time>2026-06-26T11:09:10Z</time>
      </trkpt>
      <trkpt lat="31.229866373894932" lon="121.39963781968709">
        <ele>20.53800470661372</ele>
        <time>2026-06-26T11:09:10Z</time>
      </trkpt>
      <trkpt lat="31.22977342981926" lon="121.39978384541499">
        <ele>18.81260187458247</ele>
        <time>2026-06-26T11:09:10Z</time>
      </trkpt>
      <trkpt lat="31.229745449923698" lon="121.39986085759939">
        <ele>20.109957526437938</ele>
        <time>2026-06-26T11:09:10Z</time>
      </trkpt>
      <trkpt lat="31.229737461589757" lon="121.39994386914802">
        <ele>20.590853522531688</ele>
        <time>2026-06-26T11:09:11Z</time>
      </trkpt>
      <trkpt lat="31.229764464093382" lon="121.4000928871817">
        <ele>20.131094763986766</ele>
        <time>2026-06-26T11:09:11Z</time>
      </trkpt>
      <trkpt lat="31.229836454216585" lon="121.40030891253156">
        <ele>20.413821051828563</ele>
        <time>2026-06-26T11:09:11Z</time>
      </trkpt>
      <trkpt lat="31.229942406038546" lon="121.40031790466092">
        <ele>21.0109737617895</ele>
        <time>2026-06-26T11:09:11Z</time>
      </trkpt>
      <trkpt lat="31.23007934915883" lon="121.40037590165427">
        <ele>13.475207160227</ele>
        <time>2026-06-26T11:09:11Z</time>
      </trkpt>
      <trkpt lat="31.230338225986593" lon="121.40034987504451">
        <ele>20.265852759592235</ele>
        <time>2026-06-26T11:09:11Z</time>
      </trkpt>
      <trkpt lat="31.23062608480584" lon="121.40028283971735">
        <ele>19.053049872629344</ele>
        <time>2026-06-26T11:09:11Z</time>
      </trkpt>
      <trkpt lat="31.230905941210665" lon="121.40015679672955">
        <ele>17.858740638010204</ele>
        <time>2026-06-26T11:09:11Z</time>
      </trkpt>
      <trkpt lat="31.230972908466" lon="121.40014078858887">
        <ele>17.943293402902782</ele>
        <time>2026-06-26T11:09:11Z</time>
      </trkpt>
      <trkpt lat="31.231163806354967" lon="121.40000875348217">
        <ele>20.01483805011958</ele>
        <time>2026-06-26T11:09:11Z</time>
      </trkpt>
      <trkpt lat="31.231228756950372" lon="121.39980772147331">
        <ele>19.481097052805126</ele>
        <time>2026-06-26T11:09:11Z</time>
      </trkpt>
      <trkpt lat="31.231233747184064" lon="121.39972471077888">
        <ele>13.924395392648876</ele>
        <time>2026-06-26T11:09:11Z</time>
      </trkpt>
      <trkpt lat="31.23119974998907" lon="121.3995716957807">
        <ele>20.841868232004344</ele>
        <time>2026-06-26T11:09:11Z</time>
      </trkpt>
      <trkpt lat="31.231094786931962" lon="121.3994216885173">
        <ele>20.202437232248485</ele>
        <time>2026-06-26T11:09:12Z</time>
      </trkpt>
      <trkpt lat="31.23097483605201" lon="121.39933268979614">
        <ele>11.675818274728954</ele>
        <time>2026-06-26T11:09:12Z</time>
      </trkpt>
      <trkpt lat="31.23080191334304" lon="121.39929170078874">
        <ele>20.01483805011958</ele>
        <time>2026-06-26T11:09:12Z</time>
      </trkpt>
      <trkpt lat="31.230743941256417" lon="121.3993067073322">
        <ele>15.818903754465282</ele>
        <time>2026-06-26T11:09:12Z</time>
      </trkpt>
      <trkpt lat="31.230670979623465" lon="121.39937072017192">
        <ele>0.2823360664770007</ele>
        <time>2026-06-26T11:09:12Z</time>
      </trkpt>
      <trkpt lat="31.230531046708123" lon="121.39940073548729">
        <ele>19.24064905475825</ele>
        <time>2026-06-26T11:09:12Z</time>
      </trkpt>
      <trkpt lat="31.230485071014666" lon="121.39944074371674">
        <ele>18.60386164020747</ele>
        <time>2026-06-26T11:09:12Z</time>
      </trkpt>
      <trkpt lat="31.23036512456618" lon="121.39941275121726">
        <ele>19.03190882038325</ele>
        <time>2026-06-26T11:09:12Z</time>
      </trkpt>
      <trkpt lat="31.23024118334601" lon="121.39942976382189">
        <ele>14.878256629221141</ele>
        <time>2026-06-26T11:09:12Z</time>
      </trkpt>
      <trkpt lat="31.229962320828886" lon="121.3995337994484">
        <ele>19.827235053293407</ele>
        <time>2026-06-26T11:09:12Z</time>
      </trkpt>
      <trkpt lat="31.22990235173042" lon="121.39957180895047">
        <ele>4.0132244331762195</ele>
        <time>2026-06-26T11:09:12Z</time>
      </trkpt>
      <trkpt lat="31.22981839829416" lon="121.39966282680967">
        <ele>18.321139167062938</ele>
        <time>2026-06-26T11:09:12Z</time>
      </trkpt>
      <trkpt lat="31.229759436048024" lon="121.39978084626226">
        <ele>19.650202582590282</ele>
        <time>2026-06-26T11:09:12Z</time>
      </trkpt>
      <trkpt lat="31.229773457219366" lon="121.40006688275544">
        <ele>18.23658640217036</ele>
        <time>2026-06-26T11:09:12Z</time>
      </trkpt>
      <trkpt lat="31.22980145734342" lon="121.40019089800124">
        <ele>19.57622034382075</ele>
        <time>2026-06-26T11:09:12Z</time>
      </trkpt>
      <trkpt lat="31.22983444651235" lon="121.40023190115005">
        <ele>19.555079291574657</ele>
        <time>2026-06-26T11:09:12Z</time>
      </trkpt>
      <trkpt lat="31.230130325144856" lon="121.40037289674113">
        <ele>16.854677985422313</ele>
        <time>2026-06-26T11:09:13Z</time>
      </trkpt>
      <trkpt lat="31.230323231098918" lon="121.40033387389092">
        <ele>19.053049872629344</ele>
        <time>2026-06-26T11:09:13Z</time>
      </trkpt>
      <trkpt lat="31.230387197876173" lon="121.40030286358034">
        <ele>18.247156928293407</ele>
        <time>2026-06-26T11:09:13Z</time>
      </trkpt>
      <trkpt lat="31.23057610473449" lon="121.40025383972757">
        <ele>19.08475763630122</ele>
        <time>2026-06-26T11:09:13Z</time>
      </trkpt>
      <trkpt lat="31.230618081723904" lon="121.40022183131792">
        <ele>19.901217292062938</ele>
        <time>2026-06-26T11:09:13Z</time>
      </trkpt>
      <trkpt lat="31.23090193987134" lon="121.40012679277866">
        <ele>20.035975287668407</ele>
        <time>2026-06-26T11:09:13Z</time>
      </trkpt>
      <trkpt lat="31.231148806470348" lon="121.3999397455082">
        <ele>19.304064582102</ele>
        <time>2026-06-26T11:09:13Z</time>
      </trkpt>
      <trkpt lat="31.23120577027451" lon="121.39983672714821">
        <ele>18.466463874094188</ele>
        <time>2026-06-26T11:09:13Z</time>
      </trkpt>
      <trkpt lat="31.231218758671215" lon="121.39977571834729">
        <ele>18.183741400949657</ele>
        <time>2026-06-26T11:09:13Z</time>
      </trkpt>
      <trkpt lat="31.2312017543484" lon="121.39963570297066">
        <ele>17.073984931223094</ele>
        <time>2026-06-26T11:09:13Z</time>
      </trkpt>
      <trkpt lat="31.23115576810675" lon="121.39954369646271">
        <ele>18.54044611286372</ele>
        <time>2026-06-26T11:09:13Z</time>
      </trkpt>
      <trkpt lat="31.231100789479015" lon="121.3994916955092">
        <ele>18.68577081989497</ele>
        <time>2026-06-26T11:09:13Z</time>
      </trkpt>
      <trkpt lat="31.231043809364294" lon="121.39940569128231">
        <ele>19.063616584055126</ele>
        <time>2026-06-26T11:09:13Z</time>
      </trkpt>
      <trkpt lat="31.23092585527562" lon="121.39928268909108">
        <ele>20.194510291330516</ele>
        <time>2026-06-26T11:09:13Z</time>
      </trkpt>
      <trkpt lat="31.23067497344285" lon="121.3993097136469">
        <ele>16.352644751779735</ele>
        <time>2026-06-26T11:09:14Z</time>
      </trkpt>
      <trkpt lat="31.230413101346745" lon="121.39939974567103">
        <ele>18.93678934406489</ele>
        <time>2026-06-26T11:09:14Z</time>
      </trkpt>
      <trkpt lat="31.23013823687052" lon="121.39950478089523">
        <ele>19.417681525461376</ele>
        <time>2026-06-26T11:09:14Z</time>
      </trkpt>
      <trkpt lat="31.229895356611912" lon="121.39959181183903">
        <ele>18.434756110422313</ele>
        <time>2026-06-26T11:09:14Z</time>
      </trkpt>
      <trkpt lat="31.22980940522141" lon="121.39969483140244">
        <ele>14.645735572092235</ele>
        <time>2026-06-26T11:09:14Z</time>
      </trkpt>
      <trkpt lat="31.229737452327154" lon="121.39984685650224">
        <ele>18.915652106516063</ele>
        <time>2026-06-26T11:09:14Z</time>
      </trkpt>
      <trkpt lat="31.229748474036942" lon="121.40011689196969">
        <ele>18.392481635324657</ele>
        <time>2026-06-26T11:09:14Z</time>
      </trkpt>
      <trkpt lat="31.229767472695134" lon="121.40018690038237">
        <ele>19.198374579660594</ele>
        <time>2026-06-26T11:09:14Z</time>
      </trkpt>
      <trkpt lat="31.229899426912706" lon="121.40032590963219">
        <ele>19.293494055978954</ele>
        <time>2026-06-26T11:09:14Z</time>
      </trkpt>
      <trkpt lat="31.23000038465345" lon="121.40036590698833">
        <ele>18.278860877268016</ele>
        <time>2026-06-26T11:09:14Z</time>
      </trkpt>
      <trkpt lat="31.230183300438917" lon="121.40037189196482">
        <ele>19.689837287180126</ele>
        <time>2026-06-26T11:09:14Z</time>
      </trkpt>
      <trkpt lat="31.230375199381914" lon="121.40026685919638">
        <ele>20.244715522043407</ele>
        <time>2026-06-26T11:09:14Z</time>
      </trkpt>
      <trkpt lat="31.23051013858073" lon="121.40028284983111">
        <ele>19.53394205402583</ele>
        <time>2026-06-26T11:09:14Z</time>
      </trkpt>
      <trkpt lat="31.230835977416724" lon="121.40019180790877">
        <ele>17.494105170480907</ele>
        <time>2026-06-26T11:09:15Z</time>
      </trkpt>
      <trkpt lat="31.23103687670392" lon="121.40012078015391">
        <ele>18.580080817453563</ele>
        <time>2026-06-26T11:09:15Z</time>
      </trkpt>
      <trkpt lat="31.231182795257247" lon="121.39998574870383">
        <ele>16.52967722248286</ele>
        <time>2026-06-26T11:09:15Z</time>
      </trkpt>
      <trkpt lat="31.231237753794044" lon="121.3998187220753">
        <ele>19.03190882038325</ele>
        <time>2026-06-26T11:09:15Z</time>
      </trkpt>
      <trkpt lat="31.231230743291075" lon="121.39966370373163">
        <ele>19.314635108225048</ele>
        <time>2026-06-26T11:09:15Z</time>
      </trkpt>
      <trkpt lat="31.231177755620692" lon="121.3995146913209">
        <ele>19.208941291086376</ele>
        <time>2026-06-26T11:09:15Z</time>
      </trkpt>
      <trkpt lat="31.23108278947054" lon="121.39938068528122">
        <ele>16.96036798786372</ele>
        <time>2026-06-26T11:09:15Z</time>
      </trkpt>
      <trkpt lat="31.230921857883565" lon="121.39929369052359">
        <ele>14.008948157541454</ele>
        <time>2026-06-26T11:09:15Z</time>
      </trkpt>
      <trkpt lat="31.230834896482158" lon="121.39926869565508">
        <ele>17.10569269489497</ele>
        <time>2026-06-26T11:09:15Z</time>
      </trkpt>
      <trkpt lat="31.230559029036538" lon="121.39933572636939">
        <ele>18.66463358234614</ele>
        <time>2026-06-26T11:09:15Z</time>
      </trkpt>
      <trkpt lat="31.230260173637152" lon="121.3994177608978">
        <ele>19.57622034382075</ele>
        <time>2026-06-26T11:09:15Z</time>
      </trkpt>
      <trkpt lat="31.23013023596963" lon="121.39944477509462">
        <ele>17.774187873117626</ele>
        <time>2026-06-26T11:09:16Z</time>
      </trkpt>
      <trkpt lat="31.2298553743617" lon="121.39958181418471">
        <ele>10.378462622873485</ele>
        <time>2026-06-26T11:09:16Z</time>
      </trkpt>
      <trkpt lat="31.229766427101715" lon="121.39971683780065">
        <ele>18.321139167062938</ele>
        <time>2026-06-26T11:09:16Z</time>
      </trkpt>
      <trkpt lat="31.22973745714522" lon="121.39989786308944">
        <ele>-15.399560143239796</ele>
        <time>2026-06-26T11:09:16Z</time>
      </trkpt>
      <trkpt lat="31.22976146486164" lon="121.40008688659974">
        <ele>-3.2794505851343274</ele>
        <time>2026-06-26T11:09:16Z</time>
      </trkpt>
      <trkpt lat="31.229787460712902" lon="121.40016189501296">
        <ele>-3.8951007621362805</ele>
        <time>2026-06-26T11:09:16Z</time>
      </trkpt>
      <trkpt lat="31.229848442452727" lon="121.40025390319933">
        <ele>19.02134210895747</ele>
        <time>2026-06-26T11:09:16Z</time>
      </trkpt>
      <trkpt lat="31.229947404403962" lon="121.40032390514139">
        <ele>17.837603400461376</ele>
        <time>2026-06-26T11:09:16Z</time>
      </trkpt>
      <trkpt lat="31.230090343238214" lon="121.40036889960712">
        <ele>18.862803290598094</ele>
        <time>2026-06-26T11:09:16Z</time>
      </trkpt>
      <trkpt lat="31.23027125810476" lon="121.40035888227646">
        <ele>18.622359107248485</ele>
        <time>2026-06-26T11:09:16Z</time>
      </trkpt>
      <trkpt lat="31.23053912423595" lon="121.4002748460985">
        <ele>14.458132575266063</ele>
        <time>2026-06-26T11:09:16Z</time>
      </trkpt>
      <trkpt lat="31.23081798564827" lon="121.40019080933224">
        <ele>19.774390052072704</ele>
        <time>2026-06-26T11:09:16Z</time>
      </trkpt>
      <trkpt lat="31.23101388830779" lon="121.40012978344134">
        <ele>18.434756110422313</ele>
        <time>2026-06-26T11:09:16Z</time>
      </trkpt>
      <trkpt lat="31.23117779618371" lon="121.39997174725322">
        <ele>13.160776923410594</ele>
        <time>2026-06-26T11:09:17Z</time>
      </trkpt>
      <trkpt lat="31.23122876102425" lon="121.39985172705822">
        <ele>19.053049872629344</ele>
        <time>2026-06-26T11:09:17Z</time>
      </trkpt>
      <trkpt lat="31.231237742887245" lon="121.399696707051">
        <ele>17.650000403635204</ele>
        <time>2026-06-26T11:09:17Z</time>
      </trkpt>
      <trkpt lat="31.231189748034645" lon="121.39948868742196">
        <ele>12.648176978342235</ele>
        <time>2026-06-26T11:09:17Z</time>
      </trkpt>
      <trkpt lat="31.231110773985737" lon="121.39934567925395">
        <ele>26.32987482380122</ele>
        <time>2026-06-26T11:09:17Z</time>
      </trkpt>
      <trkpt lat="31.230985830956786" lon="121.39933268883706">
        <ele>17.253660987131298</ele>
        <time>2026-06-26T11:09:17Z</time>
      </trkpt>
      <trkpt lat="31.23093385350181" lon="121.39931069116473">
        <ele>17.221953223459423</ele>
        <time>2026-06-26T11:09:17Z</time>
      </trkpt>
      <trkpt lat="31.230880874763937" lon="121.39926269106031">
        <ele>16.73049051593989</ele>
        <time>2026-06-26T11:09:17Z</time>
      </trkpt>
      <trkpt lat="31.230670974741535" lon="121.39930171320013">
        <ele>18.477034400217235</ele>
        <time>2026-06-26T11:53:10Z</time>
      </trkpt>
      <trkpt lat="31.23060600473144" lon="121.399299718669">
        <ele>17.96443064045161</ele>
        <time>2026-06-26T11:53:13Z</time>
      </trkpt>
      <trkpt lat="31.2305700236546" lon="121.39933172500668">
        <ele>15.232321570627391</ele>
        <time>2026-06-26T11:53:16Z</time>
      </trkpt>
      <trkpt lat="31.23025817426779" lon="121.39941376065134">
        <ele>17.095122168771923</ele>
        <time>2026-06-26T11:53:25Z</time>
      </trkpt>
      <trkpt lat="31.230003302997844" lon="121.39954879755062">
        <ele>17.975001166574657</ele>
        <time>2026-06-26T11:53:37Z</time>
      </trkpt>
      <trkpt lat="31.229830391365706" lon="121.39964682387955">
        <ele>16.32093698810786</ele>
        <time>2026-06-26T11:53:47Z</time>
      </trkpt>
      <trkpt lat="31.229740444960473" lon="121.39978184804316">
        <ele>17.221953223459423</ele>
        <time>2026-06-26T11:53:53Z</time>
      </trkpt>
      <trkpt lat="31.229714471976816" lon="121.39994087075475">
        <ele>16.207320044748485</ele>
        <time>2026-06-26T11:54:02Z</time>
      </trkpt>
      <trkpt lat="31.22976647110765" lon="121.40016789771103">
        <ele>17.24309046100825</ele>
        <time>2026-06-26T11:54:11Z</time>
      </trkpt>
      <trkpt lat="31.229837451146196" lon="121.40028590895996">
        <ele>17.04227716755122</ele>
        <time>2026-06-26T11:54:17Z</time>
      </trkpt>
      <trkpt lat="31.22994241017922" lon="121.40035391018769">
        <ele>16.698782752268016</ele>
        <time>2026-06-26T11:54:23Z</time>
      </trkpt>
      <trkpt lat="31.23011033582761" lon="121.40038490035424">
        <ele>17.16910822223872</ele>
        <time>2026-06-26T11:54:29Z</time>
      </trkpt>
      <trkpt lat="31.23038420166182" lon="121.40032386704098">
        <ele>17.586584876291454</ele>
        <time>2026-06-26T11:54:41Z</time>
      </trkpt>
      <trkpt lat="31.230637072697142" lon="121.4002198293664">
        <ele>17.879877875559032</ele>
        <time>2026-06-26T11:54:54Z</time>
      </trkpt>
      <trkpt lat="31.230764011322815" lon="121.40019681491674">
        <ele>16.83353693317622</ele>
        <time>2026-06-26T11:55:00Z</time>
      </trkpt>
      <trkpt lat="31.23093192576212" lon="121.40012478987805">
        <ele>16.44776804279536</ele>
        <time>2026-06-26T11:55:09Z</time>
      </trkpt>
      <trkpt lat="31.231024883318852" lon="121.40013078262498">
        <ele>16.780691931955516</ele>
        <time>2026-06-26T11:55:12Z</time>
      </trkpt>
      <trkpt lat="31.23110783943128" lon="121.4000787680367">
        <ele>16.96036798786372</ele>
        <time>2026-06-26T11:55:18Z</time>
      </trkpt>
      <trkpt lat="31.231189784293985" lon="121.39990673758271">
        <ele>17.75569040607661</ele>
        <time>2026-06-26T11:55:24Z</time>
      </trkpt>
      <trkpt lat="31.231227750314027" lon="121.39972871178811">
        <ele>16.981505225412548</ele>
        <time>2026-06-26T11:55:33Z</time>
      </trkpt>
      <trkpt lat="31.231168757139553" lon="121.39948068838235">
        <ele>18.017275641672313</ele>
        <time>2026-06-26T11:55:42Z</time>
      </trkpt>
      <trkpt lat="31.23098382985444" lon="121.39930368610862">
        <ele>17.922156165353954</ele>
        <time>2026-06-26T11:55:54Z</time>
      </trkpt>
      <trkpt lat="31.230925854119416" lon="121.39926568742862">
        <ele>16.497969458810985</ele>
        <time>2026-06-26T11:55:57Z</time>
      </trkpt>
      <trkpt lat="31.230649983716038" lon="121.39929071394269">
        <ele>17.031710456125438</ele>
        <time>2026-06-26T11:56:10Z</time>
      </trkpt>
      <trkpt lat="31.230600010171912" lon="121.3993377229968">
        <ele>16.080488990060985</ele>
        <time>2026-06-26T11:56:13Z</time>
      </trkpt>
      <trkpt lat="31.2303771162884" lon="121.39937574632002">
        <ele>16.59309274982661</ele>
        <time>2026-06-26T11:56:22Z</time>
      </trkpt>
      <trkpt lat="31.230058273288563" lon="121.39949578688338">
        <ele>16.394923041574657</ele>
        <time>2026-06-26T11:56:40Z</time>
      </trkpt>
      <trkpt lat="31.229821391951884" lon="121.39960381966782">
        <ele>17.367277930490673</ele>
        <time>2026-06-26T11:56:52Z</time>
      </trkpt>
      <trkpt lat="31.229731446178235" lon="121.3997488447509">
        <ele>16.437197516672313</ele>
        <time>2026-06-26T11:57:01Z</time>
      </trkpt>
      <trkpt lat="31.229720468995815" lon="121.39993886996623">
        <ele>17.441260169260204</ele>
        <time>2026-06-26T11:57:07Z</time>
      </trkpt>
      <trkpt lat="31.229751475077762" lon="121.40013989498817">
        <ele>16.426626990549266</ele>
        <time>2026-06-26T11:57:16Z</time>
      </trkpt>
      <trkpt lat="31.229751475077762" lon="121.40013989498817">
        <ele>24.3646558849141</ele>
        <time>2026-06-26T11:57:18Z</time>
      </trkpt>
    </trkseg>
  </trk>
</gpx>