<?xml version="1.0" encoding="UTF-8"?>
<gpx xmlns="http://www.topografix.com/GPX/1/1" xmlns:gpxtpx="http://www.garmin.com/xmlschemas/TrackPointExtension/v1" xmlns:xsi="http://www.w3.org/2001/XMLSchema-instance" xsi:schemaLocation="http://www.topografix.com/GPX/1/1 http://www.topografix.com/GPX/1/1/gpx.xsd" version="1.1" creator="gpx.py -- https://github.com/tkrajina/gpxpy">
  <trk>
    <name>gpx from keep</name>
    <type>Run</type>
    <trkseg>
      <trkpt lat="31.23040519677095" lon="121.40036587167783">
        <ele>12.180012190714478</ele>
        <time>2026-09-27T10:27:21Z</time>
      </trkpt>
      <trkpt lat="31.230470161439992" lon="121.40032085908446">
        <ele>12.28570600785315</ele>
        <time>2026-09-27T10:27:27Z</time>
      </trkpt>
      <trkpt lat="31.23052013757254" lon="121.40031485380965">
        <ele>9.564163649454713</ele>
        <time>2026-09-27T10:27:36Z</time>
      </trkpt>
      <trkpt lat="31.23062408304166" lon="121.40025883628925">
        <ele>15.194847548380494</ele>
        <time>2026-09-27T10:27:42Z</time>
      </trkpt>
      <trkpt lat="31.23078000686373" lon="121.40022381748861">
        <ele>13.530216658487916</ele>
        <time>2026-09-27T10:27:45Z</time>
      </trkpt>
      <trkpt lat="31.230995897706073" lon="121.40013978644028">
        <ele>14.095661604776978</ele>
        <time>2026-09-27T10:27:51Z</time>
      </trkpt>
      <trkpt lat="31.231081852198283" lon="121.40008577128499">
        <ele>9.701561415567994</ele>
        <time>2026-09-27T10:27:54Z</time>
      </trkpt>
      <trkpt lat="31.231190786244788" lon="121.39993174078627">
        <ele>7.463554823771119</ele>
        <time>2026-09-27T10:28:00Z</time>
      </trkpt>
      <trkpt lat="31.231221761939892" lon="121.39982672448282">
        <ele>11.93956800736487</ele>
        <time>2026-09-27T10:28:03Z</time>
      </trkpt>
      <trkpt lat="31.231224742444596" lon="121.39962069922">
        <ele>13.551353896036744</ele>
        <time>2026-09-27T10:28:09Z</time>
      </trkpt>
      <trkpt lat="31.231168755148815" lon="121.39945468557605">
        <ele>13.416595900431275</ele>
        <time>2026-09-27T10:28:15Z</time>
      </trkpt>
      <trkpt lat="31.23105979534931" lon="121.39931368047823">
        <ele>13.123306715860963</ele>
        <time>2026-09-27T10:28:21Z</time>
      </trkpt>
      <trkpt lat="31.230865882322746" lon="121.39927169324498">
        <ele>11.857655012980103</ele>
        <time>2026-09-27T10:28:30Z</time>
      </trkpt>
      <trkpt lat="31.230695962947273" lon="121.39929871072296">
        <ele>12.893429243937135</ele>
        <time>2026-09-27T10:28:36Z</time>
      </trkpt>
      <trkpt lat="31.230401108168316" lon="121.39941674849914">
        <ele>12.985908949747682</ele>
        <time>2026-09-27T10:28:48Z</time>
      </trkpt>
      <trkpt lat="31.230082260835612" lon="121.39947878293864">
        <ele>13.081028426066041</ele>
        <time>2026-09-27T10:29:00Z</time>
      </trkpt>
      <trkpt lat="31.229869365997345" lon="121.39955881035797">
        <ele>13.017612898722291</ele>
        <time>2026-09-27T10:29:09Z</time>
      </trkpt>
      <trkpt lat="31.229814394954115" lon="121.39960081993314">
        <ele>12.745460951700807</ele>
        <time>2026-09-27T10:29:12Z</time>
      </trkpt>
      <trkpt lat="31.229729445159556" lon="121.39972684223909">
        <ele>13.10216566361487</ele>
        <time>2026-09-27T10:29:19Z</time>
      </trkpt>
      <trkpt lat="31.229696467758675" lon="121.3998078551317">
        <ele>12.964767897501588</ele>
        <time>2026-09-27T10:29:22Z</time>
      </trkpt>
      <trkpt lat="31.229682494173222" lon="121.40001488351264">
        <ele>13.688751662150025</ele>
        <time>2026-09-27T10:29:28Z</time>
      </trkpt>
      <trkpt lat="31.22969449753682" lon="121.40010189455349">
        <ele>13.635906660929322</ele>
        <time>2026-09-27T10:29:31Z</time>
      </trkpt>
      <trkpt lat="31.22978447518862" lon="121.40028091282697">
        <ele>12.610702956095338</ele>
        <time>2026-09-27T10:29:37Z</time>
      </trkpt>
      <trkpt lat="31.22983745915093" lon="121.40035591965119">
        <ele>13.635906660929322</ele>
        <time>2026-09-27T10:29:40Z</time>
      </trkpt>
      <trkpt lat="31.22991143171549" lon="121.40041492241085">
        <ele>13.604198897257447</ele>
        <time>2026-09-27T10:29:43Z</time>
      </trkpt>
      <trkpt lat="31.230044373444596" lon="121.40044391540991">
        <ele>14.388954604044557</ele>
        <time>2026-09-27T10:29:49Z</time>
      </trkpt>
      <trkpt lat="31.23035022379344" lon="121.40037887849385">
        <ele>14.085094893351197</ele>
        <time>2026-09-27T10:30:01Z</time>
      </trkpt>
      <trkpt lat="31.230496152026845" lon="121.40034386034435">
        <ele>13.395458662882447</ele>
        <time>2026-09-27T10:30:07Z</time>
      </trkpt>
      <trkpt lat="31.230669058305" lon="121.4002238271665">
        <ele>13.07046171464026</ele>
        <time>2026-09-27T10:30:13Z</time>
      </trkpt>
      <trkpt lat="31.230850970466822" lon="121.40019180660094">
        <ele>13.8023686055094</ele>
        <time>2026-09-27T10:30:16Z</time>
      </trkpt>
      <trkpt lat="31.230960915304205" lon="121.40015279135814">
        <ele>12.306843245401978</ele>
        <time>2026-09-27T10:30:19Z</time>
      </trkpt>
      <trkpt lat="31.23109184191806" lon="121.40003076277182">
        <ele>13.731029951944947</ele>
        <time>2026-09-27T10:30:25Z</time>
      </trkpt>
      <trkpt lat="31.231150806032108" lon="121.39994474599801">
        <ele>7.74627729691565</ele>
        <time>2026-09-27T10:30:28Z</time>
      </trkpt>
      <trkpt lat="31.231199763454086" lon="121.3997307144728">
        <ele>13.279198134317994</ele>
        <time>2026-09-27T10:30:34Z</time>
      </trkpt>
      <trkpt lat="31.23119675607651" lon="121.39962870259068">
        <ele>12.819443190470338</ele>
        <time>2026-09-27T10:30:37Z</time>
      </trkpt>
      <trkpt lat="31.231141768795844" lon="121.39946968954487">
        <ele>12.349117720499635</ele>
        <time>2026-09-27T10:30:44Z</time>
      </trkpt>
      <trkpt lat="31.23105080284495" lon="121.39936068601429">
        <ele>13.176151717081666</ele>
        <time>2026-09-27T10:30:50Z</time>
      </trkpt>
      <trkpt lat="31.230867880651896" lon="121.39926069199952">
        <ele>13.487938368692994</ele>
        <time>2026-09-27T10:30:56Z</time>
      </trkpt>
      <trkpt lat="31.230699959040486" lon="121.39926870742553">
        <ele>12.808876479044557</ele>
        <time>2026-09-27T10:31:02Z</time>
      </trkpt>
      <trkpt lat="31.230552030736273" lon="121.39931372477007">
        <ele>9.73326917923987</ele>
        <time>2026-09-27T10:31:08Z</time>
      </trkpt>
      <trkpt lat="31.230424096098886" lon="121.39939774450335">
        <ele>13.5117191914469</ele>
        <time>2026-09-27T10:31:14Z</time>
      </trkpt>
      <trkpt lat="31.230149229440737" lon="121.39947477666354">
        <ele>12.600136244669557</ele>
        <time>2026-09-27T10:31:26Z</time>
      </trkpt>
      <trkpt lat="31.229877363335163" lon="121.39957181113012">
        <ele>12.703182661905885</ele>
        <time>2026-09-27T10:31:38Z</time>
      </trkpt>
      <trkpt lat="31.229799404160413" lon="121.39962782436263">
        <ele>13.321476424112916</ele>
        <time>2026-09-27T10:31:41Z</time>
      </trkpt>
      <trkpt lat="31.22965848957271" lon="121.39985286415772">
        <ele>12.674118483439088</ele>
        <time>2026-09-27T10:31:50Z</time>
      </trkpt>
      <trkpt lat="31.2296595051567" lon="121.40001788592807">
        <ele>10.52859159745276</ele>
        <time>2026-09-27T10:31:56Z</time>
      </trkpt>
      <trkpt lat="31.229703498645044" lon="121.40015190089541">
        <ele>14.777367079630494</ele>
        <time>2026-09-27T10:32:02Z</time>
      </trkpt>
      <trkpt lat="31.229902430954194" lon="121.40037291661949">
        <ele>14.912125075235963</ele>
        <time>2026-09-27T10:32:11Z</time>
      </trkpt>
      <trkpt lat="31.229993393182767" lon="121.40041091463134">
        <ele>14.388954604044557</ele>
        <time>2026-09-27T10:32:14Z</time>
      </trkpt>
      <trkpt lat="31.230238277265595" lon="121.40039189028839">
        <ele>8.73977323807776</ele>
        <time>2026-09-27T10:32:23Z</time>
      </trkpt>
      <trkpt lat="31.23051114645999" lon="121.40035586088763">
        <ele>14.452370131388307</ele>
        <time>2026-09-27T10:32:35Z</time>
      </trkpt>
      <trkpt lat="31.230864967809662" lon="121.40022681052072">
        <ele>12.2222904805094</ele>
        <time>2026-09-27T10:32:53Z</time>
      </trkpt>
      <trkpt lat="31.230997899451673" lon="121.40016478986271">
        <ele>13.24749037064612</ele>
        <time>2026-09-27T10:32:59Z</time>
      </trkpt>
      <trkpt lat="31.23111682942916" lon="121.40002175935683">
        <ele>12.663547957316041</ele>
        <time>2026-09-27T10:33:05Z</time>
      </trkpt>
      <trkpt lat="31.23120277129227" lon="121.39983272690101">
        <ele>14.222492659464478</ele>
        <time>2026-09-27T10:33:14Z</time>
      </trkpt>
      <trkpt lat="31.231218750560465" lon="121.39968370715273">
        <ele>15.414158308878541</ele>
        <time>2026-09-27T10:33:20Z</time>
      </trkpt>
      <trkpt lat="31.231193751796287" lon="121.39955969494694">
        <ele>15.393017256632447</ele>
        <time>2026-09-27T10:33:26Z</time>
      </trkpt>
      <trkpt lat="31.23115876169279" lon="121.39947968914566">
        <ele>14.827572310343385</ele>
        <time>2026-09-27T10:33:32Z</time>
      </trkpt>
      <trkpt lat="31.23109778435581" lon="121.39940568657407">
        <ele>13.123306715860963</ele>
        <time>2026-09-27T10:33:36Z</time>
      </trkpt>
      <trkpt lat="31.230918859273334" lon="121.39929369078516">
        <ele>14.106232130900025</ele>
        <time>2026-09-27T10:33:45Z</time>
      </trkpt>
      <trkpt lat="31.230850889272435" lon="121.39927169455281">
        <ele>12.253998244181275</ele>
        <time>2026-09-27T10:33:48Z</time>
      </trkpt>
      <trkpt lat="31.23051604645383" lon="121.3992997265159">
        <ele>14.07452436722815</ele>
        <time>2026-09-27T10:34:03Z</time>
      </trkpt>
      <trkpt lat="31.23043109110238" lon="121.3993737414058">
        <ele>13.551353896036744</ele>
        <time>2026-09-27T10:34:06Z</time>
      </trkpt>
      <trkpt lat="31.230210196756673" lon="121.39941676515186">
        <ele>11.323917830362916</ele>
        <time>2026-09-27T10:34:15Z</time>
      </trkpt>
      <trkpt lat="31.229939331345093" lon="121.399531801231">
        <ele>0.6755528096109629</ele>
        <time>2026-09-27T10:34:27Z</time>
      </trkpt>
      <trkpt lat="31.229752426904962" lon="121.3996388297431">
        <ele>14.410091841593385</ele>
        <time>2026-09-27T10:34:36Z</time>
      </trkpt>
      <trkpt lat="31.229683464942564" lon="121.3997088440707">
        <ele>13.908062422648072</ele>
        <time>2026-09-27T10:34:39Z</time>
      </trkpt>
      <trkpt lat="31.229645494862527" lon="121.3998448642677">
        <ele>14.547489607706666</ele>
        <time>2026-09-27T10:34:45Z</time>
      </trkpt>
      <trkpt lat="31.229668504024644" lon="121.40004788927115">
        <ele>14.912125075235963</ele>
        <time>2026-09-27T10:34:51Z</time>
      </trkpt>
      <trkpt lat="31.22977547869255" lon="121.40027491270882">
        <ele>13.16558119095862</ele>
        <time>2026-09-27T10:35:00Z</time>
      </trkpt>
      <trkpt lat="31.22985544940712" lon="121.40034391623077">
        <ele>14.085094893351197</ele>
        <time>2026-09-27T10:35:03Z</time>
      </trkpt>
      <trkpt lat="31.230156319446206" lon="121.40042690294624">
        <ele>8.771481001749635</ele>
        <time>2026-09-27T10:35:15Z</time>
      </trkpt>
      <trkpt lat="31.23044218148104" lon="121.40038187094024">
        <ele>13.22899671830237</ele>
        <time>2026-09-27T10:35:28Z</time>
      </trkpt>
      <trkpt lat="31.230575414954355" lon="121.40029843278788">
        <ele>11.374119246378541</ele>
        <time>2026-09-27T10:35:34Z</time>
      </trkpt>
      <trkpt lat="31.23078900445978" lon="121.40023981907275">
        <ele>11.847088301554322</ele>
        <time>2026-09-27T10:35:43Z</time>
      </trkpt>
      <trkpt lat="31.230965913202006" lon="121.40015479121008">
        <ele>10.94607206620276</ele>
        <time>2026-09-27T10:35:52Z</time>
      </trkpt>
      <trkpt lat="31.231154810522334" lon="121.40000875426688">
        <ele>13.918629134073853</ele>
        <time>2026-09-27T10:36:01Z</time>
      </trkpt>
      <trkpt lat="31.231199783930734" lon="121.39995074252448">
        <ele>12.129810774698853</ele>
        <time>2026-09-27T10:36:04Z</time>
      </trkpt>
      <trkpt lat="31.23122874783609" lon="121.39970570891738">
        <ele>14.880417311564088</ele>
        <time>2026-09-27T10:36:13Z</time>
      </trkpt>
      <trkpt lat="31.231150764245655" lon="121.39946468822062">
        <ele>12.232857191935182</ele>
        <time>2026-09-27T10:36:22Z</time>
      </trkpt>
      <trkpt lat="31.231117775537825" lon="121.39941168545933">
        <ele>14.148506605997682</ele>
        <time>2026-09-27T10:36:25Z</time>
      </trkpt>
      <trkpt lat="31.231001823052647" lon="121.39932568673731">
        <ele>13.855213606730103</ele>
        <time>2026-09-27T10:36:31Z</time>
      </trkpt>
      <trkpt lat="31.2308089096876" lon="121.39928569958711">
        <ele>12.1403813008219</ele>
        <time>2026-09-27T10:36:41Z</time>
      </trkpt>
      <trkpt lat="31.23060500505679" lon="121.39929771855803">
        <ele>13.017612898722291</ele>
        <time>2026-09-27T10:36:47Z</time>
      </trkpt>
      <trkpt lat="31.230326141252906" lon="121.39939375263106">
        <ele>9.712128126993775</ele>
        <time>2026-09-27T10:37:02Z</time>
      </trkpt>
      <trkpt lat="31.2300092970427" lon="121.39950879258217">
        <ele>14.787937605753541</ele>
        <time>2026-09-27T10:37:17Z</time>
      </trkpt>
      <trkpt lat="31.229863367738638" lon="121.39954580942032">
        <ele>12.935703719034791</ele>
        <time>2026-09-27T10:37:26Z</time>
      </trkpt>
      <trkpt lat="31.229740435963468" lon="121.39967983562649">
        <ele>12.462738478556275</ele>
        <time>2026-09-27T10:37:32Z</time>
      </trkpt>
      <trkpt lat="31.229675491162343" lon="121.39995187561848">
        <ele>16.032448256388307</ele>
        <time>2026-09-27T10:37:41Z</time>
      </trkpt>
      <trkpt lat="31.229685501297944" lon="121.4000978947737">
        <ele>14.063953841105103</ele>
        <time>2026-09-27T10:37:47Z</time>
      </trkpt>
      <trkpt lat="31.229758481797226" lon="121.40023190777613">
        <ele>14.50521513260901</ele>
        <time>2026-09-27T10:37:53Z</time>
      </trkpt>
      <trkpt lat="31.229810464471637" lon="121.40029291237148">
        <ele>14.190784895792603</ele>
        <time>2026-09-27T10:37:56Z</time>
      </trkpt>
      <trkpt lat="31.230019381471795" lon="121.40041391283714">
        <ele>13.22899671830237</ele>
        <time>2026-09-27T10:38:05Z</time>
      </trkpt>
      <trkpt lat="31.230244276722928" lon="121.40041089274763">
        <ele>4.55440946854651</ele>
        <time>2026-09-27T10:38:14Z</time>
      </trkpt>
      <trkpt lat="31.230509146692615" lon="121.4003498601355">
        <ele>14.766800368204713</ele>
        <time>2026-09-27T10:38:26Z</time>
      </trkpt>
      <trkpt lat="31.230592102714862" lon="121.40030184555518">
        <ele>14.304401839151978</ele>
        <time>2026-09-27T10:38:29Z</time>
      </trkpt>
      <trkpt lat="31.230786008185643" lon="121.40026082246384">
        <ele>10.391193831339478</ele>
        <time>2026-09-27T10:38:38Z</time>
      </trkpt>
      <trkpt lat="31.230962917172185" lon="121.4001787949429">
        <ele>14.085094893351197</ele>
        <time>2026-09-27T10:38:44Z</time>
      </trkpt>
      <trkpt lat="31.231160801988562" lon="121.39995074592488">
        <ele>14.211922133341432</ele>
        <time>2026-09-27T10:38:53Z</time>
      </trkpt>
      <trkpt lat="31.231205766411847" lon="121.39979472184802">
        <ele>13.480011427775025</ele>
        <time>2026-09-27T10:38:59Z</time>
      </trkpt>
      <trkpt lat="31.23118075838101" lon="121.399566696871">
        <ele>14.325539076700807</ele>
        <time>2026-09-27T10:39:08Z</time>
      </trkpt>
      <trkpt lat="31.2310488060926" lon="121.3993926894899">
        <ele>14.285904372110963</ele>
        <time>2026-09-27T10:39:17Z</time>
      </trkpt>
      <trkpt lat="31.230884876690325" lon="121.39931769613621">
        <ele>13.384891951456666</ele>
        <time>2026-09-27T10:39:26Z</time>
      </trkpt>
      <trkpt lat="31.230739146196907" lon="121.39928408118043">
        <ele>14.597694838419557</ele>
        <time>2026-09-27T10:39:32Z</time>
      </trkpt>
      <trkpt lat="31.230682969943985" lon="121.39931271324859">
        <ele>13.699322188273072</ele>
        <time>2026-09-27T10:39:35Z</time>
      </trkpt>
      <trkpt lat="31.23054203586161" lon="121.39932072634225">
        <ele>14.053387129679322</ele>
        <time>2026-09-27T10:39:41Z</time>
      </trkpt>
      <trkpt lat="31.23041709586914" lon="121.39934974016936">
        <ele>14.473507368937135</ele>
        <time>2026-09-27T10:39:47Z</time>
      </trkpt>
      <trkpt lat="31.230337136812665" lon="121.39940275261061">
        <ele>14.37838407792151</ele>
        <time>2026-09-27T10:39:50Z</time>
      </trkpt>
      <trkpt lat="31.230247179296107" lon="121.39941276150533">
        <ele>14.063953841105103</ele>
        <time>2026-09-27T10:39:53Z</time>
      </trkpt>
      <trkpt lat="31.229985310472575" lon="121.39953779788914">
        <ele>13.950336897745728</ele>
        <time>2026-09-27T10:40:06Z</time>
      </trkpt>
      <trkpt lat="31.229852375346866" lon="121.39957681387736">
        <ele>5.402580702677369</ele>
        <time>2026-09-27T10:40:12Z</time>
      </trkpt>
      <trkpt lat="31.22971445291873" lon="121.39973584464269">
        <ele>11.39525648392737</ele>
        <time>2026-09-27T10:40:21Z</time>
      </trkpt>
      <trkpt lat="31.22967448326893" lon="121.39986486430419">
        <ele>14.58712431229651</ele>
        <time>2026-09-27T10:40:27Z</time>
      </trkpt>
      <trkpt lat="31.229685489081366" lon="121.39997787823114">
        <ele>14.201351607218385</ele>
        <time>2026-09-27T10:40:30Z</time>
      </trkpt>
      <trkpt lat="31.229726488285806" lon="121.40015489932193">
        <ele>10.769039595499635</ele>
        <time>2026-09-27T10:40:36Z</time>
      </trkpt>
      <trkpt lat="31.229761480404303" lon="121.40023190751457">
        <ele>14.912125075235963</ele>
        <time>2026-09-27T10:40:39Z</time>
      </trkpt>
      <trkpt lat="31.229918424930563" lon="121.40038491709392">
        <ele>11.228794539347291</ele>
        <time>2026-09-27T10:40:48Z</time>
      </trkpt>
      <trkpt lat="31.23004736883373" lon="121.40041691086905">
        <ele>13.5117191914469</ele>
        <time>2026-09-27T10:40:54Z</time>
      </trkpt>
      <trkpt lat="31.23024427342663" lon="121.4003828883592">
        <ele>13.081028426066041</ele>
        <time>2026-09-27T10:41:03Z</time>
      </trkpt>
      <trkpt lat="31.2304971537633" lon="121.40036286319155">
        <ele>12.359688246622682</ele>
        <time>2026-09-27T10:41:12Z</time>
      </trkpt>
      <trkpt lat="31.23076501825208" lon="121.40026382474376">
        <ele>13.207859480753541</ele>
        <time>2026-09-27T10:41:24Z</time>
      </trkpt>
      <trkpt lat="31.23100889275016" lon="121.40014978674161">
        <ele>13.561924422159791</ele>
        <time>2026-09-27T10:41:36Z</time>
      </trkpt>
      <trkpt lat="31.231066759634455" lon="121.40007078970723">
        <ele>13.699322188273072</ele>
        <time>2026-09-27T10:41:39Z</time>
      </trkpt>
      <trkpt lat="31.23119578715837" lon="121.39996474474437">
        <ele>13.300339186564088</ele>
        <time>2026-09-27T10:41:48Z</time>
      </trkpt>
      <trkpt lat="31.231224765323763" lon="121.39987773075492">
        <ele>14.254200423136353</ele>
        <time>2026-09-27T10:41:51Z</time>
      </trkpt>
      <trkpt lat="31.231201753928957" lon="121.39963070238758">
        <ele>13.667614424601197</ele>
        <time>2026-09-27T10:41:57Z</time>
      </trkpt>
      <trkpt lat="31.23113677180282" lon="121.39947869095529">
        <ele>12.819443190470338</ele>
        <time>2026-09-27T10:42:03Z</time>
      </trkpt>
      <trkpt lat="31.231048804708823" lon="121.39937368752334">
        <ele>12.610702956095338</ele>
        <time>2026-09-27T10:42:10Z</time>
      </trkpt>
      <trkpt lat="31.230988830204367" lon="121.39934168948533">
        <ele>13.059891188517213</ele>
        <time>2026-09-27T10:42:13Z</time>
      </trkpt>
      <trkpt lat="31.230784921014198" lon="121.39928870197507">
        <ele>12.830013716593385</ele>
        <time>2026-09-27T10:42:22Z</time>
      </trkpt>
      <trkpt lat="31.230691378506584" lon="121.39929185296423">
        <ele>13.31090589798987</ele>
        <time>2026-09-27T10:42:25Z</time>
      </trkpt>
      <trkpt lat="31.230536040836554" lon="121.39935172999765">
        <ele>12.964767897501588</ele>
        <time>2026-09-27T10:42:34Z</time>
      </trkpt>
      <trkpt lat="31.230308149968387" lon="121.39939875472135">
        <ele>9.323715651407838</ele>
        <time>2026-09-27T10:42:43Z</time>
      </trkpt>
      <trkpt lat="31.23023518642916" lon="121.39943376476919">
        <ele>11.207657301798463</ele>
        <time>2026-09-27T10:42:46Z</time>
      </trkpt>
      <trkpt lat="31.229943328145136" lon="121.3995147989979">
        <ele>12.264564955607057</ele>
        <time>2026-09-27T10:43:01Z</time>
      </trkpt>
      <trkpt lat="31.22981839007666" lon="121.39956381536862">
        <ele>12.695255720987916</ele>
        <time>2026-09-27T10:43:07Z</time>
      </trkpt>
      <trkpt lat="31.229769417088388" lon="121.39961582558604">
        <ele>12.872288191691041</ele>
        <time>2026-09-27T10:43:10Z</time>
      </trkpt>
      <trkpt lat="31.22968547140656" lon="121.39979185408507">
        <ele>12.17208524979651</ele>
        <time>2026-09-27T10:43:16Z</time>
      </trkpt>
      <trkpt lat="31.229680496010843" lon="121.40002388491895">
        <ele>9.659283125773072</ele>
        <time>2026-09-27T10:43:25Z</time>
      </trkpt>
      <trkpt lat="31.229709493518758" lon="121.40012989722041">
        <ele>12.631844008341432</ele>
        <time>2026-09-27T10:43:28Z</time>
      </trkpt>
      <trkpt lat="31.229801466172322" lon="121.40027090984117">
        <ele>12.73489042557776</ele>
        <time>2026-09-27T10:43:34Z</time>
      </trkpt>
      <trkpt lat="31.230027376222747" lon="121.40040091009499">
        <ele>12.756027663126588</ele>
        <time>2026-09-27T10:43:46Z</time>
      </trkpt>
      <trkpt lat="31.230245276022455" lon="121.40040889234562">
        <ele>12.119240248575807</ele>
        <time>2026-09-27T10:43:55Z</time>
      </trkpt>
      <trkpt lat="31.230580110785535" lon="121.40032384995227">
        <ele>14.462936842814088</ele>
        <time>2026-09-27T10:44:10Z</time>
      </trkpt>
      <trkpt lat="31.230752023494652" lon="121.40025682483036">
        <ele>12.642410719767213</ele>
        <time>2026-09-27T10:44:20Z</time>
      </trkpt>
      <trkpt lat="31.23104586546527" lon="121.40005276981996">
        <ele>12.536720717325807</ele>
        <time>2026-09-27T10:44:35Z</time>
      </trkpt>
      <trkpt lat="31.231094836404786" lon="121.39998975691744">
        <ele>12.663547957316041</ele>
        <time>2026-09-27T10:44:38Z</time>
      </trkpt>
      <trkpt lat="31.231192785999593" lon="121.39993874153917">
        <ele>13.091598952189088</ele>
        <time>2026-09-27T10:44:41Z</time>
      </trkpt>
      <trkpt lat="31.231230754564265" lon="121.39979171929325">
        <ele>10.560299361124635</ele>
        <time>2026-09-27T10:44:47Z</time>
      </trkpt>
      <trkpt lat="31.231183755301842" lon="121.39954569424535">
        <ele>12.317413771525025</ele>
        <time>2026-09-27T10:44:56Z</time>
      </trkpt>
      <trkpt lat="31.231106780631734" lon="121.39941168641842">
        <ele>10.444038832560182</ele>
        <time>2026-09-27T10:45:02Z</time>
      </trkpt>
      <trkpt lat="31.23105879892457" lon="121.39935768501005">
        <ele>10.758469069376588</ele>
        <time>2026-09-27T10:45:05Z</time>
      </trkpt>
      <trkpt lat="31.23086688260903" lon="121.39928269423523">
        <ele>12.024120772257447</ele>
        <time>2026-09-27T10:45:14Z</time>
      </trkpt>
      <trkpt lat="31.230711953411326" lon="121.3992677062818">
        <ele>11.825947249308228</ele>
        <time>2026-09-27T10:45:20Z</time>
      </trkpt>
      <trkpt lat="31.23053803625434" lon="121.39929972459778">
        <ele>11.543224776163697</ele>
        <time>2026-09-27T10:45:29Z</time>
      </trkpt>
      <trkpt lat="31.23049305622231" lon="121.39928672723698">
        <ele>12.129810774698853</ele>
        <time>2026-09-27T10:45:32Z</time>
      </trkpt>
      <trkpt lat="31.230155223692442" lon="121.39943577195653">
        <ele>11.281639540567994</ele>
        <time>2026-09-27T10:45:47Z</time>
      </trkpt>
      <trkpt lat="31.229902348757467" lon="121.39953480479097">
        <ele>10.058266127482057</ele>
        <time>2026-09-27T10:46:00Z</time>
      </trkpt>
      <trkpt lat="31.229756426739236" lon="121.39965883174293">
        <ele>11.783672774210572</ele>
        <time>2026-09-27T10:46:06Z</time>
      </trkpt>
      <trkpt lat="31.229678475203443" lon="121.39979785544591">
        <ele>11.366192305460572</ele>
        <time>2026-09-27T10:46:12Z</time>
      </trkpt>
      <trkpt lat="31.229655494745675" lon="121.39989286958676">
        <ele>11.773102248087525</ele>
        <time>2026-09-27T10:46:15Z</time>
      </trkpt>
      <trkpt lat="31.229669504790422" lon="121.40005989084833">
        <ele>11.688549483194947</ele>
        <time>2026-09-27T10:46:21Z</time>
      </trkpt>
      <trkpt lat="31.229712498993003" lon="121.40019390619862">
        <ele>10.86416288651526</ele>
        <time>2026-09-27T10:46:27Z</time>
      </trkpt>
      <trkpt lat="31.229782477810865" lon="121.40029591526668">
        <ele>11.58550306595862</ele>
        <time>2026-09-27T10:46:30Z</time>
      </trkpt>
      <trkpt lat="31.229910428995687" lon="121.40038791825994">
        <ele>12.024120772257447</ele>
        <time>2026-09-27T10:46:36Z</time>
      </trkpt>
      <trkpt lat="31.23004936945135" lon="121.4004299127503">
        <ele>11.617210829630494</ele>
        <time>2026-09-27T10:46:42Z</time>
      </trkpt>
      <trkpt lat="31.23037121323699" lon="121.40037187557374">
        <ele>11.228794539347291</ele>
        <time>2026-09-27T10:46:57Z</time>
      </trkpt>
      <trkpt lat="31.23045517428476" lon="121.40037186825002">
        <ele>11.773102248087525</ele>
        <time>2026-09-27T10:47:00Z</time>
      </trkpt>
      <trkpt lat="31.23076102010568" lon="121.40026382509251">
        <ele>10.0159916523844</ele>
        <time>2026-09-27T10:47:15Z</time>
      </trkpt>
      <trkpt lat="31.23108485174613" lon="121.40009477228895">
        <ele>11.656841719523072</ele>
        <time>2026-09-27T10:47:30Z</time>
      </trkpt>
      <trkpt lat="31.231126827135306" lon="121.40004476165016">
        <ele>9.418838942423463</ele>
        <time>2026-09-27T10:47:33Z</time>
      </trkpt>
      <trkpt lat="31.231209769260403" lon="121.39984572794725">
        <ele>11.260502303019166</ele>
        <time>2026-09-27T10:47:42Z</time>
      </trkpt>
      <trkpt lat="31.231227743914648" lon="121.39965470293139">
        <ele>11.699120009317994</ele>
        <time>2026-09-27T10:47:49Z</time>
      </trkpt>
      <trkpt lat="31.231190749837605" lon="121.39951769051886">
        <ele>11.15481230057776</ele>
        <time>2026-09-27T10:47:55Z</time>
      </trkpt>
      <trkpt lat="31.231154760873636" lon="121.39944468572679">
        <ele>10.507454359903932</ele>
        <time>2026-09-27T10:47:58Z</time>
      </trkpt>
      <trkpt lat="31.231052801059832" lon="121.3993486846158">
        <ele>11.426964247599244</ele>
        <time>2026-09-27T10:48:04Z</time>
      </trkpt>
      <trkpt lat="31.230894867806494" lon="121.39925568916064">
        <ele>10.726761305704713</ele>
        <time>2026-09-27T10:48:10Z</time>
      </trkpt>
      <trkpt lat="31.2306919618709" lon="121.39925570685993">
        <ele>9.638145888224244</ele>
        <time>2026-09-27T10:48:19Z</time>
      </trkpt>
      <trkpt lat="31.23056302689964" lon="121.39933172561699">
        <ele>7.180832350626588</ele>
        <time>2026-09-27T10:48:25Z</time>
      </trkpt>
      <trkpt lat="31.230270167007145" lon="121.3993907572016">
        <ele>10.589363539591432</ele>
        <time>2026-09-27T10:48:37Z</time>
      </trkpt>
      <trkpt lat="31.23021019557334" lon="121.39940076347439">
        <ele>10.568226302042603</ele>
        <time>2026-09-27T10:48:40Z</time>
      </trkpt>
      <trkpt lat="31.22999730253338" lon="121.39950779351835">
        <ele>10.631641829386353</ele>
        <time>2026-09-27T10:48:49Z</time>
      </trkpt>
      <trkpt lat="31.229839380165977" lon="121.39956181331189">
        <ele>11.345055067911744</ele>
        <time>2026-09-27T10:48:58Z</time>
      </trkpt>
      <trkpt lat="31.229784409047248" lon="121.39960282277862">
        <ele>11.260502303019166</ele>
        <time>2026-09-27T10:49:01Z</time>
      </trkpt>
      <trkpt lat="31.229696463501664" lon="121.39976084927828">
        <ele>11.52208753861487</ele>
        <time>2026-09-27T10:49:07Z</time>
      </trkpt>
      <trkpt lat="31.229648500587917" lon="121.39991987373261">
        <ele>11.437534773722291</ele>
        <time>2026-09-27T10:49:10Z</time>
      </trkpt>
      <trkpt lat="31.229659504451355" lon="121.40001088497173">
        <ele>9.722698653116822</ele>
        <time>2026-09-27T10:49:13Z</time>
      </trkpt>
      <trkpt lat="31.22980946527543" lon="121.4002959129127">
        <ele>11.041195357218385</ele>
        <time>2026-09-27T10:49:25Z</time>
      </trkpt>
      <trkpt lat="31.229928419703555" lon="121.40037991544222">
        <ele>11.197086775675416</ele>
        <time>2026-09-27T10:49:31Z</time>
      </trkpt>
      <trkpt lat="31.229992392819526" lon="121.40040391361755">
        <ele>12.547291243448853</ele>
        <time>2026-09-27T10:49:34Z</time>
      </trkpt>
      <trkpt lat="31.230342226336617" lon="121.40036887763614">
        <ele>9.722698653116822</ele>
        <time>2026-09-27T10:49:50Z</time>
      </trkpt>
      <trkpt lat="31.23060409500359" lon="121.40028284163547">
        <ele>11.511517012491822</ele>
        <time>2026-09-27T10:50:02Z</time>
      </trkpt>
      <trkpt lat="31.230859970346664" lon="121.40022881125235">
        <ele>11.165379012003541</ele>
        <time>2026-09-27T10:50:14Z</time>
      </trkpt>
      <trkpt lat="31.231062863924997" lon="121.40011377689277">
        <ele>10.872089827433228</ele>
        <time>2026-09-27T10:50:26Z</time>
      </trkpt>
      <trkpt lat="31.231193785829035" lon="121.3999417418502">
        <ele>10.850948775187135</ele>
        <time>2026-09-27T10:50:35Z</time>
      </trkpt>
      <trkpt lat="31.231224753919697" lon="121.39975371510677">
        <ele>11.260502303019166</ele>
        <time>2026-09-27T10:50:41Z</time>
      </trkpt>
      <trkpt lat="31.231202750643078" lon="121.39959669837025">
        <ele>11.062332594767213</ele>
        <time>2026-09-27T10:50:47Z</time>
      </trkpt>
      <trkpt lat="31.231141767423214" lon="121.39945168760866">
        <ele>11.58550306595862</ele>
        <time>2026-09-27T10:50:53Z</time>
      </trkpt>
      <trkpt lat="31.231103781577254" lon="121.39940568605094">
        <ele>10.758469069376588</ele>
        <time>2026-09-27T10:50:56Z</time>
      </trkpt>
      <trkpt lat="31.23092885477864" lon="121.39929569011102">
        <ele>8.560097182169557</ele>
        <time>2026-09-27T10:51:05Z</time>
      </trkpt>
      <trkpt lat="31.2308498893968" lon="121.39926669415236">
        <ele>3.164574110880494</ele>
        <time>2026-09-27T10:51:08Z</time>
      </trkpt>
      <trkpt lat="31.230782920373635" lon="121.39926569989663">
        <ele>10.769039595499635</ele>
        <time>2026-09-27T10:51:11Z</time>
      </trkpt>
      <trkpt lat="31.230648984869163" lon="121.39930071501907">
        <ele>11.374119246378541</ele>
        <time>2026-09-27T10:51:17Z</time>
      </trkpt>
      <trkpt lat="31.2305150518655" lon="121.39936973367043">
        <ele>9.87859388627112</ele>
        <time>2026-09-27T10:51:23Z</time>
      </trkpt>
      <trkpt lat="31.23017421616155" lon="121.39945277211393">
        <ele>11.260502303019166</ele>
        <time>2026-09-27T10:51:38Z</time>
      </trkpt>
      <trkpt lat="31.230110247382" lon="121.3994727798473">
        <ele>10.821884596720338</ele>
        <time>2026-09-27T10:51:41Z</time>
      </trkpt>
      <trkpt lat="31.23006127425055" lon="121.39952578992751">
        <ele>8.08977552689612</ele>
        <time>2026-09-27T10:51:44Z</time>
      </trkpt>
      <trkpt lat="31.22983139014287" lon="121.39963782273858">
        <ele>10.444038832560182</ele>
        <time>2026-09-27T10:51:53Z</time>
      </trkpt>
      <trkpt lat="31.229731446981052" lon="121.39975784585714">
        <ele>11.74139448441565</ele>
        <time>2026-09-27T10:51:59Z</time>
      </trkpt>
      <trkpt lat="31.22969646969236" lon="121.39982885778454">
        <ele>11.292210066691041</ele>
        <time>2026-09-27T10:52:02Z</time>
      </trkpt>
      <trkpt lat="31.22967949779436" lon="121.40003688679312">
        <ele>11.677982771769166</ele>
        <time>2026-09-27T10:52:11Z</time>
      </trkpt>
      <trkpt lat="31.229771479316973" lon="121.4002639114073">
        <ele>10.935501540079713</ele>
        <time>2026-09-27T10:52:18Z</time>
      </trkpt>
      <trkpt lat="31.229918424579186" lon="121.40038191662586">
        <ele>10.663349593058228</ele>
        <time>2026-09-27T10:52:24Z</time>
      </trkpt>
      <trkpt lat="31.230046368468578" lon="121.40040990985305">
        <ele>6.802986586466432</ele>
        <time>2026-09-27T10:52:30Z</time>
      </trkpt>
      <trkpt lat="31.23011533315629" lon="121.40038189945027">
        <ele>10.267006361857057</ele>
        <time>2026-09-27T10:52:33Z</time>
      </trkpt>
      <trkpt lat="31.230258266230713" lon="121.40037688620357">
        <ele>10.108471358194947</ele>
        <time>2026-09-27T10:52:42Z</time>
      </trkpt>
      <trkpt lat="31.23034521951961" lon="121.4003218701356">
        <ele>10.140179121866822</ele>
        <time>2026-09-27T10:52:48Z</time>
      </trkpt>
      <trkpt lat="31.230425183107407" lon="121.40032786407829">
        <ele>9.764976942911744</ele>
        <time>2026-09-27T10:52:51Z</time>
      </trkpt>
      <trkpt lat="31.230722037955477" lon="121.40026182819348">
        <ele>11.24993177689612</ele>
        <time>2026-09-27T10:53:06Z</time>
      </trkpt>
      <trkpt lat="31.23086296752695" lon="121.40021580907259">
        <ele>12.1403813008219</ele>
        <time>2026-09-27T10:53:12Z</time>
      </trkpt>
      <trkpt lat="31.23106885811489" lon="121.4000847722781">
        <ele>12.129810774698853</ele>
        <time>2026-09-27T10:53:24Z</time>
      </trkpt>
      <trkpt lat="31.231189788071628" lon="121.39994574273061">
        <ele>11.030624831095338</ele>
        <time>2026-09-27T10:53:30Z</time>
      </trkpt>
      <trkpt lat="31.23122875476439" lon="121.39978371846983">
        <ele>11.45867201127112</ele>
        <time>2026-09-27T10:53:36Z</time>
      </trkpt>
      <trkpt lat="31.23120374919598" lon="121.39958469691042">
        <ele>11.907860243692994</ele>
        <time>2026-09-27T10:53:42Z</time>
      </trkpt>
      <trkpt lat="31.231142766505798" lon="121.39944568687983">
        <ele>12.108673537150025</ele>
        <time>2026-09-27T10:53:48Z</time>
      </trkpt>
      <trkpt lat="31.23100782013308" lon="121.39932368601332">
        <ele>6.2692455891519785</ele>
        <time>2026-09-27T10:53:54Z</time>
      </trkpt>
      <trkpt lat="31.230775923684984" lon="121.39926670060431">
        <ele>5.851768935099244</ele>
        <time>2026-09-27T10:54:03Z</time>
      </trkpt>
      <trkpt lat="31.230511052498418" lon="121.39935273227921">
        <ele>11.79424330033362</ele>
        <time>2026-09-27T10:54:15Z</time>
      </trkpt>
      <trkpt lat="31.230188208985236" lon="121.3994437699311">
        <ele>10.642208540812135</ele>
        <time>2026-09-27T10:54:31Z</time>
      </trkpt>
      <trkpt lat="31.22994033223712" lon="121.39954880304334">
        <ele>12.07696577347815</ele>
        <time>2026-09-27T10:54:43Z</time>
      </trkpt>
      <trkpt lat="31.229875363373388" lon="121.39956081006038">
        <ele>10.893227064982057</ele>
        <time>2026-09-27T10:54:46Z</time>
      </trkpt>
      <trkpt lat="31.22972344601966" lon="121.39970484010142">
        <ele>9.210098708048463</ele>
        <time>2026-09-27T10:54:55Z</time>
      </trkpt>
      <trkpt lat="31.229695464055585" lon="121.39976184948881">
        <ele>9.680424178019166</ele>
        <time>2026-09-27T10:54:58Z</time>
      </trkpt>
      <trkpt lat="31.22968447572808" lon="121.39983385946579">
        <ele>9.18895765580237</ele>
        <time>2026-09-27T10:55:01Z</time>
      </trkpt>
      <trkpt lat="31.229707487864825" lon="121.40006688850966">
        <ele>12.002979720011353</ele>
        <time>2026-09-27T10:55:10Z</time>
      </trkpt>
      <trkpt lat="31.229730484934933" lon="121.4001408969623">
        <ele>10.245869124308228</ele>
        <time>2026-09-27T10:55:13Z</time>
      </trkpt>
      <trkpt lat="31.229868440730453" lon="121.40032091157062">
        <ele>10.047699416056275</ele>
        <time>2026-09-27T10:55:22Z</time>
      </trkpt>
      <trkpt lat="31.230109338526272" lon="121.40040390341682">
        <ele>12.766598189249635</ele>
        <time>2026-09-27T10:55:34Z</time>
      </trkpt>
      <trkpt lat="31.230279254510087" lon="121.40035988173373">
        <ele>10.872089827433228</ele>
        <time>2026-09-27T10:55:40Z</time>
      </trkpt>
      <trkpt lat="31.230370211608854" lon="121.40035387287197">
        <ele>10.642208540812135</ele>
        <time>2026-09-27T10:55:47Z</time>
      </trkpt>
      <trkpt lat="31.23063208090026" lon="121.40027283768951">
        <ele>10.977779829874635</ele>
        <time>2026-09-27T10:55:59Z</time>
      </trkpt>
      <trkpt lat="31.230899947982568" lon="121.40019380262069">
        <ele>11.115177595987916</ele>
        <time>2026-09-27T10:56:11Z</time>
      </trkpt>
      <trkpt lat="31.231128828466392" lon="121.4000667645294">
        <ele>10.589363539591432</ele>
        <time>2026-09-27T10:56:20Z</time>
      </trkpt>
      <trkpt lat="31.231214774260604" lon="121.39992273750525">
        <ele>10.298714125528932</ele>
        <time>2026-09-27T10:56:29Z</time>
      </trkpt>
      <trkpt lat="31.231234745581627" lon="121.39971170911771">
        <ele>10.475746596232057</ele>
        <time>2026-09-27T10:56:38Z</time>
      </trkpt>
      <trkpt lat="31.231155761701327" lon="121.39946168746157">
        <ele>11.09139677323401</ele>
        <time>2026-09-27T10:56:47Z</time>
      </trkpt>
      <trkpt lat="31.231117775315756" lon="121.39940868514458">
        <ele>4.88998075760901</ele>
        <time>2026-09-27T10:56:50Z</time>
      </trkpt>
      <trkpt lat="31.2308668821995" lon="121.39927669364674">
        <ele>11.207657301798463</ele>
        <time>2026-09-27T10:56:59Z</time>
      </trkpt>
      <trkpt lat="31.230664976489006" lon="121.39928671224067">
        <ele>9.95257612504065</ele>
        <time>2026-09-27T10:57:08Z</time>
      </trkpt>
      <trkpt lat="31.230627995785415" lon="121.39931771854364">
        <ele>8.990787947550416</ele>
        <time>2026-09-27T10:57:11Z</time>
      </trkpt>
      <trkpt lat="31.230305152615987" lon="121.39941575676387">
        <ele>5.193840468302369</ele>
        <time>2026-09-27T10:57:26Z</time>
      </trkpt>
      <trkpt lat="31.230236184695585" lon="121.399416762885">
        <ele>11.302780592814088</ele>
        <time>2026-09-27T10:57:29Z</time>
      </trkpt>
      <trkpt lat="31.22993833518301" lon="121.39957380603866">
        <ele>9.513958418741822</ele>
        <time>2026-09-27T10:57:44Z</time>
      </trkpt>
      <trkpt lat="31.229819395210104" lon="121.39963182308465">
        <ele>9.585300887003541</ele>
        <time>2026-09-27T10:57:53Z</time>
      </trkpt>
      <trkpt lat="31.229729448267683" lon="121.39976184652453">
        <ele>10.150745833292603</ele>
        <time>2026-09-27T10:57:59Z</time>
      </trkpt>
      <trkpt lat="31.22970547057513" lon="121.39988286392777">
        <ele>9.846886122599244</ele>
        <time>2026-09-27T10:58:05Z</time>
      </trkpt>
      <trkpt lat="31.229697489333926" lon="121.40003588508601">
        <ele>11.606640303507447</ele>
        <time>2026-09-27T10:58:11Z</time>
      </trkpt>
      <trkpt lat="31.22970849166442" lon="121.40010789418115">
        <ele>10.790176833048463</ele>
        <time>2026-09-27T10:58:14Z</time>
      </trkpt>
      <trkpt lat="31.229787468664064" lon="121.40023490569216">
        <ele>10.4334721211344</ele>
        <time>2026-09-27T10:58:20Z</time>
      </trkpt>
      <trkpt lat="31.229834452200713" lon="121.40028290876907">
        <ele>10.684486830607057</ele>
        <time>2026-09-27T10:58:23Z</time>
      </trkpt>
      <trkpt lat="31.229989392798586" lon="121.40039191199773">
        <ele>10.28814741410315</ele>
        <time>2026-09-27T10:58:35Z</time>
      </trkpt>
      <trkpt lat="31.23030423956666" lon="121.40033087508746">
        <ele>10.31985136307776</ele>
        <time>2026-09-27T10:58:50Z</time>
      </trkpt>
      <trkpt lat="31.230539123674944" lon="121.40026984534758">
        <ele>8.404205763712525</ele>
        <time>2026-09-27T10:59:02Z</time>
      </trkpt>
      <trkpt lat="31.2307850001803" lon="121.40018381118948">
        <ele>11.416397536173463</ele>
        <time>2026-09-27T10:59:11Z</time>
      </trkpt>
      <trkpt lat="31.23094692178938" lon="121.40015279257878">
        <ele>11.228794539347291</ele>
        <time>2026-09-27T10:59:17Z</time>
      </trkpt>
      <trkpt lat="31.231049867955466" lon="121.40009477534058">
        <ele>10.893227064982057</ele>
        <time>2026-09-27T10:59:23Z</time>
      </trkpt>
      <trkpt lat="31.23117079932604" lon="121.39997074772918">
        <ele>6.018230879679322</ele>
        <time>2026-09-27T10:59:29Z</time>
      </trkpt>
      <trkpt lat="31.231186784438787" lon="121.39989373614607">
        <ele>9.817821944132447</ele>
        <time>2026-09-27T10:59:32Z</time>
      </trkpt>
      <trkpt lat="31.231233750020774" lon="121.39975671469112">
        <ele>9.95257612504065</ele>
        <time>2026-09-27T10:59:38Z</time>
      </trkpt>
      <trkpt lat="31.231283502587072" lon="121.39951669164901">
        <ele>10.821884596720338</ele>
        <time>2026-09-27T10:59:44Z</time>
      </trkpt>
      <trkpt lat="31.231134192330657" lon="121.39941192395446">
        <ele>10.977779829874635</ele>
        <time>2026-09-27T10:59:50Z</time>
      </trkpt>
      <trkpt lat="31.230881874368173" lon="121.39926369107035">
        <ele>6.990585768595338</ele>
        <time>2026-09-27T11:00:02Z</time>
      </trkpt>
      <trkpt lat="31.230805908305495" lon="121.39924469585857">
        <ele>10.327778303995728</ele>
        <time>2026-09-27T11:00:06Z</time>
      </trkpt>
      <trkpt lat="31.230701958045827" lon="121.39926770715368">
        <ele>10.589363539591432</ele>
        <time>2026-09-27T11:00:12Z</time>
      </trkpt>
      <trkpt lat="31.23062399406266" lon="121.39926571375958">
        <ele>9.931438887491822</ele>
        <time>2026-09-27T11:00:15Z</time>
      </trkpt>
      <trkpt lat="31.230356125016662" lon="121.39936174671254">
        <ele>7.870464766398072</ele>
        <time>2026-09-27T11:00:27Z</time>
      </trkpt>
      <trkpt lat="31.230061269276607" lon="121.39946178293243">
        <ele>10.412331068888307</ele>
        <time>2026-09-27T11:00:42Z</time>
      </trkpt>
      <trkpt lat="31.22983838348273" lon="121.39959681738146">
        <ele>10.726761305704713</ele>
        <time>2026-09-27T11:00:54Z</time>
      </trkpt>
      <trkpt lat="31.22977041989926" lon="121.39965483005095">
        <ele>10.568226302042603</ele>
        <time>2026-09-27T11:00:57Z</time>
      </trkpt>
      <trkpt lat="31.229729445600256" lon="121.39973184284736">
        <ele>11.125748122110963</ele>
        <time>2026-09-27T11:01:00Z</time>
      </trkpt>
      <trkpt lat="31.229710467873968" lon="121.39987886297341">
        <ele>10.631641829386353</ele>
        <time>2026-09-27T11:01:06Z</time>
      </trkpt>
      <trkpt lat="31.229691481393232" lon="121.39992787103859">
        <ele>8.927376234903932</ele>
        <time>2026-09-27T11:01:09Z</time>
      </trkpt>
      <trkpt lat="31.229688493513237" lon="121.40003588587068">
        <ele>11.345055067911744</ele>
        <time>2026-09-27T11:01:12Z</time>
      </trkpt>
      <trkpt lat="31.229801462496006" lon="121.40023790491642">
        <ele>9.868023360148072</ele>
        <time>2026-09-27T11:01:21Z</time>
      </trkpt>
      <trkpt lat="31.229951408093864" lon="121.40037191219196">
        <ele>7.201969588175416</ele>
        <time>2026-09-27T11:01:30Z</time>
      </trkpt>
      <trkpt lat="31.230202294318403" lon="121.40039489389673">
        <ele>10.549728835001588</ele>
        <time>2026-09-27T11:01:39Z</time>
      </trkpt>
      <trkpt lat="31.23049115170322" lon="121.40032085725353">
        <ele>11.083469832316041</ele>
        <time>2026-09-27T11:01:51Z</time>
      </trkpt>
      <trkpt lat="31.23054912049988" lon="121.4002828464308">
        <ele>10.726761305704713</ele>
        <time>2026-09-27T11:01:54Z</time>
      </trkpt>
      <trkpt lat="31.230821987182363" lon="121.40022181353153">
        <ele>10.277576887980103</ele>
        <time>2026-09-27T11:02:06Z</time>
      </trkpt>
      <trkpt lat="31.230979906824082" lon="121.40015579013348">
        <ele>10.663349593058228</ele>
        <time>2026-09-27T11:02:15Z</time>
      </trkpt>
      <trkpt lat="31.23107785498791" lon="121.40009477289928">
        <ele>10.747902357950807</ele>
        <time>2026-09-27T11:02:19Z</time>
      </trkpt>
      <trkpt lat="31.231237756017222" lon="121.39984272512287">
        <ele>10.758469069376588</ele>
        <time>2026-09-27T11:02:31Z</time>
      </trkpt>
      <trkpt lat="31.23122274462557" lon="121.39963570113967">
        <ele>10.758469069376588</ele>
        <time>2026-09-27T11:02:40Z</time>
      </trkpt>
      <trkpt lat="31.231135768169487" lon="121.39942468525933">
        <ele>3.9070553425699472</ele>
        <time>2026-09-27T11:02:49Z</time>
      </trkpt>
      <trkpt lat="31.2309798310163" lon="121.39929368546663">
        <ele>8.03692671097815</ele>
        <time>2026-09-27T11:02:58Z</time>
      </trkpt>
      <trkpt lat="31.230717949821155" lon="121.39925570459303">
        <ele>7.6828617695719</ele>
        <time>2026-09-27T11:03:10Z</time>
      </trkpt>
      <trkpt lat="31.23042409198282" lon="121.39934073864544">
        <ele>11.490379774942994</ele>
        <time>2026-09-27T11:03:25Z</time>
      </trkpt>
      <trkpt lat="31.230173218691018" lon="121.39947977511322">
        <ele>9.09383817948401</ele>
        <time>2026-09-27T11:03:37Z</time>
      </trkpt>
      <trkpt lat="31.230069265793468" lon="121.39946478255806">
        <ele>10.277576887980103</ele>
        <time>2026-09-27T11:03:40Z</time>
      </trkpt>
      <trkpt lat="31.229768417802234" lon="121.39961882602054">
        <ele>9.690990889444947</ele>
        <time>2026-09-27T11:03:55Z</time>
      </trkpt>
      <trkpt lat="31.229721444014064" lon="121.39967083621362">
        <ele>10.140179121866822</ele>
        <time>2026-09-27T11:03:58Z</time>
      </trkpt>
      <trkpt lat="31.229677482724835" lon="121.39987386520367">
        <ele>10.705624068155885</ele>
        <time>2026-09-27T11:04:04Z</time>
      </trkpt>
      <trkpt lat="31.22968849606999" lon="121.40006088933085">
        <ele>10.256439650431275</ele>
        <time>2026-09-27T11:04:10Z</time>
      </trkpt>
      <trkpt lat="31.229741486507496" lon="121.40020290498688">
        <ele>10.150745833292603</ele>
        <time>2026-09-27T11:04:17Z</time>
      </trkpt>
      <trkpt lat="31.229959406252352" lon="121.40038791398784">
        <ele>8.08977552689612</ele>
        <time>2026-09-27T11:04:29Z</time>
      </trkpt>
      <trkpt lat="31.23001138435614" lon="121.40040691243256">
        <ele>10.327778303995728</ele>
        <time>2026-09-27T11:04:32Z</time>
      </trkpt>
      <trkpt lat="31.23020429069669" lon="121.40037189013391">
        <ele>10.422901595011353</ele>
        <time>2026-09-27T11:04:41Z</time>
      </trkpt>
      <trkpt lat="31.230375204921078" lon="121.40031586660423">
        <ele>3.164574110880494</ele>
        <time>2026-09-27T11:04:50Z</time>
      </trkpt>
      <trkpt lat="31.230641075385147" lon="121.40026083510611">
        <ele>10.581436598673463</ele>
        <time>2026-09-27T11:05:02Z</time>
      </trkpt>
      <trkpt lat="31.23088495536704" lon="121.40019780451317">
        <ele>8.61294218339026</ele>
        <time>2026-09-27T11:05:14Z</time>
      </trkpt>
      <trkpt lat="31.231136819461188" lon="121.40001475665522">
        <ele>9.920868361368775</ele>
        <time>2026-09-27T11:05:26Z</time>
      </trkpt>
      <trkpt lat="31.23117779707541" lon="121.39998074846483">
        <ele>8.959080183878541</ele>
        <time>2026-09-27T11:05:29Z</time>
      </trkpt>
      <trkpt lat="31.231221766428767" lon="121.39987473062838">
        <ele>10.327778303995728</ele>
        <time>2026-09-27T11:05:35Z</time>
      </trkpt>
      <trkpt lat="31.231218749188148" lon="121.3996677052512">
        <ele>10.589363539591432</ele>
        <time>2026-09-27T11:05:41Z</time>
      </trkpt>
      <trkpt lat="31.23117175895045" lon="121.39952169261812">
        <ele>9.74383589066565</ele>
        <time>2026-09-27T11:05:48Z</time>
      </trkpt>
      <trkpt lat="31.231060798501307" lon="121.39936468555211">
        <ele>6.855831587687135</ele>
        <time>2026-09-27T11:05:57Z</time>
      </trkpt>
      <trkpt lat="31.230921855298277" lon="121.39925568680654">
        <ele>9.262943709269166</ele>
        <time>2026-09-27T11:06:03Z</time>
      </trkpt>
      <trkpt lat="31.230797911945718" lon="121.39924369645986">
        <ele>7.180832350626588</ele>
        <time>2026-09-27T11:06:09Z</time>
      </trkpt>
      <trkpt lat="31.230565023737398" lon="121.39929972224371">
        <ele>9.712128126993775</ele>
        <time>2026-09-27T11:06:18Z</time>
      </trkpt>
      <trkpt lat="31.230404105888578" lon="121.39940474697822">
        <ele>9.786114180460572</ele>
        <time>2026-09-27T11:06:27Z</time>
      </trkpt>
      <trkpt lat="31.23003128675476" lon="121.39950779055403">
        <ele>8.184895003214478</ele>
        <time>2026-09-27T11:06:36Z</time>
      </trkpt>
      <trkpt lat="31.229900351930056" lon="121.39956280810647">
        <ele>8.37249800004065</ele>
        <time>2026-09-27T11:06:42Z</time>
      </trkpt>
      <trkpt lat="31.229838384970847" lon="121.39961481945458">
        <ele>9.15725370682776</ele>
        <time>2026-09-27T11:06:45Z</time>
      </trkpt>
      <trkpt lat="31.22972745000435" lon="121.39977084781124">
        <ele>8.3090824726969</ele>
        <time>2026-09-27T11:06:51Z</time>
      </trkpt>
      <trkpt lat="31.2297284778045" lon="121.40006388626087">
        <ele>7.923309767618775</ele>
        <time>2026-09-27T11:07:03Z</time>
      </trkpt>
      <trkpt lat="31.229802461037487" lon="121.40022890349607">
        <ele>8.351356947794557</ele>
        <time>2026-09-27T11:07:12Z</time>
      </trkpt>
      <trkpt lat="31.22981146868222" lon="121.40033391853014">
        <ele>9.66985365189612</ele>
        <time>2026-09-27T11:07:15Z</time>
      </trkpt>
      <trkpt lat="31.230143321220353" lon="121.40039089841464">
        <ele>5.487133467569947</ele>
        <time>2026-09-27T11:07:30Z</time>
      </trkpt>
      <trkpt lat="31.230469162361423" lon="121.40032485978301">
        <ele>9.18895765580237</ele>
        <time>2026-09-27T11:07:49Z</time>
      </trkpt>
      <trkpt lat="31.23074702105763" lon="121.40021381889214">
        <ele>12.180012190714478</ele>
        <time>2026-09-27T11:08:04Z</time>
      </trkpt>
      <trkpt lat="31.230975904852396" lon="121.40011978533026">
        <ele>9.083267653360963</ele>
        <time>2026-09-27T11:08:16Z</time>
      </trkpt>
      <trkpt lat="31.231110830595814" lon="121.40000575769446">
        <ele>10.726761305704713</ele>
        <time>2026-09-27T11:08:22Z</time>
      </trkpt>
      <trkpt lat="31.231161799090668" lon="121.399925742522">
        <ele>5.756645644083619</ele>
        <time>2026-09-27T11:08:25Z</time>
      </trkpt>
      <trkpt lat="31.23119377379751" lon="121.39981472540666">
        <ele>9.387131178751588</ele>
        <time>2026-09-27T11:08:28Z</time>
      </trkpt>
      <trkpt lat="31.231177761971754" lon="121.39959370020613">
        <ele>10.076763594523072</ele>
        <time>2026-09-27T11:08:37Z</time>
      </trkpt>
      <trkpt lat="31.231119779059966" lon="121.39947069157111">
        <ele>8.916805708780885</ele>
        <time>2026-09-27T11:08:43Z</time>
      </trkpt>
      <trkpt lat="31.23106979776659" lon="121.39941168964442">
        <ele>9.376560652628541</ele>
        <time>2026-09-27T11:08:46Z</time>
      </trkpt>
      <trkpt lat="31.230962842105825" lon="121.3993396915497">
        <ele>9.104408705607057</ele>
        <time>2026-09-27T11:08:52Z</time>
      </trkpt>
      <trkpt lat="31.230737943690244" lon="121.39930170735852">
        <ele>9.74383589066565</ele>
        <time>2026-09-27T11:09:01Z</time>
      </trkpt>
      <trkpt lat="31.23055003342122" lon="121.39933872745735">
        <ele>8.729202711954713</ele>
        <time>2026-09-27T11:09:10Z</time>
      </trkpt>
      <trkpt lat="31.230378117063523" lon="121.39939274799329">
        <ele>9.376560652628541</ele>
        <time>2026-09-27T11:09:19Z</time>
      </trkpt>
      <trkpt lat="31.230322142815265" lon="121.399389752564">
        <ele>9.376560652628541</ele>
        <time>2026-09-27T11:09:22Z</time>
      </trkpt>
      <trkpt lat="31.230157223518283" lon="121.39944577284734">
        <ele>8.634083235636353</ele>
        <time>2026-09-27T11:09:31Z</time>
      </trkpt>
      <trkpt lat="31.229954326542916" lon="121.3995588029472">
        <ele>8.277374709025025</ele>
        <time>2026-09-27T11:09:40Z</time>
      </trkpt>
      <trkpt lat="31.22987836181951" lon="121.3995588095733">
        <ele>9.387131178751588</ele>
        <time>2026-09-27T11:09:43Z</time>
      </trkpt>
      <trkpt lat="31.229732442888483" lon="121.39971684076495">
        <ele>8.3090824726969</ele>
        <time>2026-09-27T11:09:52Z</time>
      </trkpt>
      <trkpt lat="31.22969946417957" lon="121.39978385186669">
        <ele>7.838757002726197</ele>
        <time>2026-09-27T11:09:55Z</time>
      </trkpt>
      <trkpt lat="31.229705484502848" lon="121.40002488287647">
        <ele>9.033066237345338</ele>
        <time>2026-09-27T11:10:04Z</time>
      </trkpt>
      <trkpt lat="31.229754476786923" lon="121.40016889890195">
        <ele>8.771481001749635</ele>
        <time>2026-09-27T11:10:11Z</time>
      </trkpt>
      <trkpt lat="31.229867441537927" lon="121.40032391211624">
        <ele>8.277374709025025</ele>
        <time>2026-09-27T11:10:17Z</time>
      </trkpt>
      <trkpt lat="31.230070357095148" lon="121.40040790744587">
        <ele>8.906235182657838</ele>
        <time>2026-09-27T11:10:26Z</time>
      </trkpt>
      <trkpt lat="31.230197297816535" lon="121.40040489590154">
        <ele>8.142620528116822</ele>
        <time>2026-09-27T11:10:32Z</time>
      </trkpt>
      <trkpt lat="31.230486152994082" lon="121.400311856317">
        <ele>7.400139296427369</ele>
        <time>2026-09-27T11:10:47Z</time>
      </trkpt>
      <trkpt lat="31.230660061926706" lon="121.40021882721369">
        <ele>6.551971876993775</ele>
        <time>2026-09-27T11:10:56Z</time>
      </trkpt>
      <trkpt lat="31.230940923821574" lon="121.40014579209591">
        <ele>8.94851347245276</ele>
        <time>2026-09-27T11:11:05Z</time>
      </trkpt>
      <trkpt lat="31.23109084709674" lon="121.40007676923902">
        <ele>7.075142348185182</ele>
        <time>2026-09-27T11:11:11Z</time>
      </trkpt>
      <trkpt lat="31.23119079036233" lon="121.39997374638862">
        <ele>9.231235945597291</ele>
        <time>2026-09-27T11:11:17Z</time>
      </trkpt>
      <trkpt lat="31.23123375740384" lon="121.39983772483421">
        <ele>8.729202711954713</ele>
        <time>2026-09-27T11:11:23Z</time>
      </trkpt>
      <trkpt lat="31.23119274938505" lon="121.39952369100877">
        <ele>7.693432295694947</ele>
        <time>2026-09-27T11:11:35Z</time>
      </trkpt>
      <trkpt lat="31.230998823114707" lon="121.39930668509903">
        <ele>8.277374709025025</ele>
        <time>2026-09-27T11:11:47Z</time>
      </trkpt>
      <trkpt lat="31.230936849294604" lon="121.39926968685934">
        <ele>8.53103300370276</ele>
        <time>2026-09-27T11:11:50Z</time>
      </trkpt>
      <trkpt lat="31.230871878462164" lon="121.39925569116599">
        <ele>8.435909712687135</ele>
        <time>2026-09-27T11:11:53Z</time>
      </trkpt>
      <trkpt lat="31.230744937577743" lon="121.39925970262665">
        <ele>7.075142348185182</ele>
        <time>2026-09-27T11:11:59Z</time>
      </trkpt>
      <trkpt lat="31.230477068979305" lon="121.39936273626527">
        <ele>6.16619917191565</ele>
        <time>2026-09-27T11:12:11Z</time>
      </trkpt>
      <trkpt lat="31.230344132831473" lon="121.39939275095766">
        <ele>6.929813826456666</ele>
        <time>2026-09-27T11:12:18Z</time>
      </trkpt>
      <trkpt lat="31.230285159830277" lon="121.39938775558234">
        <ele>8.61294218339026</ele>
        <time>2026-09-27T11:12:21Z</time>
      </trkpt>
      <trkpt lat="31.230074263167957" lon="121.39946078169143">
        <ele>8.570667708292603</ele>
        <time>2026-09-27T11:12:30Z</time>
      </trkpt>
      <trkpt lat="31.229822390090092" lon="121.39958681763206">
        <ele>4.649532759562135</ele>
        <time>2026-09-27T11:12:42Z</time>
      </trkpt>
      <trkpt lat="31.229726442034917" lon="121.39967483625246">
        <ele>9.868023360148072</ele>
        <time>2026-09-27T11:12:48Z</time>
      </trkpt>
      <trkpt lat="31.229690471095367" lon="121.39981385641039">
        <ele>9.220665419474244</ele>
        <time>2026-09-27T11:12:54Z</time>
      </trkpt>
      <trkpt lat="31.229697483310733" lon="121.39997587691563">
        <ele>7.577171767130494</ele>
        <time>2026-09-27T11:13:00Z</time>
      </trkpt>
      <trkpt lat="31.229832457099732" lon="121.40031791425132">
        <ele>9.273514235392213</ele>
        <time>2026-09-27T11:13:12Z</time>
      </trkpt>
      <trkpt lat="31.229925423916107" lon="121.400403919459">
        <ele>7.849327528849244</ele>
        <time>2026-09-27T11:13:15Z</time>
      </trkpt>
      <trkpt lat="31.230265263568477" lon="121.40038188637232">
        <ele>6.060509169474244</ele>
        <time>2026-09-27T11:13:27Z</time>
      </trkpt>
      <trkpt lat="31.23054212262061" lon="121.4002728455364">
        <ele>6.4277844075113535</ele>
        <time>2026-09-27T11:13:42Z</time>
      </trkpt>
      <trkpt lat="31.23059310021532" lon="121.4002838427453">
        <ele>7.431847060099244</ele>
        <time>2026-09-27T11:13:45Z</time>
      </trkpt>
      <trkpt lat="31.230772007071945" lon="121.40019181348883">
        <ele>9.001358473673463</ele>
        <time>2026-09-27T11:13:55Z</time>
      </trkpt>
      <trkpt lat="31.231007890030238" lon="121.4001197825402">
        <ele>6.5731091145426035</ele>
        <time>2026-09-27T11:14:07Z</time>
      </trkpt>
      <trkpt lat="31.23105886181298" lon="121.40007577188919">
        <ele>8.800545180216432</ele>
        <time>2026-09-27T11:14:10Z</time>
      </trkpt>
      <trkpt lat="31.231196778666792" lon="121.39988173371447">
        <ele>8.121479475870728</ele>
        <time>2026-09-27T11:14:19Z</time>
      </trkpt>
      <trkpt lat="31.231225753456716" lon="121.39975371501959">
        <ele>8.560097182169557</ele>
        <time>2026-09-27T11:14:25Z</time>
      </trkpt>
      <trkpt lat="31.231195753884105" lon="121.39959669898057">
        <ele>8.665790999308228</ele>
        <time>2026-09-27T11:14:31Z</time>
      </trkpt>
      <trkpt lat="31.231139769492188" lon="121.39946668939535">
        <ele>10.047699416056275</ele>
        <time>2026-09-27T11:14:37Z</time>
      </trkpt>
      <trkpt lat="31.230992827573324" lon="121.39933068802513">
        <ele>7.785912001505494</ele>
        <time>2026-09-27T11:14:46Z</time>
      </trkpt>
      <trkpt lat="31.230870881510754" lon="121.39929369497023">
        <ele>8.990787947550416</ele>
        <time>2026-09-27T11:14:52Z</time>
      </trkpt>
      <trkpt lat="31.23061200278306" lon="121.39931171933918">
        <ele>7.9761547688394785</ele>
        <time>2026-09-27T11:15:04Z</time>
      </trkpt>
      <trkpt lat="31.230388113308283" lon="121.39940474837321">
        <ele>8.665790999308228</ele>
        <time>2026-09-27T11:15:16Z</time>
      </trkpt>
      <trkpt lat="31.230282161441068" lon="121.39939075615536">
        <ele>6.689369643107057</ele>
        <time>2026-09-27T11:15:22Z</time>
      </trkpt>
      <trkpt lat="31.230140229902478" lon="121.39942577220438">
        <ele>7.075142348185182</ele>
        <time>2026-09-27T11:15:28Z</time>
      </trkpt>
      <trkpt lat="31.229908345892905" lon="121.39953380415645">
        <ele>8.425343001261353</ele>
        <time>2026-09-27T11:15:41Z</time>
      </trkpt>
      <trkpt lat="31.229770421690695" lon="121.39967583253512">
        <ele>8.404205763712525</ele>
        <time>2026-09-27T11:15:50Z</time>
      </trkpt>
      <trkpt lat="31.229740441732464" lon="121.39974584359845">
        <ele>9.54302259720862</ele>
        <time>2026-09-27T11:15:53Z</time>
      </trkpt>
      <trkpt lat="31.229739464602122" lon="121.3999838743323">
        <ele>9.95257612504065</ele>
        <time>2026-09-27T11:16:05Z</time>
      </trkpt>
      <trkpt lat="31.229807454557815" lon="121.40019089747814">
        <ele>7.785912001505494</ele>
        <time>2026-09-27T11:16:11Z</time>
      </trkpt>
      <trkpt lat="31.22984544462617" lon="121.40026090450662">
        <ele>10.129608595743775</ele>
        <time>2026-09-27T11:16:14Z</time>
      </trkpt>
      <trkpt lat="31.22994040949041" lon="121.40033990820466">
        <ele>8.591804945841432</ele>
        <time>2026-09-27T11:16:20Z</time>
      </trkpt>
      <trkpt lat="31.23013432445779" lon="121.4003828979497">
        <ele>7.997295821085572</ele>
        <time>2026-09-27T11:16:29Z</time>
      </trkpt>
      <trkpt lat="31.230318235957107" lon="121.40035587771473">
        <ele>8.800545180216432</ele>
        <time>2026-09-27T11:16:38Z</time>
      </trkpt>
      <trkpt lat="31.230433182625752" lon="121.40035586768823">
        <ele>8.779407942667603</ele>
        <time>2026-09-27T11:16:44Z</time>
      </trkpt>
      <trkpt lat="31.23073202888722" lon="121.40022182137848">
        <ele>3.3944515828043222</ele>
        <time>2026-09-27T11:16:59Z</time>
      </trkpt>
      <trkpt lat="31.23097990437402" lon="121.40013278683409">
        <ele>5.632458174601197</ele>
        <time>2026-09-27T11:17:12Z</time>
      </trkpt>
      <trkpt lat="31.231078851311867" lon="121.40006376847097">
        <ele>5.03530546464026</ele>
        <time>2026-09-27T11:17:18Z</time>
      </trkpt>
      <trkpt lat="31.23119978033698" lon="121.39991373762892">
        <ele>4.61782499589026</ele>
        <time>2026-09-27T11:17:24Z</time>
      </trkpt>
      <trkpt lat="31.23119576425084" lon="121.39971871336455">
        <ele>8.73977323807776</ele>
        <time>2026-09-27T11:17:33Z</time>
      </trkpt>
      <trkpt lat="31.23114577217881" lon="121.39953669655246">
        <ele>9.001358473673463</ele>
        <time>2026-09-27T11:17:42Z</time>
      </trkpt>
      <trkpt lat="31.23103281146928" lon="121.39936468799343">
        <ele>6.16619917191565</ele>
        <time>2026-09-27T11:17:51Z</time>
      </trkpt>
      <trkpt lat="31.230924858509727" lon="121.39932269314966">
        <ele>4.68124052323401</ele>
        <time>2026-09-27T11:17:57Z</time>
      </trkpt>
      <trkpt lat="31.230616001838367" lon="121.39932472029169">
        <ele>8.216602766886353</ele>
        <time>2026-09-27T11:18:12Z</time>
      </trkpt>
      <trkpt lat="31.230395109326533" lon="121.39939474671921">
        <ele>8.697494948282838</ele>
        <time>2026-09-27T11:18:21Z</time>
      </trkpt>
      <trkpt lat="31.23032214296159" lon="121.3993917527718">
        <ele>8.665790999308228</ele>
        <time>2026-09-27T11:18:24Z</time>
      </trkpt>
      <trkpt lat="31.230142229348655" lon="121.39943077255933">
        <ele>8.916805708780885</ele>
        <time>2026-09-27T11:18:34Z</time>
      </trkpt>
      <trkpt lat="31.229871367097594" lon="121.39958381301767">
        <ele>8.800545180216432</ele>
        <time>2026-09-27T11:18:49Z</time>
      </trkpt>
      <trkpt lat="31.22977242093373" lon="121.39967783259856">
        <ele>4.586117232218385</ele>
        <time>2026-09-27T11:18:55Z</time>
      </trkpt>
      <trkpt lat="31.229719457261844" lon="121.39980985337809">
        <ele>8.686928236857057</ele>
        <time>2026-09-27T11:19:01Z</time>
      </trkpt>
      <trkpt lat="31.229729474576484" lon="121.40003688243387">
        <ele>7.262741530314088</ele>
        <time>2026-09-27T11:19:10Z</time>
      </trkpt>
      <trkpt lat="31.22982545069055" lon="121.40023190193472">
        <ele>6.802986586466432</ele>
        <time>2026-09-27T11:19:19Z</time>
      </trkpt>
      <trkpt lat="31.229872434672917" lon="121.40028390560678">
        <ele>8.351356947794557</ele>
        <time>2026-09-27T11:19:22Z</time>
      </trkpt>
      <trkpt lat="31.230008378507197" lon="121.40034490304535">
        <ele>8.319652998819947</ele>
        <time>2026-09-27T11:19:28Z</time>
      </trkpt>
      <trkpt lat="31.23025526448385" lon="121.400349882281">
        <ele>8.3090824726969</ele>
        <time>2026-09-27T11:19:40Z</time>
      </trkpt>
      <trkpt lat="31.230576103179505" lon="121.40023983764381">
        <ele>6.322090590372682</ele>
        <time>2026-09-27T11:19:55Z</time>
      </trkpt>
      <trkpt lat="31.23084696983333" lon="121.40016880360677">
        <ele>7.545464003458619</ele>
        <time>2026-09-27T11:20:08Z</time>
      </trkpt>
      <trkpt lat="31.230918934974156" lon="121.40015479530797">
        <ele>5.067013228312135</ele>
        <time>2026-09-27T11:20:11Z</time>
      </trkpt>
      <trkpt lat="31.231198781668557" lon="121.3999227389003">
        <ele>8.121479475870728</ele>
        <time>2026-09-27T11:20:26Z</time>
      </trkpt>
      <trkpt lat="31.231234747514335" lon="121.39973371178658">
        <ele>8.2271732930094</ele>
        <time>2026-09-27T11:20:35Z</time>
      </trkpt>
      <trkpt lat="31.231231742657712" lon="121.39966170340811">
        <ele>8.686928236857057</ele>
        <time>2026-09-27T11:20:38Z</time>
      </trkpt>
      <trkpt lat="31.231179755404252" lon="121.39952369214224">
        <ele>8.142620528116822</ele>
        <time>2026-09-27T11:20:44Z</time>
      </trkpt>
      <trkpt lat="31.23110378179893" lon="121.39940868636523">
        <ele>7.775341475382447</ele>
        <time>2026-09-27T11:20:50Z</time>
      </trkpt>
      <trkpt lat="31.230917861192687" lon="121.39931469295898">
        <ele>8.206032240763307</ele>
        <time>2026-09-27T11:20:59Z</time>
      </trkpt>
      <trkpt lat="31.23072994809213" lon="121.39931170905096">
        <ele>7.965588057413697</ele>
        <time>2026-09-27T11:21:08Z</time>
      </trkpt>
      <trkpt lat="31.23039610646668" lon="121.39936174322506">
        <ele>7.283878767862916</ele>
        <time>2026-09-27T11:21:23Z</time>
      </trkpt>
      <trkpt lat="31.23029215702245" lon="121.39939375559541">
        <ele>6.343231642618775</ele>
        <time>2026-09-27T11:21:29Z</time>
      </trkpt>
      <trkpt lat="31.23015522160551" lon="121.39940776900191">
        <ele>7.9444470051676035</ele>
        <time>2026-09-27T11:21:35Z</time>
      </trkpt>
      <trkpt lat="31.22987736220314" lon="121.3995578095478">
        <ele>6.961521590128541</ele>
        <time>2026-09-27T11:21:51Z</time>
      </trkpt>
      <trkpt lat="31.229776418134776" lon="121.39966683094454">
        <ele>8.121479475870728</ele>
        <time>2026-09-27T11:21:57Z</time>
      </trkpt>
      <trkpt lat="31.22973544334456" lon="121.3997378430559">
        <ele>9.104408705607057</ele>
        <time>2026-09-27T11:22:00Z</time>
      </trkpt>
      <trkpt lat="31.229686485271646" lon="121.39994387359445">
        <ele>7.785912001505494</ele>
        <time>2026-09-27T11:22:09Z</time>
      </trkpt>
      <trkpt lat="31.229726482572925" lon="121.40010089162239">
        <ele>8.811115706339478</ele>
        <time>2026-09-27T11:22:15Z</time>
      </trkpt>
      <trkpt lat="31.229818454824976" lon="121.40023990373112">
        <ele>8.287945235148072</ele>
        <time>2026-09-27T11:22:21Z</time>
      </trkpt>
      <trkpt lat="31.229921417044853" lon="121.40032890817332">
        <ele>8.319652998819947</ele>
        <time>2026-09-27T11:22:27Z</time>
      </trkpt>
      <trkpt lat="31.230059359609548" lon="121.40038590495685">
        <ele>8.256237471476197</ele>
        <time>2026-09-27T11:22:33Z</time>
      </trkpt>
      <trkpt lat="31.230261264605563" lon="121.40037488563077">
        <ele>6.855831587687135</ele>
        <time>2026-09-27T11:22:42Z</time>
      </trkpt>
      <trkpt lat="31.23049614518432" lon="121.40028385120249">
        <ele>6.721077406778932</ele>
        <time>2026-09-27T11:22:54Z</time>
      </trkpt>
      <trkpt lat="31.230542119940022" lon="121.40024884194656">
        <ele>7.294449293985963</ele>
        <time>2026-09-27T11:22:57Z</time>
      </trkpt>
      <trkpt lat="31.23045616463382" lon="121.40029185589796">
        <ele>8.079205000773072</ele>
        <time>2026-09-27T11:23:03Z</time>
      </trkpt>
      <trkpt lat="31.23030924386307" lon="121.40038788347269">
        <ele>8.079205000773072</ele>
        <time>2026-09-27T11:23:09Z</time>
      </trkpt>
      <trkpt lat="31.230284260783208" lon="121.40043289273717">
        <ele>-9.605533158406615</ele>
        <time>2026-09-27T11:23:12Z</time>
      </trkpt>
      <trkpt lat="31.230337233586937" lon="121.40041088463927">
        <ele>6.5096935871988535</ele>
        <time>2026-09-27T11:23:18Z</time>
      </trkpt>
      <trkpt lat="31.2304142152554" lon="121.40055390098162">
        <ele>6.3326611164957285</ele>
        <time>2026-09-27T11:23:51Z</time>
      </trkpt>
      <trkpt lat="31.230386241189535" lon="121.40065592052586">
        <ele>7.965588057413697</ele>
        <time>2026-09-27T11:23:57Z</time>
      </trkpt>
      <trkpt lat="31.230169353519557" lon="121.40074495481605">
        <ele>6.668228590860963</ele>
        <time>2026-09-27T11:24:03Z</time>
      </trkpt>
      <trkpt lat="31.2299954495911" lon="121.40085799010313">
        <ele>5.318027937784791</ele>
        <time>2026-09-27T11:24:09Z</time>
      </trkpt>
      <trkpt lat="31.22968460545016" lon="121.40094003223683">
        <ele>7.138554060831666</ele>
        <time>2026-09-27T11:24:18Z</time>
      </trkpt>
      <trkpt lat="31.229350776767546" lon="121.40105208244277">
        <ele>5.444858992472291</ele>
        <time>2026-09-27T11:24:30Z</time>
      </trkpt>
      <trkpt lat="31.229016947833447" lon="121.40115813212778">
        <ele>6.499123061075807</ele>
        <time>2026-09-27T11:24:39Z</time>
      </trkpt>
      <trkpt lat="31.228761074530198" lon="121.40120816435285">
        <ele>7.859894240275025</ele>
        <time>2026-09-27T11:24:49Z</time>
      </trkpt>
      <trkpt lat="31.228504210509275" lon="121.40131320799134">
        <ele>7.598309004679322</ele>
        <time>2026-09-27T11:24:58Z</time>
      </trkpt>
      <trkpt lat="31.228221351368365" lon="121.40137024443328">
        <ele>7.064571822062135</ele>
        <time>2026-09-27T11:25:07Z</time>
      </trkpt>
      <trkpt lat="31.22800945205102" lon="121.40138226541492">
        <ele>6.6365246418863535</ele>
        <time>2026-09-27T11:25:13Z</time>
      </trkpt>
      <trkpt lat="31.22794547194174" lon="121.4013202581607">
        <ele>6.385506117716432</ele>
        <time>2026-09-27T11:25:16Z</time>
      </trkpt>
      <trkpt lat="31.22782452044583" lon="121.4012702585073">
        <ele>6.226971114054322</ele>
        <time>2026-09-27T11:25:19Z</time>
      </trkpt>
      <trkpt lat="31.22748767071269" lon="121.40122627901744">
        <ele>5.077579939737916</ele>
        <time>2026-09-27T11:25:31Z</time>
      </trkpt>
      <trkpt lat="31.22729077812205" lon="121.40132531628919">
        <ele>4.982460463419557</ele>
        <time>2026-09-27T11:25:37Z</time>
      </trkpt>
      <trkpt lat="31.226985938212078" lon="121.40143536581533">
        <ele>4.95339628495276</ele>
        <time>2026-09-27T11:25:46Z</time>
      </trkpt>
      <trkpt lat="31.226768049077016" lon="121.40149039652765">
        <ele>8.02635999955237</ele>
        <time>2026-09-27T11:25:52Z</time>
      </trkpt>
      <trkpt lat="31.226448193923687" lon="121.40146241844272">
        <ele>6.353798354044557</ele>
        <time>2026-09-27T11:26:01Z</time>
      </trkpt>
      <trkpt lat="31.226211297149735" lon="121.4014164293674">
        <ele>7.495262587442994</ele>
        <time>2026-09-27T11:26:07Z</time>
      </trkpt>
      <trkpt lat="31.226191291849208" lon="121.40132541218092">
        <ele>6.5731091145426035</ele>
        <time>2026-09-27T11:26:10Z</time>
      </trkpt>
      <trkpt lat="31.226222256148077" lon="121.4011893820021">
        <ele>5.077579939737916</ele>
        <time>2026-09-27T11:26:13Z</time>
      </trkpt>
      <trkpt lat="31.226215226282452" lon="121.40096533948328">
        <ele>5.434288466349244</ele>
        <time>2026-09-27T11:26:19Z</time>
      </trkpt>
      <trkpt lat="31.226192225740736" lon="121.400885326726">
        <ele>6.3960766438394785</ele>
        <time>2026-09-27T11:26:22Z</time>
      </trkpt>
      <trkpt lat="31.22607726404231" lon="121.40077231647375">
        <ele>3.9176220539957285</ele>
        <time>2026-09-27T11:26:31Z</time>
      </trkpt>
      <trkpt lat="31.22603128541933" lon="121.40077132030726">
        <ele>4.97188993729651</ele>
        <time>2026-09-27T11:26:34Z</time>
      </trkpt>
      <trkpt lat="31.225944318919726" lon="121.40071731844166">
        <ele>6.551971876993775</ele>
        <time>2026-09-27T11:26:37Z</time>
      </trkpt>
      <trkpt lat="31.225709432840645" lon="121.40074734415788">
        <ele>7.725140059366822</ele>
        <time>2026-09-27T11:26:46Z</time>
      </trkpt>
      <trkpt lat="31.225577505421132" lon="121.40082736984503">
        <ele>6.8135571125894785</ele>
        <time>2026-09-27T11:26:49Z</time>
      </trkpt>
      <trkpt lat="31.225441576678723" lon="121.40088239164496">
        <ele>5.9759525898844</ele>
        <time>2026-09-27T11:26:52Z</time>
      </trkpt>
      <trkpt lat="31.2253426191514" lon="121.40085439519216">
        <ele>5.423717940226197</ele>
        <time>2026-09-27T11:26:55Z</time>
      </trkpt>
      <trkpt lat="31.22525565332066" lon="121.4008063941589">
        <ele>7.474125349894166</ele>
        <time>2026-09-27T11:26:58Z</time>
      </trkpt>
      <trkpt lat="31.225137707913465" lon="121.40080140355431">
        <ele>6.448921645060182</ele>
        <time>2026-09-27T11:27:01Z</time>
      </trkpt>
      <trkpt lat="31.22509073870576" lon="121.40086541915079">
        <ele>5.370872939005494</ele>
        <time>2026-09-27T11:27:04Z</time>
      </trkpt>
      <trkpt lat="31.225099769759286" lon="121.40111046438248">
        <ele>7.619450056925416</ele>
        <time>2026-09-27T11:27:10Z</time>
      </trkpt>
      <trkpt lat="31.225086797202575" lon="121.40125049323153">
        <ele>6.82412382401526</ele>
        <time>2026-09-27T11:27:13Z</time>
      </trkpt>
      <trkpt lat="31.22509481390173" lon="121.40137951898758">
        <ele>4.932255232706666</ele>
        <time>2026-09-27T11:27:16Z</time>
      </trkpt>
      <trkpt lat="31.225132812459723" lon="121.40147953678589">
        <ele>6.972092116251588</ele>
        <time>2026-09-27T11:27:19Z</time>
      </trkpt>
      <trkpt lat="31.225211783297112" lon="121.40152654000391">
        <ele>5.883476698771119</ele>
        <time>2026-09-27T11:27:22Z</time>
      </trkpt>
      <trkpt lat="31.225344746698138" lon="121.40167656143858">
        <ele>6.876968825235963</ele>
        <time>2026-09-27T11:27:28Z</time>
      </trkpt>
      <trkpt lat="31.225518686325305" lon="121.40179557331878">
        <ele>6.7501415852457285</ele>
        <time>2026-09-27T11:27:34Z</time>
      </trkpt>
      <trkpt lat="31.225583668419088" lon="121.40186458367856">
        <ele>6.290386641398072</ele>
        <time>2026-09-27T11:27:37Z</time>
      </trkpt>
      <trkpt lat="31.22568566259501" lon="121.40208762830166">
        <ele>7.368431532755494</ele>
        <time>2026-09-27T11:27:43Z</time>
      </trkpt>
      <trkpt lat="31.22575364615545" lon="121.40216664196285">
        <ele>5.643028700724244</ele>
        <time>2026-09-27T11:27:47Z</time>
      </trkpt>
      <trkpt lat="31.22579964169226" lon="121.40225265965276">
        <ele>5.777782881632447</ele>
        <time>2026-09-27T11:27:50Z</time>
      </trkpt>
      <trkpt lat="31.225828710938583" lon="121.40264876209483">
        <ele>5.925751173868775</ele>
        <time>2026-09-27T11:27:59Z</time>
      </trkpt>
      <trkpt lat="31.22583473729273" lon="121.40278079840691">
        <ele>6.438351118937135</ele>
        <time>2026-09-27T11:28:02Z</time>
      </trkpt>
      <trkpt lat="31.225885729895595" lon="121.40285381472859">
        <ele>6.95095487870276</ele>
        <time>2026-09-27T11:28:05Z</time>
      </trkpt>
      <trkpt lat="31.225938705331046" lon="121.40285481039506">
        <ele>6.3643688801676035</ele>
        <time>2026-09-27T11:28:08Z</time>
      </trkpt>
      <trkpt lat="31.22599366987928" lon="121.40281179333147">
        <ele>7.421276533976197</ele>
        <time>2026-09-27T11:28:11Z</time>
      </trkpt>
      <trkpt lat="31.226124602105358" lon="121.40278277369292">
        <ele>6.113354170694947</ele>
        <time>2026-09-27T11:28:17Z</time>
      </trkpt>
      <trkpt lat="31.22617556867123" lon="121.402739757142">
        <ele>7.085709059610963</ele>
        <time>2026-09-27T11:28:29Z</time>
      </trkpt>
      <trkpt lat="31.22632849072902" lon="121.40271073569617">
        <ele>4.76314970292151</ele>
        <time>2026-09-27T11:28:35Z</time>
      </trkpt>
      <trkpt lat="31.226645315581457" lon="121.40258667389345">
        <ele>6.216400587931275</ele>
        <time>2026-09-27T11:28:44Z</time>
      </trkpt>
      <trkpt lat="31.22697014020548" lon="121.40247561566578">
        <ele>6.1027836445719</ele>
        <time>2026-09-27T11:28:53Z</time>
      </trkpt>
      <trkpt lat="31.227174044782462" lon="121.40247459761595">
        <ele>5.788353407755494</ele>
        <time>2026-09-27T11:28:59Z</time>
      </trkpt>
      <trkpt lat="31.227237044169488" lon="121.40260962856335">
        <ele>7.315586531534791</ele>
        <time>2026-09-27T11:29:02Z</time>
      </trkpt>
      <trkpt lat="31.227277055549106" lon="121.40274666304228">
        <ele>7.254814589396119</ele>
        <time>2026-09-27T11:29:05Z</time>
      </trkpt>
      <trkpt lat="31.227332108309444" lon="121.40308775706474">
        <ele>7.064571822062135</ele>
        <time>2026-09-27T11:29:11Z</time>
      </trkpt>
      <trkpt lat="31.227433153185828" lon="121.40346186372925">
        <ele>6.385506117716432</ele>
        <time>2026-09-27T11:29:20Z</time>
      </trkpt>
      <trkpt lat="31.227530192431534" lon="121.40378496096986">
        <ele>7.495262587442994</ele>
        <time>2026-09-27T11:29:29Z</time>
      </trkpt>
      <trkpt lat="31.22766123187439" lon="121.40414807494821">
        <ele>7.598309004679322</ele>
        <time>2026-09-27T11:29:38Z</time>
      </trkpt>
      <trkpt lat="31.227769275942695" lon="121.40447118300148">
        <ele>5.09872099198401</ele>
        <time>2026-09-27T11:29:44Z</time>
      </trkpt>
      <trkpt lat="31.2279213177435" lon="121.40483730956305">
        <ele>6.625954115763307</ele>
        <time>2026-09-27T11:29:53Z</time>
      </trkpt>
      <trkpt lat="31.22792534002296" lon="121.40491333914">
        <ele>5.883476698771119</ele>
        <time>2026-09-27T11:29:56Z</time>
      </trkpt>
      <trkpt lat="31.227861397479522" lon="121.40499937895284">
        <ele>5.756645644083619</ele>
        <time>2026-09-27T11:29:59Z</time>
      </trkpt>
      <trkpt lat="31.227810423511713" lon="121.40500638620232">
        <ele>5.9468884114176035</ele>
        <time>2026-09-27T11:30:02Z</time>
      </trkpt>
      <trkpt lat="31.227784393946763" lon="121.40487633682358">
        <ele>5.9468884114176035</ele>
        <time>2026-09-27T11:30:08Z</time>
      </trkpt>
      <trkpt lat="31.227809387383992" lon="121.4048923409521">
        <ele>5.767216170206666</ele>
        <time>2026-09-27T11:30:26Z</time>
      </trkpt>
      <trkpt lat="31.22795931589188" lon="121.40488732590387">
        <ele>5.925751173868775</ele>
        <time>2026-09-27T11:30:29Z</time>
      </trkpt>
      <trkpt lat="31.22795931589188" lon="121.40488732590387">
        <ele>10.775001258589327</ele>
        <time>2026-09-27T11:30:31Z</time>
      </trkpt>
    </trkseg>
  </trk>
</gpx>