<?xml version="1.0" encoding="UTF-8"?>
<gpx xmlns="http://www.topografix.com/GPX/1/1" xmlns:gpxtpx="http://www.garmin.com/xmlschemas/TrackPointExtension/v1" xmlns:xsi="http://www.w3.org/2001/XMLSchema-instance" xsi:schemaLocation="http://www.topografix.com/GPX/1/1 http://www.topografix.com/GPX/1/1/gpx.xsd" version="1.1" creator="gpx.py -- https://github.com/tkrajina/gpxpy">
  <trk>
    <name>gpx from keep</name>
    <type>Run</type>
    <trkseg>
      <trkpt lat="32.05191099548464" lon="118.80370049731073">
        <ele>21.793699108995497</ele>
        <time>2026-10-02T10:59:48Z</time>
      </trkpt>
      <trkpt lat="32.051883501689545" lon="118.80399508056962">
        <ele>21.761991345323622</ele>
        <time>2026-10-02T11:00:15Z</time>
      </trkpt>
      <trkpt lat="32.05190572660227" lon="118.8041213278474">
        <ele>22.40142234507948</ele>
        <time>2026-10-02T11:00:18Z</time>
      </trkpt>
      <trkpt lat="32.05200704632622" lon="118.8042916553311">
        <ele>22.36442741099745</ele>
        <time>2026-10-02T11:00:24Z</time>
      </trkpt>
      <trkpt lat="32.05213824880782" lon="118.80439083962384">
        <ele>22.369714581407607</ele>
        <time>2026-10-02T11:00:30Z</time>
      </trkpt>
      <trkpt lat="32.05242251533239" lon="118.80450704376987">
        <ele>21.677438580431044</ele>
        <time>2026-10-02T11:00:42Z</time>
      </trkpt>
      <trkpt lat="32.0526977449406" lon="118.80460320920865">
        <ele>21.85711082164198</ele>
        <time>2026-10-02T11:00:54Z</time>
      </trkpt>
      <trkpt lat="32.05301391184717" lon="118.80465828949617">
        <ele>21.603452526964247</ele>
        <time>2026-10-02T11:01:06Z</time>
      </trkpt>
      <trkpt lat="32.0531129409248" lon="118.80466228835101">
        <ele>21.99979575816542</ele>
        <time>2026-10-02T11:01:09Z</time>
      </trkpt>
      <trkpt lat="32.053203913830885" lon="118.80463522630991">
        <ele>22.64979346934706</ele>
        <time>2026-10-02T11:01:12Z</time>
      </trkpt>
      <trkpt lat="32.05328084679903" lon="118.80458712383421">
        <ele>22.538820111192763</ele>
        <time>2026-10-02T11:01:15Z</time>
      </trkpt>
      <trkpt lat="32.05334674755094" lon="118.80452198864037">
        <ele>22.07377799693495</ele>
        <time>2026-10-02T11:01:18Z</time>
      </trkpt>
      <trkpt lat="32.05339857693659" lon="118.80441777739627">
        <ele>22.195321881212294</ele>
        <time>2026-10-02T11:01:21Z</time>
      </trkpt>
      <trkpt lat="32.053422400237494" lon="118.80431356889873">
        <ele>18.71809180919081</ele>
        <time>2026-10-02T11:01:24Z</time>
      </trkpt>
      <trkpt lat="32.053425236497006" lon="118.80421938231694">
        <ele>21.772558056749403</ele>
        <time>2026-10-02T11:01:27Z</time>
      </trkpt>
      <trkpt lat="32.05338493930218" lon="118.80405405931336">
        <ele>21.883535229600966</ele>
        <time>2026-10-02T11:01:33Z</time>
      </trkpt>
      <trkpt lat="32.05334580668497" lon="118.80398292246328">
        <ele>22.744916760362685</ele>
        <time>2026-10-02T11:01:36Z</time>
      </trkpt>
      <trkpt lat="32.05311754834012" lon="118.80386370822943">
        <ele>22.195321881212294</ele>
        <time>2026-10-02T11:01:45Z</time>
      </trkpt>
      <trkpt lat="32.05282030267466" lon="118.80376053214955">
        <ele>21.349794232286513</ele>
        <time>2026-10-02T11:01:57Z</time>
      </trkpt>
      <trkpt lat="32.05248406932924" lon="118.80366938349633">
        <ele>22.216462933458388</ele>
        <time>2026-10-02T11:02:12Z</time>
      </trkpt>
      <trkpt lat="32.052217862124195" lon="118.8035842403717">
        <ele>20.71565040294081</ele>
        <time>2026-10-02T11:02:24Z</time>
      </trkpt>
      <trkpt lat="32.05209988798625" lon="118.8036143103485">
        <ele>21.835973584093153</ele>
        <time>2026-10-02T11:02:31Z</time>
      </trkpt>
      <trkpt lat="32.051992952857" lon="118.8036654207396">
        <ele>21.85711082164198</ele>
        <time>2026-10-02T11:02:34Z</time>
      </trkpt>
      <trkpt lat="32.051937046554" lon="118.80372654621644">
        <ele>17.95182975474745</ele>
        <time>2026-10-02T11:02:37Z</time>
      </trkpt>
      <trkpt lat="32.05188426470428" lon="118.80385881168415">
        <ele>22.052640759386122</ele>
        <time>2026-10-02T11:02:43Z</time>
      </trkpt>
      <trkpt lat="32.05187753525685" lon="118.80401512067515">
        <ele>22.797761761583388</ele>
        <time>2026-10-02T11:02:49Z</time>
      </trkpt>
      <trkpt lat="32.05193985301489" lon="118.8041894593728">
        <ele>22.153047406114638</ele>
        <time>2026-10-02T11:02:55Z</time>
      </trkpt>
      <trkpt lat="32.051980989799475" lon="118.80426260023916">
        <ele>21.349794232286513</ele>
        <time>2026-10-02T11:02:58Z</time>
      </trkpt>
      <trkpt lat="32.05209420222954" lon="118.80436980200817">
        <ele>22.248166882432997</ele>
        <time>2026-10-02T11:03:04Z</time>
      </trkpt>
      <trkpt lat="32.05236346362592" lon="118.80448500550808">
        <ele>21.666868054307997</ele>
        <time>2026-10-02T11:03:16Z</time>
      </trkpt>
      <trkpt lat="32.05262966840871" lon="118.80456814591057">
        <ele>21.58759864512831</ele>
        <time>2026-10-02T11:03:28Z</time>
      </trkpt>
      <trkpt lat="32.05293385016081" lon="118.80463324714762">
        <ele>16.79979880992323</ele>
        <time>2026-10-02T11:03:40Z</time>
      </trkpt>
      <trkpt lat="32.053067936161895" lon="118.8046652984515">
        <ele>21.698575817979872</ele>
        <time>2026-10-02T11:03:46Z</time>
      </trkpt>
      <trkpt lat="32.05323988676977" lon="118.80461518324734">
        <ele>21.93638023082167</ele>
        <time>2026-10-02T11:03:52Z</time>
      </trkpt>
      <trkpt lat="32.053323763460135" lon="118.80453401458816">
        <ele>21.598169171251357</ele>
        <time>2026-10-02T11:03:55Z</time>
      </trkpt>
      <trkpt lat="32.05337862677464" lon="118.80444884075875">
        <ele>20.911176525987685</ele>
        <time>2026-10-02T11:03:58Z</time>
      </trkpt>
      <trkpt lat="32.053411469536826" lon="118.80435465121552">
        <ele>22.14247687999159</ele>
        <time>2026-10-02T11:04:01Z</time>
      </trkpt>
      <trkpt lat="32.05341921418132" lon="118.80420735909493">
        <ele>21.841256939806044</ele>
        <time>2026-10-02T11:04:08Z</time>
      </trkpt>
      <trkpt lat="32.05337293313731" lon="118.8040520564593">
        <ele>13.01606544200331</ele>
        <time>2026-10-02T11:04:14Z</time>
      </trkpt>
      <trkpt lat="32.05327073414587" lon="118.80395086608945">
        <ele>21.598169171251357</ele>
        <time>2026-10-02T11:04:20Z</time>
      </trkpt>
      <trkpt lat="32.05302548252051" lon="118.80383766533073">
        <ele>20.71565040294081</ele>
        <time>2026-10-02T11:04:29Z</time>
      </trkpt>
      <trkpt lat="32.052947442482385" lon="118.80382464682697">
        <ele>21.772558056749403</ele>
        <time>2026-10-02T11:04:32Z</time>
      </trkpt>
      <trkpt lat="32.05263217369701" lon="118.80371045076593">
        <ele>21.059144818224013</ele>
        <time>2026-10-02T11:04:44Z</time>
      </trkpt>
      <trkpt lat="32.052404002763794" lon="118.80364133563525">
        <ele>16.92662986461073</ele>
        <time>2026-10-02T11:04:53Z</time>
      </trkpt>
      <trkpt lat="32.052318903782165" lon="118.80359525276718">
        <ele>21.376218640245497</ele>
        <time>2026-10-02T11:04:56Z</time>
      </trkpt>
      <trkpt lat="32.05223285503482" lon="118.80357822716864">
        <ele>12.931512677110732</ele>
        <time>2026-10-02T11:04:59Z</time>
      </trkpt>
      <trkpt lat="32.05206789650522" lon="118.8036233310319">
        <ele>21.04857810679823</ele>
        <time>2026-10-02T11:05:05Z</time>
      </trkpt>
      <trkpt lat="32.05196007954787" lon="118.80374257567443">
        <ele>21.191259228624403</ele>
        <time>2026-10-02T11:05:11Z</time>
      </trkpt>
      <trkpt lat="32.051892346691645" lon="118.80390490183028">
        <ele>21.925809704698622</ele>
        <time>2026-10-02T11:05:17Z</time>
      </trkpt>
      <trkpt lat="32.051906597589095" lon="118.8040471813099">
        <ele>21.307519757188857</ele>
        <time>2026-10-02T11:05:23Z</time>
      </trkpt>
      <trkpt lat="32.051935785711166" lon="118.80415138448542">
        <ele>21.99979575816542</ele>
        <time>2026-10-02T11:05:26Z</time>
      </trkpt>
      <trkpt lat="32.05202205317141" lon="118.80429365791728">
        <ele>21.64573081675917</ele>
        <time>2026-10-02T11:05:29Z</time>
      </trkpt>
      <trkpt lat="32.05216023620797" lon="118.80438081776326">
        <ele>22.195321881212294</ele>
        <time>2026-10-02T11:05:35Z</time>
      </trkpt>
      <trkpt lat="32.05244951609579" lon="118.80450403533115">
        <ele>20.446138226427138</ele>
        <time>2026-10-02T11:05:50Z</time>
      </trkpt>
      <trkpt lat="32.05275574559341" lon="118.80459618996736">
        <ele>21.04857810679823</ele>
        <time>2026-10-02T11:06:06Z</time>
      </trkpt>
      <trkpt lat="32.05302593382176" lon="118.80466931026479">
        <ele>19.764432751573622</ele>
        <time>2026-10-02T11:06:18Z</time>
      </trkpt>
      <trkpt lat="32.0530909588336" lon="118.80467531622192">
        <ele>20.673372113145888</ele>
        <time>2026-10-02T11:06:21Z</time>
      </trkpt>
      <trkpt lat="32.05319492936851" lon="118.80464524701645">
        <ele>20.599389874376357</ele>
        <time>2026-10-02T11:06:27Z</time>
      </trkpt>
      <trkpt lat="32.053305806780976" lon="118.8045610698773">
        <ele>21.20182975474745</ele>
        <time>2026-10-02T11:06:33Z</time>
      </trkpt>
      <trkpt lat="32.05342535716774" lon="118.8042885190596">
        <ele>21.21239646617323</ele>
        <time>2026-10-02T11:06:42Z</time>
      </trkpt>
      <trkpt lat="32.05342818821666" lon="118.80419132657342">
        <ele>15.7270372742787</ele>
        <time>2026-10-02T11:06:45Z</time>
      </trkpt>
      <trkpt lat="32.05340299045881" lon="118.80408111108531">
        <ele>18.65467628184706</ele>
        <time>2026-10-02T11:06:48Z</time>
      </trkpt>
      <trkpt lat="32.0533688868558" lon="118.8040260053914">
        <ele>21.751420819200575</ele>
        <time>2026-10-02T11:06:51Z</time>
      </trkpt>
      <trkpt lat="32.053199584042986" lon="118.80387372044716">
        <ele>21.038007580675185</ele>
        <time>2026-10-02T11:07:01Z</time>
      </trkpt>
      <trkpt lat="32.05291236672797" lon="118.80378557304086">
        <ele>20.609960400499403</ele>
        <time>2026-10-02T11:07:13Z</time>
      </trkpt>
      <trkpt lat="32.05258914321909" lon="118.8036984310452">
        <ele>20.953454815782607</ele>
        <time>2026-10-02T11:07:25Z</time>
      </trkpt>
      <trkpt lat="32.052378962391046" lon="118.80362129850225">
        <ele>20.705079876817763</ele>
        <time>2026-10-02T11:07:34Z</time>
      </trkpt>
      <trkpt lat="32.05228290966883" lon="118.8036032718444">
        <ele>17.835573040880263</ele>
        <time>2026-10-02T11:07:37Z</time>
      </trkpt>
      <trkpt lat="32.05216689423342" lon="118.80360929433382">
        <ele>16.266061627306044</ele>
        <time>2026-10-02T11:07:40Z</time>
      </trkpt>
      <trkpt lat="32.052050946652884" lon="118.8036543937162">
        <ele>21.793699108995497</ele>
        <time>2026-10-02T11:07:43Z</time>
      </trkpt>
      <trkpt lat="32.05193611947748" lon="118.80376862919407">
        <ele>21.793699108995497</ele>
        <time>2026-10-02T11:07:46Z</time>
      </trkpt>
      <trkpt lat="32.05190029093705" lon="118.80387183589389">
        <ele>21.15955146495253</ele>
        <time>2026-10-02T11:07:49Z</time>
      </trkpt>
      <trkpt lat="32.05190364057187" lon="118.8040722310505">
        <ele>22.369714581407607</ele>
        <time>2026-10-02T11:07:55Z</time>
      </trkpt>
      <trkpt lat="32.05197592922707" lon="118.80422853332392">
        <ele>21.58759864512831</ele>
        <time>2026-10-02T11:08:01Z</time>
      </trkpt>
      <trkpt lat="32.05206110736128" lon="118.80431970588052">
        <ele>21.09613593760878</ele>
        <time>2026-10-02T11:08:04Z</time>
      </trkpt>
      <trkpt lat="32.05234839020785" lon="118.80444492748101">
        <ele>21.117276989854872</ele>
        <time>2026-10-02T11:08:13Z</time>
      </trkpt>
      <trkpt lat="32.05262062958675" lon="118.80454710501866">
        <ele>19.65873893443495</ele>
        <time>2026-10-02T11:08:25Z</time>
      </trkpt>
      <trkpt lat="32.05298588455441" lon="118.80464626821185">
        <ele>17.539636456407607</ele>
        <time>2026-10-02T11:08:40Z</time>
      </trkpt>
      <trkpt lat="32.05312995699491" lon="118.8046693007071">
        <ele>21.21239646617323</ele>
        <time>2026-10-02T11:08:47Z</time>
      </trkpt>
      <trkpt lat="32.053278827065476" lon="118.80457610216084">
        <ele>18.977033459581435</ele>
        <time>2026-10-02T11:08:56Z</time>
      </trkpt>
      <trkpt lat="32.053358718678965" lon="118.80450395179082">
        <ele>20.821340405382216</ele>
        <time>2026-10-02T11:08:59Z</time>
      </trkpt>
      <trkpt lat="32.05339962094279" lon="118.80444282691958">
        <ele>21.35508140269667</ele>
        <time>2026-10-02T11:09:02Z</time>
      </trkpt>
      <trkpt lat="32.05343535589636" lon="118.80428651417586">
        <ele>20.768495404161513</ele>
        <time>2026-10-02T11:09:08Z</time>
      </trkpt>
      <trkpt lat="32.05342008507697" lon="118.80413321245159">
        <ele>21.244104229845107</ele>
        <time>2026-10-02T11:09:14Z</time>
      </trkpt>
      <trkpt lat="32.05335685450968" lon="118.80400897286944">
        <ele>19.526628338731825</ele>
        <time>2026-10-02T11:09:20Z</time>
      </trkpt>
      <trkpt lat="32.053143527985675" lon="118.80384867621025">
        <ele>21.06971534434706</ele>
        <time>2026-10-02T11:09:29Z</time>
      </trkpt>
      <trkpt lat="32.05308852096037" lon="118.80385168719128">
        <ele>20.92174705211073</ele>
        <time>2026-10-02T11:09:32Z</time>
      </trkpt>
      <trkpt lat="32.05301442953157" lon="118.80380860907434">
        <ele>19.801423870958388</ele>
        <time>2026-10-02T11:09:35Z</time>
      </trkpt>
      <trkpt lat="32.05269321515414" lon="118.80372647672694">
        <ele>20.52012046519667</ele>
        <time>2026-10-02T11:09:50Z</time>
      </trkpt>
      <trkpt lat="32.05233693214893" lon="118.80360927870751">
        <ele>21.386789166368544</ele>
        <time>2026-10-02T11:10:06Z</time>
      </trkpt>
      <trkpt lat="32.05219789592934" lon="118.80360628557086">
        <ele>21.761991345323622</ele>
        <time>2026-10-02T11:10:15Z</time>
      </trkpt>
      <trkpt lat="32.052045973382995" lon="118.80367042572873">
        <ele>20.810773693956435</ele>
        <time>2026-10-02T11:10:21Z</time>
      </trkpt>
      <trkpt lat="32.051945159810614" lon="118.80379067179483">
        <ele>20.403859936632216</ele>
        <time>2026-10-02T11:10:27Z</time>
      </trkpt>
      <trkpt lat="32.05191625964216" lon="118.80385179491618">
        <ele>20.599389874376357</ele>
        <time>2026-10-02T11:10:30Z</time>
      </trkpt>
      <trkpt lat="32.05189648539427" lon="118.80398405762284">
        <ele>21.038007580675185</ele>
        <time>2026-10-02T11:10:36Z</time>
      </trkpt>
      <trkpt lat="32.05191978214133" lon="118.80415138595593">
        <ele>21.78312858287245</ele>
        <time>2026-10-02T11:10:42Z</time>
      </trkpt>
      <trkpt lat="32.05194087071807" lon="118.80419947908872">
        <ele>21.15955146495253</ele>
        <time>2026-10-02T11:10:45Z</time>
      </trkpt>
      <trkpt lat="32.05210118978759" lon="118.80436178549647">
        <ele>21.481908642686903</ele>
        <time>2026-10-02T11:10:51Z</time>
      </trkpt>
      <trkpt lat="32.05236540100522" lon="118.80444893385807">
        <ele>17.766874157823622</ele>
        <time>2026-10-02T11:11:06Z</time>
      </trkpt>
      <trkpt lat="32.05254756423386" lon="118.80451905611305">
        <ele>19.595327221788466</ele>
        <time>2026-10-02T11:11:15Z</time>
      </trkpt>
      <trkpt lat="32.052592663666516" lon="118.80457015328453">
        <ele>21.148984753526747</ele>
        <time>2026-10-02T11:11:18Z</time>
      </trkpt>
      <trkpt lat="32.05267367471108" lon="118.80456613789337">
        <ele>21.244104229845107</ele>
        <time>2026-10-02T11:11:24Z</time>
      </trkpt>
      <trkpt lat="32.05273775385708" lon="118.80460320553262">
        <ele>20.736787640489638</ele>
        <time>2026-10-02T11:11:27Z</time>
      </trkpt>
      <trkpt lat="32.05303594131416" lon="118.80467231531105">
        <ele>19.970529400743544</ele>
        <time>2026-10-02T11:11:36Z</time>
      </trkpt>
      <trkpt lat="32.05316794089724" lon="118.80465526937881">
        <ele>21.349794232286513</ele>
        <time>2026-10-02T11:11:42Z</time>
      </trkpt>
      <trkpt lat="32.05322690316765" lon="118.80462620630604">
        <ele>21.64573081675917</ele>
        <time>2026-10-02T11:11:45Z</time>
      </trkpt>
      <trkpt lat="32.05337770013144" lon="118.80449092423079">
        <ele>21.524186932481825</ele>
        <time>2026-10-02T11:11:54Z</time>
      </trkpt>
      <trkpt lat="32.05342636613735" lon="118.80429352887957">
        <ele>21.22296699229628</ele>
        <time>2026-10-02T11:12:00Z</time>
      </trkpt>
      <trkpt lat="32.05340809638173" lon="118.80414122939366">
        <ele>21.481908642686903</ele>
        <time>2026-10-02T11:12:06Z</time>
      </trkpt>
      <trkpt lat="32.053300753040844" lon="118.8039578771703">
        <ele>21.059144818224013</ele>
        <time>2026-10-02T11:12:15Z</time>
      </trkpt>
      <trkpt lat="32.05324664507877" lon="118.80390277342576">
        <ele>21.36564811412245</ele>
        <time>2026-10-02T11:12:18Z</time>
      </trkpt>
      <trkpt lat="32.05319759231466" lon="118.80387873050908">
        <ele>21.666868054307997</ele>
        <time>2026-10-02T11:12:21Z</time>
      </trkpt>
      <trkpt lat="32.05304252639897" lon="118.80386070919707">
        <ele>20.620527111925185</ele>
        <time>2026-10-02T11:12:28Z</time>
      </trkpt>
      <trkpt lat="32.05288935637572" lon="118.80378256923268">
        <ele>19.1408556336537</ele>
        <time>2026-10-02T11:12:37Z</time>
      </trkpt>
      <trkpt lat="32.05261120906323" lon="118.8037334980766">
        <ele>19.420934521593153</ele>
        <time>2026-10-02T11:12:49Z</time>
      </trkpt>
      <trkpt lat="32.05230997136132" lon="118.80363533244568">
        <ele>21.180688702501357</ele>
        <time>2026-10-02T11:13:04Z</time>
      </trkpt>
      <trkpt lat="32.05213301019578" lon="118.80368043745467">
        <ele>21.439634167589247</ele>
        <time>2026-10-02T11:13:13Z</time>
      </trkpt>
      <trkpt lat="32.052020962584464" lon="118.80366742211017">
        <ele>21.418493115343153</ele>
        <time>2026-10-02T11:13:16Z</time>
      </trkpt>
      <trkpt lat="32.051926127697946" lon="118.80377464195642">
        <ele>21.307519757188857</ele>
        <time>2026-10-02T11:13:22Z</time>
      </trkpt>
      <trkpt lat="32.051891248834906" lon="118.80384879128853">
        <ele>21.70914634410292</ele>
        <time>2026-10-02T11:13:25Z</time>
      </trkpt>
      <trkpt lat="32.05188237759638" lon="118.80392394029755">
        <ele>19.949392163194716</ele>
        <time>2026-10-02T11:13:28Z</time>
      </trkpt>
      <trkpt lat="32.05196081575382" lon="118.80416540991055">
        <ele>21.318090283311903</ele>
        <time>2026-10-02T11:13:37Z</time>
      </trkpt>
      <trkpt lat="32.05206814042119" lon="118.80433774093032">
        <ele>20.65223487559706</ele>
        <time>2026-10-02T11:13:46Z</time>
      </trkpt>
      <trkpt lat="32.05211122527795" lon="118.80438082226652">
        <ele>22.98272117320448</ele>
        <time>2026-10-02T11:13:49Z</time>
      </trkpt>
      <trkpt lat="32.05239340374602" lon="118.80444692731507">
        <ele>21.191259228624403</ele>
        <time>2026-10-02T11:14:05Z</time>
      </trkpt>
      <trkpt lat="32.052594592239025" lon="118.8045290716545">
        <ele>21.06971534434706</ele>
        <time>2026-10-02T11:14:11Z</time>
      </trkpt>
      <trkpt lat="32.05287379118515" lon="118.80460720098358">
        <ele>21.349794232286513</ele>
        <time>2026-10-02T11:14:23Z</time>
      </trkpt>
      <trkpt lat="32.053074930703275" lon="118.80466128985498">
        <ele>21.730283581651747</ele>
        <time>2026-10-02T11:14:32Z</time>
      </trkpt>
      <trkpt lat="32.053151949614175" lon="118.80466228476686">
        <ele>21.333940350450575</ele>
        <time>2026-10-02T11:14:35Z</time>
      </trkpt>
      <trkpt lat="32.053320797850496" lon="118.80455405459229">
        <ele>21.460771405138075</ele>
        <time>2026-10-02T11:14:44Z</time>
      </trkpt>
      <trkpt lat="32.05340357805026" lon="118.80441777693673">
        <ele>21.545324170030653</ele>
        <time>2026-10-02T11:14:50Z</time>
      </trkpt>
      <trkpt lat="32.053435431129884" lon="118.80432959942979">
        <ele>19.257116162218153</ele>
        <time>2026-10-02T11:14:53Z</time>
      </trkpt>
      <trkpt lat="32.053442285745554" lon="118.80424543227163">
        <ele>21.22296699229628</ele>
        <time>2026-10-02T11:14:56Z</time>
      </trkpt>
      <trkpt lat="32.053370875082415" lon="118.80401899136143">
        <ele>14.495736920274794</ele>
        <time>2026-10-02T11:15:05Z</time>
      </trkpt>
      <trkpt lat="32.053266679181455" lon="118.80391980518277">
        <ele>15.79045280162245</ele>
        <time>2026-10-02T11:15:11Z</time>
      </trkpt>
      <trkpt lat="32.0530264566016" lon="118.80382263561596">
        <ele>20.8477648133412</ele>
        <time>2026-10-02T11:15:20Z</time>
      </trkpt>
      <trkpt lat="32.05276529738274" lon="118.80376454510001">
        <ele>20.93231757823378</ele>
        <time>2026-10-02T11:15:32Z</time>
      </trkpt>
      <trkpt lat="32.05245912816139" lon="118.8037064587765">
        <ele>20.911176525987685</ele>
        <time>2026-10-02T11:15:48Z</time>
      </trkpt>
      <trkpt lat="32.05217685645772" lon="118.80358624808196">
        <ele>14.981916272081435</ele>
        <time>2026-10-02T11:15:57Z</time>
      </trkpt>
      <trkpt lat="32.05207490850568" lon="118.80362934221722">
        <ele>19.56361945811659</ele>
        <time>2026-10-02T11:16:00Z</time>
      </trkpt>
      <trkpt lat="32.05195710848637" lon="118.80375960950016">
        <ele>20.911176525987685</ele>
        <time>2026-10-02T11:16:06Z</time>
      </trkpt>
      <trkpt lat="32.0519003554522" lon="118.80390890899935">
        <ele>22.184755169786513</ele>
        <time>2026-10-02T11:16:12Z</time>
      </trkpt>
      <trkpt lat="32.051899487808654" lon="118.80398505932448">
        <ele>18.03638251964003</ele>
        <time>2026-10-02T11:16:15Z</time>
      </trkpt>
      <trkpt lat="32.05193574203077" lon="118.80412633498835">
        <ele>22.100202404893935</ele>
        <time>2026-10-02T11:16:21Z</time>
      </trkpt>
      <trkpt lat="32.05197687525379" lon="118.8041974718184">
        <ele>20.995729290880263</ele>
        <time>2026-10-02T11:16:24Z</time>
      </trkpt>
      <trkpt lat="32.05209314074804" lon="118.80433473268351">
        <ele>21.28638251964003</ele>
        <time>2026-10-02T11:16:30Z</time>
      </trkpt>
      <trkpt lat="32.05235434601049" lon="118.80441887532969">
        <ele>21.36564811412245</ele>
        <time>2026-10-02T11:16:42Z</time>
      </trkpt>
      <trkpt lat="32.05248946369039" lon="118.80446896216304">
        <ele>21.45020087901503</ele>
        <time>2026-10-02T11:16:48Z</time>
      </trkpt>
      <trkpt lat="32.052629626334316" lon="118.80454409823224">
        <ele>21.27581199351698</ele>
        <time>2026-10-02T11:16:54Z</time>
      </trkpt>
      <trkpt lat="32.0528807787152" lon="118.80459918444149">
        <ele>21.09613593760878</ele>
        <time>2026-10-02T11:17:03Z</time>
      </trkpt>
      <trkpt lat="32.053057919897164" lon="118.80465728346432">
        <ele>20.541261517442763</ele>
        <time>2026-10-02T11:17:09Z</time>
      </trkpt>
      <trkpt lat="32.05314393555007" lon="118.80465527158444">
        <ele>21.4290636414662</ele>
        <time>2026-10-02T11:17:12Z</time>
      </trkpt>
      <trkpt lat="32.0532718377801" lon="118.80458311671305">
        <ele>21.148984753526747</ele>
        <time>2026-10-02T11:17:18Z</time>
      </trkpt>
      <trkpt lat="32.05337266923256" lon="118.80447389093783">
        <ele>20.72621711436659</ele>
        <time>2026-10-02T11:17:24Z</time>
      </trkpt>
      <trkpt lat="32.05340856340403" lon="118.80440875861815">
        <ele>21.677438580431044</ele>
        <time>2026-10-02T11:17:27Z</time>
      </trkpt>
      <trkpt lat="32.05341830313479" lon="118.80425846024018">
        <ele>20.662805401720107</ele>
        <time>2026-10-02T11:17:33Z</time>
      </trkpt>
      <trkpt lat="32.05338703405281" lon="118.80410816599424">
        <ele>14.849801861681044</ele>
        <time>2026-10-02T11:17:39Z</time>
      </trkpt>
      <trkpt lat="32.05333284392768" lon="118.80400596914208">
        <ele>20.56768211070448</ele>
        <time>2026-10-02T11:17:46Z</time>
      </trkpt>
      <trkpt lat="32.05325364838204" lon="118.80390377475841">
        <ele>19.616464459337294</ele>
        <time>2026-10-02T11:17:49Z</time>
      </trkpt>
      <trkpt lat="32.05325255226958" lon="118.80384866619119">
        <ele>21.27581199351698</ele>
        <time>2026-10-02T11:17:52Z</time>
      </trkpt>
      <trkpt lat="32.053213470385856" lon="118.80380658683356">
        <ele>19.38922675792128</ele>
        <time>2026-10-02T11:17:55Z</time>
      </trkpt>
      <trkpt lat="32.052898344445246" lon="118.8037745526134">
        <ele>21.04857810679823</ele>
        <time>2026-10-02T11:18:07Z</time>
      </trkpt>
      <trkpt lat="32.05257212202099" lon="118.80368841288197">
        <ele>20.78963264171034</ele>
        <time>2026-10-02T11:18:22Z</time>
      </trkpt>
      <trkpt lat="32.052256896912304" lon="118.80359926635013">
        <ele>20.599389874376357</ele>
        <time>2026-10-02T11:18:37Z</time>
      </trkpt>
      <trkpt lat="32.052123907257496" lon="118.80362232391306">
        <ele>18.52256187144667</ele>
        <time>2026-10-02T11:18:43Z</time>
      </trkpt>
      <trkpt lat="32.052004019715476" lon="118.80370249270791">
        <ele>20.49898322764784</ele>
        <time>2026-10-02T11:18:49Z</time>
      </trkpt>
      <trkpt lat="32.051874421163795" lon="118.80394999242414">
        <ele>17.338823162950575</ele>
        <time>2026-10-02T11:19:01Z</time>
      </trkpt>
      <trkpt lat="32.051866550257614" lon="118.80402514146564">
        <ele>20.736787640489638</ele>
        <time>2026-10-02T11:19:04Z</time>
      </trkpt>
      <trkpt lat="32.051951890653775" lon="118.80420949788723">
        <ele>20.52012046519667</ele>
        <time>2026-10-02T11:19:10Z</time>
      </trkpt>
      <trkpt lat="32.05202007896802" lon="118.8043086878387">
        <ele>20.72621711436659</ele>
        <time>2026-10-02T11:19:13Z</time>
      </trkpt>
      <trkpt lat="32.052157251295164" lon="118.80438983589373">
        <ele>20.72621711436659</ele>
        <time>2026-10-02T11:19:19Z</time>
      </trkpt>
      <trkpt lat="32.052385426485436" lon="118.80446095583979">
        <ele>20.98516257945448</ele>
        <time>2026-10-02T11:19:32Z</time>
      </trkpt>
      <trkpt lat="32.05248245862585" lon="118.80446695883597">
        <ele>19.21483787242323</ele>
        <time>2026-10-02T11:19:38Z</time>
      </trkpt>
      <trkpt lat="32.052792739811785" lon="118.80458817066963">
        <ele>20.800203167833388</ele>
        <time>2026-10-02T11:19:50Z</time>
      </trkpt>
      <trkpt lat="32.05292284595521" lon="118.80463224617071">
        <ele>19.029878460802138</ele>
        <time>2026-10-02T11:19:56Z</time>
      </trkpt>
      <trkpt lat="32.05310492159723" lon="118.80465226920411">
        <ele>19.822561108507216</ele>
        <time>2026-10-02T11:20:05Z</time>
      </trkpt>
      <trkpt lat="32.05326284103566" lon="118.80458612350137">
        <ele>20.414430462755263</ele>
        <time>2026-10-02T11:20:14Z</time>
      </trkpt>
      <trkpt lat="32.05336369350869" lon="118.80448892154634">
        <ele>19.051015698350966</ele>
        <time>2026-10-02T11:20:20Z</time>
      </trkpt>
      <trkpt lat="32.05341056560054" lon="118.80440976041861">
        <ele>20.56768211070448</ele>
        <time>2026-10-02T11:20:23Z</time>
      </trkpt>
      <trkpt lat="32.053447328832796" lon="118.80426947937612">
        <ele>18.903051220811903</ele>
        <time>2026-10-02T11:20:29Z</time>
      </trkpt>
      <trkpt lat="32.0534392098951" lon="118.80420234735178">
        <ele>20.414430462755263</ele>
        <time>2026-10-02T11:20:32Z</time>
      </trkpt>
      <trkpt lat="32.053395997631796" lon="118.8040861216238">
        <ele>19.558332287706435</ele>
        <time>2026-10-02T11:20:38Z</time>
      </trkpt>
      <trkpt lat="32.053304734741886" lon="118.80394685505705">
        <ele>19.65873893443495</ele>
        <time>2026-10-02T11:20:44Z</time>
      </trkpt>
      <trkpt lat="32.05322356846992" lon="118.80386169453537">
        <ele>18.829065167345107</ele>
        <time>2026-10-02T11:20:51Z</time>
      </trkpt>
      <trkpt lat="32.053013396204406" lon="118.8037895716537">
        <ele>19.774999462999403</ele>
        <time>2026-10-02T11:21:00Z</time>
      </trkpt>
      <trkpt lat="32.0527132265777" lon="118.80373048278125">
        <ele>17.671750866807997</ele>
        <time>2026-10-02T11:21:15Z</time>
      </trkpt>
      <trkpt lat="32.05242503180856" lon="118.8036553613106">
        <ele>18.707521283067763</ele>
        <time>2026-10-02T11:21:27Z</time>
      </trkpt>
      <trkpt lat="32.05226493348793" lon="118.80361930503835">
        <ele>20.218900525011122</ele>
        <time>2026-10-02T11:21:36Z</time>
      </trkpt>
      <trkpt lat="32.05210494303758" lon="118.80364537100597">
        <ele>19.410367810167372</ele>
        <time>2026-10-02T11:21:42Z</time>
      </trkpt>
      <trkpt lat="32.051984105801566" lon="118.8037545971503">
        <ele>17.777440869249403</ele>
        <time>2026-10-02T11:21:48Z</time>
      </trkpt>
      <trkpt lat="32.051913297324404" lon="118.80387383865008">
        <ele>19.22540839854628</ele>
        <time>2026-10-02T11:21:54Z</time>
      </trkpt>
      <trkpt lat="32.05189450937946" lon="118.8039980854913">
        <ele>20.329877697862685</ele>
        <time>2026-10-02T11:22:00Z</time>
      </trkpt>
      <trkpt lat="32.051945866589456" lon="118.80419647268667">
        <ele>17.87784751597792</ele>
        <time>2026-10-02T11:22:09Z</time>
      </trkpt>
      <trkpt lat="32.05198598042139" lon="118.8042565878886">
        <ele>20.314023816026747</ele>
        <time>2026-10-02T11:22:12Z</time>
      </trkpt>
      <trkpt lat="32.052249312086666" lon="118.8044128730734">
        <ele>19.93882163707167</ele>
        <time>2026-10-02T11:22:24Z</time>
      </trkpt>
      <trkpt lat="32.05256359233865" lon="118.80453308244826">
        <ele>19.679879986681044</ele>
        <time>2026-10-02T11:22:42Z</time>
      </trkpt>
      <trkpt lat="32.05284078032265" lon="118.80460520004154">
        <ele>18.406301342882216</ele>
        <time>2026-10-02T11:22:58Z</time>
      </trkpt>
      <trkpt lat="32.05307297061627" lon="118.80468433577322">
        <ele>20.044511639513075</ele>
        <time>2026-10-02T11:23:07Z</time>
      </trkpt>
      <trkpt lat="32.05320098860606" lon="118.8046783120784">
        <ele>20.282316052354872</ele>
        <time>2026-10-02T11:23:13Z</time>
      </trkpt>
      <trkpt lat="32.053299858045776" lon="118.80459113003658">
        <ele>19.399797284044325</ele>
        <time>2026-10-02T11:23:19Z</time>
      </trkpt>
      <trkpt lat="32.053375657637474" lon="118.80446687676536">
        <ele>19.796140515245497</ele>
        <time>2026-10-02T11:23:25Z</time>
      </trkpt>
      <trkpt lat="32.05339754869704" lon="118.80440174573967">
        <ele>19.732724987901747</ele>
        <time>2026-10-02T11:23:28Z</time>
      </trkpt>
      <trkpt lat="32.05337740771206" lon="118.80432359286283">
        <ele>19.690446698106825</ele>
        <time>2026-10-02T11:23:31Z</time>
      </trkpt>
      <trkpt lat="32.05341014226051" lon="118.80416728069412">
        <ele>19.87540610972792</ele>
        <time>2026-10-02T11:23:37Z</time>
      </trkpt>
      <trkpt lat="32.05337693402827" lon="118.80405205609163">
        <ele>20.102643811143935</ele>
        <time>2026-10-02T11:23:43Z</time>
      </trkpt>
      <trkpt lat="32.05329872817199" lon="118.80394384967828">
        <ele>19.309961163438857</ele>
        <time>2026-10-02T11:23:49Z</time>
      </trkpt>
      <trkpt lat="32.05315255788155" lon="118.80386470698775">
        <ele>16.398176037706435</ele>
        <time>2026-10-02T11:23:55Z</time>
      </trkpt>
      <trkpt lat="32.05285158664761" lon="118.8037807856829">
        <ele>19.93882163707167</ele>
        <time>2026-10-02T11:24:08Z</time>
      </trkpt>
      <trkpt lat="32.05257609854407" lon="118.8036743849009">
        <ele>19.119718396104872</ele>
        <time>2026-10-02T11:24:26Z</time>
      </trkpt>
      <trkpt lat="32.05238496546879" lon="118.80362229992214">
        <ele>19.991666638292372</ele>
        <time>2026-10-02T11:24:35Z</time>
      </trkpt>
      <trkpt lat="32.05220494794306" lon="118.80363534209717">
        <ele>20.541261517442763</ele>
        <time>2026-10-02T11:24:44Z</time>
      </trkpt>
      <trkpt lat="32.05204308239184" lon="118.80373355028559">
        <ele>20.092073285020888</ele>
        <time>2026-10-02T11:24:53Z</time>
      </trkpt>
      <trkpt lat="32.051946283767265" lon="118.8038618119115">
        <ele>18.126222454942763</ele>
        <time>2026-10-02T11:24:59Z</time>
      </trkpt>
      <trkpt lat="32.05191541984504" lon="118.80394397679525">
        <ele>19.774999462999403</ele>
        <time>2026-10-02T11:25:02Z</time>
      </trkpt>
      <trkpt lat="32.05192376381332" lon="118.80414036380834">
        <ele>16.752240979112685</ele>
        <time>2026-10-02T11:25:11Z</time>
      </trkpt>
      <trkpt lat="32.05206305706974" lon="118.8042906482021">
        <ele>20.060365521349013</ele>
        <time>2026-10-02T11:25:17Z</time>
      </trkpt>
      <trkpt lat="32.052160211700354" lon="118.80436678999178">
        <ele>19.246545636095107</ele>
        <time>2026-10-02T11:25:20Z</time>
      </trkpt>
      <trkpt lat="32.05248050373284" lon="118.80449301063973">
        <ele>20.023374401964247</ele>
        <time>2026-10-02T11:25:35Z</time>
      </trkpt>
      <trkpt lat="32.05259261457971" lon="118.80454209765983">
        <ele>17.92012580577284</ele>
        <time>2026-10-02T11:25:38Z</time>
      </trkpt>
      <trkpt lat="32.052868786563195" lon="118.80460519746829">
        <ele>17.560773693956435</ele>
        <time>2026-10-02T11:25:47Z</time>
      </trkpt>
      <trkpt lat="32.05308593490884" lon="118.80466229083234">
        <ele>21.027437054552138</ele>
        <time>2026-10-02T11:25:56Z</time>
      </trkpt>
      <trkpt lat="32.05315394830521" lon="118.8046612825948">
        <ele>16.646547161974013</ele>
        <time>2026-10-02T11:25:59Z</time>
      </trkpt>
      <trkpt lat="32.05327589128174" lon="118.80461317596377">
        <ele>19.87540610972792</ele>
        <time>2026-10-02T11:26:05Z</time>
      </trkpt>
      <trkpt lat="32.053360720876825" lon="118.80450495359281">
        <ele>20.351014935411513</ele>
        <time>2026-10-02T11:26:11Z</time>
      </trkpt>
      <trkpt lat="32.05340949009568" lon="118.80436667520128">
        <ele>19.051015698350966</ele>
        <time>2026-10-02T11:26:17Z</time>
      </trkpt>
      <trkpt lat="32.0534152937222" lon="118.80425345060686">
        <ele>19.85426887217909</ele>
        <time>2026-10-02T11:26:23Z</time>
      </trkpt>
      <trkpt lat="32.053401091328126" lon="118.80413922607717">
        <ele>19.991666638292372</ele>
        <time>2026-10-02T11:26:26Z</time>
      </trkpt>
      <trkpt lat="32.05333785551358" lon="118.8040119805493">
        <ele>19.23597510997206</ele>
        <time>2026-10-02T11:26:32Z</time>
      </trkpt>
      <trkpt lat="32.053205620250864" lon="118.80389375941053">
        <ele>19.764432751573622</ele>
        <time>2026-10-02T11:26:41Z</time>
      </trkpt>
      <trkpt lat="32.05293943547151" lon="118.80382164163808">
        <ele>15.425817334093153</ele>
        <time>2026-10-02T11:26:54Z</time>
      </trkpt>
      <trkpt lat="32.052631250094194" lon="118.80375453768018">
        <ele>18.189634167589247</ele>
        <time>2026-10-02T11:27:09Z</time>
      </trkpt>
      <trkpt lat="32.05241603154191" lon="118.80365636410986">
        <ele>20.34044822398573</ele>
        <time>2026-10-02T11:27:21Z</time>
      </trkpt>
      <trkpt lat="32.052370009102646" lon="118.80364935453477">
        <ele>18.58597739879042</ele>
        <time>2026-10-02T11:27:24Z</time>
      </trkpt>
      <trkpt lat="32.05227990378138" lon="118.803600266207">
        <ele>18.43800910655409</ele>
        <time>2026-10-02T11:27:27Z</time>
      </trkpt>
      <trkpt lat="32.052088908149045" lon="118.80362733698739">
        <ele>19.309961163438857</ele>
        <time>2026-10-02T11:27:36Z</time>
      </trkpt>
      <trkpt lat="32.05203393415946" lon="118.80364938541938">
        <ele>19.378660046495497</ele>
        <time>2026-10-02T11:27:39Z</time>
      </trkpt>
      <trkpt lat="32.05198399784494" lon="118.80369247481984">
        <ele>19.605893933214247</ele>
        <time>2026-10-02T11:27:42Z</time>
      </trkpt>
      <trkpt lat="32.05193419917362" lon="118.80381472019103">
        <ele>18.839635693468153</ele>
        <time>2026-10-02T11:27:48Z</time>
      </trkpt>
      <trkpt lat="32.05188472016972" lon="118.80412032779788">
        <ele>19.27825339976698</ele>
        <time>2026-10-02T11:27:57Z</time>
      </trkpt>
      <trkpt lat="32.051957979421225" lon="118.8042595964074">
        <ele>19.23597510997206</ele>
        <time>2026-10-02T11:28:07Z</time>
      </trkpt>
      <trkpt lat="32.0520510666387" lon="118.80429766318171">
        <ele>18.56484016124159</ele>
        <time>2026-10-02T11:28:10Z</time>
      </trkpt>
      <trkpt lat="32.052099166587766" lon="118.80434875989634">
        <ele>19.558332287706435</ele>
        <time>2026-10-02T11:28:13Z</time>
      </trkpt>
      <trkpt lat="32.05238441750376" lon="118.8044559460065">
        <ele>19.473779522813857</ele>
        <time>2026-10-02T11:28:28Z</time>
      </trkpt>
      <trkpt lat="32.052666648606625" lon="118.80455211072363">
        <ele>18.78150733653456</ele>
        <time>2026-10-02T11:28:43Z</time>
      </trkpt>
      <trkpt lat="32.05297888825764" lon="118.80464927481934">
        <ele>19.040448986925185</ele>
        <time>2026-10-02T11:29:01Z</time>
      </trkpt>
      <trkpt lat="32.0531219411755" lon="118.80466128553563">
        <ele>19.29939063731581</ele>
        <time>2026-10-02T11:29:17Z</time>
      </trkpt>
      <trkpt lat="32.053241846878784" lon="118.80459213735415">
        <ele>19.22540839854628</ele>
        <time>2026-10-02T11:29:29Z</time>
      </trkpt>
      <trkpt lat="32.05336354287481" lon="118.80440275084868">
        <ele>19.325815045274794</ele>
        <time>2026-10-02T11:29:47Z</time>
      </trkpt>
      <trkpt lat="32.05339527702596" lon="118.80424643857309">
        <ele>18.98760398570448</ele>
        <time>2026-10-02T11:29:59Z</time>
      </trkpt>
      <trkpt lat="32.05336600666833" lon="118.80409514219338">
        <ele>18.966462933458388</ele>
        <time>2026-10-02T11:30:11Z</time>
      </trkpt>
      <trkpt lat="32.05329879098057" lon="118.80397992085126">
        <ele>18.98760398570448</ele>
        <time>2026-10-02T11:30:23Z</time>
      </trkpt>
      <trkpt lat="32.053102543254695" lon="118.80386270763279">
        <ele>18.686384045518935</ele>
        <time>2026-10-02T11:30:41Z</time>
      </trkpt>
      <trkpt lat="32.0530075499802" lon="118.80387874797333">
        <ele>18.242482983507216</ele>
        <time>2026-10-02T11:30:47Z</time>
      </trkpt>
      <trkpt lat="32.05312665258327" lon="118.80381650112288">
        <ele>19.838414990343153</ele>
        <time>2026-10-02T11:30:59Z</time>
      </trkpt>
      <trkpt lat="32.052545278626" lon="118.80368781794883">
        <ele>17.79857810679823</ele>
        <time>2026-10-02T11:31:08Z</time>
      </trkpt>
      <trkpt lat="32.05245506112248" lon="118.8036683841898">
        <ele>19.843698346056044</ele>
        <time>2026-10-02T11:31:11Z</time>
      </trkpt>
      <trkpt lat="32.05226085084534" lon="118.80357221277121">
        <ele>16.387605511583388</ele>
        <time>2026-10-02T11:31:17Z</time>
      </trkpt>
      <trkpt lat="32.05219282698375" lon="118.80356720916919">
        <ele>18.284757458604872</ele>
        <time>2026-10-02T11:31:20Z</time>
      </trkpt>
      <trkpt lat="32.052040902660764" lon="118.80363034731397">
        <ele>10.067289196886122</ele>
        <time>2026-10-02T11:31:26Z</time>
      </trkpt>
      <trkpt lat="32.05194204244579" lon="118.80372353983758">
        <ele>19.56361945811659</ele>
        <time>2026-10-02T11:31:32Z</time>
      </trkpt>
      <trkpt lat="32.05189524449831" lon="118.80384578499553">
        <ele>19.336381756700575</ele>
        <time>2026-10-02T11:31:38Z</time>
      </trkpt>
      <trkpt lat="32.05188837021464" lon="118.80391892986441">
        <ele>10.453061901964247</ele>
        <time>2026-10-02T11:31:41Z</time>
      </trkpt>
      <trkpt lat="32.051931683493876" lon="118.80409327003544">
        <ele>19.49492057505995</ele>
        <time>2026-10-02T11:31:48Z</time>
      </trkpt>
      <trkpt lat="32.05197383438311" lon="118.80417442653925">
        <ele>18.622968518175185</ele>
        <time>2026-10-02T11:31:51Z</time>
      </trkpt>
      <trkpt lat="32.05218117437783" lon="118.80434274046085">
        <ele>19.09857734385878</ele>
        <time>2026-10-02T11:32:03Z</time>
      </trkpt>
      <trkpt lat="32.05246745002574" lon="118.80446395425908">
        <ele>18.94532569590956</ele>
        <time>2026-10-02T11:32:15Z</time>
      </trkpt>
      <trkpt lat="32.052782714787924" lon="118.80457514575758">
        <ele>16.472158276475966</ele>
        <time>2026-10-02T11:32:30Z</time>
      </trkpt>
      <trkpt lat="32.053052887204146" lon="118.80463924813863">
        <ele>18.88191016856581</ele>
        <time>2026-10-02T11:32:42Z</time>
      </trkpt>
      <trkpt lat="32.05320888863336" lon="118.80462019603424">
        <ele>18.829065167345107</ele>
        <time>2026-10-02T11:32:48Z</time>
      </trkpt>
      <trkpt lat="32.05326184782708" lon="118.80459013154174">
        <ele>19.16199287120253</ele>
        <time>2026-10-02T11:32:51Z</time>
      </trkpt>
      <trkpt lat="32.053399545640666" lon="118.80439974158757">
        <ele>20.102643811143935</ele>
        <time>2026-10-02T11:33:00Z</time>
      </trkpt>
      <trkpt lat="32.0534324182126" lon="118.80432258582493">
        <ele>15.124597393907607</ele>
        <time>2026-10-02T11:33:03Z</time>
      </trkpt>
      <trkpt lat="32.053439299067676" lon="118.80425344840101">
        <ele>18.395734631456435</ele>
        <time>2026-10-02T11:33:06Z</time>
      </trkpt>
      <trkpt lat="32.053426151067136" lon="118.80417028516473">
        <ele>17.703458630479872</ele>
        <time>2026-10-02T11:33:09Z</time>
      </trkpt>
      <trkpt lat="32.05330778077117" lon="118.80397290618316">
        <ele>18.739229046739638</ele>
        <time>2026-10-02T11:33:18Z</time>
      </trkpt>
      <trkpt lat="32.05324769064605" lon="118.80392882471689">
        <ele>18.87134345714003</ele>
        <time>2026-10-02T11:33:21Z</time>
      </trkpt>
      <trkpt lat="32.05317565890829" lon="118.80391981354718">
        <ele>19.267682873643935</ele>
        <time>2026-10-02T11:33:24Z</time>
      </trkpt>
      <trkpt lat="32.053103533018245" lon="118.8038566956888">
        <ele>18.966462933458388</ele>
        <time>2026-10-02T11:33:27Z</time>
      </trkpt>
      <trkpt lat="32.052803302369135" lon="118.8037625376596">
        <ele>18.903051220811903</ele>
        <time>2026-10-02T11:33:42Z</time>
      </trkpt>
      <trkpt lat="32.052481082584364" lon="118.80367739955008">
        <ele>18.27419074717909</ele>
        <time>2026-10-02T11:33:57Z</time>
      </trkpt>
      <trkpt lat="32.05239397443492" lon="118.80362630698058">
        <ele>19.088010632432997</ele>
        <time>2026-10-02T11:34:00Z</time>
      </trkpt>
      <trkpt lat="32.05232092858073" lon="118.80360928017822">
        <ele>19.109147869981825</ele>
        <time>2026-10-02T11:34:03Z</time>
      </trkpt>
      <trkpt lat="32.05232092858073" lon="118.80360928017822">
        <ele>5.7776795495301485</ele>
        <time>2026-10-02T11:34:06Z</time>
      </trkpt>
    </trkseg>
  </trk>
</gpx>