<?xml version="1.0" encoding="UTF-8"?>
<gpx xmlns="http://www.topografix.com/GPX/1/1" xmlns:gpxtpx="http://www.garmin.com/xmlschemas/TrackPointExtension/v1" xmlns:xsi="http://www.w3.org/2001/XMLSchema-instance" xsi:schemaLocation="http://www.topografix.com/GPX/1/1 http://www.topografix.com/GPX/1/1/gpx.xsd" version="1.1" creator="gpx.py -- https://github.com/tkrajina/gpxpy">
  <trk>
    <name>gpx from keep</name>
    <type>Run</type>
    <trkseg>
      <trkpt lat="32.05189741757331" lon="118.80394498042637">
        <ele>14.307260003872216</ele>
        <time>2026-08-25T10:32:52Z</time>
      </trkpt>
      <trkpt lat="32.05192034421989" lon="118.80389988937662">
        <ele>16.980506010353565</ele>
        <time>2026-08-25T10:33:13Z</time>
      </trkpt>
      <trkpt lat="32.051921826276875" lon="118.80417643527935">
        <ele>19.535586424171925</ele>
        <time>2026-08-25T10:33:25Z</time>
      </trkpt>
      <trkpt lat="32.05194193038407" lon="118.8042335463556">
        <ele>20.05875689536333</ele>
        <time>2026-08-25T10:33:28Z</time>
      </trkpt>
      <trkpt lat="32.05200409989467" lon="118.80432271706755">
        <ele>19.400828428566456</ele>
        <time>2026-08-25T10:33:31Z</time>
      </trkpt>
      <trkpt lat="32.052070198626225" lon="118.80437080619747">
        <ele>20.613635130226612</ele>
        <time>2026-08-25T10:33:34Z</time>
      </trkpt>
      <trkpt lat="32.05237443279147" lon="118.80446596677629">
        <ele>20.563426084816456</ele>
        <time>2026-08-25T10:33:46Z</time>
      </trkpt>
      <trkpt lat="32.05260263609194" lon="118.80455311859188">
        <ele>18.87765795737505</ele>
        <time>2026-08-25T10:33:55Z</time>
      </trkpt>
      <trkpt lat="32.05290685993173" lon="118.80464226752001">
        <ele>20.74045855551958</ele>
        <time>2026-08-25T10:34:07Z</time>
      </trkpt>
      <trkpt lat="32.05306298242756" lon="118.80469235260182">
        <ele>12.858557768166065</ele>
        <time>2026-08-25T10:34:13Z</time>
      </trkpt>
      <trkpt lat="32.05322095095055" lon="118.80465426251986">
        <ele>19.044123716652393</ele>
        <time>2026-08-25T10:34:19Z</time>
      </trkpt>
      <trkpt lat="32.05335477387103" lon="118.80453601571169">
        <ele>19.347983427345753</ele>
        <time>2026-08-25T10:34:25Z</time>
      </trkpt>
      <trkpt lat="32.053395655084955" lon="118.8044628669866">
        <ele>18.259368009865284</ele>
        <time>2026-08-25T10:34:28Z</time>
      </trkpt>
      <trkpt lat="32.05342234075606" lon="118.80427950149496">
        <ele>19.181521482765675</ele>
        <time>2026-08-25T10:34:34Z</time>
      </trkpt>
      <trkpt lat="32.05341819997353" lon="118.80419934333916">
        <ele>19.535586424171925</ele>
        <time>2026-08-25T10:34:37Z</time>
      </trkpt>
      <trkpt lat="32.0533398926157" lon="118.80403302190388">
        <ele>19.390261717140675</ele>
        <time>2026-08-25T10:34:43Z</time>
      </trkpt>
      <trkpt lat="32.053244684745174" lon="118.80392581906325">
        <ele>18.645136900246143</ele>
        <time>2026-08-25T10:34:49Z</time>
      </trkpt>
      <trkpt lat="32.053070509977374" lon="118.80384768094508">
        <ele>18.602862425148487</ele>
        <time>2026-08-25T10:34:55Z</time>
      </trkpt>
      <trkpt lat="32.05273629614409" lon="118.803767553687">
        <ele>16.980506010353565</ele>
        <time>2026-08-25T10:35:07Z</time>
      </trkpt>
      <trkpt lat="32.05239203315122" lon="118.8036603742039">
        <ele>10.514861173927784</ele>
        <time>2026-08-25T10:35:19Z</time>
      </trkpt>
      <trkpt lat="32.052208894903806" lon="118.80360428061752">
        <ele>8.33762652426958</ele>
        <time>2026-08-25T10:35:25Z</time>
      </trkpt>
      <trkpt lat="32.052138903644526" lon="118.80361831464883">
        <ele>-4.47475903481245</ele>
        <time>2026-08-25T10:35:28Z</time>
      </trkpt>
      <trkpt lat="32.0519232019471" lon="118.80381772712589">
        <ele>14.30124194175005</ele>
        <time>2026-08-25T10:35:40Z</time>
      </trkpt>
      <trkpt lat="32.05186246210352" lon="118.80397504295222">
        <ele>15.841685362160206</ele>
        <time>2026-08-25T10:35:46Z</time>
      </trkpt>
      <trkpt lat="32.051892832041" lon="118.80418345180847">
        <ele>18.008349485695362</ele>
        <time>2026-08-25T10:35:52Z</time>
      </trkpt>
      <trkpt lat="32.051932001605074" lon="118.80427563050837">
        <ele>16.52075106650591</ele>
        <time>2026-08-25T10:35:55Z</time>
      </trkpt>
      <trkpt lat="32.05198814707595" lon="118.80435177604754">
        <ele>18.20652300864458</ele>
        <time>2026-08-25T10:35:58Z</time>
      </trkpt>
      <trkpt lat="32.05205926970587" lon="118.80441289053492">
        <ele>18.613432951271534</ele>
        <time>2026-08-25T10:36:01Z</time>
      </trkpt>
      <trkpt lat="32.052336426069104" lon="118.80446697225375">
        <ele>18.94900042563677</ele>
        <time>2026-08-25T10:36:14Z</time>
      </trkpt>
      <trkpt lat="32.05261866069668" lon="118.8045651409612">
        <ele>18.30164248496294</ele>
        <time>2026-08-25T10:36:26Z</time>
      </trkpt>
      <trkpt lat="32.05290188864251" lon="118.80465930177728">
        <ele>19.5672941878438</ele>
        <time>2026-08-25T10:36:38Z</time>
      </trkpt>
      <trkpt lat="32.053037004715776" lon="118.80470838681343">
        <ele>3.6423063948750496</ele>
        <time>2026-08-25T10:36:44Z</time>
      </trkpt>
      <trkpt lat="32.05310602711136" lon="118.80471238842854">
        <ele>18.14310748130083</ele>
        <time>2026-08-25T10:36:47Z</time>
      </trkpt>
      <trkpt lat="32.05326196359334" lon="118.80465626272824">
        <ele>12.689452238380909</ele>
        <time>2026-08-25T10:36:53Z</time>
      </trkpt>
      <trkpt lat="32.05332289473606" lon="118.80460916369441">
        <ele>16.927661009132862</ele>
        <time>2026-08-25T10:36:56Z</time>
      </trkpt>
      <trkpt lat="32.0534056643196" lon="118.80446687400817">
        <ele>16.37542635947466</ele>
        <time>2026-08-25T10:37:02Z</time>
      </trkpt>
      <trkpt lat="32.05343338519126" lon="118.80430354806116">
        <ele>18.330706663429737</ele>
        <time>2026-08-25T10:37:08Z</time>
      </trkpt>
      <trkpt lat="32.05338706375011" lon="118.80412519964666">
        <ele>18.613432951271534</ele>
        <time>2026-08-25T10:37:14Z</time>
      </trkpt>
      <trkpt lat="32.053342912487565" lon="118.80404404338923">
        <ele>8.570147581398487</ele>
        <time>2026-08-25T10:37:17Z</time>
      </trkpt>
      <trkpt lat="32.053186640431115" lon="118.80390778882126">
        <ele>18.383555479347706</ele>
        <time>2026-08-25T10:37:23Z</time>
      </trkpt>
      <trkpt lat="32.052990509581925" lon="118.80385770805074">
        <ele>12.639250822365284</ele>
        <time>2026-08-25T10:37:29Z</time>
      </trkpt>
      <trkpt lat="32.052698259805254" lon="118.80375152560094">
        <ele>18.185381956398487</ele>
        <time>2026-08-25T10:37:41Z</time>
      </trkpt>
      <trkpt lat="32.05257016509777" lon="118.80371346238357">
        <ele>19.326846189796925</ele>
        <time>2026-08-25T10:37:47Z</time>
      </trkpt>
      <trkpt lat="32.05238108639583" lon="118.80369243832857">
        <ele>19.00184542685747</ele>
        <time>2026-08-25T10:37:53Z</time>
      </trkpt>
      <trkpt lat="32.05223890507401" lon="118.80360628180217">
        <ele>19.464243955910206</ele>
        <time>2026-08-25T10:37:59Z</time>
      </trkpt>
      <trkpt lat="32.052106913904176" lon="118.80362833730433">
        <ele>18.59493548423052</ele>
        <time>2026-08-25T10:38:05Z</time>
      </trkpt>
      <trkpt lat="32.052038964859655" lon="118.80366641848352">
        <ele>19.694121427834034</ele>
        <time>2026-08-25T10:38:08Z</time>
      </trkpt>
      <trkpt lat="32.05189336086613" lon="118.8039129175474">
        <ele>19.242293424904346</ele>
        <time>2026-08-25T10:38:17Z</time>
      </trkpt>
      <trkpt lat="32.05187746370561" lon="118.80397403959635">
        <ele>18.520953245460987</ele>
        <time>2026-08-25T10:38:20Z</time>
      </trkpt>
      <trkpt lat="32.05188270050786" lon="118.80410930620728">
        <ele>2.096575804054737</ele>
        <time>2026-08-25T10:38:23Z</time>
      </trkpt>
      <trkpt lat="32.051912876707746" lon="118.80420649552855">
        <ele>17.527457304298878</ele>
        <time>2026-08-25T10:38:26Z</time>
      </trkpt>
      <trkpt lat="32.052062189839695" lon="118.80436679899833">
        <ele>11.695960111916065</ele>
        <time>2026-08-25T10:38:32Z</time>
      </trkpt>
      <trkpt lat="32.052345454355574" lon="118.80448200120601">
        <ele>18.991274900734425</ele>
        <time>2026-08-25T10:38:45Z</time>
      </trkpt>
      <trkpt lat="32.05245453648763" lon="118.80451505671601">
        <ele>18.069121427834034</ele>
        <time>2026-08-25T10:38:51Z</time>
      </trkpt>
      <trkpt lat="32.052518619116995" lon="118.80455412829815">
        <ele>17.273799009621143</ele>
        <time>2026-08-25T10:38:54Z</time>
      </trkpt>
      <trkpt lat="32.05261864316512" lon="118.8045551210946">
        <ele>18.195952482521534</ele>
        <time>2026-08-25T10:38:57Z</time>
      </trkpt>
      <trkpt lat="32.052934922316496" lon="118.8046743285699">
        <ele>12.406729765236378</ele>
        <time>2026-08-25T10:39:12Z</time>
      </trkpt>
      <trkpt lat="32.053069004825424" lon="118.80470437591671">
        <ele>17.347781248390675</ele>
        <time>2026-08-25T10:39:18Z</time>
      </trkpt>
      <trkpt lat="32.05320300484539" lon="118.80468732979212">
        <ele>18.058554716408253</ele>
        <time>2026-08-25T10:39:24Z</time>
      </trkpt>
      <trkpt lat="32.05332488992011" lon="118.8046061575483">
        <ele>18.44696719199419</ele>
        <time>2026-08-25T10:39:30Z</time>
      </trkpt>
      <trkpt lat="32.05337876168939" lon="118.80452599364384">
        <ele>18.666277952492237</ele>
        <time>2026-08-25T10:39:33Z</time>
      </trkpt>
      <trkpt lat="32.05342848557551" lon="118.80436166353726">
        <ele>17.284365721046925</ele>
        <time>2026-08-25T10:39:39Z</time>
      </trkpt>
      <trkpt lat="32.05340914553305" lon="118.80416928474682">
        <ele>16.94879824668169</ele>
        <time>2026-08-25T10:39:45Z</time>
      </trkpt>
      <trkpt lat="32.053361909736445" lon="118.8040400337295">
        <ele>16.10327059775591</ele>
        <time>2026-08-25T10:39:51Z</time>
      </trkpt>
      <trkpt lat="32.053297745394175" lon="118.80395386953833">
        <ele>16.991076536476612</ele>
        <time>2026-08-25T10:39:54Z</time>
      </trkpt>
      <trkpt lat="32.05317059850403" lon="118.80388574682088">
        <ele>8.76831728965044</ele>
        <time>2026-08-25T10:40:00Z</time>
      </trkpt>
      <trkpt lat="32.05288638532481" lon="118.80379960307">
        <ele>19.630705900490284</ele>
        <time>2026-08-25T10:40:12Z</time>
      </trkpt>
      <trkpt lat="32.052501099228095" lon="118.80368441151835">
        <ele>14.541686125099659</ele>
        <time>2026-08-25T10:40:30Z</time>
      </trkpt>
      <trkpt lat="32.052222880632165" lon="118.80359425962055">
        <ele>17.139041014015675</ele>
        <time>2026-08-25T10:40:42Z</time>
      </trkpt>
      <trkpt lat="32.05200801190339" lon="118.80369748247682">
        <ele>17.464041776955128</ele>
        <time>2026-08-25T10:40:51Z</time>
      </trkpt>
      <trkpt lat="32.05189622032073" lon="118.80383175725397">
        <ele>18.090262480080128</ele>
        <time>2026-08-25T10:40:57Z</time>
      </trkpt>
      <trkpt lat="32.05186853324868" lon="118.80401512150233">
        <ele>15.923598356544971</ele>
        <time>2026-08-25T10:41:03Z</time>
      </trkpt>
      <trkpt lat="32.051886748569025" lon="118.80413635928944">
        <ele>19.535586424171925</ele>
        <time>2026-08-25T10:41:06Z</time>
      </trkpt>
      <trkpt lat="32.05199105150378" lon="118.80429666671355">
        <ele>18.16424471884966</ele>
        <time>2026-08-25T10:41:12Z</time>
      </trkpt>
      <trkpt lat="32.0520652080141" lon="118.80437681855904">
        <ele>17.683352537453175</ele>
        <time>2026-08-25T10:41:15Z</time>
      </trkpt>
      <trkpt lat="32.05233545387755" lon="118.80448300411044">
        <ele>18.80367571860552</ele>
        <time>2026-08-25T10:41:27Z</time>
      </trkpt>
      <trkpt lat="32.05266069109955" lon="118.80457716094338">
        <ele>18.835383482277393</ele>
        <time>2026-08-25T10:41:42Z</time>
      </trkpt>
      <trkpt lat="32.05295790989536" lon="118.80466430657223">
        <ele>17.577658720314503</ele>
        <time>2026-08-25T10:41:57Z</time>
      </trkpt>
      <trkpt lat="32.05316904816917" lon="118.80471639059527">
        <ele>17.45347125083208</ele>
        <time>2026-08-25T10:42:06Z</time>
      </trkpt>
      <trkpt lat="32.05324100453664" lon="118.80468231635666">
        <ele>9.373400755226612</ele>
        <time>2026-08-25T10:42:09Z</time>
      </trkpt>
      <trkpt lat="32.05339372297019" lon="118.8045019446026">
        <ele>8.800025053322315</ele>
        <time>2026-08-25T10:42:18Z</time>
      </trkpt>
      <trkpt lat="32.053442486943304" lon="118.80436066026705">
        <ele>18.153674192726612</ele>
        <time>2026-08-25T10:42:24Z</time>
      </trkpt>
      <trkpt lat="32.05343202660873" lon="118.80409814206477">
        <ele>19.997981138527393</ele>
        <time>2026-08-25T10:42:33Z</time>
      </trkpt>
      <trkpt lat="32.05338792425693" lon="118.80404504123146">
        <ele>16.67928607016802</ele>
        <time>2026-08-25T10:42:36Z</time>
      </trkpt>
      <trkpt lat="32.053305816970486" lon="118.803993947892">
        <ele>16.82461077719927</ele>
        <time>2026-08-25T10:42:39Z</time>
      </trkpt>
      <trkpt lat="32.053181599211186" lon="118.80388474383402">
        <ele>9.217505522072315</ele>
        <time>2026-08-25T10:42:45Z</time>
      </trkpt>
      <trkpt lat="32.052904351008436" lon="118.80377755798376">
        <ele>11.801650114357471</ele>
        <time>2026-08-25T10:42:57Z</time>
      </trkpt>
      <trkpt lat="32.052751264653075" lon="118.8037475128352">
        <ele>18.20652300864458</ele>
        <time>2026-08-25T10:43:07Z</time>
      </trkpt>
      <trkpt lat="32.05261123518558" lon="118.80374852767724">
        <ele>18.217089720070362</ele>
        <time>2026-08-25T10:43:16Z</time>
      </trkpt>
      <trkpt lat="32.05255214889734" lon="118.80370645022809">
        <ele>18.217089720070362</ele>
        <time>2026-08-25T10:43:19Z</time>
      </trkpt>
      <trkpt lat="32.05227294397092" lon="118.80362431415995">
        <ele>17.42176730185747</ele>
        <time>2026-08-25T10:43:31Z</time>
      </trkpt>
      <trkpt lat="32.05216390226229" lon="118.80361430446567">
        <ele>18.71912295371294</ele>
        <time>2026-08-25T10:43:34Z</time>
      </trkpt>
      <trkpt lat="32.05209091381476" lon="118.80363034271805">
        <ele>18.248797483742237</ele>
        <time>2026-08-25T10:43:37Z</time>
      </trkpt>
      <trkpt lat="32.051973091155986" lon="118.80374758434668">
        <ele>17.66221148520708</ele>
        <time>2026-08-25T10:43:43Z</time>
      </trkpt>
      <trkpt lat="32.0519651973774" lon="118.80380970746899">
        <ele>17.065058775246143</ele>
        <time>2026-08-25T10:43:46Z</time>
      </trkpt>
      <trkpt lat="32.05191341416559" lon="118.80394097104903">
        <ele>9.677260465919971</ele>
        <time>2026-08-25T10:43:52Z</time>
      </trkpt>
      <trkpt lat="32.05191590010462" lon="118.80421952100693">
        <ele>18.07969195395708</ele>
        <time>2026-08-25T10:44:01Z</time>
      </trkpt>
      <trkpt lat="32.051964061225696" lon="118.80430568703754">
        <ele>18.8142424300313</ele>
        <time>2026-08-25T10:44:04Z</time>
      </trkpt>
      <trkpt lat="32.05202917897704" lon="118.80436479806403">
        <ele>18.489245481789112</ele>
        <time>2026-08-25T10:44:07Z</time>
      </trkpt>
      <trkpt lat="32.052300384757906" lon="118.80444793784687">
        <ele>14.763636656105518</ele>
        <time>2026-08-25T10:44:19Z</time>
      </trkpt>
      <trkpt lat="32.052427460377245" lon="118.80447497977254">
        <ele>17.527457304298878</ele>
        <time>2026-08-25T10:44:25Z</time>
      </trkpt>
      <trkpt lat="32.05251960356287" lon="118.80454511032782">
        <ele>17.944937773048878</ele>
        <time>2026-08-25T10:44:29Z</time>
      </trkpt>
      <trkpt lat="32.052809826033034" lon="118.80463526251899">
        <ele>16.417700834572315</ele>
        <time>2026-08-25T10:44:44Z</time>
      </trkpt>
      <trkpt lat="32.05285788059077" lon="118.80466030780913">
        <ele>16.280303068459034</ele>
        <time>2026-08-25T10:44:47Z</time>
      </trkpt>
      <trkpt lat="32.05317001328819" lon="118.80469635072366">
        <ele>17.545950956642628</ele>
        <time>2026-08-25T10:45:02Z</time>
      </trkpt>
      <trkpt lat="32.05328093800156" lon="118.80463922718505">
        <ele>17.284365721046925</ele>
        <time>2026-08-25T10:45:08Z</time>
      </trkpt>
      <trkpt lat="32.053408584417475" lon="118.80442078243048">
        <ele>15.233962126076221</ele>
        <time>2026-08-25T10:45:17Z</time>
      </trkpt>
      <trkpt lat="32.05342645712589" lon="118.80434563198696">
        <ele>16.52075106650591</ele>
        <time>2026-08-25T10:45:20Z</time>
      </trkpt>
      <trkpt lat="32.05338305936513" lon="118.80412319605495">
        <ele>17.022784300148487</ele>
        <time>2026-08-25T10:45:29Z</time>
      </trkpt>
      <trkpt lat="32.05318562625755" lon="118.8038997731046">
        <ele>15.852255888283253</ele>
        <time>2026-08-25T10:45:38Z</time>
      </trkpt>
      <trkpt lat="32.05283838856599" lon="118.80380762327736">
        <ele>16.72949130088091</ele>
        <time>2026-08-25T10:45:53Z</time>
      </trkpt>
      <trkpt lat="32.05253513117963" lon="118.80369843600883">
        <ele>17.93436724692583</ele>
        <time>2026-08-25T10:46:08Z</time>
      </trkpt>
      <trkpt lat="32.05226893611977" lon="118.80362030664203">
        <ele>17.022784300148487</ele>
        <time>2026-08-25T10:46:20Z</time>
      </trkpt>
      <trkpt lat="32.052157914841565" lon="118.80362232078781">
        <ele>15.9447355940938</ele>
        <time>2026-08-25T10:46:27Z</time>
      </trkpt>
      <trkpt lat="32.05207495374706" lon="118.8036553934821">
        <ele>16.541888304054737</ele>
        <time>2026-08-25T10:46:30Z</time>
      </trkpt>
      <trkpt lat="32.05197012706318" lon="118.80376862606896">
        <ele>16.80347353965044</ele>
        <time>2026-08-25T10:46:36Z</time>
      </trkpt>
      <trkpt lat="32.05188935299784" lon="118.80390891001039">
        <ele>16.96993548423052</ele>
        <time>2026-08-25T10:46:42Z</time>
      </trkpt>
      <trkpt lat="32.05187560114794" lon="118.80405319602971">
        <ele>16.991076536476612</ele>
        <time>2026-08-25T10:46:48Z</time>
      </trkpt>
      <trkpt lat="32.051898761729845" lon="118.80414237006589">
        <ele>17.326644010841846</ele>
        <time>2026-08-25T10:46:51Z</time>
      </trkpt>
      <trkpt lat="32.05199207622064" lon="118.80431069437732">
        <ele>17.29493624716997</ele>
        <time>2026-08-25T10:46:57Z</time>
      </trkpt>
      <trkpt lat="32.052050192414114" lon="118.80436980605192">
        <ele>17.35835177451372</ele>
        <time>2026-08-25T10:47:00Z</time>
      </trkpt>
      <trkpt lat="32.0523424589428" lon="118.80448500743803">
        <ele>17.065058775246143</ele>
        <time>2026-08-25T10:47:15Z</time>
      </trkpt>
      <trkpt lat="32.05244850185428" lon="118.80449601953745">
        <ele>16.845751829445362</ele>
        <time>2026-08-25T10:47:21Z</time>
      </trkpt>
      <trkpt lat="32.05260266940257" lon="118.80457215633919">
        <ele>17.35835177451372</ele>
        <time>2026-08-25T10:47:27Z</time>
      </trkpt>
      <trkpt lat="32.052940911370754" lon="118.80466731409956">
        <ele>13.926035948097706</ele>
        <time>2026-08-25T10:47:42Z</time>
      </trkpt>
      <trkpt lat="32.05305299423973" lon="118.80470036943143">
        <ele>17.08619601279497</ele>
        <time>2026-08-25T10:47:48Z</time>
      </trkpt>
      <trkpt lat="32.053203985764846" lon="118.80467630782563">
        <ele>17.054488249123096</ele>
        <time>2026-08-25T10:47:54Z</time>
      </trkpt>
      <trkpt lat="32.05326693663707" lon="118.80464023045961">
        <ele>17.107337065041065</ele>
        <time>2026-08-25T10:47:57Z</time>
      </trkpt>
      <trkpt lat="32.053407640240515" lon="118.80445284603323">
        <ele>17.022784300148487</ele>
        <time>2026-08-25T10:48:06Z</time>
      </trkpt>
      <trkpt lat="32.053423381214444" lon="118.80430254699768">
        <ele>17.065058775246143</ele>
        <time>2026-08-25T10:48:12Z</time>
      </trkpt>
      <trkpt lat="32.05338203293911" lon="118.8041081664538">
        <ele>17.139041014015675</ele>
        <time>2026-08-25T10:48:21Z</time>
      </trkpt>
      <trkpt lat="32.05332882383905" lon="118.8039949477555">
        <ele>17.273799009621143</ele>
        <time>2026-08-25T10:48:24Z</time>
      </trkpt>
      <trkpt lat="32.05310153605898" lon="118.80385869982327">
        <ele>16.856318540871143</ele>
        <time>2026-08-25T10:48:37Z</time>
      </trkpt>
      <trkpt lat="32.05279937464611" lon="118.80380462093879">
        <ele>15.7359953597188</ele>
        <time>2026-08-25T10:48:52Z</time>
      </trkpt>
      <trkpt lat="32.052529239545656" lon="118.80376156087137">
        <ele>16.647578306496143</ele>
        <time>2026-08-25T10:49:04Z</time>
      </trkpt>
      <trkpt lat="32.05241411812706" lon="118.80370646291283">
        <ele>17.22095400840044</ele>
        <time>2026-08-25T10:49:10Z</time>
      </trkpt>
      <trkpt lat="32.05214502331643" lon="118.80368644818611">
        <ele>16.37542635947466</ele>
        <time>2026-08-25T10:49:22Z</time>
      </trkpt>
      <trkpt lat="32.0520330784196" lon="118.80373254923153">
        <ele>16.782336302101612</ele>
        <time>2026-08-25T10:49:28Z</time>
      </trkpt>
      <trkpt lat="32.05190630099288" lon="118.8038768452202">
        <ele>15.15997988730669</ele>
        <time>2026-08-25T10:49:34Z</time>
      </trkpt>
      <trkpt lat="32.05188041552463" lon="118.80394598396559">
        <ele>17.14961154013872</ele>
        <time>2026-08-25T10:49:37Z</time>
      </trkpt>
      <trkpt lat="32.05188055861825" lon="118.80402814611308">
        <ele>17.043921537697315</ele>
        <time>2026-08-25T10:49:40Z</time>
      </trkpt>
      <trkpt lat="32.0519178131505" lon="118.80416942178394">
        <ele>16.980506010353565</ele>
        <time>2026-08-25T10:49:46Z</time>
      </trkpt>
      <trkpt lat="32.051966009190785" lon="118.8042756273836">
        <ele>16.94087130576372</ele>
        <time>2026-08-25T10:49:49Z</time>
      </trkpt>
      <trkpt lat="32.052076224473105" lon="118.80438483341842">
        <ele>17.474612303078175</ele>
        <time>2026-08-25T10:49:55Z</time>
      </trkpt>
      <trkpt lat="32.05220033267974" lon="118.80443091329671">
        <ele>15.79941088706255</ele>
        <time>2026-08-25T10:50:01Z</time>
      </trkpt>
      <trkpt lat="32.05229636810211" lon="118.80443892035133">
        <ele>17.03335101157427</ele>
        <time>2026-08-25T10:50:07Z</time>
      </trkpt>
      <trkpt lat="32.05254863632446" lon="118.80456013746078">
        <ele>16.761199064552784</ele>
        <time>2026-08-25T10:50:17Z</time>
      </trkpt>
      <trkpt lat="32.052602699211086" lon="118.80458919011795">
        <ele>16.856318540871143</ele>
        <time>2026-08-25T10:50:20Z</time>
      </trkpt>
      <trkpt lat="32.05291889769484" lon="118.80466230617975">
        <ele>17.74676425009966</ele>
        <time>2026-08-25T10:50:35Z</time>
      </trkpt>
      <trkpt lat="32.05306398967048" lon="118.8046963604651">
        <ele>15.15997988730669</ele>
        <time>2026-08-25T10:50:41Z</time>
      </trkpt>
      <trkpt lat="32.05329294067474" lon="118.80463922608222">
        <ele>16.280303068459034</ele>
        <time>2026-08-25T10:50:53Z</time>
      </trkpt>
      <trkpt lat="32.05334284833564" lon="118.80458010422684">
        <ele>16.49961382895708</ele>
        <time>2026-08-25T10:50:56Z</time>
      </trkpt>
      <trkpt lat="32.05340355528633" lon="118.80440475114075">
        <ele>16.647578306496143</ele>
        <time>2026-08-25T10:51:02Z</time>
      </trkpt>
      <trkpt lat="32.05341608593319" lon="118.80413421479908">
        <ele>16.259165830910206</ele>
        <time>2026-08-25T10:51:11Z</time>
      </trkpt>
      <trkpt lat="32.05330982309702" lon="118.80399695345706">
        <ele>16.38599307090044</ele>
        <time>2026-08-25T10:51:17Z</time>
      </trkpt>
      <trkpt lat="32.05325072096799" lon="118.80394585804375">
        <ele>16.94087130576372</ele>
        <time>2026-08-25T10:51:20Z</time>
      </trkpt>
      <trkpt lat="32.05293741934244" lon="118.80381262405014">
        <ele>16.322581358253956</ele>
        <time>2026-08-25T10:51:35Z</time>
      </trkpt>
      <trkpt lat="32.052729258007545" lon="118.80374651288393">
        <ele>16.573596067726612</ele>
        <time>2026-08-25T10:51:47Z</time>
      </trkpt>
      <trkpt lat="32.05255925320164" lon="118.80376556600883">
        <ele>16.65814883261919</ele>
        <time>2026-08-25T10:51:57Z</time>
      </trkpt>
      <trkpt lat="32.05244714811969" lon="118.80371948552731">
        <ele>16.029288358986378</ele>
        <time>2026-08-25T10:52:03Z</time>
      </trkpt>
      <trkpt lat="32.05223407450263" lon="118.80370447551246">
        <ele>15.212824888527393</ele>
        <time>2026-08-25T10:52:12Z</time>
      </trkpt>
      <trkpt lat="32.052100074211786" lon="118.80372152136867">
        <ele>16.35428912192583</ele>
        <time>2026-08-25T10:52:18Z</time>
      </trkpt>
      <trkpt lat="32.051938158248824" lon="118.80379067243823">
        <ele>17.23152071982622</ele>
        <time>2026-08-25T10:52:24Z</time>
      </trkpt>
      <trkpt lat="32.051881387838336" lon="118.803929952248">
        <ele>16.134978361427784</ele>
        <time>2026-08-25T10:52:30Z</time>
      </trkpt>
      <trkpt lat="32.051888637225034" lon="118.80407223242912">
        <ele>15.548392362892628</ele>
        <time>2026-08-25T10:52:36Z</time>
      </trkpt>
      <trkpt lat="32.051946947237255" lon="118.80424256372947">
        <ele>12.972178526222706</ele>
        <time>2026-08-25T10:52:42Z</time>
      </trkpt>
      <trkpt lat="32.05205917691768" lon="118.80435978538948">
        <ele>16.071562834084034</ele>
        <time>2026-08-25T10:52:48Z</time>
      </trkpt>
      <trkpt lat="32.052334416864" lon="118.80446196251191">
        <ele>16.301440306007862</ele>
        <time>2026-08-25T10:53:00Z</time>
      </trkpt>
      <trkpt lat="32.05259566784196" lon="118.80457215698249">
        <ele>16.37542635947466</ele>
        <time>2026-08-25T10:53:12Z</time>
      </trkpt>
      <trkpt lat="32.05290491387597" lon="118.80467332933844">
        <ele>16.134978361427784</ele>
        <time>2026-08-25T10:53:27Z</time>
      </trkpt>
      <trkpt lat="32.05305805679104" lon="118.8047354385927">
        <ele>16.174613066017628</ele>
        <time>2026-08-25T10:53:33Z</time>
      </trkpt>
      <trkpt lat="32.05318700303571" lon="118.80468833325124">
        <ele>15.902457304298878</ele>
        <time>2026-08-25T10:53:39Z</time>
      </trkpt>
      <trkpt lat="32.05344170036927" lon="118.80448290246471">
        <ele>15.891890592873096</ele>
        <time>2026-08-25T10:53:51Z</time>
      </trkpt>
      <trkpt lat="32.053413197111794" lon="118.80419834181784">
        <ele>18.637209959328175</ele>
        <time>2026-08-25T10:54:00Z</time>
      </trkpt>
      <trkpt lat="32.0533248508724" lon="118.80401097976636">
        <ele>16.761199064552784</ele>
        <time>2026-08-25T10:54:09Z</time>
      </trkpt>
      <trkpt lat="32.05323369799268" lon="118.80393483786293">
        <ele>15.852255888283253</ele>
        <time>2026-08-25T10:54:15Z</time>
      </trkpt>
      <trkpt lat="32.05315461760711" lon="118.80389877397803">
        <ele>16.22745806723833</ele>
        <time>2026-08-25T10:54:19Z</time>
      </trkpt>
      <trkpt lat="32.052882483770304" lon="118.80385671600247">
        <ele>15.841685362160206</ele>
        <time>2026-08-25T10:54:34Z</time>
      </trkpt>
      <trkpt lat="32.05260730396943" lon="118.80378860699815">
        <ele>16.195750303566456</ele>
        <time>2026-08-25T10:54:46Z</time>
      </trkpt>
      <trkpt lat="32.0525442394065" lon="118.80375955554521">
        <ele>16.092703886330128</ele>
        <time>2026-08-25T10:54:49Z</time>
      </trkpt>
      <trkpt lat="32.05244004037415" lon="118.80365836584775">
        <ele>15.191687650978565</ele>
        <time>2026-08-25T10:54:52Z</time>
      </trkpt>
      <trkpt lat="32.05219692180082" lon="118.80362131523158">
        <ele>15.746565885841846</ele>
        <time>2026-08-25T10:55:01Z</time>
      </trkpt>
      <trkpt lat="32.052018981283766" lon="118.80367844398857">
        <ele>15.6091643050313</ele>
        <time>2026-08-25T10:55:10Z</time>
      </trkpt>
      <trkpt lat="32.051922189526124" lon="118.8038107133958">
        <ele>15.400427885353565</ele>
        <time>2026-08-25T10:55:16Z</time>
      </trkpt>
      <trkpt lat="32.05188849233448" lon="118.80398906824513">
        <ele>15.902457304298878</ele>
        <time>2026-08-25T10:55:22Z</time>
      </trkpt>
      <trkpt lat="32.05190273466791" lon="118.80412633802132">
        <ele>15.88132006675005</ele>
        <time>2026-08-25T10:55:28Z</time>
      </trkpt>
      <trkpt lat="32.051952955570776" lon="118.80424657110441">
        <ele>16.071562834084034</ele>
        <time>2026-08-25T10:55:31Z</time>
      </trkpt>
      <trkpt lat="32.05200809903724" lon="118.80432171471709">
        <ele>11.204493589699268</ele>
        <time>2026-08-25T10:55:34Z</time>
      </trkpt>
      <trkpt lat="32.052082215307614" lon="118.80437882096417">
        <ele>16.124407835304737</ele>
        <time>2026-08-25T10:55:37Z</time>
      </trkpt>
      <trkpt lat="32.05239048366421" lon="118.80449301891092">
        <ele>15.923598356544971</ele>
        <time>2026-08-25T10:55:52Z</time>
      </trkpt>
      <trkpt lat="32.052450509309395" lon="118.80450002729631">
        <ele>15.67257983237505</ele>
        <time>2026-08-25T10:55:55Z</time>
      </trkpt>
      <trkpt lat="32.05279480514836" lon="118.80462524401973">
        <ele>15.630305357277393</ele>
        <time>2026-08-25T10:56:13Z</time>
      </trkpt>
      <trkpt lat="32.053073998919" lon="118.80470036750152">
        <ele>14.88782412558794</ele>
        <time>2026-08-25T10:56:25Z</time>
      </trkpt>
      <trkpt lat="32.05318798746462" lon="118.80467931526165">
        <ele>14.594531126320362</ele>
        <time>2026-08-25T10:56:31Z</time>
      </trkpt>
      <trkpt lat="32.05330390278088" lon="118.80461617935312">
        <ele>16.134978361427784</ele>
        <time>2026-08-25T10:56:37Z</time>
      </trkpt>
      <trkpt lat="32.05337875993671" lon="118.8045249916577">
        <ele>15.88132006675005</ele>
        <time>2026-08-25T10:56:44Z</time>
      </trkpt>
      <trkpt lat="32.0534225560163" lon="118.80440274542615">
        <ele>14.763636656105518</ele>
        <time>2026-08-25T10:56:47Z</time>
      </trkpt>
      <trkpt lat="32.053370028519446" lon="118.80410716557735">
        <ele>15.421565122902393</ele>
        <time>2026-08-25T10:56:59Z</time>
      </trkpt>
      <trkpt lat="32.05320865579614" lon="118.80391379865621">
        <ele>15.902457304298878</ele>
        <time>2026-08-25T10:57:08Z</time>
      </trkpt>
      <trkpt lat="32.052933444590586" lon="118.80382765403817">
        <ele>15.035792417824268</ele>
        <time>2026-08-25T10:57:20Z</time>
      </trkpt>
      <trkpt lat="32.05265026478029" lon="118.80376054777564">
        <ele>15.191687650978565</ele>
        <time>2026-08-25T10:57:32Z</time>
      </trkpt>
      <trkpt lat="32.05245106719241" lon="118.80367239244629">
        <ele>15.46383959800005</ele>
        <time>2026-08-25T10:57:41Z</time>
      </trkpt>
      <trkpt lat="32.05207497463103" lon="118.80366741714663">
        <ele>13.495345182716846</ele>
        <time>2026-08-25T10:57:56Z</time>
      </trkpt>
      <trkpt lat="32.05197107851903" lon="118.80374057071663">
        <ele>16.72949130088091</ele>
        <time>2026-08-25T10:58:02Z</time>
      </trkpt>
      <trkpt lat="32.05192716102127" lon="118.80379367937192">
        <ele>16.071562834084034</ele>
        <time>2026-08-25T10:58:05Z</time>
      </trkpt>
      <trkpt lat="32.05189343761512" lon="118.80395700451584">
        <ele>14.784777708351612</ele>
        <time>2026-08-25T10:58:11Z</time>
      </trkpt>
      <trkpt lat="32.05195696170952" lon="118.80424957668174">
        <ele>14.856116361916065</ele>
        <time>2026-08-25T10:58:23Z</time>
      </trkpt>
      <trkpt lat="32.05199208146967" lon="118.80431370032537">
        <ele>16.060996122658253</ele>
        <time>2026-08-25T10:58:26Z</time>
      </trkpt>
      <trkpt lat="32.05206721721337" lon="118.80438182829405">
        <ele>15.128272123634815</ele>
        <time>2026-08-25T10:58:29Z</time>
      </trkpt>
      <trkpt lat="32.0522032878186" lon="118.80440486142702">
        <ele>15.181117124855518</ele>
        <time>2026-08-25T10:58:35Z</time>
      </trkpt>
      <trkpt lat="32.052489544291774" lon="118.80451505349946">
        <ele>15.025221891701221</ele>
        <time>2026-08-25T10:58:50Z</time>
      </trkpt>
      <trkpt lat="32.05276777282081" lon="118.80461021668741">
        <ele>15.3185148909688</ele>
        <time>2026-08-25T10:59:05Z</time>
      </trkpt>
      <trkpt lat="32.05289389212326" lon="118.80466230847725">
        <ele>16.16404253989458</ele>
        <time>2026-08-25T10:59:12Z</time>
      </trkpt>
      <trkpt lat="32.05295290527192" lon="118.80466230305514">
        <ele>15.902457304298878</ele>
        <time>2026-08-25T10:59:15Z</time>
      </trkpt>
      <trkpt lat="32.05301295900149" lon="118.80468534327588">
        <ele>15.46383959800005</ele>
        <time>2026-08-25T10:59:18Z</time>
      </trkpt>
      <trkpt lat="32.05320295571295" lon="118.80465927411511">
        <ele>15.778269834816456</ele>
        <time>2026-08-25T10:59:27Z</time>
      </trkpt>
      <trkpt lat="32.0533028446858" lon="118.80458311386404">
        <ele>15.651442594826221</ele>
        <time>2026-08-25T10:59:33Z</time>
      </trkpt>
      <trkpt lat="32.053402584832284" lon="118.8044217849664">
        <ele>15.67257983237505</ele>
        <time>2026-08-25T10:59:42Z</time>
      </trkpt>
      <trkpt lat="32.053419373325475" lon="118.80429853943521">
        <ele>15.569533415138721</ele>
        <time>2026-08-25T10:59:45Z</time>
      </trkpt>
      <trkpt lat="32.05337108464595" lon="118.80413922883454">
        <ele>15.976443357765675</ele>
        <time>2026-08-25T10:59:51Z</time>
      </trkpt>
      <trkpt lat="32.05322668422352" lon="118.80392782467067">
        <ele>15.421565122902393</ele>
        <time>2026-08-25T11:00:00Z</time>
      </trkpt>
      <trkpt lat="32.0529744694128" lon="118.80383666804356">
        <ele>0.7701559737324715</ele>
        <time>2026-08-25T11:00:12Z</time>
      </trkpt>
      <trkpt lat="32.05286543292125" lon="118.80382966423821">
        <ele>11.508357115089893</ele>
        <time>2026-08-25T11:00:15Z</time>
      </trkpt>
      <trkpt lat="32.05282437673352" lon="118.80380261469203">
        <ele>15.870749540627003</ele>
        <time>2026-08-25T11:00:18Z</time>
      </trkpt>
      <trkpt lat="32.052531154661416" lon="118.80371246399548">
        <ele>13.989451475441456</ele>
        <time>2026-08-25T11:00:30Z</time>
      </trkpt>
      <trkpt lat="32.0522799403128" lon="118.80362130760228">
        <ele>14.53375918418169</ele>
        <time>2026-08-25T11:00:42Z</time>
      </trkpt>
      <trkpt lat="32.052169891423475" lon="118.80360729011575">
        <ele>15.191687650978565</ele>
        <time>2026-08-25T11:00:48Z</time>
      </trkpt>
      <trkpt lat="32.05209689079635" lon="118.80361631456681">
        <ele>15.01465518027544</ele>
        <time>2026-08-25T11:00:52Z</time>
      </trkpt>
      <trkpt lat="32.05201299909247" lon="118.80368946623666">
        <ele>15.025221891701221</ele>
        <time>2026-08-25T11:00:55Z</time>
      </trkpt>
      <trkpt lat="32.0519214054845" lon="118.80393495845411">
        <ele>15.778269834816456</ele>
        <time>2026-08-25T11:01:04Z</time>
      </trkpt>
      <trkpt lat="32.051931866961986" lon="118.80419847793503">
        <ele>15.46383959800005</ele>
        <time>2026-08-25T11:01:13Z</time>
      </trkpt>
      <trkpt lat="32.05200710756336" lon="118.8043267247234">
        <ele>14.898394651710987</ele>
        <time>2026-08-25T11:01:19Z</time>
      </trkpt>
      <trkpt lat="32.052138289079586" lon="118.80441388525892">
        <ele>17.37948901206255</ele>
        <time>2026-08-25T11:01:25Z</time>
      </trkpt>
      <trkpt lat="32.052392422791165" lon="118.80445794924131">
        <ele>15.36872012168169</ele>
        <time>2026-08-25T11:01:37Z</time>
      </trkpt>
      <trkpt lat="32.05264166231775" lon="118.80456313487402">
        <ele>15.714858122169971</ele>
        <time>2026-08-25T11:01:49Z</time>
      </trkpt>
      <trkpt lat="32.05286580518704" lon="118.80461621960615">
        <ele>15.15997988730669</ele>
        <time>2026-08-25T11:01:58Z</time>
      </trkpt>
      <trkpt lat="32.05304396239951" lon="118.80468333644971">
        <ele>15.181117124855518</ele>
        <time>2026-08-25T11:02:07Z</time>
      </trkpt>
      <trkpt lat="32.05312899537831" lon="118.80469134454763">
        <ele>15.442702360451221</ele>
        <time>2026-08-25T11:02:10Z</time>
      </trkpt>
      <trkpt lat="32.05326592764312" lon="118.80463522061198">
        <ele>15.358149595558643</ele>
        <time>2026-08-25T11:02:16Z</time>
      </trkpt>
      <trkpt lat="32.05334877604021" lon="118.80453802023573">
        <ele>15.400427885353565</ele>
        <time>2026-08-25T11:02:22Z</time>
      </trkpt>
      <trkpt lat="32.05340450298601" lon="118.80437469153004">
        <ele>14.919531889259815</ele>
        <time>2026-08-25T11:02:28Z</time>
      </trkpt>
      <trkpt lat="32.05340208456209" lon="118.80413521806571">
        <ele>14.332945890724659</ele>
        <time>2026-08-25T11:02:37Z</time>
      </trkpt>
      <trkpt lat="32.053381971810644" lon="118.80407309718423">
        <ele>15.138842649757862</ele>
        <time>2026-08-25T11:02:40Z</time>
      </trkpt>
      <trkpt lat="32.05324871180036" lon="118.80394084834397">
        <ele>14.993517942726612</ele>
        <time>2026-08-25T11:02:46Z</time>
      </trkpt>
      <trkpt lat="32.05319064655405" lon="118.80391079438209">
        <ele>15.138842649757862</ele>
        <time>2026-08-25T11:02:49Z</time>
      </trkpt>
      <trkpt lat="32.05302353088148" lon="118.80386572082051">
        <ele>15.046362943947315</ele>
        <time>2026-08-25T11:02:58Z</time>
      </trkpt>
      <trkpt lat="32.05281231308434" lon="118.80376754670122">
        <ele>15.067500181496143</ele>
        <time>2026-08-25T11:03:08Z</time>
      </trkpt>
      <trkpt lat="32.05277034204759" lon="118.80378959398979">
        <ele>15.484980650246143</ele>
        <time>2026-08-25T11:03:11Z</time>
      </trkpt>
      <trkpt lat="32.05247909606341" lon="118.803685415513">
        <ele>15.004084654152393</ele>
        <time>2026-08-25T11:03:23Z</time>
      </trkpt>
      <trkpt lat="32.05227496355554" lon="118.80363533566285">
        <ele>12.82685000449419</ele>
        <time>2026-08-25T11:03:32Z</time>
      </trkpt>
      <trkpt lat="32.05212195030995" lon="118.80364737338694">
        <ele>14.721362181007862</ele>
        <time>2026-08-25T11:03:38Z</time>
      </trkpt>
      <trkpt lat="32.052026005474175" lon="118.80369146898678">
        <ele>14.470347471535206</ele>
        <time>2026-08-25T11:03:41Z</time>
      </trkpt>
      <trkpt lat="32.05193223358148" lon="118.80383475986973">
        <ele>14.803271360695362</ele>
        <time>2026-08-25T11:03:47Z</time>
      </trkpt>
      <trkpt lat="32.051904370296505" lon="118.80391692444127">
        <ele>14.710791654884815</ele>
        <time>2026-08-25T11:03:50Z</time>
      </trkpt>
      <trkpt lat="32.051894640310046" lon="118.80407323385649">
        <ele>14.866686888039112</ele>
        <time>2026-08-25T11:03:56Z</time>
      </trkpt>
      <trkpt lat="32.05191178909354" lon="118.80415639659182">
        <ele>14.208762235939503</ele>
        <time>2026-08-25T11:03:59Z</time>
      </trkpt>
      <trkpt lat="32.05198302872653" lon="118.80428464366074">
        <ele>14.29331500083208</ele>
        <time>2026-08-25T11:04:05Z</time>
      </trkpt>
      <trkpt lat="32.05204611101428" lon="118.80432371519045">
        <ele>14.615672178566456</ele>
        <time>2026-08-25T11:04:08Z</time>
      </trkpt>
      <trkpt lat="32.05211815332486" lon="118.80433873831824">
        <ele>14.919531889259815</ele>
        <time>2026-08-25T11:04:11Z</time>
      </trkpt>
      <trkpt lat="32.05217024544119" lon="118.80438482477952">
        <ele>14.541686125099659</ele>
        <time>2026-08-25T11:04:14Z</time>
      </trkpt>
      <trkpt lat="32.05243151208209" lon="118.80450403698538">
        <ele>15.22339541465044</ele>
        <time>2026-08-25T11:04:26Z</time>
      </trkpt>
      <trkpt lat="32.05277675202797" lon="118.80459719002467">
        <ele>11.717097349464893</ele>
        <time>2026-08-25T11:04:41Z</time>
      </trkpt>
      <trkpt lat="32.05288085589151" lon="118.80464327189742">
        <ele>14.993517942726612</ele>
        <time>2026-08-25T11:04:47Z</time>
      </trkpt>
      <trkpt lat="32.05309097813678" lon="118.80468633809632">
        <ele>14.261607237160206</ele>
        <time>2026-08-25T11:04:56Z</time>
      </trkpt>
      <trkpt lat="32.05319993399116" lon="118.80464725053302">
        <ele>14.37522418051958</ele>
        <time>2026-08-25T11:05:02Z</time>
      </trkpt>
      <trkpt lat="32.05332278777784" lon="118.80454804248929">
        <ele>10.002261228859425</ele>
        <time>2026-08-25T11:05:08Z</time>
      </trkpt>
      <trkpt lat="32.05336469548361" lon="118.80448992343999">
        <ele>13.350020475685596</ele>
        <time>2026-08-25T11:05:11Z</time>
      </trkpt>
      <trkpt lat="32.053407316425556" lon="118.8042674790885">
        <ele>14.071360655128956</ele>
        <time>2026-08-25T11:05:20Z</time>
      </trkpt>
      <trkpt lat="32.05334197163239" lon="118.8040781107552">
        <ele>14.52054888755083</ele>
        <time>2026-08-25T11:05:26Z</time>
      </trkpt>
      <trkpt lat="32.053253739081555" lon="118.80395587753647">
        <ele>14.322379179298878</ele>
        <time>2026-08-25T11:05:33Z</time>
      </trkpt>
      <trkpt lat="32.05319765160151" lon="118.80391279769107">
        <ele>12.544127531349659</ele>
        <time>2026-08-25T11:05:36Z</time>
      </trkpt>
      <trkpt lat="32.0529234284205" lon="118.80381963915937">
        <ele>14.774207182228565</ele>
        <time>2026-08-25T11:05:48Z</time>
      </trkpt>
      <trkpt lat="32.05264321619718" lon="118.80373349513522">
        <ele>14.554900236427784</ele>
        <time>2026-08-25T11:06:00Z</time>
      </trkpt>
      <trkpt lat="32.05228392902704" lon="118.80361429343536">
        <ele>16.092703886330128</ele>
        <time>2026-08-25T11:06:15Z</time>
      </trkpt>
      <trkpt lat="32.05228392902704" lon="118.80361429343536">
        <ele>7.5324580365296185</ele>
        <time>2026-08-25T11:06:21Z</time>
      </trkpt>
    </trkseg>
  </trk>
</gpx>