<?xml version="1.0" encoding="UTF-8"?>
<gpx xmlns="http://www.topografix.com/GPX/1/1" xmlns:gpxtpx="http://www.garmin.com/xmlschemas/TrackPointExtension/v1" xmlns:xsi="http://www.w3.org/2001/XMLSchema-instance" xsi:schemaLocation="http://www.topografix.com/GPX/1/1 http://www.topografix.com/GPX/1/1/gpx.xsd" version="1.1" creator="gpx.py -- https://github.com/tkrajina/gpxpy">
  <trk>
    <name>gpx from keep</name>
    <type>Run</type>
    <trkseg>
      <trkpt lat="31.22967347643448" lon="121.39978585438263">
        <ele>12.708690579980612</ele>
        <time>2026-05-13T09:23:40Z</time>
      </trkpt>
      <trkpt lat="31.229770465194896" lon="121.40012989190213">
        <ele>17.821491178125143</ele>
        <time>2026-05-13T09:23:49Z</time>
      </trkpt>
      <trkpt lat="31.229835450387657" lon="121.40027090687687">
        <ele>15.599338468164206</ele>
        <time>2026-05-13T09:23:52Z</time>
      </trkpt>
      <trkpt lat="31.229941410180448" lon="121.40034990965742">
        <ele>0.974353726953268</ele>
        <time>2026-05-13T09:23:55Z</time>
      </trkpt>
      <trkpt lat="31.230031371199296" lon="121.40037390552803">
        <ele>17.557262357324362</ele>
        <time>2026-05-13T09:23:58Z</time>
      </trkpt>
      <trkpt lat="31.230129324793296" lon="121.40036589574134">
        <ele>14.415599759668112</ele>
        <time>2026-05-13T09:24:01Z</time>
      </trkpt>
      <trkpt lat="31.230206282851807" lon="121.40031188072933">
        <ele>16.281047757714987</ele>
        <time>2026-05-13T09:24:04Z</time>
      </trkpt>
      <trkpt lat="31.230390190751375" lon="121.4002518556461">
        <ele>12.687549527734518</ele>
        <time>2026-05-13T09:24:10Z</time>
      </trkpt>
      <trkpt lat="31.23051313327367" lon="121.40024784432607">
        <ele>11.61743539199233</ele>
        <time>2026-05-13T09:24:13Z</time>
      </trkpt>
      <trkpt lat="31.23079799361561" lon="121.40017880932903">
        <ele>16.93896859511733</ele>
        <time>2026-05-13T09:24:40Z</time>
      </trkpt>
      <trkpt lat="31.231036872002093" lon="121.40007577380736">
        <ele>16.740802701562643</ele>
        <time>2026-05-13T09:24:49Z</time>
      </trkpt>
      <trkpt lat="31.231110831501077" lon="121.40001475892215">
        <ele>14.698322232812643</ele>
        <time>2026-05-13T09:24:52Z</time>
      </trkpt>
      <trkpt lat="31.23116779670017" lon="121.39992974252715">
        <ele>9.86032098159194</ele>
        <time>2026-05-13T09:24:55Z</time>
      </trkpt>
      <trkpt lat="31.231190777591532" lon="121.39984072896567">
        <ele>16.331249173730612</ele>
        <time>2026-05-13T09:24:58Z</time>
      </trkpt>
      <trkpt lat="31.231167769253197" lon="121.39962570477026">
        <ele>15.998325284570456</ele>
        <time>2026-05-13T09:25:04Z</time>
      </trkpt>
      <trkpt lat="31.23114277253666" lon="121.39952369536826">
        <ele>18.43713754042983</ele>
        <time>2026-05-13T09:25:07Z</time>
      </trkpt>
      <trkpt lat="31.23108779017367" lon="121.39942168912762">
        <ele>13.567432340234518</ele>
        <time>2026-05-13T09:25:10Z</time>
      </trkpt>
      <trkpt lat="31.2309478476449" lon="121.39931969084354">
        <ele>18.00909036025405</ele>
        <time>2026-05-13T09:25:16Z</time>
      </trkpt>
      <trkpt lat="31.230721953272397" lon="121.39933271185491">
        <ele>17.160922940820456</ele>
        <time>2026-05-13T09:25:25Z</time>
      </trkpt>
      <trkpt lat="31.23046507782463" lon="121.39940774197392">
        <ele>17.433078702539206</ele>
        <time>2026-05-13T09:25:34Z</time>
      </trkpt>
      <trkpt lat="31.230270169445586" lon="121.39942376065876">
        <ele>15.755229886621237</ele>
        <time>2026-05-13T09:25:40Z</time>
      </trkpt>
      <trkpt lat="31.229929336623197" lon="121.39953980299487">
        <ele>16.835925992578268</ele>
        <time>2026-05-13T09:25:53Z</time>
      </trkpt>
      <trkpt lat="31.22984038116198" lon="121.39957981526476">
        <ele>14.666614469140768</ele>
        <time>2026-05-13T09:25:56Z</time>
      </trkpt>
      <trkpt lat="31.22975043540872" lon="121.3997268404082">
        <ele>6.058086331933737</ele>
        <time>2026-05-13T09:26:02Z</time>
      </trkpt>
      <trkpt lat="31.229735453162494" lon="121.39984585654881">
        <ele>17.150356229394674</ele>
        <time>2026-05-13T09:26:05Z</time>
      </trkpt>
      <trkpt lat="31.229741458758276" lon="121.39993386747274">
        <ele>16.698520597070456</ele>
        <time>2026-05-13T09:26:08Z</time>
      </trkpt>
      <trkpt lat="31.229829441535927" lon="121.40016489178453">
        <ele>-20.221969667822123</ele>
        <time>2026-05-13T09:26:17Z</time>
      </trkpt>
      <trkpt lat="31.229941404340515" lon="121.4002989018587">
        <ele>8.245891507714987</ele>
        <time>2026-05-13T09:26:23Z</time>
      </trkpt>
      <trkpt lat="31.230014376069164" lon="121.40034790298446">
        <ele>14.529216703027487</ele>
        <time>2026-05-13T09:26:26Z</time>
      </trkpt>
      <trkpt lat="31.230091343240492" lon="121.40037290014139">
        <ele>5.442436154931784</ele>
        <time>2026-05-13T09:26:29Z</time>
      </trkpt>
      <trkpt lat="31.23027725427915" lon="121.4003498803629">
        <ele>10.843242581933737</ele>
        <time>2026-05-13T09:26:38Z</time>
      </trkpt>
      <trkpt lat="31.230366208638706" lon="121.40031186677946">
        <ele>15.934909757226706</ele>
        <time>2026-05-13T09:26:41Z</time>
      </trkpt>
      <trkpt lat="31.230522133807" lon="121.40028984984129">
        <ele>-20.076644960790873</ele>
        <time>2026-05-13T09:26:47Z</time>
      </trkpt>
      <trkpt lat="31.230794997611795" lon="121.40020281309212">
        <ele>13.617633756250143</ele>
        <time>2026-05-13T09:26:59Z</time>
      </trkpt>
      <trkpt lat="31.230912934775382" lon="121.40012679181959">
        <ele>16.341815885156393</ele>
        <time>2026-05-13T09:27:05Z</time>
      </trkpt>
      <trkpt lat="31.23102487163224" lon="121.40001776683062">
        <ele>14.143443997949362</ele>
        <time>2026-05-13T09:27:11Z</time>
      </trkpt>
      <trkpt lat="31.23111581645815" lon="121.39988474116603">
        <ele>16.532062467187643</ele>
        <time>2026-05-13T09:27:17Z</time>
      </trkpt>
      <trkpt lat="31.23113580028621" lon="121.39981072995951">
        <ele>16.981250699609518</ele>
        <time>2026-05-13T09:27:20Z</time>
      </trkpt>
      <trkpt lat="31.231135775620068" lon="121.39952169575696">
        <ele>7.001380857080221</ele>
        <time>2026-05-13T09:27:29Z</time>
      </trkpt>
      <trkpt lat="31.231066798490932" lon="121.39940268896314">
        <ele>16.878200467675924</ele>
        <time>2026-05-13T09:27:35Z</time>
      </trkpt>
      <trkpt lat="31.23101282001464" lon="121.39935468871448">
        <ele>16.532062467187643</ele>
        <time>2026-05-13T09:27:38Z</time>
      </trkpt>
      <trkpt lat="31.23094484952584" lon="121.39932669180762">
        <ele>16.04852670058608</ele>
        <time>2026-05-13T09:27:41Z</time>
      </trkpt>
      <trkpt lat="31.23065598795706" lon="121.39938972344335">
        <ele>17.810924466699362</ele>
        <time>2026-05-13T09:27:53Z</time>
      </trkpt>
      <trkpt lat="31.23033114152635" lon="121.39942875586914">
        <ele>17.924541410058737</ele>
        <time>2026-05-13T09:28:05Z</time>
      </trkpt>
      <trkpt lat="31.230004300227986" lon="121.3995197942322">
        <ele>17.9456748329103</ele>
        <time>2026-05-13T09:28:17Z</time>
      </trkpt>
      <trkpt lat="31.22987336641448" lon="121.39958681318559">
        <ele>1.3918303810060024</ele>
        <time>2026-05-13T09:28:23Z</time>
      </trkpt>
      <trkpt lat="31.229799406944853" lon="121.39966082822998">
        <ele>16.835925992578268</ele>
        <time>2026-05-13T09:28:26Z</time>
      </trkpt>
      <trkpt lat="31.229744441482005" lon="121.39976384546357">
        <ele>18.019664701074362</ele>
        <time>2026-05-13T09:28:29Z</time>
      </trkpt>
      <trkpt lat="31.229728458853543" lon="121.39987186049885">
        <ele>16.645679410547018</ele>
        <time>2026-05-13T09:28:32Z</time>
      </trkpt>
      <trkpt lat="31.229744468631374" lon="121.40004688250674">
        <ele>4.0499610267579556</ele>
        <time>2026-05-13T09:28:38Z</time>
      </trkpt>
      <trkpt lat="31.229780467854493" lon="121.40019790085469">
        <ele>14.529216703027487</ele>
        <time>2026-05-13T09:28:41Z</time>
      </trkpt>
      <trkpt lat="31.229906426426034" lon="121.40034991270892">
        <ele>17.139781888574362</ele>
        <time>2026-05-13T09:28:47Z</time>
      </trkpt>
      <trkpt lat="31.229982395343093" lon="121.40038591167016">
        <ele>-4.946983400732279</ele>
        <time>2026-05-13T09:28:50Z</time>
      </trkpt>
      <trkpt lat="31.230130326665186" lon="121.40038589876664">
        <ele>18.743640836328268</ele>
        <time>2026-05-13T09:28:56Z</time>
      </trkpt>
      <trkpt lat="31.23039519167882" lon="121.40028085955629">
        <ele>14.708888944238424</ele>
        <time>2026-05-13T09:29:08Z</time>
      </trkpt>
      <trkpt lat="31.23049214703889" lon="121.40028385155124">
        <ele>14.82251351699233</ele>
        <time>2026-05-13T09:29:11Z</time>
      </trkpt>
      <trkpt lat="31.23054311737241" lon="121.4002298390389">
        <ele>19.401569303125143</ele>
        <time>2026-05-13T09:29:14Z</time>
      </trkpt>
      <trkpt lat="31.230925926123163" lon="121.40010178713926">
        <ele>10.214382108300924</ele>
        <time>2026-05-13T09:29:23Z</time>
      </trkpt>
      <trkpt lat="31.231037869580675" lon="121.40005677107247">
        <ele>17.012958463281393</ele>
        <time>2026-05-13T09:29:26Z</time>
      </trkpt>
      <trkpt lat="31.231154800116343" lon="121.39990274011089">
        <ele>13.083896573632956</ele>
        <time>2026-05-13T09:29:32Z</time>
      </trkpt>
      <trkpt lat="31.231180777714165" lon="121.39979172365274">
        <ele>18.386936124414206</ele>
        <time>2026-05-13T09:29:35Z</time>
      </trkpt>
      <trkpt lat="31.231190761896073" lon="121.39966470733746">
        <ele>17.768642362207174</ele>
        <time>2026-05-13T09:29:38Z</time>
      </trkpt>
      <trkpt lat="31.231173759932062" lon="121.39954569511724">
        <ele>15.588771756738424</ele>
        <time>2026-05-13T09:29:41Z</time>
      </trkpt>
      <trkpt lat="31.231107782562177" lon="121.39944368971801">
        <ele>15.55706399306655</ele>
        <time>2026-05-13T09:29:44Z</time>
      </trkpt>
      <trkpt lat="31.231031812220838" lon="121.39936868849118">
        <ele>-0.8144684471189976</ele>
        <time>2026-05-13T09:29:47Z</time>
      </trkpt>
      <trkpt lat="31.230945849697385" lon="121.39933569262743">
        <ele>17.987956937402487</ele>
        <time>2026-05-13T09:29:50Z</time>
      </trkpt>
      <trkpt lat="31.230722952808964" lon="121.39933271176771">
        <ele>6.541622098535299</ele>
        <time>2026-05-13T09:29:56Z</time>
      </trkpt>
      <trkpt lat="31.23064199155675" lon="121.39934972055211">
        <ele>17.454212125390768</ele>
        <time>2026-05-13T09:29:59Z</time>
      </trkpt>
      <trkpt lat="31.230476074811246" lon="121.39943574396949">
        <ele>17.25604623183608</ele>
        <time>2026-05-13T09:30:05Z</time>
      </trkpt>
      <trkpt lat="31.230309152933103" lon="121.39944475948819">
        <ele>12.76946633681655</ele>
        <time>2026-05-13T09:30:11Z</time>
      </trkpt>
      <trkpt lat="31.229974315259465" lon="121.39953379840217">
        <ele>6.290607389062643</ele>
        <time>2026-05-13T09:30:23Z</time>
      </trkpt>
      <trkpt lat="31.22977841720619" lon="121.39966683077016">
        <ele>17.924541410058737</ele>
        <time>2026-05-13T09:30:33Z</time>
      </trkpt>
      <trkpt lat="31.22973344445034" lon="121.39973984347458">
        <ele>15.76580422744155</ele>
        <time>2026-05-13T09:30:36Z</time>
      </trkpt>
      <trkpt lat="31.229712467324656" lon="121.39988286331747">
        <ele>9.42963021621108</ele>
        <time>2026-05-13T09:30:39Z</time>
      </trkpt>
      <trkpt lat="31.22976846506688" lon="121.40011989065223">
        <ele>17.150356229394674</ele>
        <time>2026-05-13T09:30:45Z</time>
      </trkpt>
      <trkpt lat="31.229860439792965" lon="121.4002799060503">
        <ele>15.2849082313478</ele>
        <time>2026-05-13T09:30:51Z</time>
      </trkpt>
      <trkpt lat="31.230010382935195" lon="121.40039091001037">
        <ele>8.341010984033346</ele>
        <time>2026-05-13T09:30:57Z</time>
      </trkpt>
      <trkpt lat="31.230081351518404" lon="121.40040390585801">
        <ele>14.917629178613424</ele>
        <time>2026-05-13T09:31:00Z</time>
      </trkpt>
      <trkpt lat="31.230413186046423" lon="121.40030486161714">
        <ele>12.581859525293112</ele>
        <time>2026-05-13T09:31:15Z</time>
      </trkpt>
      <trkpt lat="31.230723030105324" lon="121.40019481819914">
        <ele>14.415599759668112</ele>
        <time>2026-05-13T09:31:30Z</time>
      </trkpt>
      <trkpt lat="31.230976898142686" lon="121.40005977680782">
        <ele>16.415798123925924</ele>
        <time>2026-05-13T09:31:42Z</time>
      </trkpt>
      <trkpt lat="31.231211763360957" lon="121.39979172094985">
        <ele>0.3877677284181118</ele>
        <time>2026-05-13T09:31:54Z</time>
      </trkpt>
      <trkpt lat="31.231221749430087" lon="121.39968670724919">
        <ele>17.348522122949362</ele>
        <time>2026-05-13T09:31:57Z</time>
      </trkpt>
      <trkpt lat="31.231212747086413" lon="121.3996096989939">
        <ele>17.306247647851706</ele>
        <time>2026-05-13T09:32:00Z</time>
      </trkpt>
      <trkpt lat="31.23114576679041" lon="121.39946768898012">
        <ele>18.397502835839987</ele>
        <time>2026-05-13T09:32:06Z</time>
      </trkpt>
      <trkpt lat="31.23103381201863" lon="121.39937868934686">
        <ele>8.351581510156393</ele>
        <time>2026-05-13T09:32:12Z</time>
      </trkpt>
      <trkpt lat="31.230841897525455" lon="121.39933070119066">
        <ele>16.666820462793112</ele>
        <time>2026-05-13T09:32:21Z</time>
      </trkpt>
      <trkpt lat="31.230565030578465" lon="121.39939573200147">
        <ele>17.538768704980612</ele>
        <time>2026-05-13T09:32:33Z</time>
      </trkpt>
      <trkpt lat="31.230297155733798" lon="121.39940775662139">
        <ele>5.5032080970704556</ele>
        <time>2026-05-13T09:32:42Z</time>
      </trkpt>
      <trkpt lat="31.23006726718093" lon="121.39947078338002">
        <ele>18.164989408105612</ele>
        <time>2026-05-13T09:32:51Z</time>
      </trkpt>
      <trkpt lat="31.229841383163336" lon="121.39960981861545">
        <ele>17.443645413964987</ele>
        <time>2026-05-13T09:33:03Z</time>
      </trkpt>
      <trkpt lat="31.229782414922727" lon="121.39966182983021">
        <ele>4.396095212548971</ele>
        <time>2026-05-13T09:33:06Z</time>
      </trkpt>
      <trkpt lat="31.22969447257431" lon="121.39984986063489">
        <ele>17.023525174707174</ele>
        <time>2026-05-13T09:33:15Z</time>
      </trkpt>
      <trkpt lat="31.229689482710047" lon="121.39993187174169">
        <ele>12.90686410292983</ele>
        <time>2026-05-13T09:33:18Z</time>
      </trkpt>
      <trkpt lat="31.229718488283005" lon="121.40011989501149">
        <ele>13.044261869043112</ele>
        <time>2026-05-13T09:33:24Z</time>
      </trkpt>
      <trkpt lat="31.229803466930804" lon="121.40028591192426">
        <ele>15.1580771766603</ele>
        <time>2026-05-13T09:33:30Z</time>
      </trkpt>
      <trkpt lat="31.22984645151561" lon="121.40032591425302">
        <ele>18.659091886132956</ele>
        <time>2026-05-13T09:33:33Z</time>
      </trkpt>
      <trkpt lat="31.230020378411908" lon="121.40039190929497">
        <ele>12.256862577050924</ele>
        <time>2026-05-13T09:33:39Z</time>
      </trkpt>
      <trkpt lat="31.230212287802868" lon="121.4003788905256">
        <ele>15.033893521875143</ele>
        <time>2026-05-13T09:33:48Z</time>
      </trkpt>
      <trkpt lat="31.230329225456767" lon="121.40030886954884">
        <ele>6.393657620996237</ele>
        <time>2026-05-13T09:33:54Z</time>
      </trkpt>
      <trkpt lat="31.230692039302692" lon="121.4001468139494">
        <ele>-2.981132570654154</ele>
        <time>2026-05-13T09:34:03Z</time>
      </trkpt>
      <trkpt lat="31.23085795275727" lon="121.4000547864889">
        <ele>18.101573880761862</ele>
        <time>2026-05-13T09:34:09Z</time>
      </trkpt>
      <trkpt lat="31.23106683754113" lon="121.39986774323901">
        <ele>7.4505652748048306</ele>
        <time>2026-05-13T09:34:18Z</time>
      </trkpt>
      <trkpt lat="31.231113802308162" lon="121.39971972063523">
        <ele>11.030849393457174</ele>
        <time>2026-05-13T09:34:24Z</time>
      </trkpt>
      <trkpt lat="31.231128784907604" lon="121.39959670482229">
        <ele>18.164989408105612</ele>
        <time>2026-05-13T09:34:30Z</time>
      </trkpt>
      <trkpt lat="31.23110978239327" lon="121.39945369061302">
        <ele>8.142841275781393</ele>
        <time>2026-05-13T09:34:36Z</time>
      </trkpt>
      <trkpt lat="31.231008822801485" lon="121.39936769039382">
        <ele>11.797107633203268</ele>
        <time>2026-05-13T09:34:42Z</time>
      </trkpt>
      <trkpt lat="31.230889875075448" lon="121.3993276967036">
        <ele>18.34466164931655</ele>
        <time>2026-05-13T09:34:48Z</time>
      </trkpt>
      <trkpt lat="31.23074993868448" lon="121.39930970710778">
        <ele>11.588367398828268</ele>
        <time>2026-05-13T09:34:54Z</time>
      </trkpt>
      <trkpt lat="31.230633995193525" lon="121.39934872114789">
        <ele>17.726367887109518</ele>
        <time>2026-05-13T09:35:00Z</time>
      </trkpt>
      <trkpt lat="31.23056402686018" lon="121.39933772613557">
        <ele>7.471702512353659</ele>
        <time>2026-05-13T09:35:03Z</time>
      </trkpt>
      <trkpt lat="31.230500058964513" lon="121.39937173518393">
        <ele>15.662753995507956</ele>
        <time>2026-05-13T09:35:06Z</time>
      </trkpt>
      <trkpt lat="31.230436088856322" lon="121.39937474107288">
        <ele>16.949542935937643</ele>
        <time>2026-05-13T09:35:09Z</time>
      </trkpt>
      <trkpt lat="31.23029415943785" lon="121.39943876015657">
        <ele>10.00564568862319</ele>
        <time>2026-05-13T09:35:18Z</time>
      </trkpt>
      <trkpt lat="31.23014522908572" lon="121.39944577389358">
        <ele>4.028819974511862</ele>
        <time>2026-05-13T09:35:24Z</time>
      </trkpt>
      <trkpt lat="31.229871362988455" lon="121.39953280727094">
        <ele>14.352184232324362</ele>
        <time>2026-05-13T09:35:39Z</time>
      </trkpt>
      <trkpt lat="31.229828387059303" lon="121.39958381676665">
        <ele>10.549953397363424</ele>
        <time>2026-05-13T09:35:42Z</time>
      </trkpt>
      <trkpt lat="31.229828387059303" lon="121.39958381676665">
        <ele>14.193442340008914</ele>
        <time>2026-05-13T09:35:44Z</time>
      </trkpt>
    </trkseg>
  </trk>
</gpx>