<?xml version="1.0" encoding="UTF-8"?>
<gpx xmlns="http://www.topografix.com/GPX/1/1" xmlns:gpxtpx="http://www.garmin.com/xmlschemas/TrackPointExtension/v1" xmlns:xsi="http://www.w3.org/2001/XMLSchema-instance" xsi:schemaLocation="http://www.topografix.com/GPX/1/1 http://www.topografix.com/GPX/1/1/gpx.xsd" version="1.1" creator="gpx.py -- https://github.com/tkrajina/gpxpy">
  <trk>
    <name>gpx from keep</name>
    <type>Ride</type>
    <trkseg>
      <trkpt lat="32.09173166701628" lon="118.77971712915149">
        <ele>11.394430763088167</ele>
        <time>2026-10-06T05:40:25Z</time>
      </trkpt>
      <trkpt lat="32.091806377370276" lon="118.78028990504357">
        <ele>10.681017524562776</ele>
        <time>2026-10-06T05:40:47Z</time>
      </trkpt>
      <trkpt lat="32.091803922598594" lon="118.78073452042446">
        <ele>13.899305946193635</ele>
        <time>2026-10-06T05:40:55Z</time>
      </trkpt>
      <trkpt lat="32.091883591903" lon="118.78126024885015">
        <ele>13.746054298244417</ele>
        <time>2026-10-06T05:41:05Z</time>
      </trkpt>
      <trkpt lat="32.0919793192356" lon="118.78182303765873">
        <ele>12.678576118312776</ele>
        <time>2026-10-06T05:41:14Z</time>
      </trkpt>
      <trkpt lat="32.09201691518077" lon="118.7822856975891">
        <ele>13.67206824477762</ele>
        <time>2026-10-06T05:41:20Z</time>
      </trkpt>
      <trkpt lat="32.092003091658526" lon="118.78242590125694">
        <ele>11.833048469386995</ele>
        <time>2026-10-06T05:41:22Z</time>
      </trkpt>
      <trkpt lat="32.09185787121391" lon="118.78305382878729">
        <ele>11.748495704494417</ele>
        <time>2026-10-06T05:41:29Z</time>
      </trkpt>
      <trkpt lat="32.09182206170029" lon="118.78320605558127">
        <ele>14.396052009426057</ele>
        <time>2026-10-06T05:41:31Z</time>
      </trkpt>
      <trkpt lat="32.091744329156555" lon="118.78342338308312">
        <ele>14.43833029922098</ele>
        <time>2026-10-06T05:41:34Z</time>
      </trkpt>
      <trkpt lat="32.0914699289579" lon="118.78392315063476">
        <ele>11.272886878810823</ele>
        <time>2026-10-06T05:41:41Z</time>
      </trkpt>
      <trkpt lat="32.09120250883734" lon="118.78440189358088">
        <ele>11.500120765529573</ele>
        <time>2026-10-06T05:41:48Z</time>
      </trkpt>
      <trkpt lat="32.09107677721858" lon="118.78462223814022">
        <ele>12.895243293605745</ele>
        <time>2026-10-06T05:41:52Z</time>
      </trkpt>
      <trkpt lat="32.091007872948715" lon="118.78470436898363">
        <ele>12.276949531398714</ele>
        <time>2026-10-06T05:41:54Z</time>
      </trkpt>
      <trkpt lat="32.090746444977356" lon="118.78516910137053">
        <ele>10.786707527004182</ele>
        <time>2026-10-06T05:42:03Z</time>
      </trkpt>
      <trkpt lat="32.090615602311956" lon="118.78530532228532">
        <ele>10.289957649074495</ele>
        <time>2026-10-06T05:42:08Z</time>
      </trkpt>
      <trkpt lat="32.09045402160772" lon="118.78563784934693">
        <ele>11.283453590236604</ele>
        <time>2026-10-06T05:42:14Z</time>
      </trkpt>
      <trkpt lat="32.09020655674694" lon="118.78606553575437">
        <ele>11.373293525539339</ele>
        <time>2026-10-06T05:42:23Z</time>
      </trkpt>
      <trkpt lat="32.08997494975722" lon="118.78638505641283">
        <ele>12.594023353420198</ele>
        <time>2026-10-06T05:42:29Z</time>
      </trkpt>
      <trkpt lat="32.08961748808028" lon="118.78682578300459">
        <ele>10.506624824367464</ele>
        <time>2026-10-06T05:42:37Z</time>
      </trkpt>
      <trkpt lat="32.08942969533205" lon="118.78700207936895">
        <ele>10.527765876613557</ele>
        <time>2026-10-06T05:42:41Z</time>
      </trkpt>
      <trkpt lat="32.08923709986188" lon="118.78731860039166">
        <ele>10.96109641250223</ele>
        <time>2026-10-06T05:42:47Z</time>
      </trkpt>
      <trkpt lat="32.08920321146533" lon="118.78740273778061">
        <ele>9.74036658462137</ele>
        <time>2026-10-06T05:42:50Z</time>
      </trkpt>
      <trkpt lat="32.08921766281766" lon="118.78771924334379">
        <ele>11.542399055324495</ele>
        <time>2026-10-06T05:42:56Z</time>
      </trkpt>
      <trkpt lat="32.0892750084854" lon="118.78795361525883">
        <ele>9.148497230373323</ele>
        <time>2026-10-06T05:43:00Z</time>
      </trkpt>
      <trkpt lat="32.08940143750674" lon="118.78823505862606">
        <ele>9.655813819728792</ele>
        <time>2026-10-06T05:43:05Z</time>
      </trkpt>
      <trkpt lat="32.089475576666786" lon="118.78832119149475">
        <ele>8.984675056301057</ele>
        <time>2026-10-06T05:43:07Z</time>
      </trkpt>
      <trkpt lat="32.0899251441905" lon="118.78864968477099">
        <ele>9.264757758937776</ele>
        <time>2026-10-06T05:43:14Z</time>
      </trkpt>
      <trkpt lat="32.090222521042946" lon="118.78886701278422">
        <ele>8.826140052638948</ele>
        <time>2026-10-06T05:43:20Z</time>
      </trkpt>
      <trkpt lat="32.090408135049934" lon="118.7892626460678">
        <ele>11.02451193984598</ele>
        <time>2026-10-06T05:43:28Z</time>
      </trkpt>
      <trkpt lat="32.090751142954666" lon="118.78921854173966">
        <ele>9.375731117092073</ele>
        <time>2026-10-06T05:43:30Z</time>
      </trkpt>
      <trkpt lat="32.09085119171692" lon="118.7892375638764">
        <ele>8.715162879787385</ele>
        <time>2026-10-06T05:43:31Z</time>
      </trkpt>
      <trkpt lat="32.09092029386791" lon="118.78929765663305">
        <ele>8.836710578761995</ele>
        <time>2026-10-06T05:43:32Z</time>
      </trkpt>
      <trkpt lat="32.09132864745154" lon="118.7894809219166">
        <ele>7.90662635024637</ele>
        <time>2026-10-06T05:43:39Z</time>
      </trkpt>
      <trkpt lat="32.09172915606497" lon="118.78977036529692">
        <ele>11.362722999416292</ele>
        <time>2026-10-06T05:43:46Z</time>
      </trkpt>
      <trkpt lat="32.09196542971506" lon="118.78992259704593">
        <ele>10.765570289455354</ele>
        <time>2026-10-06T05:43:52Z</time>
      </trkpt>
      <trkpt lat="32.092331708947505" lon="118.79005979231295">
        <ele>12.609877235256135</ele>
        <time>2026-10-06T05:44:00Z</time>
      </trkpt>
      <trkpt lat="32.09250690407515" lon="118.79016695540933">
        <ele>12.905810005031526</ele>
        <time>2026-10-06T05:44:07Z</time>
      </trkpt>
      <trkpt lat="32.092425835240945" lon="118.7901319042191">
        <ele>12.308657295070589</ele>
        <time>2026-10-06T05:44:14Z</time>
      </trkpt>
      <trkpt lat="32.09236574271078" lon="118.79007781930694">
        <ele>11.67450965102762</ele>
        <time>2026-10-06T05:44:19Z</time>
      </trkpt>
      <trkpt lat="32.0926770256946" lon="118.79022503700963">
        <ele>11.96515906509012</ele>
        <time>2026-10-06T05:46:03Z</time>
      </trkpt>
      <trkpt lat="32.0931113348931" lon="118.79037224394192">
        <ele>12.340365058742464</ele>
        <time>2026-10-06T05:46:14Z</time>
      </trkpt>
      <trkpt lat="32.09362770489387" lon="118.79054849279768">
        <ele>14.501742011867464</ele>
        <time>2026-10-06T05:46:23Z</time>
      </trkpt>
      <trkpt lat="32.094117074349036" lon="118.79072775005228">
        <ele>14.845240241847932</ele>
        <time>2026-10-06T05:46:31Z</time>
      </trkpt>
      <trkpt lat="32.09460435411325" lon="118.79084690660358">
        <ele>13.391989356838167</ele>
        <time>2026-10-06T05:46:40Z</time>
      </trkpt>
      <trkpt lat="32.09505667033504" lon="118.79099511601882">
        <ele>13.228167182765901</ele>
        <time>2026-10-06T05:46:47Z</time>
      </trkpt>
      <trkpt lat="32.09551397748295" lon="118.79113631363465">
        <ele>15.194018012844026</ele>
        <time>2026-10-06T05:46:55Z</time>
      </trkpt>
      <trkpt lat="32.09603819194661" lon="118.79120638450938">
        <ele>15.093615180812776</ele>
        <time>2026-10-06T05:47:03Z</time>
      </trkpt>
      <trkpt lat="32.09652139486733" lon="118.79127445588554">
        <ele>11.521258003078401</ele>
        <time>2026-10-06T05:47:11Z</time>
      </trkpt>
      <trkpt lat="32.096950572996946" lon="118.79133351699713">
        <ele>12.567598945461214</ele>
        <time>2026-10-06T05:47:20Z</time>
      </trkpt>
      <trkpt lat="32.09703263228738" lon="118.79136155725593">
        <ele>13.032641059719026</ele>
        <time>2026-10-06T05:47:22Z</time>
      </trkpt>
      <trkpt lat="32.097107767194295" lon="118.79144068538781">
        <ele>12.720850593410432</ele>
        <time>2026-10-06T05:47:25Z</time>
      </trkpt>
      <trkpt lat="32.09713892337589" lon="118.79153985200303">
        <ele>12.969225532375276</ele>
        <time>2026-10-06T05:47:28Z</time>
      </trkpt>
      <trkpt lat="32.097240156482066" lon="118.79168008278">
        <ele>13.888735420070589</ele>
        <time>2026-10-06T05:47:32Z</time>
      </trkpt>
      <trkpt lat="32.09727546909217" lon="118.791881425154">
        <ele>12.80540335830301</ele>
        <time>2026-10-06T05:47:36Z</time>
      </trkpt>
      <trkpt lat="32.09725471149326" lon="118.79204370639883">
        <ele>12.02857459243387</ele>
        <time>2026-10-06T05:47:39Z</time>
      </trkpt>
      <trkpt lat="32.09728391136966" lon="118.79217092315635">
        <ele>13.02207053359598</ele>
        <time>2026-10-06T05:47:41Z</time>
      </trkpt>
      <trkpt lat="32.09733411443213" lon="118.79229713665607">
        <ele>11.73792517837137</ele>
        <time>2026-10-06T05:47:43Z</time>
      </trkpt>
      <trkpt lat="32.09747755818588" lon="118.7925675922091">
        <ele>12.171259528957307</ele>
        <time>2026-10-06T05:47:46Z</time>
      </trkpt>
      <trkpt lat="32.09754231775339" lon="118.79305243119416">
        <ele>11.891176826320589</ele>
        <time>2026-10-06T05:47:52Z</time>
      </trkpt>
      <trkpt lat="32.09763687076838" lon="118.79339702658213">
        <ele>13.354998237453401</ele>
        <time>2026-10-06T05:47:59Z</time>
      </trkpt>
      <trkpt lat="32.09764537569293" lon="118.79372059569354">
        <ele>11.056219703517854</ele>
        <time>2026-10-06T05:48:06Z</time>
      </trkpt>
      <trkpt lat="32.09767150607668" lon="118.79380073482925">
        <ele>14.232233650051057</ele>
        <time>2026-10-06T05:48:08Z</time>
      </trkpt>
      <trkpt lat="32.097747643833834" lon="118.79387886596358">
        <ele>12.990362769924104</ele>
        <time>2026-10-06T05:48:10Z</time>
      </trkpt>
      <trkpt lat="32.09778776485511" lon="118.79395098992462">
        <ele>13.207029945217073</ele>
        <time>2026-10-06T05:48:12Z</time>
      </trkpt>
      <trkpt lat="32.097804907875386" lon="118.79404014632212">
        <ele>10.992804176174104</ele>
        <time>2026-10-06T05:48:21Z</time>
      </trkpt>
      <trkpt lat="32.0979402782504" lon="118.79425852160463">
        <ele>11.426138526760042</ele>
        <time>2026-10-06T05:48:44Z</time>
      </trkpt>
      <trkpt lat="32.09816209568033" lon="118.79474837511064">
        <ele>12.609877235256135</ele>
        <time>2026-10-06T05:48:55Z</time>
      </trkpt>
      <trkpt lat="32.098250364289726" lon="118.79490665057183">
        <ele>12.57816947158426</ele>
        <time>2026-10-06T05:48:58Z</time>
      </trkpt>
      <trkpt lat="32.09856817615506" lon="118.79537646655267">
        <ele>11.272886878810823</ele>
        <time>2026-10-06T05:49:06Z</time>
      </trkpt>
      <trkpt lat="32.098817914165345" lon="118.79580622120153">
        <ele>13.952150947414339</ele>
        <time>2026-10-06T05:49:15Z</time>
      </trkpt>
      <trkpt lat="32.099155688533024" lon="118.79624498840177">
        <ele>12.298086768947542</ele>
        <time>2026-10-06T05:49:24Z</time>
      </trkpt>
      <trkpt lat="32.099334127612934" lon="118.79649442774016">
        <ele>11.922884589992464</ele>
        <time>2026-10-06T05:49:29Z</time>
      </trkpt>
      <trkpt lat="32.09943547086084" lon="118.7966937836626">
        <ele>11.066786414943635</ele>
        <time>2026-10-06T05:49:33Z</time>
      </trkpt>
      <trkpt lat="32.09955876090062" lon="118.79685707214">
        <ele>10.823698646388948</ele>
        <time>2026-10-06T05:49:37Z</time>
      </trkpt>
      <trkpt lat="32.09973206502636" lon="118.79702236028423">
        <ele>13.164751655422151</ele>
        <time>2026-10-06T05:49:41Z</time>
      </trkpt>
      <trkpt lat="32.09996471830878" lon="118.79739402483251">
        <ele>14.015566474758089</ele>
        <time>2026-10-06T05:49:49Z</time>
      </trkpt>
      <trkpt lat="32.10027947157768" lon="118.79781477602121">
        <ele>11.272886878810823</ele>
        <time>2026-10-06T05:49:56Z</time>
      </trkpt>
      <trkpt lat="32.10044279138512" lon="118.7979890853021">
        <ele>12.969225532375276</ele>
        <time>2026-10-06T05:49:59Z</time>
      </trkpt>
      <trkpt lat="32.10057919693513" lon="118.79821850056459">
        <ele>14.068411475978792</ele>
        <time>2026-10-06T05:50:04Z</time>
      </trkpt>
      <trkpt lat="32.1008628092381" lon="118.79855410228427">
        <ele>14.036703712306917</ele>
        <time>2026-10-06T05:50:10Z</time>
      </trkpt>
      <trkpt lat="32.10102310086401" lon="118.79871038068605">
        <ele>13.074915534816682</ele>
        <time>2026-10-06T05:50:14Z</time>
      </trkpt>
      <trkpt lat="32.10125266500488" lon="118.79902194549986">
        <ele>13.629793769679964</ele>
        <time>2026-10-06T05:50:21Z</time>
      </trkpt>
      <trkpt lat="32.10134400877633" lon="118.79921730550133">
        <ele>13.259874946437776</ele>
        <time>2026-10-06T05:50:29Z</time>
      </trkpt>
      <trkpt lat="32.1014351259783" lon="118.79927640872664">
        <ele>15.135889655910432</ele>
        <time>2026-10-06T05:51:16Z</time>
      </trkpt>
      <trkpt lat="32.101826739899295" lon="118.79959597737268">
        <ele>14.004995948635042</ele>
        <time>2026-10-06T05:51:27Z</time>
      </trkpt>
      <trkpt lat="32.101956024608285" lon="118.79975025813003">
        <ele>13.539957649074495</ele>
        <time>2026-10-06T05:51:30Z</time>
      </trkpt>
      <trkpt lat="32.10237967625149" lon="118.80008685927743">
        <ele>14.369631416164339</ele>
        <time>2026-10-06T05:51:39Z</time>
      </trkpt>
      <trkpt lat="32.10275527597959" lon="118.80039741727974">
        <ele>13.767191535793245</ele>
        <time>2026-10-06T05:51:46Z</time>
      </trkpt>
      <trkpt lat="32.10299968784783" lon="118.80061180493927">
        <ele>15.944426185451448</ele>
        <time>2026-10-06T05:51:51Z</time>
      </trkpt>
      <trkpt lat="32.10332352249798" lon="118.80106564626792">
        <ele>13.608656532131135</ele>
        <time>2026-10-06T05:51:56Z</time>
      </trkpt>
      <trkpt lat="32.10337164287304" lon="118.8011307671545">
        <ele>11.352152473293245</ele>
        <time>2026-10-06T05:51:57Z</time>
      </trkpt>
      <trkpt lat="32.1037414019122" lon="118.80153250796107">
        <ele>14.945646888576448</ele>
        <time>2026-10-06T05:52:05Z</time>
      </trkpt>
      <trkpt lat="32.10410818343588" lon="118.80194627532991">
        <ele>14.348490363918245</ele>
        <time>2026-10-06T05:52:12Z</time>
      </trkpt>
      <trkpt lat="32.104277574903975" lon="118.8021546643867">
        <ele>13.185892707668245</ele>
        <time>2026-10-06T05:52:16Z</time>
      </trkpt>
      <trkpt lat="32.10451427693569" lon="118.80253538386417">
        <ele>13.24930442031473</ele>
        <time>2026-10-06T05:52:24Z</time>
      </trkpt>
      <trkpt lat="32.10455346077768" lon="118.80263757966499">
        <ele>14.427759773097932</ele>
        <time>2026-10-06T05:52:27Z</time>
      </trkpt>
      <trkpt lat="32.10467377185747" lon="118.80280389350291">
        <ele>14.565157539211214</ele>
        <time>2026-10-06T05:52:31Z</time>
      </trkpt>
      <trkpt lat="32.10473909288094" lon="118.80298223642622">
        <ele>14.38019812759012</ele>
        <time>2026-10-06T05:52:37Z</time>
      </trkpt>
      <trkpt lat="32.1047882534776" lon="118.80306940264657">
        <ele>13.476542121730745</ele>
        <time>2026-10-06T05:52:40Z</time>
      </trkpt>
      <trkpt lat="32.10497959746067" lon="118.8032457308424">
        <ele>14.242800361476839</ele>
        <time>2026-10-06T05:52:47Z</time>
      </trkpt>
      <trkpt lat="32.10504964990329" lon="118.80326776765529">
        <ele>13.44483435805887</ele>
        <time>2026-10-06T05:53:17Z</time>
      </trkpt>
      <trkpt lat="32.1051369557948" lon="118.80343408632973">
        <ele>15.944426185451448</ele>
        <time>2026-10-06T05:53:28Z</time>
      </trkpt>
      <trkpt lat="32.105534764109976" lon="118.80385287443781">
        <ele>13.820036537013948</ele>
        <time>2026-10-06T05:53:42Z</time>
      </trkpt>
      <trkpt lat="32.10585343813587" lon="118.80420253590798">
        <ele>16.398897773586214</ele>
        <time>2026-10-06T05:53:49Z</time>
      </trkpt>
      <trkpt lat="32.106029813383955" lon="118.80439690453076">
        <ele>15.394831306301057</ele>
        <time>2026-10-06T05:53:56Z</time>
      </trkpt>
      <trkpt lat="32.10606000516417" lon="118.80450311229274">
        <ele>16.874506599269807</ele>
        <time>2026-10-06T05:53:57Z</time>
      </trkpt>
      <trkpt lat="32.10603720735759" lon="118.8046213489796">
        <ele>16.99605048354715</ele>
        <time>2026-10-06T05:53:59Z</time>
      </trkpt>
      <trkpt lat="32.1059009085648" lon="118.8050371883063">
        <ele>16.06597006972879</ele>
        <time>2026-10-06T05:54:08Z</time>
      </trkpt>
      <trkpt lat="32.105927111035804" lon="118.80514940948478">
        <ele>16.64726889785379</ele>
        <time>2026-10-06T05:54:10Z</time>
      </trkpt>
      <trkpt lat="32.1059893492138" lon="118.80527765952436">
        <ele>15.696051246486604</ele>
        <time>2026-10-06T05:54:12Z</time>
      </trkpt>
      <trkpt lat="32.106120536373645" lon="118.80536882943635">
        <ele>15.31027854140848</ele>
        <time>2026-10-06T05:54:15Z</time>
      </trkpt>
      <trkpt lat="32.10656683715787" lon="118.80548802652773">
        <ele>15.754183418117464</ele>
        <time>2026-10-06T05:54:23Z</time>
      </trkpt>
      <trkpt lat="32.10708923125368" lon="118.80565130502927">
        <ele>14.359060890041292</ele>
        <time>2026-10-06T05:54:32Z</time>
      </trkpt>
      <trkpt lat="32.10757659015118" lon="118.80579855504209">
        <ele>15.653776771388948</ele>
        <time>2026-10-06T05:54:40Z</time>
      </trkpt>
      <trkpt lat="32.107883907416756" lon="118.80594281592397">
        <ele>13.228167182765901</ele>
        <time>2026-10-06T05:54:45Z</time>
      </trkpt>
      <trkpt lat="32.108344257673785" lon="118.80608806503793">
        <ele>14.750116950832307</ele>
        <time>2026-10-06T05:54:53Z</time>
      </trkpt>
      <trkpt lat="32.10845233808165" lon="118.80612112147139">
        <ele>15.548082954250276</ele>
        <time>2026-10-06T05:54:55Z</time>
      </trkpt>
      <trkpt lat="32.10850645015726" lon="118.80617823118823">
        <ele>15.537516242824495</ele>
        <time>2026-10-06T05:55:06Z</time>
      </trkpt>
      <trkpt lat="32.10885967605019" lon="118.80626537383083">
        <ele>14.707842475734651</ele>
        <time>2026-10-06T05:56:24Z</time>
      </trkpt>
      <trkpt lat="32.109039669836605" lon="118.80624130893241">
        <ele>17.08060324843973</ele>
        <time>2026-10-06T05:56:29Z</time>
      </trkpt>
      <trkpt lat="32.109563095337215" lon="118.80642162343212">
        <ele>16.451742774806917</ele>
        <time>2026-10-06T05:56:39Z</time>
      </trkpt>
      <trkpt lat="32.110009375666564" lon="118.80652879816816">
        <ele>16.969626075588167</ele>
        <time>2026-10-06T05:56:47Z</time>
      </trkpt>
      <trkpt lat="32.11048973769056" lon="118.80667805475309">
        <ele>17.466375953517854</ele>
        <time>2026-10-06T05:56:56Z</time>
      </trkpt>
      <trkpt lat="32.110908167644254" lon="118.80687240835681">
        <ele>15.009058601222932</ele>
        <time>2026-10-06T05:57:03Z</time>
      </trkpt>
      <trkpt lat="32.111165472743785" lon="118.80701467202246">
        <ele>16.811091071926057</ele>
        <time>2026-10-06T05:57:08Z</time>
      </trkpt>
      <trkpt lat="32.11126164027125" lon="118.80709783125816">
        <ele>20.14035666640848</ele>
        <time>2026-10-06T05:57:10Z</time>
      </trkpt>
      <trkpt lat="32.11159934827332" lon="118.80745652626094">
        <ele>21.287104255519807</ele>
        <time>2026-10-06T05:57:17Z</time>
      </trkpt>
      <trkpt lat="32.11197798701765" lon="118.80777112968369">
        <ele>19.05174124892801</ele>
        <time>2026-10-06T05:57:25Z</time>
      </trkpt>
      <trkpt lat="32.112304593037415" lon="118.8080727126955">
        <ele>17.27613318618387</ele>
        <time>2026-10-06T05:57:32Z</time>
      </trkpt>
      <trkpt lat="32.11246896050424" lon="118.80825907699784">
        <ele>19.70173896010965</ele>
        <time>2026-10-06T05:57:35Z</time>
      </trkpt>
      <trkpt lat="32.112907630223845" lon="118.80858269658037">
        <ele>18.687105781398714</ele>
        <time>2026-10-06T05:57:44Z</time>
      </trkpt>
      <trkpt lat="32.11315910821297" lon="118.80882015850796">
        <ele>19.442797309719026</ele>
        <time>2026-10-06T05:57:50Z</time>
      </trkpt>
      <trkpt lat="32.113537699013165" lon="118.80910570789779">
        <ele>18.872065193019807</ele>
        <time>2026-10-06T05:57:58Z</time>
      </trkpt>
      <trkpt lat="32.11388835388073" lon="118.80942933894023">
        <ele>21.265963203273714</ele>
        <time>2026-10-06T05:58:06Z</time>
      </trkpt>
      <trkpt lat="32.114235909321" lon="118.80969785825802">
        <ele>21.33994925674051</ele>
        <time>2026-10-06T05:58:13Z</time>
      </trkpt>
      <trkpt lat="32.114426252359465" lon="118.80986618675799">
        <ele>20.83263266738504</ele>
        <time>2026-10-06T05:58:18Z</time>
      </trkpt>
      <trkpt lat="32.114856983791135" lon="118.81022187934215">
        <ele>20.948893195949495</ele>
        <time>2026-10-06T05:58:26Z</time>
      </trkpt>
      <trkpt lat="32.11513648753755" lon="118.81046836184343">
        <ele>20.71637213882059</ele>
        <time>2026-10-06T05:58:31Z</time>
      </trkpt>
      <trkpt lat="32.1151656373548" lon="118.81054752250853">
        <ele>21.04929984267801</ele>
        <time>2026-10-06T05:58:36Z</time>
      </trkpt>
      <trkpt lat="32.11556939117851" lon="118.81091724923085">
        <ele>19.20499289687723</ele>
        <time>2026-10-06T05:58:51Z</time>
      </trkpt>
      <trkpt lat="32.115999087294476" lon="118.81125190234972">
        <ele>20.27247107680887</ele>
        <time>2026-10-06T05:59:00Z</time>
      </trkpt>
      <trkpt lat="32.11638684382265" lon="118.8116236373896">
        <ele>21.18669760879129</ele>
        <time>2026-10-06T05:59:06Z</time>
      </trkpt>
      <trkpt lat="32.11674548921342" lon="118.81193725568016">
        <ele>19.580195075832307</ele>
        <time>2026-10-06T05:59:12Z</time>
      </trkpt>
      <trkpt lat="32.11712409521056" lon="118.81222682303455">
        <ele>19.194422370754182</ele>
        <time>2026-10-06T05:59:18Z</time>
      </trkpt>
      <trkpt lat="32.11751265042383" lon="118.81248732971792">
        <ele>20.954176551662385</ele>
        <time>2026-10-06T05:59:24Z</time>
      </trkpt>
      <trkpt lat="32.117970324818685" lon="118.81280494979303">
        <ele>18.803366309963167</ele>
        <time>2026-10-06T05:59:32Z</time>
      </trkpt>
      <trkpt lat="32.11815156711864" lon="118.81291716729083">
        <ele>18.253771430812776</ele>
        <time>2026-10-06T05:59:36Z</time>
      </trkpt>
      <trkpt lat="32.118230732145356" lon="118.81299832942963">
        <ele>18.105806953273714</ele>
        <time>2026-10-06T05:59:38Z</time>
      </trkpt>
      <trkpt lat="32.1184003489067" lon="118.81331497530975">
        <ele>17.524504310451448</ele>
        <time>2026-10-06T05:59:44Z</time>
      </trkpt>
      <trkpt lat="32.11864839050243" lon="118.81331094412815">
        <ele>18.42816413100809</ele>
        <time>2026-10-06T06:00:17Z</time>
      </trkpt>
      <trkpt lat="32.11880349499802" lon="118.81335101365877">
        <ele>19.939543372951448</ele>
        <time>2026-10-06T06:00:35Z</time>
      </trkpt>
      <trkpt lat="32.11892048852769" lon="118.81333496938552">
        <ele>19.094015724025667</ele>
        <time>2026-10-06T06:00:39Z</time>
      </trkpt>
      <trkpt lat="32.119078602839274" lon="118.81338004912331">
        <ele>19.43222678359598</ele>
        <time>2026-10-06T06:00:46Z</time>
      </trkpt>
      <trkpt lat="32.11927167230925" lon="118.81339706699269">
        <ele>18.48100913222879</ele>
        <time>2026-10-06T06:00:57Z</time>
      </trkpt>
      <trkpt lat="32.119342738048566" lon="118.81342511913124">
        <ele>18.385885841213167</ele>
        <time>2026-10-06T06:00:59Z</time>
      </trkpt>
      <trkpt lat="32.119406878198554" lon="118.81349425784659">
        <ele>17.899706489406526</ele>
        <time>2026-10-06T06:01:01Z</time>
      </trkpt>
      <trkpt lat="32.1194450335992" lon="118.81357442205378">
        <ele>17.846861488185823</ele>
        <time>2026-10-06T06:01:03Z</time>
      </trkpt>
      <trkpt lat="32.11950517303319" lon="118.81364356122107">
        <ele>18.69767630752176</ele>
        <time>2026-10-06T06:01:07Z</time>
      </trkpt>
      <trkpt lat="32.11966701076448" lon="118.81353832616882">
        <ele>18.264341956935823</ele>
        <time>2026-10-06T06:01:12Z</time>
      </trkpt>
      <trkpt lat="32.11976695465497" lon="118.81349723103206">
        <ele>19.35295737441629</ele>
        <time>2026-10-06T06:01:14Z</time>
      </trkpt>
      <trkpt lat="32.11992899578617" lon="118.81350222661581">
        <ele>17.63019812759012</ele>
        <time>2026-10-06T06:01:16Z</time>
      </trkpt>
      <trkpt lat="32.12041333876302" lon="118.8136364630512">
        <ele>17.598490363918245</ele>
        <time>2026-10-06T06:01:23Z</time>
      </trkpt>
      <trkpt lat="32.12079767136967" lon="118.81377571931932">
        <ele>17.112311012111604</ele>
        <time>2026-10-06T06:01:29Z</time>
      </trkpt>
      <trkpt lat="32.12100777366643" lon="118.81380876925611">
        <ele>16.832228309474885</ele>
        <time>2026-10-06T06:01:33Z</time>
      </trkpt>
      <trkpt lat="32.12137210425597" lon="118.81394902965461">
        <ele>16.969626075588167</ele>
        <time>2026-10-06T06:01:41Z</time>
      </trkpt>
      <trkpt lat="32.12185750122614" lon="118.81411232739997">
        <ele>15.653776771388948</ele>
        <time>2026-10-06T06:01:49Z</time>
      </trkpt>
      <trkpt lat="32.12206580699054" lon="118.81425560877842">
        <ele>16.044832832179964</ele>
        <time>2026-10-06T06:01:53Z</time>
      </trkpt>
      <trkpt lat="32.122524152473645" lon="118.81439385681111">
        <ele>14.898085243068635</ele>
        <time>2026-10-06T06:02:02Z</time>
      </trkpt>
      <trkpt lat="32.1227973282492" lon="118.81445997052515">
        <ele>15.114752418361604</ele>
        <time>2026-10-06T06:02:06Z</time>
      </trkpt>
      <trkpt lat="32.12314869185188" lon="118.81461927280161">
        <ele>17.0594660108909</ele>
        <time>2026-10-06T06:02:15Z</time>
      </trkpt>
      <trkpt lat="32.12335376339892" lon="118.81463628973415">
        <ele>15.66434348281473</ele>
        <time>2026-10-06T06:02:20Z</time>
      </trkpt>
      <trkpt lat="32.12381613941423" lon="118.81479057147939">
        <ele>15.817595130763948</ele>
        <time>2026-10-06T06:02:27Z</time>
      </trkpt>
      <trkpt lat="32.12432658613643" lon="118.81497791851429">
        <ele>15.363123542629182</ele>
        <time>2026-10-06T06:02:36Z</time>
      </trkpt>
      <trkpt lat="32.12470884443205" lon="118.8150770920408">
        <ele>14.987921363674104</ele>
        <time>2026-10-06T06:02:42Z</time>
      </trkpt>
      <trkpt lat="32.12518025576982" lon="118.81524941139456">
        <ele>17.027758247219026</ele>
        <time>2026-10-06T06:02:49Z</time>
      </trkpt>
      <trkpt lat="32.12542141414735" lon="118.815309515793">
        <ele>14.047274238429964</ele>
        <time>2026-10-06T06:02:56Z</time>
      </trkpt>
      <trkpt lat="32.12587591720759" lon="118.81553294462346">
        <ele>15.817595130763948</ele>
        <time>2026-10-06T06:03:06Z</time>
      </trkpt>
      <trkpt lat="32.126338299027736" lon="118.81569023364064">
        <ele>13.820036537013948</ele>
        <time>2026-10-06T06:03:14Z</time>
      </trkpt>
      <trkpt lat="32.12670356895052" lon="118.81579742609502">
        <ele>15.537516242824495</ele>
        <time>2026-10-06T06:03:19Z</time>
      </trkpt>
      <trkpt lat="32.12694465649746" lon="118.81581945041849">
        <ele>12.483046180568635</ele>
        <time>2026-10-06T06:03:23Z</time>
      </trkpt>
      <trkpt lat="32.12741308980396" lon="118.81600379623647">
        <ele>14.427759773097932</ele>
        <time>2026-10-06T06:03:32Z</time>
      </trkpt>
      <trkpt lat="32.12789047826896" lon="118.81616308856051">
        <ele>13.175322181545198</ele>
        <time>2026-10-06T06:03:39Z</time>
      </trkpt>
      <trkpt lat="32.12833589231882" lon="118.81633941994238">
        <ele>15.268004066310823</ele>
        <time>2026-10-06T06:03:48Z</time>
      </trkpt>
      <trkpt lat="32.128869317719364" lon="118.81651273706251">
        <ele>13.465971595607698</ele>
        <time>2026-10-06T06:03:56Z</time>
      </trkpt>
      <trkpt lat="32.12900043624301" lon="118.81656283086541">
        <ele>15.458246833644807</ele>
        <time>2026-10-06T06:03:58Z</time>
      </trkpt>
      <trkpt lat="32.129311572489726" lon="118.81660388908156">
        <ele>14.179384834133089</ele>
        <time>2026-10-06T06:04:04Z</time>
      </trkpt>
      <trkpt lat="32.12938068845715" lon="118.81665899919616">
        <ele>13.724917060695589</ele>
        <time>2026-10-06T06:04:10Z</time>
      </trkpt>
      <trkpt lat="32.129534766550734" lon="118.81668504009903">
        <ele>14.263937599025667</ele>
        <time>2026-10-06T06:04:30Z</time>
      </trkpt>
      <trkpt lat="32.12995617980525" lon="118.81686337843549">
        <ele>14.987921363674104</ele>
        <time>2026-10-06T06:04:46Z</time>
      </trkpt>
      <trkpt lat="32.130396544390614" lon="118.81701365584654">
        <ele>15.08304465468973</ele>
        <time>2026-10-06T06:04:53Z</time>
      </trkpt>
      <trkpt lat="32.13087392726044" lon="118.81716994269328">
        <ele>13.883452064357698</ele>
        <time>2026-10-06T06:05:02Z</time>
      </trkpt>
      <trkpt lat="32.13097500826851" lon="118.81720300337923">
        <ele>13.67206824477762</ele>
        <time>2026-10-06T06:05:03Z</time>
      </trkpt>
      <trkpt lat="32.13124310616659" lon="118.81722803175754">
        <ele>13.391989356838167</ele>
        <time>2026-10-06T06:05:09Z</time>
      </trkpt>
      <trkpt lat="32.13173345588141" lon="118.81736527727284">
        <ele>12.567598945461214</ele>
        <time>2026-10-06T06:05:18Z</time>
      </trkpt>
      <trkpt lat="32.13201065833292" lon="118.81744542152069">
        <ele>14.168818122707307</ele>
        <time>2026-10-06T06:05:22Z</time>
      </trkpt>
      <trkpt lat="32.13254797009045" lon="118.81755760980592">
        <ele>15.225725776515901</ele>
        <time>2026-10-06T06:05:29Z</time>
      </trkpt>
      <trkpt lat="32.1330382353711" lon="118.81764976001897">
        <ele>13.756621009670198</ele>
        <time>2026-10-06T06:05:38Z</time>
      </trkpt>
      <trkpt lat="32.13311525372176" lon="118.817651757187">
        <ele>14.533449775539339</ele>
        <time>2026-10-06T06:05:40Z</time>
      </trkpt>
      <trkpt lat="32.133389464850836" lon="118.8177369124316">
        <ele>14.15296424087137</ele>
        <time>2026-10-06T06:05:48Z</time>
      </trkpt>
      <trkpt lat="32.13386664883145" lon="118.81778697474057">
        <ele>14.945646888576448</ele>
        <time>2026-10-06T06:05:57Z</time>
      </trkpt>
      <trkpt lat="32.134396803368105" lon="118.81781598760068">
        <ele>13.693209297023714</ele>
        <time>2026-10-06T06:06:08Z</time>
      </trkpt>
      <trkpt lat="32.13493304318489" lon="118.8178900954684">
        <ele>14.660280830226839</ele>
        <time>2026-10-06T06:06:17Z</time>
      </trkpt>
      <trkpt lat="32.13538414880628" lon="118.81790107737633">
        <ele>16.668409950099885</ele>
        <time>2026-10-06T06:06:25Z</time>
      </trkpt>
      <trkpt lat="32.13580821176055" lon="118.81789201929335">
        <ele>15.970846778713167</ele>
        <time>2026-10-06T06:06:34Z</time>
      </trkpt>
      <trkpt lat="32.1362900794461" lon="118.8177727223134">
        <ele>16.832228309474885</ele>
        <time>2026-10-06T06:06:43Z</time>
      </trkpt>
      <trkpt lat="32.13670586539235" lon="118.81761635292624">
        <ele>15.680197364650667</ele>
        <time>2026-10-06T06:06:51Z</time>
      </trkpt>
      <trkpt lat="32.137139611664175" lon="118.81743693319193">
        <ele>16.161093360744417</ele>
        <time>2026-10-06T06:06:59Z</time>
      </trkpt>
      <trkpt lat="32.13758924871583" lon="118.81719738489426">
        <ele>15.764750129543245</ele>
        <time>2026-10-06T06:07:08Z</time>
      </trkpt>
      <trkpt lat="32.13799983375516" lon="118.81693378959284">
        <ele>13.682638770900667</ele>
        <time>2026-10-06T06:07:15Z</time>
      </trkpt>
      <trkpt lat="32.138434384272834" lon="118.81664914795915">
        <ele>14.43833029922098</ele>
        <time>2026-10-06T06:07:24Z</time>
      </trkpt>
      <trkpt lat="32.138640204178216" lon="118.81653188128323">
        <ele>15.040766364894807</ele>
        <time>2026-10-06T06:07:28Z</time>
      </trkpt>
      <trkpt lat="32.138903100091184" lon="118.81644968351782">
        <ele>13.608656532131135</ele>
        <time>2026-10-06T06:08:06Z</time>
      </trkpt>
      <trkpt lat="32.138976044615944" lon="118.8164125984937">
        <ele>14.295645362697542</ele>
        <time>2026-10-06T06:08:08Z</time>
      </trkpt>
      <trkpt lat="32.13918164815208" lon="118.81617908657664">
        <ele>16.01312506850809</ele>
        <time>2026-10-06T06:08:13Z</time>
      </trkpt>
      <trkpt lat="32.139606221840054" lon="118.81590747451223">
        <ele>17.01718772109598</ele>
        <time>2026-10-06T06:08:23Z</time>
      </trkpt>
      <trkpt lat="32.14007678387889" lon="118.81562483542362">
        <ele>17.270846015773714</ele>
        <time>2026-10-06T06:08:34Z</time>
      </trkpt>
      <trkpt lat="32.14055344412955" lon="118.81539430600421">
        <ele>17.254992133937776</ele>
        <time>2026-10-06T06:08:42Z</time>
      </trkpt>
      <trkpt lat="32.140832175782464" lon="118.81522191745934">
        <ele>19.421656257472932</ele>
        <time>2026-10-06T06:08:48Z</time>
      </trkpt>
      <trkpt lat="32.141107851242445" lon="118.8150194661459">
        <ele>19.289545661769807</ele>
        <time>2026-10-06T06:08:54Z</time>
      </trkpt>
      <trkpt lat="32.14134464603591" lon="118.8148851619517">
        <ele>21.514338142238557</ele>
        <time>2026-10-06T06:08:59Z</time>
      </trkpt>
      <trkpt lat="32.14185847163054" lon="118.81473980923015">
        <ele>20.594828254543245</ele>
        <time>2026-10-06T06:09:10Z</time>
      </trkpt>
      <trkpt lat="32.14236531076253" lon="118.81460247413668">
        <ele>22.502550727687776</ele>
        <time>2026-10-06T06:09:19Z</time>
      </trkpt>
      <trkpt lat="32.142577245873476" lon="118.8145463367639">
        <ele>22.481409675441682</ele>
        <time>2026-10-06T06:09:23Z</time>
      </trkpt>
      <trkpt lat="32.142669264668285" lon="118.8145473304035">
        <ele>22.417997962795198</ele>
        <time>2026-10-06T06:09:25Z</time>
      </trkpt>
      <trkpt lat="32.14273937592615" lon="118.81460043551539">
        <ele>21.641169196926057</ele>
        <time>2026-10-06T06:09:28Z</time>
      </trkpt>
      <trkpt lat="32.14283242831033" lon="118.814619466954">
        <ele>21.318812019191682</ele>
        <time>2026-10-06T06:10:03Z</time>
      </trkpt>
      <trkpt lat="32.143009319800775" lon="118.81454329070141">
        <ele>22.740355140529573</ele>
        <time>2026-10-06T06:10:08Z</time>
      </trkpt>
      <trkpt lat="32.14315606851582" lon="118.81439296157443">
        <ele>20.594828254543245</ele>
        <time>2026-10-06T06:10:12Z</time>
      </trkpt>
      <trkpt lat="32.143623787329155" lon="118.81419450216997">
        <ele>22.861899024806917</ele>
        <time>2026-10-06T06:10:21Z</time>
      </trkpt>
      <trkpt lat="32.14408556445266" lon="118.81402811082872">
        <ele>24.27287162002176</ele>
        <time>2026-10-06T06:10:29Z</time>
      </trkpt>
      <trkpt lat="32.14458137562858" lon="118.81387674805936">
        <ele>21.84726584609598</ele>
        <time>2026-10-06T06:10:37Z</time>
      </trkpt>
      <trkpt lat="32.14505829807743" lon="118.81378751732844">
        <ele>18.86149466689676</ele>
        <time>2026-10-06T06:10:43Z</time>
      </trkpt>
      <trkpt lat="32.14523127784866" lon="118.8137594426407">
        <ele>18.35417807754129</ele>
        <time>2026-10-06T06:10:45Z</time>
      </trkpt>
      <trkpt lat="32.14553235682312" lon="118.81377244222071">
        <ele>16.80052054580301</ele>
        <time>2026-10-06T06:10:51Z</time>
      </trkpt>
      <trkpt lat="32.1456024158542" lon="118.81379748824973">
        <ele>16.668409950099885</ele>
        <time>2026-10-06T06:10:58Z</time>
      </trkpt>
      <trkpt lat="32.14552647048079" lon="118.81383457291169">
        <ele>18.533854133449495</ele>
        <time>2026-10-06T06:11:14Z</time>
      </trkpt>
      <trkpt lat="32.14537149033746" lon="118.81386064176054">
        <ele>19.152147895656526</ele>
        <time>2026-10-06T06:11:24Z</time>
      </trkpt>
      <trkpt lat="32.1452945410844" lon="118.81389572233304">
        <ele>18.57084525283426</ele>
        <time>2026-10-06T06:11:35Z</time>
      </trkpt>
      <trkpt lat="32.145600433997856" lon="118.81380750942387">
        <ele>10.688812121748924</ele>
        <time>2026-10-06T06:12:56Z</time>
      </trkpt>
      <trkpt lat="32.14585055544898" lon="118.81384857248217">
        <ele>12.459136828780174</ele>
        <time>2026-10-06T06:13:12Z</time>
      </trkpt>
      <trkpt lat="32.146036605981266" lon="118.81385757425791">
        <ele>5.768901690840721</ele>
        <time>2026-10-06T06:13:18Z</time>
      </trkpt>
      <trkpt lat="32.14611553891441" lon="118.8138134746187">
        <ele>14.129054889082909</ele>
        <time>2026-10-06T06:13:24Z</time>
      </trkpt>
      <trkpt lat="32.146220515452065" lon="118.81379041667722">
        <ele>-3.19369138777256</ele>
        <time>2026-10-06T06:13:27Z</time>
      </trkpt>
      <trkpt lat="32.146384360242884" lon="118.81369019172959">
        <ele>5.758331164717674</ele>
        <time>2026-10-06T06:13:31Z</time>
      </trkpt>
      <trkpt lat="32.14672982594419" lon="118.81336648260674">
        <ele>10.223773822188377</ele>
        <time>2026-10-06T06:13:40Z</time>
      </trkpt>
      <trkpt lat="32.147200211703094" lon="118.81298664565455">
        <ele>1.0075224488973618</ele>
        <time>2026-10-06T06:13:48Z</time>
      </trkpt>
      <trkpt lat="32.14763370963016" lon="118.81267094705404">
        <ele>3.7607725709676743</ele>
        <time>2026-10-06T06:13:56Z</time>
      </trkpt>
      <trkpt lat="32.147884359152116" lon="118.81245547489792">
        <ele>14.990436419844627</ele>
        <time>2026-10-06T06:14:04Z</time>
      </trkpt>
      <trkpt lat="32.147821323827046" lon="118.8124424535604">
        <ele>4.56930910050869</ele>
        <time>2026-10-06T06:14:12Z</time>
      </trkpt>
    </trkseg>
  </trk>
</gpx>