<?xml version="1.0" encoding="UTF-8"?>
<gpx xmlns="http://www.topografix.com/GPX/1/1" xmlns:gpxtpx="http://www.garmin.com/xmlschemas/TrackPointExtension/v1" xmlns:xsi="http://www.w3.org/2001/XMLSchema-instance" xsi:schemaLocation="http://www.topografix.com/GPX/1/1 http://www.topografix.com/GPX/1/1/gpx.xsd" version="1.1" creator="gpx.py -- https://github.com/tkrajina/gpxpy">
  <trk>
    <name>gpx from keep</name>
    <type>Run</type>
    <trkseg>
      <trkpt lat="32.05190160345723" lon="118.80405118968314">
        <ele>12.66280808672309</ele>
        <time>2026-08-02T10:36:17Z</time>
      </trkpt>
      <trkpt lat="32.05193389013425" lon="118.80421150350362">
        <ele>-1.7296594120562077</ele>
        <time>2026-08-02T10:36:23Z</time>
      </trkpt>
      <trkpt lat="32.05197904882658" lon="118.8042966678164">
        <ele>11.080082561820745</ele>
        <time>2026-08-02T10:36:26Z</time>
      </trkpt>
      <trkpt lat="32.05212230127112" lon="118.80442290458889">
        <ele>13.249394085258245</ele>
        <time>2026-08-02T10:36:32Z</time>
      </trkpt>
      <trkpt lat="32.052454539992716" lon="118.80451706068793">
        <ele>11.542484905570745</ele>
        <time>2026-08-02T10:36:44Z</time>
      </trkpt>
      <trkpt lat="32.05272072200931" lon="118.80458717529943">
        <ele>13.320736553519964</ele>
        <time>2026-08-02T10:36:53Z</time>
      </trkpt>
      <trkpt lat="32.05282277455699" lon="118.80460419970838">
        <ele>13.886181499809027</ele>
        <time>2026-08-02T10:36:56Z</time>
      </trkpt>
      <trkpt lat="32.05295390023111" lon="118.80465929699845">
        <ele>13.835980083793402</ele>
        <time>2026-08-02T10:36:59Z</time>
      </trkpt>
      <trkpt lat="32.0530899866887" lon="118.80469134813175">
        <ele>14.818905498832464</ele>
        <time>2026-08-02T10:37:02Z</time>
      </trkpt>
      <trkpt lat="32.053242961115146" lon="118.80465726646258">
        <ele>14.58902421221137</ele>
        <time>2026-08-02T10:37:05Z</time>
      </trkpt>
      <trkpt lat="32.05333185465272" lon="118.80458511517296">
        <ele>14.118702556937933</ele>
        <time>2026-08-02T10:37:08Z</time>
      </trkpt>
      <trkpt lat="32.053431556269906" lon="118.80440174261481">
        <ele>4.976433422416449</ele>
        <time>2026-08-02T10:37:11Z</time>
      </trkpt>
      <trkpt lat="32.053438319832104" lon="118.80426547227533">
        <ele>13.331303264945745</ele>
        <time>2026-08-02T10:37:14Z</time>
      </trkpt>
      <trkpt lat="32.053408119097185" lon="118.80415425513443">
        <ele>12.903256084769964</ele>
        <time>2026-08-02T10:37:17Z</time>
      </trkpt>
      <trkpt lat="32.05335791932055" lon="118.8040460459673">
        <ele>12.380085613578558</ele>
        <time>2026-08-02T10:37:20Z</time>
      </trkpt>
      <trkpt lat="32.05328271763018" lon="118.80393984324215">
        <ele>-1.616038653999567</ele>
        <time>2026-08-02T10:37:23Z</time>
      </trkpt>
      <trkpt lat="32.053111533057574" lon="118.80385569297817">
        <ele>12.012806560844183</ele>
        <time>2026-08-02T10:37:29Z</time>
      </trkpt>
      <trkpt lat="32.05278931840936" lon="118.80377356065856">
        <ele>12.88211503252387</ele>
        <time>2026-08-02T10:37:38Z</time>
      </trkpt>
      <trkpt lat="32.05245807919648" lon="118.80367840363655">
        <ele>9.751019146293402</ele>
        <time>2026-08-02T10:37:50Z</time>
      </trkpt>
      <trkpt lat="32.052385000266916" lon="118.80364233935344">
        <ele>14.139835979789495</ele>
        <time>2026-08-02T10:37:53Z</time>
      </trkpt>
      <trkpt lat="32.05223090850836" lon="118.80360928845099">
        <ele>13.384152080863714</ele>
        <time>2026-08-02T10:37:59Z</time>
      </trkpt>
      <trkpt lat="32.05217991452953" lon="118.80361931285148">
        <ele>13.29959550127387</ele>
        <time>2026-08-02T10:38:02Z</time>
      </trkpt>
      <trkpt lat="32.051997079095266" lon="118.80373756240682">
        <ele>12.87154832109809</ele>
        <time>2026-08-02T10:38:08Z</time>
      </trkpt>
      <trkpt lat="32.051937206813314" lon="118.80381872781372">
        <ele>12.987805034965277</ele>
        <time>2026-08-02T10:38:11Z</time>
      </trkpt>
      <trkpt lat="32.051880485314314" lon="118.80398606304816">
        <ele>13.069721844047308</ele>
        <time>2026-08-02T10:38:17Z</time>
      </trkpt>
      <trkpt lat="32.051896801474484" lon="118.8041654157926">
        <ele>9.60305466875434</ele>
        <time>2026-08-02T10:38:23Z</time>
      </trkpt>
      <trkpt lat="32.05199710533241" lon="118.80432672564243">
        <ele>12.94553055986762</ele>
        <time>2026-08-02T10:38:29Z</time>
      </trkpt>
      <trkpt lat="32.05217830500636" lon="118.80441788952024">
        <ele>12.53597703203559</ele>
        <time>2026-08-02T10:38:38Z</time>
      </trkpt>
      <trkpt lat="32.052469511793674" lon="118.80449902356447">
        <ele>12.75528397783637</ele>
        <time>2026-08-02T10:38:50Z</time>
      </trkpt>
      <trkpt lat="32.05275772324283" lon="118.80458316395084">
        <ele>11.751225139945745</ele>
        <time>2026-08-02T10:39:02Z</time>
      </trkpt>
      <trkpt lat="32.053028929226286" lon="118.80466630402397">
        <ele>12.26382127031684</ele>
        <time>2026-08-02T10:39:14Z</time>
      </trkpt>
      <trkpt lat="32.053133963150216" lon="118.80467230630478">
        <ele>8.75488343462348</ele>
        <time>2026-08-02T10:39:17Z</time>
      </trkpt>
      <trkpt lat="32.05325391970732" lon="118.8046322157513">
        <ele>-2.9556725956499577</ele>
        <time>2026-08-02T10:39:23Z</time>
      </trkpt>
      <trkpt lat="32.05340861243856" lon="118.80443681418386">
        <ele>12.525410320609808</ele>
        <time>2026-08-02T10:39:33Z</time>
      </trkpt>
      <trkpt lat="32.053449364262505" lon="118.8042895188361">
        <ele>12.295529033988714</ele>
        <time>2026-08-02T10:39:36Z</time>
      </trkpt>
      <trkpt lat="32.05345821587496" lon="118.80420334758642">
        <ele>12.715656902641058</ele>
        <time>2026-08-02T10:39:39Z</time>
      </trkpt>
      <trkpt lat="32.053365887933175" lon="118.80402700764523">
        <ele>10.15793290361762</ele>
        <time>2026-08-02T10:39:45Z</time>
      </trkpt>
      <trkpt lat="32.05326071098491" lon="118.80393884328765">
        <ele>10.641468670219183</ele>
        <time>2026-08-02T10:39:51Z</time>
      </trkpt>
      <trkpt lat="32.052940414783485" lon="118.80380961785077">
        <ele>8.797161724418402</ele>
        <time>2026-08-02T10:40:03Z</time>
      </trkpt>
      <trkpt lat="32.05265920583348" lon="118.80372547787904">
        <ele>3.982937481254339</ele>
        <time>2026-08-02T10:40:15Z</time>
      </trkpt>
      <trkpt lat="32.05259114366497" lon="118.80369843086137">
        <ele>12.306103374809027</ele>
        <time>2026-08-02T10:40:18Z</time>
      </trkpt>
      <trkpt lat="32.052437951192594" lon="118.80360726548126">
        <ele>12.076222088187933</ele>
        <time>2026-08-02T10:40:27Z</time>
      </trkpt>
      <trkpt lat="32.05232386141771" lon="118.80357020303913">
        <ele>11.24654832109809</ele>
        <time>2026-08-02T10:40:33Z</time>
      </trkpt>
      <trkpt lat="32.05224984665298" lon="118.80357121181179">
        <ele>12.32723679766059</ele>
        <time>2026-08-02T10:40:36Z</time>
      </trkpt>
      <trkpt lat="32.052094954728105" lon="118.8036533876999">
        <ele>12.065655376762152</ele>
        <time>2026-08-02T10:40:39Z</time>
      </trkpt>
      <trkpt lat="32.051993095618" lon="118.80374758250836">
        <ele>10.694317486137152</ele>
        <time>2026-08-02T10:40:42Z</time>
      </trkpt>
      <trkpt lat="32.051934223570875" lon="118.80382874783675">
        <ele>12.232113506644964</ele>
        <time>2026-08-02T10:40:45Z</time>
      </trkpt>
      <trkpt lat="32.05189053815748" lon="118.80401511948031">
        <ele>12.210980083793402</ele>
        <time>2026-08-02T10:40:48Z</time>
      </trkpt>
      <trkpt lat="32.051906723331484" lon="118.80411932379633">
        <ele>12.158131267875433</ele>
        <time>2026-08-02T10:40:51Z</time>
      </trkpt>
      <trkpt lat="32.051943890617125" lon="118.8042105006035">
        <ele>12.81869950518012</ele>
        <time>2026-08-02T10:40:54Z</time>
      </trkpt>
      <trkpt lat="32.05206919665266" lon="118.80436980430575">
        <ele>12.94553055986762</ele>
        <time>2026-08-02T10:41:00Z</time>
      </trkpt>
      <trkpt lat="32.052125275673376" lon="118.80440787454805">
        <ele>9.40488114580512</ele>
        <time>2026-08-02T10:41:03Z</time>
      </trkpt>
      <trkpt lat="32.0524414897801" lon="118.80449000826721">
        <ele>10.07602372393012</ele>
        <time>2026-08-02T10:41:15Z</time>
      </trkpt>
      <trkpt lat="32.0527227171946" lon="118.80458416915441">
        <ele>12.578251507133245</ele>
        <time>2026-08-02T10:41:27Z</time>
      </trkpt>
      <trkpt lat="32.05301992546617" lon="118.80466530286273">
        <ele>12.168705608695745</ele>
        <time>2026-08-02T10:41:39Z</time>
      </trkpt>
      <trkpt lat="32.05315296387404" lon="118.80467030058179">
        <ele>12.044514324516058</ele>
        <time>2026-08-02T10:41:45Z</time>
      </trkpt>
      <trkpt lat="32.05324292076515" lon="118.80463422073788">
        <ele>8.421959545463324</ele>
        <time>2026-08-02T10:41:48Z</time>
      </trkpt>
      <trkpt lat="32.053378723133825" lon="118.80450394995272">
        <ele>12.380085613578558</ele>
        <time>2026-08-02T10:41:54Z</time>
      </trkpt>
      <trkpt lat="32.05343642260318" lon="118.8043245894231">
        <ele>11.970532085746527</ele>
        <time>2026-08-02T10:42:00Z</time>
      </trkpt>
      <trkpt lat="32.05343608864062" lon="118.80413321098098">
        <ele>12.115856792777777</ele>
        <time>2026-08-02T10:42:06Z</time>
      </trkpt>
      <trkpt lat="32.053343835906304" lon="118.80399995626482">
        <ele>12.086788799613714</ele>
        <time>2026-08-02T10:42:12Z</time>
      </trkpt>
      <trkpt lat="32.053213629008056" lon="118.80389776657894">
        <ele>12.221546795219183</ele>
        <time>2026-08-02T10:42:18Z</time>
      </trkpt>
      <trkpt lat="32.05300245822435" lon="118.80382664572105">
        <ele>12.086788799613714</ele>
        <time>2026-08-02T10:42:28Z</time>
      </trkpt>
      <trkpt lat="32.05286942684176" lon="118.8038256559713">
        <ele>10.712811138480902</ele>
        <time>2026-08-02T10:42:37Z</time>
      </trkpt>
      <trkpt lat="32.05281436056605" lon="118.80379459981654">
        <ele>6.1813093684613705</ele>
        <time>2026-08-02T10:42:40Z</time>
      </trkpt>
      <trkpt lat="32.052519174621075" lon="118.80372549074761">
        <ele>12.411793377250433</ele>
        <time>2026-08-02T10:42:52Z</time>
      </trkpt>
      <trkpt lat="32.052362068233" lon="118.80368442429504">
        <ele>10.934757854789495</ele>
        <time>2026-08-02T10:43:01Z</time>
      </trkpt>
      <trkpt lat="32.0521620062211" lon="118.80367442295518">
        <ele>11.51077714189887</ele>
        <time>2026-08-02T10:43:10Z</time>
      </trkpt>
      <trkpt lat="32.052026012437366" lon="118.80369547687708">
        <ele>12.221546795219183</ele>
        <time>2026-08-02T10:43:13Z</time>
      </trkpt>
      <trkpt lat="32.05189938662197" lon="118.80392694466425">
        <ele>12.086788799613714</ele>
        <time>2026-08-02T10:43:22Z</time>
      </trkpt>
      <trkpt lat="32.05188665424214" lon="118.80408225240174">
        <ele>9.917484905570745</ele>
        <time>2026-08-02T10:43:28Z</time>
      </trkpt>
      <trkpt lat="32.051898812406556" lon="118.80417142749094">
        <ele>9.959759380668402</ele>
        <time>2026-08-02T10:43:31Z</time>
      </trkpt>
      <trkpt lat="32.05192996093196" lon="118.80425258510827">
        <ele>12.546551372855902</ele>
        <time>2026-08-02T10:43:34Z</time>
      </trkpt>
      <trkpt lat="32.05203820374145" lon="118.80437782302417">
        <ele>12.139637615531683</ele>
        <time>2026-08-02T10:43:40Z</time>
      </trkpt>
      <trkpt lat="32.05217032949099" lon="118.804432920023">
        <ele>10.588619854301214</ele>
        <time>2026-08-02T10:43:46Z</time>
      </trkpt>
      <trkpt lat="32.05248153725048" lon="118.80451204827692">
        <ele>12.440853741019964</ele>
        <time>2026-08-02T10:43:58Z</time>
      </trkpt>
      <trkpt lat="32.05260467160178" lon="118.80457315814223">
        <ele>12.546551372855902</ele>
        <time>2026-08-02T10:44:04Z</time>
      </trkpt>
      <trkpt lat="32.05267668940621" lon="118.80457415351222">
        <ele>12.557118084281683</ele>
        <time>2026-08-02T10:44:07Z</time>
      </trkpt>
      <trkpt lat="32.05296691365561" lon="118.80466530773346">
        <ele>11.603253033012152</ele>
        <time>2026-08-02T10:44:20Z</time>
      </trkpt>
      <trkpt lat="32.05307297237116" lon="118.80468533776187">
        <ele>11.59268632158637</ele>
        <time>2026-08-02T10:44:23Z</time>
      </trkpt>
      <trkpt lat="32.053239935885074" lon="118.80464323890487">
        <ele>12.284962322562933</ele>
        <time>2026-08-02T10:44:29Z</time>
      </trkpt>
      <trkpt lat="32.05336881380175" lon="118.8045570561407">
        <ele>10.09451737627387</ele>
        <time>2026-08-02T10:44:35Z</time>
      </trkpt>
      <trkpt lat="32.053441570754075" lon="118.80440875558521">
        <ele>11.698376324027777</ele>
        <time>2026-08-02T10:44:41Z</time>
      </trkpt>
      <trkpt lat="32.05344941499975" lon="118.80431857633107">
        <ele>13.458134319633245</ele>
        <time>2026-08-02T10:44:44Z</time>
      </trkpt>
      <trkpt lat="32.05336989755242" lon="118.80403201716825">
        <ele>12.483135845512152</ele>
        <time>2026-08-02T10:44:56Z</time>
      </trkpt>
      <trkpt lat="32.05332477583402" lon="118.80396789473475">
        <ele>12.168705608695745</ele>
        <time>2026-08-02T10:44:59Z</time>
      </trkpt>
      <trkpt lat="32.05323470693711" lon="118.80393984765412">
        <ele>12.588825847953558</ele>
        <time>2026-08-02T10:45:02Z</time>
      </trkpt>
      <trkpt lat="32.05317855321483" lon="118.8038586927456">
        <ele>12.369518902152777</ele>
        <time>2026-08-02T10:45:05Z</time>
      </trkpt>
      <trkpt lat="32.053127540108854" lon="118.80385769545808">
        <ele>11.185780193656683</ele>
        <time>2026-08-02T10:45:08Z</time>
      </trkpt>
      <trkpt lat="32.05306356768922" lon="118.80388174875304">
        <ele>12.179272320121527</ele>
        <time>2026-08-02T10:45:11Z</time>
      </trkpt>
      <trkpt lat="32.052795331940814" lon="118.80378057392488">
        <ele>11.58211961016059</ele>
        <time>2026-08-02T10:45:23Z</time>
      </trkpt>
      <trkpt lat="32.052531189485826" lon="118.80373250345681">
        <ele>11.959965374320745</ele>
        <time>2026-08-02T10:45:35Z</time>
      </trkpt>
      <trkpt lat="32.052426995712665" lon="118.8036343197195">
        <ele>12.002239849418402</ele>
        <time>2026-08-02T10:45:38Z</time>
      </trkpt>
      <trkpt lat="32.05218792327291" lon="118.80362332000165">
        <ele>11.542484905570745</ele>
        <time>2026-08-02T10:45:47Z</time>
      </trkpt>
      <trkpt lat="32.05211494178809" lon="118.80364336614325">
        <ele>12.32723679766059</ele>
        <time>2026-08-02T10:45:50Z</time>
      </trkpt>
      <trkpt lat="32.051957153777046" lon="118.80378566082115">
        <ele>12.411793377250433</ele>
        <time>2026-08-02T10:45:56Z</time>
      </trkpt>
      <trkpt lat="32.05190832933629" lon="118.80389287664812">
        <ele>12.065655376762152</ele>
        <time>2026-08-02T10:45:59Z</time>
      </trkpt>
      <trkpt lat="32.0518916134481" lon="118.80405820445182">
        <ele>12.432926800101995</ele>
        <time>2026-08-02T10:46:05Z</time>
      </trkpt>
      <trkpt lat="32.0519359290454" lon="118.80423354690703">
        <ele>12.557118084281683</ele>
        <time>2026-08-02T10:46:11Z</time>
      </trkpt>
      <trkpt lat="32.05199007927378" lon="118.80431269852647">
        <ele>12.966671612113714</ele>
        <time>2026-08-02T10:46:14Z</time>
      </trkpt>
      <trkpt lat="32.05212126952811" lon="118.80440486896305">
        <ele>11.288822796195745</ele>
        <time>2026-08-02T10:46:20Z</time>
      </trkpt>
      <trkpt lat="32.05231734126149" lon="118.80442088269895">
        <ele>12.440853741019964</ele>
        <time>2026-08-02T10:46:29Z</time>
      </trkpt>
      <trkpt lat="32.05243442690164" lon="118.80445493942638">
        <ele>12.839840557426214</ele>
        <time>2026-08-02T10:46:32Z</time>
      </trkpt>
      <trkpt lat="32.052593630579366" lon="118.80455111544593">
        <ele>12.493702556937933</ele>
        <time>2026-08-02T10:46:38Z</time>
      </trkpt>
      <trkpt lat="32.05289185483446" lon="118.80464126691056">
        <ele>12.525410320609808</ele>
        <time>2026-08-02T10:46:50Z</time>
      </trkpt>
      <trkpt lat="32.05311297601912" lon="118.80468232811997">
        <ele>12.839840557426214</ele>
        <time>2026-08-02T10:46:59Z</time>
      </trkpt>
      <trkpt lat="32.053165980808366" lon="118.80467831529492">
        <ele>12.044514324516058</ele>
        <time>2026-08-02T10:47:02Z</time>
      </trkpt>
      <trkpt lat="32.05324189773911" lon="118.8046211949891">
        <ele>8.493298199027777</ele>
        <time>2026-08-02T10:47:05Z</time>
      </trkpt>
      <trkpt lat="32.05339583208786" lon="118.80456406756609">
        <ele>11.677242901176214</ele>
        <time>2026-08-02T10:47:11Z</time>
      </trkpt>
      <trkpt lat="32.05342948579824" lon="118.80436166344535">
        <ele>12.107929851859808</ele>
        <time>2026-08-02T10:47:17Z</time>
      </trkpt>
      <trkpt lat="32.053401079097924" lon="118.80413221221812">
        <ele>12.59939255937934</ele>
        <time>2026-08-02T10:47:26Z</time>
      </trkpt>
      <trkpt lat="32.05324565531925" lon="118.8039087853743">
        <ele>12.232113506644964</ele>
        <time>2026-08-02T10:47:35Z</time>
      </trkpt>
      <trkpt lat="32.0530314455174" lon="118.80381562133364">
        <ele>11.959965374320745</ele>
        <time>2026-08-02T10:47:44Z</time>
      </trkpt>
      <trkpt lat="32.052827349525884" lon="118.80378658282801">
        <ele>9.814434673637152</ele>
        <time>2026-08-02T10:47:54Z</time>
      </trkpt>
      <trkpt lat="32.05253606351974" lon="118.8036593589955">
        <ele>10.263622906059027</ele>
        <time>2026-08-02T10:48:06Z</time>
      </trkpt>
      <trkpt lat="32.052249895351075" lon="118.80359926699357">
        <ele>11.78293290361762</ele>
        <time>2026-08-02T10:48:18Z</time>
      </trkpt>
      <trkpt lat="32.05207097547915" lon="118.80366841948644">
        <ele>12.839840557426214</ele>
        <time>2026-08-02T10:48:24Z</time>
      </trkpt>
      <trkpt lat="32.05198811017737" lon="118.80375660072984">
        <ele>11.531918194144964</ele>
        <time>2026-08-02T10:48:27Z</time>
      </trkpt>
      <trkpt lat="32.05190637771901" lon="118.80392093216261">
        <ele>11.833134319633245</ele>
        <time>2026-08-02T10:48:33Z</time>
      </trkpt>
      <trkpt lat="32.051913712665105" lon="118.80411230929643">
        <ele>8.630695965141058</ele>
        <time>2026-08-02T10:48:39Z</time>
      </trkpt>
      <trkpt lat="32.05193689080359" lon="118.8042115032279">
        <ele>11.772358562797308</ele>
        <time>2026-08-02T10:48:42Z</time>
      </trkpt>
      <trkpt lat="32.05204011842513" lon="118.80432872565642">
        <ele>11.867481853812933</ele>
        <time>2026-08-02T10:48:48Z</time>
      </trkpt>
      <trkpt lat="32.0521402369988" lon="118.80438382555278">
        <ele>12.93496384844184</ele>
        <time>2026-08-02T10:48:54Z</time>
      </trkpt>
      <trkpt lat="32.05221327253993" lon="118.80439484066703">
        <ele>10.945332195609808</ele>
        <time>2026-08-02T10:48:57Z</time>
      </trkpt>
      <trkpt lat="32.05253858325924" lon="118.80453108077337">
        <ele>11.698376324027777</ele>
        <time>2026-08-02T10:49:12Z</time>
      </trkpt>
      <trkpt lat="32.05260266589595" lon="118.80457015236551">
        <ele>10.913624431937933</ele>
        <time>2026-08-02T10:49:15Z</time>
      </trkpt>
      <trkpt lat="32.052935873411954" lon="118.80464627280689">
        <ele>12.012806560844183</ele>
        <time>2026-08-02T10:49:30Z</time>
      </trkpt>
      <trkpt lat="32.053094966744005" lon="118.80467932380843">
        <ele>11.563618328422308</ele>
        <time>2026-08-02T10:49:36Z</time>
      </trkpt>
      <trkpt lat="32.05316497532123" lon="118.80467530942126">
        <ele>11.38394608721137</ele>
        <time>2026-08-02T10:49:39Z</time>
      </trkpt>
      <trkpt lat="32.05328991369415" lon="118.80462419654077">
        <ele>11.687809612601995</ele>
        <time>2026-08-02T10:49:45Z</time>
      </trkpt>
      <trkpt lat="32.053363812688026" lon="118.80455705660022">
        <ele>11.64553513750434</ele>
        <time>2026-08-02T10:49:48Z</time>
      </trkpt>
      <trkpt lat="32.05342356499397" lon="118.80440775525528">
        <ele>10.054882671684027</ele>
        <time>2026-08-02T10:49:54Z</time>
      </trkpt>
      <trkpt lat="32.05343623545031" lon="118.8042173773435">
        <ele>11.677242901176214</ele>
        <time>2026-08-02T10:50:00Z</time>
      </trkpt>
      <trkpt lat="32.05338601112316" lon="118.8040951403551">
        <ele>10.535778667777777</ele>
        <time>2026-08-02T10:50:03Z</time>
      </trkpt>
      <trkpt lat="32.0533167932453" lon="118.80397891721947">
        <ele>10.807934429496527</ele>
        <time>2026-08-02T10:50:06Z</time>
      </trkpt>
      <trkpt lat="32.05325268478322" lon="118.8039248163515">
        <ele>11.132931377738714</ele>
        <time>2026-08-02T10:50:09Z</time>
      </trkpt>
      <trkpt lat="32.05298448209878" lon="118.80384267897446">
        <ele>11.206913616508245</ele>
        <time>2026-08-02T10:50:21Z</time>
      </trkpt>
      <trkpt lat="32.05277438127099" lon="118.80381163705815">
        <ele>11.25711503252387</ele>
        <time>2026-08-02T10:50:30Z</time>
      </trkpt>
      <trkpt lat="32.05262214883528" lon="118.80369742603922">
        <ele>10.34817948564887</ele>
        <time>2026-08-02T10:50:36Z</time>
      </trkpt>
      <trkpt lat="32.052306908063535" lon="118.80359926175414">
        <ele>10.871342327445745</ele>
        <time>2026-08-02T10:50:48Z</time>
      </trkpt>
      <trkpt lat="32.052234890266135" lon="118.80359826640135">
        <ele>10.07602372393012</ele>
        <time>2026-08-02T10:50:51Z</time>
      </trkpt>
      <trkpt lat="32.05206696414449" lon="118.80366240802145">
        <ele>10.305897381156683</ele>
        <time>2026-08-02T10:50:57Z</time>
      </trkpt>
      <trkpt lat="32.05200704475921" lon="118.8037165200519">
        <ele>8.67297425493598</ele>
        <time>2026-08-02T10:51:00Z</time>
      </trkpt>
      <trkpt lat="32.05188542885178" lon="118.80395299734359">
        <ele>11.11179032549262</ele>
        <time>2026-08-02T10:51:06Z</time>
      </trkpt>
      <trkpt lat="32.05189160297198" lon="118.8040521925807">
        <ele>11.531918194144964</ele>
        <time>2026-08-02T10:51:09Z</time>
      </trkpt>
      <trkpt lat="32.051948931945844" lon="118.80423354571226">
        <ele>11.196346905082464</ele>
        <time>2026-08-02T10:51:15Z</time>
      </trkpt>
      <trkpt lat="32.05200007100692" lon="118.80430668571157">
        <ele>10.82906785234809</ele>
        <time>2026-08-02T10:51:18Z</time>
      </trkpt>
      <trkpt lat="32.0520651747555" lon="118.80435778087119">
        <ele>8.902851726859808</ele>
        <time>2026-08-02T10:51:21Z</time>
      </trkpt>
      <trkpt lat="32.0522583193473" lon="118.80441587819925">
        <ele>10.461796429008245</ele>
        <time>2026-08-02T10:51:30Z</time>
      </trkpt>
      <trkpt lat="32.052403486563136" lon="118.8044930177162">
        <ele>11.10122361406684</ele>
        <time>2026-08-02T10:51:36Z</time>
      </trkpt>
      <trkpt lat="32.052703651595614" lon="118.80454910136375">
        <ele>10.818501140922308</ele>
        <time>2026-08-02T10:51:48Z</time>
      </trkpt>
      <trkpt lat="32.05298991878104" lon="118.80466530561975">
        <ele>15.53231492266059</ele>
        <time>2026-08-02T10:52:00Z</time>
      </trkpt>
      <trkpt lat="32.053237935439526" lon="118.80464323908868">
        <ele>11.132931377738714</ele>
        <time>2026-08-02T10:52:12Z</time>
      </trkpt>
      <trkpt lat="32.05330990060959" lon="118.80461417482661">
        <ele>8.16830125078559</ele>
        <time>2026-08-02T10:52:15Z</time>
      </trkpt>
      <trkpt lat="32.05341670881814" lon="118.80449092064647">
        <ele>11.468502666801214</ele>
        <time>2026-08-02T10:52:21Z</time>
      </trkpt>
      <trkpt lat="32.05345551784625" lon="118.8043766908102">
        <ele>10.76565232500434</ele>
        <time>2026-08-02T10:52:24Z</time>
      </trkpt>
      <trkpt lat="32.053426145824204" lon="118.80416727922352">
        <ele>11.090656902641058</ele>
        <time>2026-08-02T10:52:31Z</time>
      </trkpt>
      <trkpt lat="32.053343869068264" lon="118.80401899384314">
        <ele>7.782528545707464</ele>
        <time>2026-08-02T10:52:37Z</time>
      </trkpt>
      <trkpt lat="32.05326871276707" lon="118.80393884255231">
        <ele>10.82906785234809</ele>
        <time>2026-08-02T10:52:40Z</time>
      </trkpt>
      <trkpt lat="32.05297243236989" lon="118.8038156267568">
        <ele>10.860775616019964</ele>
        <time>2026-08-02T10:52:52Z</time>
      </trkpt>
      <trkpt lat="32.052704221088824" lon="118.80372847966213">
        <ele>10.567486431449652</ele>
        <time>2026-08-02T10:53:04Z</time>
      </trkpt>
      <trkpt lat="32.05257112005732" lon="118.8036874110014">
        <ele>9.383747722953558</ele>
        <time>2026-08-02T10:53:10Z</time>
      </trkpt>
      <trkpt lat="32.05250303875965" lon="118.8036493423095">
        <ele>10.797360088676214</ele>
        <time>2026-08-02T10:53:13Z</time>
      </trkpt>
      <trkpt lat="32.052272902220196" lon="118.80360026685044">
        <ele>10.733944561332464</ele>
        <time>2026-08-02T10:53:22Z</time>
      </trkpt>
      <trkpt lat="32.05212395075608" lon="118.8036473732031">
        <ele>11.24654832109809</ele>
        <time>2026-08-02T10:53:28Z</time>
      </trkpt>
      <trkpt lat="32.05204400774899" lon="118.80369046535974">
        <ele>10.662609722465277</ele>
        <time>2026-08-02T10:53:31Z</time>
      </trkpt>
      <trkpt lat="32.05190234717902" lon="118.8039038989351">
        <ele>10.712811138480902</ele>
        <time>2026-08-02T10:53:40Z</time>
      </trkpt>
      <trkpt lat="32.05188547247016" lon="118.80397804677">
        <ele>10.630901958793402</ele>
        <time>2026-08-02T10:53:43Z</time>
      </trkpt>
      <trkpt lat="32.05189059925692" lon="118.80405018871568">
        <ele>11.970532085746527</ele>
        <time>2026-08-02T10:53:46Z</time>
      </trkpt>
      <trkpt lat="32.05197700814664" lon="118.8042736224085">
        <ele>10.023174908012152</ele>
        <time>2026-08-02T10:53:55Z</time>
      </trkpt>
      <trkpt lat="32.05202915622281" lon="118.8043517722795">
        <ele>10.115658428519964</ele>
        <time>2026-08-02T10:53:58Z</time>
      </trkpt>
      <trkpt lat="32.05233143196158" lon="118.80447098065407">
        <ele>10.744518902152777</ele>
        <time>2026-08-02T10:54:10Z</time>
      </trkpt>
      <trkpt lat="32.05258964897176" lon="118.80456213766618">
        <ele>10.70224442705512</ele>
        <time>2026-08-02T10:54:22Z</time>
      </trkpt>
      <trkpt lat="32.0529228845501" lon="118.80465428990638">
        <ele>10.797360088676214</ele>
        <time>2026-08-02T10:54:37Z</time>
      </trkpt>
      <trkpt lat="32.053203971727115" lon="118.80466829191803">
        <ele>11.64553513750434</ele>
        <time>2026-08-02T10:54:49Z</time>
      </trkpt>
      <trkpt lat="32.05328195050447" lon="118.80464624100902">
        <ele>10.168499615043402</ele>
        <time>2026-08-02T10:54:52Z</time>
      </trkpt>
      <trkpt lat="32.05336186484223" lon="118.80458711639004">
        <ele>11.016674663871527</ele>
        <time>2026-08-02T10:54:55Z</time>
      </trkpt>
      <trkpt lat="32.05342069919619" lon="118.80448490836568">
        <ele>11.027241375297308</ele>
        <time>2026-08-02T10:54:58Z</time>
      </trkpt>
      <trkpt lat="32.053440516256" lon="118.8043776941726">
        <ele>4.580090191215277</ele>
        <time>2026-08-02T10:55:01Z</time>
      </trkpt>
      <trkpt lat="32.05343727064254" lon="118.80423741687859">
        <ele>10.924191143363714</ele>
        <time>2026-08-02T10:55:04Z</time>
      </trkpt>
      <trkpt lat="32.05327685414342" lon="118.80401900000145">
        <ele>10.231915142387152</ele>
        <time>2026-08-02T10:55:13Z</time>
      </trkpt>
      <trkpt lat="32.05308153857556" lon="118.80386270956305">
        <ele>10.984966900199652</ele>
        <time>2026-08-02T10:55:22Z</time>
      </trkpt>
      <trkpt lat="32.05292853551869" lon="118.80383901167441">
        <ele>10.451222088187933</ele>
        <time>2026-08-02T10:55:28Z</time>
      </trkpt>
      <trkpt lat="32.052808383621894" lon="118.80380862800939">
        <ele>10.567486431449652</ele>
        <time>2026-08-02T10:55:38Z</time>
      </trkpt>
      <trkpt lat="32.05250005897366" lon="118.80366136624868">
        <ele>11.016674663871527</ele>
        <time>2026-08-02T10:55:50Z</time>
      </trkpt>
      <trkpt lat="32.05230189999087" lon="118.80359525432982">
        <ele>10.369312908500433</ele>
        <time>2026-08-02T10:55:59Z</time>
      </trkpt>
      <trkpt lat="32.05223387264975" lon="118.80358824678416">
        <ele>11.280895855277777</ele>
        <time>2026-08-02T10:56:02Z</time>
      </trkpt>
      <trkpt lat="32.05215788874681" lon="118.80360729121878">
        <ele>10.89248337969184</ele>
        <time>2026-08-02T10:56:05Z</time>
      </trkpt>
      <trkpt lat="32.052085949240045" lon="118.80365138458338">
        <ele>10.546345379203558</ele>
        <time>2026-08-02T10:56:08Z</time>
      </trkpt>
      <trkpt lat="32.05196815623122" lon="118.80378565981009">
        <ele>10.90305009111762</ele>
        <time>2026-08-02T10:56:14Z</time>
      </trkpt>
      <trkpt lat="32.05190140799942" lon="118.8039389681987">
        <ele>10.472363140434027</ele>
        <time>2026-08-02T10:56:20Z</time>
      </trkpt>
      <trkpt lat="32.051923781286405" lon="118.80415038360823">
        <ele>11.058949138969183</ele>
        <time>2026-08-02T10:56:26Z</time>
      </trkpt>
      <trkpt lat="32.05195494202748" lon="118.80423855506811">
        <ele>11.17520585283637</ele>
        <time>2026-08-02T10:56:29Z</time>
      </trkpt>
      <trkpt lat="32.05200007625578" lon="118.80430969165944">
        <ele>10.89248337969184</ele>
        <time>2026-08-02T10:56:32Z</time>
      </trkpt>
      <trkpt lat="32.05211923931733" lon="118.80438783541821">
        <ele>10.630901958793402</ele>
        <time>2026-08-02T10:56:38Z</time>
      </trkpt>
      <trkpt lat="32.05237339052837" lon="118.80444191922906">
        <ele>11.206913616508245</ele>
        <time>2026-08-02T10:56:50Z</time>
      </trkpt>
      <trkpt lat="32.05262264756306" lon="118.80455712470017">
        <ele>5.520741131156683</ele>
        <time>2026-08-02T10:57:02Z</time>
      </trkpt>
      <trkpt lat="32.05271167441596" lon="118.80456112446753">
        <ele>11.006100323051214</ele>
        <time>2026-08-02T10:57:08Z</time>
      </trkpt>
      <trkpt lat="32.05302495992061" lon="118.80468434018444">
        <ele>10.723377849906683</ele>
        <time>2026-08-02T10:57:21Z</time>
      </trkpt>
      <trkpt lat="32.05319001774403" lon="118.80469634888564">
        <ele>11.38394608721137</ele>
        <time>2026-08-02T10:57:27Z</time>
      </trkpt>
      <trkpt lat="32.05334087945422" lon="118.80459814017912">
        <ele>11.479069378226995</ele>
        <time>2026-08-02T10:57:33Z</time>
      </trkpt>
      <trkpt lat="32.05340570987249" lon="118.80449292562862">
        <ele>11.069515850394964</ele>
        <time>2026-08-02T10:57:36Z</time>
      </trkpt>
      <trkpt lat="32.053447461803124" lon="118.80434563005689">
        <ele>10.189640667289495</ele>
        <time>2026-08-02T10:57:42Z</time>
      </trkpt>
      <trkpt lat="32.05343014147232" lon="118.80416427291482">
        <ele>10.818501140922308</ele>
        <time>2026-08-02T10:57:48Z</time>
      </trkpt>
      <trkpt lat="32.05332182053462" lon="118.80399394642134">
        <ele>11.489636089652777</ele>
        <time>2026-08-02T10:57:54Z</time>
      </trkpt>
      <trkpt lat="32.05319163805729" lon="118.80390578440944">
        <ele>11.17520585283637</ele>
        <time>2026-08-02T10:58:00Z</time>
      </trkpt>
      <trkpt lat="32.05296649726104" lon="118.80385370235565">
        <ele>8.75488343462348</ele>
        <time>2026-08-02T10:58:09Z</time>
      </trkpt>
      <trkpt lat="32.05270320867711" lon="118.80372146594227">
        <ele>10.90305009111762</ele>
        <time>2026-08-02T10:58:21Z</time>
      </trkpt>
      <trkpt lat="32.0524440395258" lon="118.80365736350808">
        <ele>11.415653850883245</ele>
        <time>2026-08-02T10:58:33Z</time>
      </trkpt>
      <trkpt lat="32.05231191787592" lon="118.80360427114981">
        <ele>11.17520585283637</ele>
        <time>2026-08-02T10:58:39Z</time>
      </trkpt>
      <trkpt lat="32.05224388879467" lon="118.80359626163212">
        <ele>11.270329143851995</ele>
        <time>2026-08-02T10:58:42Z</time>
      </trkpt>
      <trkpt lat="32.05217690168272" lon="118.80361229932824">
        <ele>12.284962322562933</ele>
        <time>2026-08-02T10:58:48Z</time>
      </trkpt>
      <trkpt lat="32.052103963696716" lon="118.8036573947604">
        <ele>7.59228577837348</ele>
        <time>2026-08-02T10:58:51Z</time>
      </trkpt>
      <trkpt lat="32.051928208290555" lon="118.80382073259028">
        <ele>8.776024486869574</ele>
        <time>2026-08-02T10:58:57Z</time>
      </trkpt>
      <trkpt lat="32.05190533215434" lon="118.80389488087562">
        <ele>11.23862138018012</ele>
        <time>2026-08-02T10:59:00Z</time>
      </trkpt>
      <trkpt lat="32.05190677924079" lon="118.80415138715072">
        <ele>11.740650799125433</ele>
        <time>2026-08-02T10:59:09Z</time>
      </trkpt>
      <trkpt lat="32.05194494853973" lon="118.80424356589485">
        <ele>11.44736161455512</ele>
        <time>2026-08-02T10:59:12Z</time>
      </trkpt>
      <trkpt lat="32.05205517077438" lon="118.80435677980682">
        <ele>11.531918194144964</ele>
        <time>2026-08-02T10:59:18Z</time>
      </trkpt>
      <trkpt lat="32.05232337762652" lon="118.80444092183944">
        <ele>11.563618328422308</ele>
        <time>2026-08-02T10:59:30Z</time>
      </trkpt>
      <trkpt lat="32.052593604285484" lon="118.80453608564997">
        <ele>12.179272320121527</ele>
        <time>2026-08-02T10:59:42Z</time>
      </trkpt>
      <trkpt lat="32.05288383200109" lon="118.80462924379148">
        <ele>11.25711503252387</ele>
        <time>2026-08-02T10:59:54Z</time>
      </trkpt>
      <trkpt lat="32.05314905775627" lon="118.80472440834693">
        <ele>11.090656902641058</ele>
        <time>2026-08-02T11:00:06Z</time>
      </trkpt>
      <trkpt lat="32.05324403503951" lon="118.80469934988957">
        <ele>7.02948060259223</ele>
        <time>2026-08-02T11:00:09Z</time>
      </trkpt>
      <trkpt lat="32.053333895432516" lon="118.80460816069602">
        <ele>11.58211961016059</ele>
        <time>2026-08-02T11:00:12Z</time>
      </trkpt>
      <trkpt lat="32.05341767925569" lon="118.80447388680206">
        <ele>11.415653850883245</ele>
        <time>2026-08-02T11:00:15Z</time>
      </trkpt>
      <trkpt lat="32.05346240739677" lon="118.80431256323963">
        <ele>10.744518902152777</ele>
        <time>2026-08-02T11:00:21Z</time>
      </trkpt>
      <trkpt lat="32.053389027511294" lon="118.80410415789287">
        <ele>11.280895855277777</ele>
        <time>2026-08-02T11:00:30Z</time>
      </trkpt>
      <trkpt lat="32.05328375623248" lon="118.80396188664085">
        <ele>11.730084087699652</ele>
        <time>2026-08-02T11:00:36Z</time>
      </trkpt>
      <trkpt lat="32.053137551052984" lon="118.80386270441568">
        <ele>10.963825847953558</ele>
        <time>2026-08-02T11:00:42Z</time>
      </trkpt>
      <trkpt lat="32.05302246093835" lon="118.8038256419079">
        <ele>10.578053142875433</ele>
        <time>2026-08-02T11:00:49Z</time>
      </trkpt>
      <trkpt lat="32.05279940078394" lon="118.80381965055712">
        <ele>10.546345379203558</ele>
        <time>2026-08-02T11:01:01Z</time>
      </trkpt>
      <trkpt lat="32.05245515338593" lon="118.80372148873803">
        <ele>11.16463914141059</ele>
        <time>2026-08-02T11:01:16Z</time>
      </trkpt>
      <trkpt lat="32.05226004896661" lon="118.80368643761558">
        <ele>11.154072429984808</ele>
        <time>2026-08-02T11:01:25Z</time>
      </trkpt>
      <trkpt lat="32.05213213881768" lon="118.80375458354676">
        <ele>11.270329143851995</ele>
        <time>2026-08-02T11:01:31Z</time>
      </trkpt>
      <trkpt lat="32.05195415310772" lon="118.8037856610969">
        <ele>11.65610184893012</ele>
        <time>2026-08-02T11:01:37Z</time>
      </trkpt>
      <trkpt lat="32.051911336980524" lon="118.80389688427596">
        <ele>11.415653850883245</ele>
        <time>2026-08-02T11:01:40Z</time>
      </trkpt>
      <trkpt lat="32.051910521675595" lon="118.80400309390889">
        <ele>11.352238323539495</ele>
        <time>2026-08-02T11:01:43Z</time>
      </trkpt>
      <trkpt lat="32.0519297529217" lon="118.80413334939796">
        <ele>11.122364666312933</ele>
        <time>2026-08-02T11:01:46Z</time>
      </trkpt>
      <trkpt lat="32.05197798388331" lon="118.8042595945693">
        <ele>10.065449383109808</ele>
        <time>2026-08-02T11:01:49Z</time>
      </trkpt>
      <trkpt lat="32.052031098918974" lon="118.80431870665485">
        <ele>11.825207378715277</ele>
        <time>2026-08-02T11:01:52Z</time>
      </trkpt>
      <trkpt lat="32.05217327062152" lon="118.80439885227933">
        <ele>11.270329143851995</ele>
        <time>2026-08-02T11:01:58Z</time>
      </trkpt>
      <trkpt lat="32.052444465919955" lon="118.8044759801955">
        <ele>10.231915142387152</ele>
        <time>2026-08-02T11:02:10Z</time>
      </trkpt>
      <trkpt lat="32.052723699883295" lon="118.80457414919286">
        <ele>11.154072429984808</ele>
        <time>2026-08-02T11:02:25Z</time>
      </trkpt>
      <trkpt lat="32.05307995813738" lon="118.80467631922134">
        <ele>10.514637615531683</ele>
        <time>2026-08-02T11:02:40Z</time>
      </trkpt>
      <trkpt lat="32.053161967633926" lon="118.80467130174311">
        <ele>8.97683396562934</ele>
        <time>2026-08-02T11:02:43Z</time>
      </trkpt>
      <trkpt lat="32.053368812048646" lon="118.80455605415408">
        <ele>11.489636089652777</ele>
        <time>2026-08-02T11:02:52Z</time>
      </trkpt>
      <trkpt lat="32.05340174578121" lon="118.80451396769755">
        <ele>11.44736161455512</ele>
        <time>2026-08-02T11:02:55Z</time>
      </trkpt>
      <trkpt lat="32.05344157250512" lon="118.80440975756947">
        <ele>11.027241375297308</ele>
        <time>2026-08-02T11:02:58Z</time>
      </trkpt>
      <trkpt lat="32.05345534810599" lon="118.80427949846192">
        <ele>11.299397137016058</ele>
        <time>2026-08-02T11:03:05Z</time>
      </trkpt>
      <trkpt lat="32.05340199722175" lon="118.80408511909326">
        <ele>11.090656902641058</ele>
        <time>2026-08-02T11:03:11Z</time>
      </trkpt>
      <trkpt lat="32.0533698713687" lon="118.80401698749746">
        <ele>10.28476395830512</ele>
        <time>2026-08-02T11:03:14Z</time>
      </trkpt>
      <trkpt lat="32.05331075177923" lon="118.80395587229725">
        <ele>11.288822796195745</ele>
        <time>2026-08-02T11:03:17Z</time>
      </trkpt>
      <trkpt lat="32.05304844756293" lon="118.80381461779642">
        <ele>10.977039959281683</ele>
        <time>2026-08-02T11:03:26Z</time>
      </trkpt>
      <trkpt lat="32.052910338409916" lon="118.8037695416409">
        <ele>9.66647019609809</ele>
        <time>2026-08-02T11:03:32Z</time>
      </trkpt>
      <trkpt lat="32.05285941764226" lon="118.80382164899147">
        <ele>11.016674663871527</ele>
        <time>2026-08-02T11:03:35Z</time>
      </trkpt>
      <trkpt lat="32.05251015172027" lon="118.80371346789867">
        <ele>9.362606670707464</ele>
        <time>2026-08-02T11:03:53Z</time>
      </trkpt>
      <trkpt lat="32.05228405605996" lon="118.80368743738201">
        <ele>10.76565232500434</ele>
        <time>2026-08-02T11:04:05Z</time>
      </trkpt>
      <trkpt lat="32.0521030731398" lon="118.80372051911989">
        <ele>10.253056194633245</ele>
        <time>2026-08-02T11:04:11Z</time>
      </trkpt>
      <trkpt lat="32.052030041184835" lon="118.80371150807325">
        <ele>11.154072429984808</ele>
        <time>2026-08-02T11:04:14Z</time>
      </trkpt>
      <trkpt lat="32.05195422454759" lon="118.80382674204888">
        <ele>9.206715252250433</ele>
        <time>2026-08-02T11:04:20Z</time>
      </trkpt>
      <trkpt lat="32.05192851522032" lon="118.80399708038877">
        <ele>9.447163250297308</ele>
        <time>2026-08-02T11:04:26Z</time>
      </trkpt>
      <trkpt lat="32.05193069549707" lon="118.80410028398173">
        <ele>10.599194195121527</ele>
        <time>2026-08-02T11:04:29Z</time>
      </trkpt>
      <trkpt lat="32.05195487384161" lon="118.80419947780204">
        <ele>10.044315960258245</ele>
        <time>2026-08-02T11:04:32Z</time>
      </trkpt>
      <trkpt lat="32.05199401543763" lon="118.80427562481026">
        <ele>10.136791851371527</ele>
        <time>2026-08-02T11:04:35Z</time>
      </trkpt>
      <trkpt lat="32.05223029384071" lon="118.80440485894563">
        <ele>10.168499615043402</ele>
        <time>2026-08-02T11:04:50Z</time>
      </trkpt>
      <trkpt lat="32.05227926800173" lon="118.80438381277818">
        <ele>10.525211956351995</ele>
        <time>2026-08-02T11:04:53Z</time>
      </trkpt>
      <trkpt lat="32.05270158279334" lon="118.80451002408665">
        <ele>10.390453960746527</ele>
        <time>2026-08-02T11:05:08Z</time>
      </trkpt>
      <trkpt lat="32.05280168045223" lon="118.80455310030342">
        <ele>10.054882671684027</ele>
        <time>2026-08-02T11:05:11Z</time>
      </trkpt>
      <trkpt lat="32.052967910369254" lon="118.80466330366491">
        <ele>9.93862595781684</ele>
        <time>2026-08-02T11:05:20Z</time>
      </trkpt>
      <trkpt lat="32.05309898518409" lon="118.8046893433272">
        <ele>10.369312908500433</ele>
        <time>2026-08-02T11:05:26Z</time>
      </trkpt>
      <trkpt lat="32.053174981058724" lon="118.80467731247928">
        <ele>10.860775616019964</ele>
        <time>2026-08-02T11:05:29Z</time>
      </trkpt>
      <trkpt lat="32.05329587995255" lon="118.80460415623872">
        <ele>10.662609722465277</ele>
        <time>2026-08-02T11:05:32Z</time>
      </trkpt>
      <trkpt lat="32.053397671297155" lon="118.8044718846696">
        <ele>9.52114548906684</ele>
        <time>2026-08-02T11:05:38Z</time>
      </trkpt>
      <trkpt lat="32.05343252847944" lon="118.80438571077852">
        <ele>10.00204148516059</ele>
        <time>2026-08-02T11:05:41Z</time>
      </trkpt>
      <trkpt lat="32.05344538786396" lon="118.80430354695824">
        <ele>9.278057720512152</ele>
        <time>2026-08-02T11:05:44Z</time>
      </trkpt>
      <trkpt lat="32.05340208106779" lon="118.80413321410603">
        <ele>8.704682018607855</ele>
        <time>2026-08-02T11:05:50Z</time>
      </trkpt>
      <trkpt lat="32.05328174008539" lon="118.8039528690321">
        <ele>10.525211956351995</ele>
        <time>2026-08-02T11:05:59Z</time>
      </trkpt>
      <trkpt lat="32.05313554014812" lon="118.80385669274743">
        <ele>10.514637615531683</ele>
        <time>2026-08-02T11:06:05Z</time>
      </trkpt>
      <trkpt lat="32.05307056750546" lon="118.80388074613391">
        <ele>9.928051616996527</ele>
        <time>2026-08-02T11:06:12Z</time>
      </trkpt>
      <trkpt lat="32.05279637571986" lon="118.80380562318898">
        <ele>9.80386796221137</ele>
        <time>2026-08-02T11:06:27Z</time>
      </trkpt>
      <trkpt lat="32.05246016320704" lon="118.80372649814389">
        <ele>10.274189617484808</ele>
        <time>2026-08-02T11:06:42Z</time>
      </trkpt>
      <trkpt lat="32.052314108013974" lon="118.8037134859146">
        <ele>10.850208904594183</ele>
        <time>2026-08-02T11:06:48Z</time>
      </trkpt>
      <trkpt lat="32.052267121908606" lon="118.8037275178571">
        <ele>9.645329143851995</ele>
        <time>2026-08-02T11:06:51Z</time>
      </trkpt>
      <trkpt lat="32.05207895986016" lon="118.80365839903034">
        <ele>10.369312908500433</ele>
        <time>2026-08-02T11:06:54Z</time>
      </trkpt>
      <trkpt lat="32.0519640961145" lon="118.80375159306793">
        <ele>9.928051616996527</ele>
        <time>2026-08-02T11:07:00Z</time>
      </trkpt>
      <trkpt lat="32.05193119850428" lon="118.80381472046676">
        <ele>7.404682781547308</ele>
        <time>2026-08-02T11:07:03Z</time>
      </trkpt>
      <trkpt lat="32.05190660631881" lon="118.80405219120206">
        <ele>9.698177959769964</ele>
        <time>2026-08-02T11:07:12Z</time>
      </trkpt>
      <trkpt lat="32.05191975069055" lon="118.80413335031703">
        <ele>10.065449383109808</ele>
        <time>2026-08-02T11:07:15Z</time>
      </trkpt>
      <trkpt lat="32.0520681789254" lon="118.80435978456235">
        <ele>8.902851726859808</ele>
        <time>2026-08-02T11:07:24Z</time>
      </trkpt>
      <trkpt lat="32.052161231179156" lon="118.80437781172006">
        <ele>9.227848675101995</ele>
        <time>2026-08-02T11:07:30Z</time>
      </trkpt>
      <trkpt lat="32.05221021235038" lon="118.80436077349549">
        <ele>8.189438488334417</ele>
        <time>2026-08-02T11:07:33Z</time>
      </trkpt>
      <trkpt lat="32.0524463577702" lon="118.80441385695275">
        <ele>10.115658428519964</ele>
        <time>2026-08-02T11:07:42Z</time>
      </trkpt>
      <trkpt lat="32.05273467954291" lon="118.80456112235377">
        <ele>10.136791851371527</ele>
        <time>2026-08-02T11:07:51Z</time>
      </trkpt>
      <trkpt lat="32.053064935493424" lon="118.8046652987272">
        <ele>10.189640667289495</ele>
        <time>2026-08-02T11:08:06Z</time>
      </trkpt>
      <trkpt lat="32.05313896777369" lon="118.8046743098222">
        <ele>9.581913616508245</ele>
        <time>2026-08-02T11:08:09Z</time>
      </trkpt>
      <trkpt lat="32.05319895306727" lon="118.80465827249446">
        <ele>10.14736619219184</ele>
        <time>2026-08-02T11:08:12Z</time>
      </trkpt>
      <trkpt lat="32.05331584582819" lon="118.80458211068228">
        <ele>10.369312908500433</ele>
        <time>2026-08-02T11:08:18Z</time>
      </trkpt>
      <trkpt lat="32.053373750059855" lon="118.80451998218683">
        <ele>9.708744671195745</ele>
        <time>2026-08-02T11:08:21Z</time>
      </trkpt>
      <trkpt lat="32.05342349321391" lon="118.80436667391456">
        <ele>9.980900432914495</ele>
        <time>2026-08-02T11:08:27Z</time>
      </trkpt>
      <trkpt lat="32.0534363316301" lon="118.80427248633329">
        <ele>10.390453960746527</ele>
        <time>2026-08-02T11:08:30Z</time>
      </trkpt>
      <trkpt lat="32.053349887860506" lon="118.8040290130721">
        <ele>7.520943310111761</ele>
        <time>2026-08-02T11:08:39Z</time>
      </trkpt>
      <trkpt lat="32.053303739752586" lon="118.80394986107939">
        <ele>10.033741619437933</ele>
        <time>2026-08-02T11:08:42Z</time>
      </trkpt>
      <trkpt lat="32.05309549811818" lon="118.8038376588965">
        <ele>9.87521043047309</ele>
        <time>2026-08-02T11:08:51Z</time>
      </trkpt>
      <trkpt lat="32.052823289409595" lon="118.80375251608471">
        <ele>9.25955643877387</ele>
        <time>2026-08-02T11:09:03Z</time>
      </trkpt>
      <trkpt lat="32.05271522876487" lon="118.80373148457062">
        <ele>10.305897381156683</ele>
        <time>2026-08-02T11:09:10Z</time>
      </trkpt>
      <trkpt lat="32.052656253925804" lon="118.80375353340864">
        <ele>9.40488114580512</ele>
        <time>2026-08-02T11:09:13Z</time>
      </trkpt>
      <trkpt lat="32.05238909340224" lon="118.803695443511">
        <ele>9.88577714189887</ele>
        <time>2026-08-02T11:09:28Z</time>
      </trkpt>
      <trkpt lat="32.05232704476229" lon="118.80367540976097">
        <ele>10.34817948564887</ele>
        <time>2026-08-02T11:09:31Z</time>
      </trkpt>
      <trkpt lat="32.05211906277982" lon="118.80371250186556">
        <ele>10.07602372393012</ele>
        <time>2026-08-02T11:09:40Z</time>
      </trkpt>
      <trkpt lat="32.05196216534567" lon="118.80379167220647">
        <ele>8.871143963187933</ele>
        <time>2026-08-02T11:09:46Z</time>
      </trkpt>
      <trkpt lat="32.051912311049065" lon="118.80388185454694">
        <ele>10.242481853812933</ele>
        <time>2026-08-02T11:09:49Z</time>
      </trkpt>
      <trkpt lat="32.051903499171495" lon="118.80399107082138">
        <ele>9.761593487113714</ele>
        <time>2026-08-02T11:09:52Z</time>
      </trkpt>
      <trkpt lat="32.05194783033007" lon="118.8041754309093">
        <ele>9.864636089652777</ele>
        <time>2026-08-02T11:09:58Z</time>
      </trkpt>
      <trkpt lat="32.05198296751022" lon="118.8042495742922">
        <ele>7.573788311332464</ele>
        <time>2026-08-02T11:10:01Z</time>
      </trkpt>
      <trkpt lat="32.052083168269235" lon="118.8043517673167">
        <ele>7.457527782768011</ele>
        <time>2026-08-02T11:10:07Z</time>
      </trkpt>
      <trkpt lat="32.0523214017027" lon="118.80445494981139">
        <ele>10.274189617484808</ele>
        <time>2026-08-02T11:10:16Z</time>
      </trkpt>
      <trkpt lat="32.05241146031338" lon="118.8044769852136">
        <ele>10.630901958793402</ele>
        <time>2026-08-02T11:10:19Z</time>
      </trkpt>
      <trkpt lat="32.052489460186656" lon="118.80446695819266">
        <ele>9.94919266924262</ele>
        <time>2026-08-02T11:10:22Z</time>
      </trkpt>
      <trkpt lat="32.052750695381924" lon="118.80456813479049">
        <ele>9.320332195609808</ele>
        <time>2026-08-02T11:10:34Z</time>
      </trkpt>
      <trkpt lat="32.05294483857926" lon="118.80462523023459">
        <ele>9.896343853324652</ele>
        <time>2026-08-02T11:10:43Z</time>
      </trkpt>
      <trkpt lat="32.053027929003456" lon="118.80466630411587">
        <ele>10.419514324516058</ele>
        <time>2026-08-02T11:10:46Z</time>
      </trkpt>
      <trkpt lat="32.053230921600225" lon="118.80463622581642">
        <ele>4.085987713187933</ele>
        <time>2026-08-02T11:10:52Z</time>
      </trkpt>
      <trkpt lat="32.053375724217986" lon="118.80450495221423">
        <ele>4.202248241752386</ele>
        <time>2026-08-02T11:11:01Z</time>
      </trkpt>
      <trkpt lat="32.05343742457577" lon="118.80432559131411">
        <ele>10.440655376762152</ele>
        <time>2026-08-02T11:11:07Z</time>
      </trkpt>
      <trkpt lat="32.05341211649328" lon="118.80415225080648">
        <ele>9.25955643877387</ele>
        <time>2026-08-02T11:11:13Z</time>
      </trkpt>
      <trkpt lat="32.05328071544029" lon="118.80393884144932">
        <ele>8.765453960746527</ele>
        <time>2026-08-02T11:11:23Z</time>
      </trkpt>
      <trkpt lat="32.05315756073883" lon="118.8038657085036">
        <ele>9.782726909965277</ele>
        <time>2026-08-02T11:11:29Z</time>
      </trkpt>
      <trkpt lat="32.05304248108003" lon="118.80383465784325">
        <ele>10.179073955863714</ele>
        <time>2026-08-02T11:11:35Z</time>
      </trkpt>
      <trkpt lat="32.05282441681219" lon="118.80382566010756">
        <ele>9.854069378226995</ele>
        <time>2026-08-02T11:11:47Z</time>
      </trkpt>
      <trkpt lat="32.05267628625294" lon="118.80376956314974">
        <ele>10.054882671684027</ele>
        <time>2026-08-02T11:11:53Z</time>
      </trkpt>
      <trkpt lat="32.05257108176523" lon="118.80366536761073">
        <ele>9.906918194144964</ele>
        <time>2026-08-02T11:11:56Z</time>
      </trkpt>
      <trkpt lat="32.05230390913391" lon="118.80360026400092">
        <ele>9.33089890703559</ele>
        <time>2026-08-02T11:12:08Z</time>
      </trkpt>
      <trkpt lat="32.052112939601905" lon="118.80364236435535">
        <ele>9.581913616508245</ele>
        <time>2026-08-02T11:12:17Z</time>
      </trkpt>
      <trkpt lat="32.052042988378496" lon="118.80367944375489">
        <ele>9.67703690752387</ele>
        <time>2026-08-02T11:12:20Z</time>
      </trkpt>
      <trkpt lat="32.05193016169061" lon="118.80379367909617">
        <ele>8.147160198539495</ele>
        <time>2026-08-02T11:12:26Z</time>
      </trkpt>
      <trkpt lat="32.05190747214419" lon="118.80397503881623">
        <ele>9.814434673637152</ele>
        <time>2026-08-02T11:12:35Z</time>
      </trkpt>
      <trkpt lat="32.05194175210481" lon="118.80413134433552">
        <ele>9.341473247855902</ele>
        <time>2026-08-02T11:12:41Z</time>
      </trkpt>
      <trkpt lat="32.052128206312894" lon="118.80436779491626">
        <ele>9.581913616508245</ele>
        <time>2026-08-02T11:12:50Z</time>
      </trkpt>
      <trkpt lat="32.05232637128972" lon="118.80443691362483">
        <ele>9.67703690752387</ele>
        <time>2026-08-02T11:12:59Z</time>
      </trkpt>
      <trkpt lat="32.05254348273808" lon="118.80447296514124">
        <ele>9.67703690752387</ele>
        <time>2026-08-02T11:13:08Z</time>
      </trkpt>
      <trkpt lat="32.05268964847477" lon="118.80454910265037">
        <ele>10.567486431449652</ele>
        <time>2026-08-02T11:13:14Z</time>
      </trkpt>
      <trkpt lat="32.05297686325176" lon="118.80463524717156">
        <ele>10.136791851371527</ele>
        <time>2026-08-02T11:13:26Z</time>
      </trkpt>
      <trkpt lat="32.053130951953754" lon="118.80466629465008">
        <ele>9.592487957328558</ele>
        <time>2026-08-02T11:13:32Z</time>
      </trkpt>
      <trkpt lat="32.05326493092878" lon="118.80463722467965">
        <ele>8.913422252982855</ele>
        <time>2026-08-02T11:13:38Z</time>
      </trkpt>
      <trkpt lat="32.05334677734756" lon="118.80453902240588">
        <ele>9.854069378226995</ele>
        <time>2026-08-02T11:13:44Z</time>
      </trkpt>
      <trkpt lat="32.053435515142375" lon="118.80437769463214">
        <ele>9.761593487113714</ele>
        <time>2026-08-02T11:13:50Z</time>
      </trkpt>
      <trkpt lat="32.05345136120927" lon="118.80428751468762">
        <ele>9.825009014457464</ele>
        <time>2026-08-02T11:13:53Z</time>
      </trkpt>
      <trkpt lat="32.053391974038036" lon="118.80407309626509">
        <ele>9.854069378226995</ele>
        <time>2026-08-02T11:14:02Z</time>
      </trkpt>
      <trkpt lat="32.05333180356645" lon="118.8039829237501">
        <ele>9.415455486625433</ele>
        <time>2026-08-02T11:14:05Z</time>
      </trkpt>
      <trkpt lat="32.053210621364784" lon="118.80389375895093">
        <ele>9.39431443437934</ele>
        <time>2026-08-02T11:14:11Z</time>
      </trkpt>
      <trkpt lat="32.05312455164305" lon="118.80386470956144">
        <ele>9.373173382133245</ele>
        <time>2026-08-02T11:14:18Z</time>
      </trkpt>
      <trkpt lat="32.05296447764186" lon="118.8038426808128">
        <ele>10.136791851371527</ele>
        <time>2026-08-02T11:14:24Z</time>
      </trkpt>
      <trkpt lat="32.05270220845419" lon="118.80372146603419">
        <ele>9.751019146293402</ele>
        <time>2026-08-02T11:14:39Z</time>
      </trkpt>
      <trkpt lat="32.05244593210303" lon="118.8035952410933">
        <ele>9.80386796221137</ele>
        <time>2026-08-02T11:14:51Z</time>
      </trkpt>
      <trkpt lat="32.05222582217187" lon="118.8035601923429">
        <ele>6.704479839652777</ele>
        <time>2026-08-02T11:15:00Z</time>
      </trkpt>
      <trkpt lat="32.052160854628106" lon="118.80358725152348">
        <ele>9.447163250297308</ele>
        <time>2026-08-02T11:15:03Z</time>
      </trkpt>
      <trkpt lat="32.0519881432726" lon="118.80377563823161">
        <ele>8.683544781059027</ele>
        <time>2026-08-02T11:15:09Z</time>
      </trkpt>
      <trkpt lat="32.051925329641946" lon="118.8038908711339">
        <ele>9.79330125078559</ele>
        <time>2026-08-02T11:15:12Z</time>
      </trkpt>
      <trkpt lat="32.05191343858835" lon="118.80395499872381">
        <ele>9.843502666801214</ele>
        <time>2026-08-02T11:15:15Z</time>
      </trkpt>
      <trkpt lat="32.05192362931844" lon="118.80406321140379">
        <ele>6.96606507524848</ele>
        <time>2026-08-02T11:15:18Z</time>
      </trkpt>
      <trkpt lat="32.051990946561965" lon="118.80423654779655">
        <ele>9.270130779594183</ele>
        <time>2026-08-02T11:15:24Z</time>
      </trkpt>
      <trkpt lat="32.05203604579843" lon="118.80428764473659">
        <ele>8.065251018851995</ele>
        <time>2026-08-02T11:15:27Z</time>
      </trkpt>
      <trkpt lat="32.0522612814948" lon="118.80439383427165">
        <ele>9.634762432426214</ele>
        <time>2026-08-02T11:15:39Z</time>
      </trkpt>
      <trkpt lat="32.05241536836942" lon="118.80442387964581">
        <ele>9.478871013969183</ele>
        <time>2026-08-02T11:15:45Z</time>
      </trkpt>
      <trkpt lat="32.05271964639739" lon="118.80454408996107">
        <ele>9.478871013969183</ele>
        <time>2026-08-02T11:16:00Z</time>
      </trkpt>
      <trkpt lat="32.05293078109004" lon="118.80459416991016">
        <ele>9.33089890703559</ele>
        <time>2026-08-02T11:16:09Z</time>
      </trkpt>
      <trkpt lat="32.053066918393576" lon="118.80465527866083">
        <ele>9.751019146293402</ele>
        <time>2026-08-02T11:16:15Z</time>
      </trkpt>
      <trkpt lat="32.053202915362306" lon="118.80463622838968">
        <ele>9.02703919634223</ele>
        <time>2026-08-02T11:16:21Z</time>
      </trkpt>
      <trkpt lat="32.05332281933387" lon="118.80456607824858">
        <ele>8.472160961478949</ele>
        <time>2026-08-02T11:16:27Z</time>
      </trkpt>
      <trkpt lat="32.053407626227724" lon="118.80444483015397">
        <ele>10.179073955863714</ele>
        <time>2026-08-02T11:16:33Z</time>
      </trkpt>
      <trkpt lat="32.05342951905788" lon="118.80438070113496">
        <ele>9.66647019609809</ele>
        <time>2026-08-02T11:16:36Z</time>
      </trkpt>
      <trkpt lat="32.053431204617084" lon="118.80420034412522">
        <ele>9.761593487113714</ele>
        <time>2026-08-02T11:16:42Z</time>
      </trkpt>
      <trkpt lat="32.053260693542114" lon="118.80392882352197">
        <ele>8.60955872759223</ele>
        <time>2026-08-02T11:16:54Z</time>
      </trkpt>
      <trkpt lat="32.05314956244307" lon="118.80386771318986">
        <ele>9.39431443437934</ele>
        <time>2026-08-02T11:17:00Z</time>
      </trkpt>
      <trkpt lat="32.05300352119494" lon="118.80386271673258">
        <ele>8.902851726859808</ele>
        <time>2026-08-02T11:17:06Z</time>
      </trkpt>
      <trkpt lat="32.052927432797226" lon="118.80382164274108">
        <ele>9.592487957328558</ele>
        <time>2026-08-02T11:17:16Z</time>
      </trkpt>
      <trkpt lat="32.052885460035995" lon="118.80384268807427">
        <ele>9.132729198783636</ele>
        <time>2026-08-02T11:17:19Z</time>
      </trkpt>
      <trkpt lat="32.05259121157002" lon="118.80373750780811">
        <ele>9.058746960014105</ele>
        <time>2026-08-02T11:17:28Z</time>
      </trkpt>
      <trkpt lat="32.05233000540289" lon="118.80365236412715">
        <ele>7.573788311332464</ele>
        <time>2026-08-02T11:17:40Z</time>
      </trkpt>
      <trkpt lat="32.05218090605419" lon="118.80361430290304">
        <ele>8.065251018851995</ele>
        <time>2026-08-02T11:17:43Z</time>
      </trkpt>
      <trkpt lat="32.052059966063645" lon="118.80366441260902">
        <ele>10.253056194633245</ele>
        <time>2026-08-02T11:17:46Z</time>
      </trkpt>
      <trkpt lat="32.05196913729168" lon="118.80377463800409">
        <ele>10.136791851371527</ele>
        <time>2026-08-02T11:17:49Z</time>
      </trkpt>
      <trkpt lat="32.05192030934698" lon="118.8038798498603">
        <ele>9.24898972734809</ele>
        <time>2026-08-02T11:17:52Z</time>
      </trkpt>
      <trkpt lat="32.05191652999552" lon="118.80400710126824">
        <ele>9.320332195609808</ele>
        <time>2026-08-02T11:17:55Z</time>
      </trkpt>
      <trkpt lat="32.05193271865116" lon="118.80411330952963">
        <ele>7.581715252250433</ele>
        <time>2026-08-02T11:17:58Z</time>
      </trkpt>
      <trkpt lat="32.05197390430339" lon="118.80421450577063">
        <ele>9.751019146293402</ele>
        <time>2026-08-02T11:18:01Z</time>
      </trkpt>
      <trkpt lat="32.05205310032735" lon="118.80431670066741">
        <ele>7.980698253959417</ele>
        <time>2026-08-02T11:18:04Z</time>
      </trkpt>
      <trkpt lat="32.05213520087261" lon="118.80436378633874">
        <ele>7.17480530962348</ele>
        <time>2026-08-02T11:18:07Z</time>
      </trkpt>
      <trkpt lat="32.05239338272817" lon="118.80443490349798">
        <ele>9.761593487113714</ele>
        <time>2026-08-02T11:18:19Z</time>
      </trkpt>
      <trkpt lat="32.05266764357048" lon="118.8045491046722">
        <ele>5.74005189165473</ele>
        <time>2026-08-02T11:18:31Z</time>
      </trkpt>
      <trkpt lat="32.05287678133114" lon="118.80460118878368">
        <ele>9.571346905082464</ele>
        <time>2026-08-02T11:18:40Z</time>
      </trkpt>
      <trkpt lat="32.053016916024745" lon="118.80466029319696">
        <ele>9.447163250297308</ele>
        <time>2026-08-02T11:18:46Z</time>
      </trkpt>
      <trkpt lat="32.0531489559642" lon="118.80466629299586">
        <ele>9.66647019609809</ele>
        <time>2026-08-02T11:18:52Z</time>
      </trkpt>
      <trkpt lat="32.053263871070264" lon="118.80460315719225">
        <ele>9.843502666801214</ele>
        <time>2026-08-02T11:18:58Z</time>
      </trkpt>
      <trkpt lat="32.05339959642296" lon="118.80442879913383">
        <ele>9.291264202445745</ele>
        <time>2026-08-02T11:19:07Z</time>
      </trkpt>
      <trkpt lat="32.05344837978455" lon="118.80429853676983">
        <ele>8.733746197074652</ele>
        <time>2026-08-02T11:19:10Z</time>
      </trkpt>
      <trkpt lat="32.053448227633275" lon="118.80421136435373">
        <ele>9.320332195609808</ele>
        <time>2026-08-02T11:19:13Z</time>
      </trkpt>
      <trkpt lat="32.05336887114595" lon="118.80401698758938">
        <ele>7.864437725394964</ele>
        <time>2026-08-02T11:19:22Z</time>
      </trkpt>
      <trkpt lat="32.05325867914337" lon="118.80392080789446">
        <ele>9.164436962455511</ele>
        <time>2026-08-02T11:19:29Z</time>
      </trkpt>
      <trkpt lat="32.05304757109825" lon="118.80388575812665">
        <ele>0.6642424128949642</ele>
        <time>2026-08-02T11:19:41Z</time>
      </trkpt>
      <trkpt lat="32.05277633815845" lon="118.80378658751582">
        <ele>9.270130779594183</ele>
        <time>2026-08-02T11:19:53Z</time>
      </trkpt>
      <trkpt lat="32.052481082584364" lon="118.80367739955008">
        <ele>9.53171220049262</ele>
        <time>2026-08-02T11:20:02Z</time>
      </trkpt>
      <trkpt lat="32.05236797733622" lon="118.80363131922803">
        <ele>9.917484905570745</ele>
        <time>2026-08-02T11:20:05Z</time>
      </trkpt>
      <trkpt lat="32.05227393375548" lon="118.80361830223974">
        <ele>9.415455486625433</ele>
        <time>2026-08-02T11:20:08Z</time>
      </trkpt>
      <trkpt lat="32.052135981276734" lon="118.80366340365119">
        <ele>9.40488114580512</ele>
        <time>2026-08-02T11:20:14Z</time>
      </trkpt>
      <trkpt lat="32.05197820202025" lon="118.8038107082486">
        <ele>9.46829667314887</ele>
        <time>2026-08-02T11:20:23Z</time>
      </trkpt>
      <trkpt lat="32.05192343907495" lon="118.80395399582781">
        <ele>9.206715252250433</ele>
        <time>2026-08-02T11:20:29Z</time>
      </trkpt>
      <trkpt lat="32.05192378827604" lon="118.80415439152864">
        <ele>8.807728435844183</ele>
        <time>2026-08-02T11:20:35Z</time>
      </trkpt>
      <trkpt lat="32.051982995492665" lon="118.80426560600108">
        <ele>8.51443925127387</ele>
        <time>2026-08-02T11:20:38Z</time>
      </trkpt>
      <trkpt lat="32.05209814886349" lon="118.80433874015633">
        <ele>8.995331432670355</ele>
        <time>2026-08-02T11:20:44Z</time>
      </trkpt>
      <trkpt lat="32.05223424220976" lon="118.80437479905994">
        <ele>9.164436962455511</ele>
        <time>2026-08-02T11:20:50Z</time>
      </trkpt>
      <trkpt lat="32.05255757347385" lon="118.80452306313816">
        <ele>8.683544781059027</ele>
        <time>2026-08-02T11:21:09Z</time>
      </trkpt>
      <trkpt lat="32.05283274697375" lon="118.80458716500648">
        <ele>7.906716015189886</ele>
        <time>2026-08-02T11:21:21Z</time>
      </trkpt>
      <trkpt lat="32.05303390402251" lon="118.80465127374097">
        <ele>9.383747722953558</ele>
        <time>2026-08-02T11:21:30Z</time>
      </trkpt>
      <trkpt lat="32.053170924021515" lon="118.80464524922209">
        <ele>9.143299724906683</ele>
        <time>2026-08-02T11:21:36Z</time>
      </trkpt>
      <trkpt lat="32.053307826512196" lon="118.80457209154804">
        <ele>4.484970714896917</ele>
        <time>2026-08-02T11:21:42Z</time>
      </trkpt>
      <trkpt lat="32.05341866546327" lon="118.80446587082821">
        <ele>8.81829896196723</ele>
        <time>2026-08-02T11:21:48Z</time>
      </trkpt>
      <trkpt lat="32.05344957428691" lon="118.80440975683422">
        <ele>9.500004436820745</ele>
        <time>2026-08-02T11:21:51Z</time>
      </trkpt>
      <trkpt lat="32.05347438207631" lon="118.80429653041521">
        <ele>9.122162487357855</ele>
        <time>2026-08-02T11:21:54Z</time>
      </trkpt>
      <trkpt lat="32.05346910996798" lon="118.80414122378697">
        <ele>9.037609722465277</ele>
        <time>2026-08-02T11:22:00Z</time>
      </trkpt>
      <trkpt lat="32.05338284284814" lon="118.80399895070245">
        <ele>9.101021435111761</ele>
        <time>2026-08-02T11:22:06Z</time>
      </trkpt>
      <trkpt lat="32.05326863428587" lon="118.80389375361973">
        <ele>9.122162487357855</ele>
        <time>2026-08-02T11:22:12Z</time>
      </trkpt>
      <trkpt lat="32.05311752044968" lon="118.80384767662495">
        <ele>9.309765484184027</ele>
        <time>2026-08-02T11:22:18Z</time>
      </trkpt>
      <trkpt lat="32.05291546672195" lon="118.80384268531675">
        <ele>8.588421490043402</ele>
        <time>2026-08-02T11:22:27Z</time>
      </trkpt>
      <trkpt lat="32.05274928684909" lon="118.80376053867576">
        <ele>9.016468670219183</ele>
        <time>2026-08-02T11:22:33Z</time>
      </trkpt>
      <trkpt lat="32.05268127517457" lon="118.8037625488736">
        <ele>9.309765484184027</ele>
        <time>2026-08-02T11:22:37Z</time>
      </trkpt>
      <trkpt lat="32.05260112152365" lon="118.80368440232645">
        <ele>8.432526256889105</ele>
        <time>2026-08-02T11:22:40Z</time>
      </trkpt>
      <trkpt lat="32.05238697287395" lon="118.80362630762401">
        <ele>8.94513001665473</ele>
        <time>2026-08-02T11:22:49Z</time>
      </trkpt>
      <trkpt lat="32.05224192487879" lon="118.80361730320985">
        <ele>8.221146252006292</ele>
        <time>2026-08-02T11:22:55Z</time>
      </trkpt>
      <trkpt lat="32.052102973915545" lon="118.80366340668448">
        <ele>8.472160961478949</ele>
        <time>2026-08-02T11:23:01Z</time>
      </trkpt>
      <trkpt lat="32.05204702234475" lon="118.80369848086471">
        <ele>8.651837017387152</ele>
        <time>2026-08-02T11:23:04Z</time>
      </trkpt>
      <trkpt lat="32.05194823540843" lon="118.80383375642421">
        <ele>7.280495312064886</ele>
        <time>2026-08-02T11:23:10Z</time>
      </trkpt>
      <trkpt lat="32.05191535531119" lon="118.80390690366845">
        <ele>9.991467144340277</ele>
        <time>2026-08-02T11:23:13Z</time>
      </trkpt>
      <trkpt lat="32.051910652611554" lon="118.80407824228021">
        <ele>7.404682781547308</ele>
        <time>2026-08-02T11:23:19Z</time>
      </trkpt>
      <trkpt lat="32.05201400765578" lon="118.80426860909789">
        <ele>8.902851726859808</ele>
        <time>2026-08-02T11:23:28Z</time>
      </trkpt>
      <trkpt lat="32.05214120921271" lon="118.80436779372153">
        <ele>8.67297425493598</ele>
        <time>2026-08-02T11:23:37Z</time>
      </trkpt>
      <trkpt lat="32.05229425384093" lon="118.80437379156201">
        <ele>8.588421490043402</ele>
        <time>2026-08-02T11:23:46Z</time>
      </trkpt>
      <trkpt lat="32.052424358117925" lon="118.80441686492767">
        <ele>11.489636089652777</ele>
        <time>2026-08-02T11:23:52Z</time>
      </trkpt>
      <trkpt lat="32.05254341267183" lon="118.80443288574317">
        <ele>9.111591961234808</ele>
        <time>2026-08-02T11:23:58Z</time>
      </trkpt>
      <trkpt lat="32.05281869475993" lon="118.80455911066069">
        <ele>8.210575725883245</ele>
        <time>2026-08-02T11:24:10Z</time>
      </trkpt>
      <trkpt lat="32.053096882974586" lon="118.8046312281921">
        <ele>9.426022198051214</ele>
        <time>2026-08-02T11:24:22Z</time>
      </trkpt>
      <trkpt lat="32.053166886292246" lon="118.80462420784475">
        <ele>8.316265728324652</ele>
        <time>2026-08-02T11:24:25Z</time>
      </trkpt>
      <trkpt lat="32.05328678326448" lon="118.80455004977082">
        <ele>9.008541729301214</ele>
        <time>2026-08-02T11:24:31Z</time>
      </trkpt>
      <trkpt lat="32.05335168557932" lon="118.80448591669266">
        <ele>8.987404491752386</ele>
        <time>2026-08-02T11:24:34Z</time>
      </trkpt>
      <trkpt lat="32.053434179065505" lon="118.80418531413763">
        <ele>8.744316723197699</ele>
        <time>2026-08-02T11:24:43Z</time>
      </trkpt>
      <trkpt lat="32.053426025272366" lon="118.80409814261625">
        <ele>8.934559490531683</ele>
        <time>2026-08-02T11:24:46Z</time>
      </trkpt>
      <trkpt lat="32.05331580523739" lon="118.80398593115294">
        <ele>8.567284252494574</ele>
        <time>2026-08-02T11:24:52Z</time>
      </trkpt>
      <trkpt lat="32.053131539256896" lon="118.80385669311511">
        <ele>8.567284252494574</ele>
        <time>2026-08-02T11:25:04Z</time>
      </trkpt>
      <trkpt lat="32.05283330557216" lon="118.80376053095462">
        <ele>8.94513001665473</ele>
        <time>2026-08-02T11:25:17Z</time>
      </trkpt>
      <trkpt lat="32.052695219082565" lon="118.8037284804894">
        <ele>8.45102372393012</ele>
        <time>2026-08-02T11:25:23Z</time>
      </trkpt>
      <trkpt lat="32.05240794972162" lon="118.80361027415238">
        <ele>8.054680492728949</ele>
        <time>2026-08-02T11:25:35Z</time>
      </trkpt>
      <trkpt lat="32.05223591310272" lon="118.80361129193379">
        <ele>8.295128490775824</ele>
        <time>2026-08-02T11:25:41Z</time>
      </trkpt>
      <trkpt lat="32.05204204560295" lon="118.80371250894315">
        <ele>8.40081849321723</ele>
        <time>2026-08-02T11:25:47Z</time>
      </trkpt>
      <trkpt lat="32.0519801606506" lon="118.80378666068123">
        <ele>8.390251781791449</ele>
        <time>2026-08-02T11:25:50Z</time>
      </trkpt>
      <trkpt lat="32.051947285733625" lon="118.80386281379495">
        <ele>1.1979795955121517</ele>
        <time>2026-08-02T11:25:53Z</time>
      </trkpt>
      <trkpt lat="32.051932446316755" lon="118.80395700093129">
        <ele>8.390251781791449</ele>
        <time>2026-08-02T11:25:56Z</time>
      </trkpt>
      <trkpt lat="32.05195474277583" lon="118.80412432928279">
        <ele>7.948990490287542</ele>
        <time>2026-08-02T11:26:02Z</time>
      </trkpt>
      <trkpt lat="32.05202503809654" lon="118.80428463980074">
        <ele>7.489235546439886</ele>
        <time>2026-08-02T11:26:08Z</time>
      </trkpt>
      <trkpt lat="32.05207412251012" lon="118.80432671856582">
        <ele>6.944927837699652</ele>
        <time>2026-08-02T11:26:11Z</time>
      </trkpt>
      <trkpt lat="32.05229628579905" lon="118.80439182708706">
        <ele>8.263420727103949</ele>
        <time>2026-08-02T11:26:20Z</time>
      </trkpt>
      <trkpt lat="32.05261257872545" lon="118.8045190501394">
        <ele>7.372975017875433</ele>
        <time>2026-08-02T11:26:35Z</time>
      </trkpt>
      <trkpt lat="32.05292677669138" lon="118.8045921663034">
        <ele>7.917282726615667</ele>
        <time>2026-08-02T11:26:50Z</time>
      </trkpt>
      <trkpt lat="32.05318786641559" lon="118.80461017808872">
        <ele>3.67907777056098</ele>
        <time>2026-08-02T11:26:59Z</time>
      </trkpt>
      <trkpt lat="32.05326586800832" lon="118.80460115303374">
        <ele>8.086388256400824</ele>
        <time>2026-08-02T11:27:02Z</time>
      </trkpt>
      <trkpt lat="32.05335178021417" lon="118.80454002393269">
        <ele>9.02703919634223</ele>
        <time>2026-08-02T11:27:05Z</time>
      </trkpt>
      <trkpt lat="32.05343354796085" lon="118.80439673251044">
        <ele>8.284561779350042</ele>
        <time>2026-08-02T11:27:11Z</time>
      </trkpt>
      <trkpt lat="32.0534452811676" lon="118.80424242605106">
        <ele>8.252854015678167</ele>
        <time>2026-08-02T11:27:17Z</time>
      </trkpt>
      <trkpt lat="32.05341501758249" lon="118.8040951376896">
        <ele>7.8565107844769955</ele>
        <time>2026-08-02T11:27:23Z</time>
      </trkpt>
      <trkpt lat="32.053344752374606" lon="118.80395186126451">
        <ele>7.875008251518011</ele>
        <time>2026-08-02T11:27:29Z</time>
      </trkpt>
      <trkpt lat="32.05322658657137" lon="118.80387171401426">
        <ele>7.32013001665473</ele>
        <time>2026-08-02T11:27:35Z</time>
      </trkpt>
      <trkpt lat="32.053151545456124" lon="118.80385769325206">
        <ele>6.746758129447699</ele>
        <time>2026-08-02T11:27:38Z</time>
      </trkpt>
      <trkpt lat="32.05288934418142" lon="118.8037755554146">
        <ele>7.9701277278363705</ele>
        <time>2026-08-02T11:27:50Z</time>
      </trkpt>
      <trkpt lat="32.05269022841608" lon="118.80373449278832">
        <ele>9.719311382621527</ele>
        <time>2026-08-02T11:27:59Z</time>
      </trkpt>
      <trkpt lat="32.0524289909389" lon="118.80363131362093">
        <ele>8.054680492728949</ele>
        <time>2026-08-02T11:28:11Z</time>
      </trkpt>
      <trkpt lat="32.052380955878185" lon="118.80361729043302">
        <ele>7.634560253471136</ele>
        <time>2026-08-02T11:28:14Z</time>
      </trkpt>
      <trkpt lat="32.05232085553174" lon="118.80356719740338">
        <ele>8.107529308646917</ele>
        <time>2026-08-02T11:28:17Z</time>
      </trkpt>
      <trkpt lat="32.05220483313824" lon="118.80356921200713">
        <ele>9.52114548906684</ele>
        <time>2026-08-02T11:28:24Z</time>
      </trkpt>
      <trkpt lat="32.052109914573386" lon="118.80362833702858">
        <ele>9.500004436820745</ele>
        <time>2026-08-02T11:28:30Z</time>
      </trkpt>
      <trkpt lat="32.05187740787755" lon="118.8039419763345">
        <ele>8.139233257621527</ele>
        <time>2026-08-02T11:28:36Z</time>
      </trkpt>
      <trkpt lat="32.05189456697897" lon="118.80403115076065">
        <ele>8.641266491264105</ele>
        <time>2026-08-02T11:28:39Z</time>
      </trkpt>
      <trkpt lat="32.051970835461525" lon="118.80417542879543">
        <ele>8.181511547416449</ele>
        <time>2026-08-02T11:28:45Z</time>
      </trkpt>
      <trkpt lat="32.05203799202225" lon="118.80425658310952">
        <ele>7.8565107844769955</ele>
        <time>2026-08-02T11:28:48Z</time>
      </trkpt>
      <trkpt lat="32.05221817388015" lon="118.80433772714468">
        <ele>8.482731487601995</ele>
        <time>2026-08-02T11:28:57Z</time>
      </trkpt>
      <trkpt lat="32.0523183292264" lon="118.8044138687164">
        <ele>7.23822083696723</ele>
        <time>2026-08-02T11:29:03Z</time>
      </trkpt>
      <trkpt lat="32.052433388145005" lon="118.80443289585256">
        <ele>7.835373546928167</ele>
        <time>2026-08-02T11:29:12Z</time>
      </trkpt>
      <trkpt lat="32.052768685368456" lon="118.80456011724245">
        <ele>8.118096020072699</ele>
        <time>2026-08-02T11:29:24Z</time>
      </trkpt>
      <trkpt lat="32.0530038569894" lon="118.8046282307756">
        <ele>6.086189892143011</ele>
        <time>2026-08-02T11:29:36Z</time>
      </trkpt>
      <trkpt lat="32.05318791202048" lon="118.8046362297682">
        <ele>7.719113018363714</ele>
        <time>2026-08-02T11:29:45Z</time>
      </trkpt>
      <trkpt lat="32.053369759684706" lon="118.80452599447098">
        <ele>8.432526256889105</ele>
        <time>2026-08-02T11:29:58Z</time>
      </trkpt>
      <trkpt lat="32.053431440738755" lon="118.80433561169569">
        <ele>7.298992779105902</ele>
        <time>2026-08-02T11:30:01Z</time>
      </trkpt>
      <trkpt lat="32.053425023303" lon="118.80409714072893">
        <ele>7.468098308891058</ele>
        <time>2026-08-02T11:30:10Z</time>
      </trkpt>
      <trkpt lat="32.053360780363526" lon="118.80396588747156">
        <ele>3.636799480766058</ele>
        <time>2026-08-02T11:30:16Z</time>
      </trkpt>
      <trkpt lat="32.053315676144734" lon="118.80391178486867">
        <ele>7.02948060259223</ele>
        <time>2026-08-02T11:30:19Z</time>
      </trkpt>
      <trkpt lat="32.05324559080416" lon="118.80387171226782">
        <ele>5.948788311332464</ele>
        <time>2026-08-02T11:30:22Z</time>
      </trkpt>
      <trkpt lat="32.05292638727011" lon="118.803795591496">
        <ele>8.02297654375434</ele>
        <time>2026-08-02T11:30:34Z</time>
      </trkpt>
      <trkpt lat="32.05260514852706" lon="118.80369943154719">
        <ele>8.075821544975042</ele>
        <time>2026-08-02T11:30:49Z</time>
      </trkpt>
      <trkpt lat="32.05248706303648" lon="118.80366537533196">
        <ele>19.125813152641058</ele>
        <time>2026-08-02T11:30:55Z</time>
      </trkpt>
      <trkpt lat="32.0524059701517" lon="118.80362229799182">
        <ele>8.337406780570745</ele>
        <time>2026-08-02T11:30:58Z</time>
      </trkpt>
      <trkpt lat="32.052309992241774" lon="118.80364735610624">
        <ele>8.189438488334417</ele>
        <time>2026-08-02T11:31:07Z</time>
      </trkpt>
      <trkpt lat="32.051894368065284" lon="118.80391692536038">
        <ele>4.755916039459407</ele>
        <time>2026-08-02T11:32:01Z</time>
      </trkpt>
      <trkpt lat="32.051946861568524" lon="118.80419346665239">
        <ele>5.123191277496517</ele>
        <time>2026-08-02T11:32:13Z</time>
      </trkpt>
      <trkpt lat="32.052183234335715" lon="118.80437680771445">
        <ele>3.1229890985414386</ele>
        <time>2026-08-02T11:32:26Z</time>
      </trkpt>
      <trkpt lat="32.05225632065238" lon="118.80441688036744">
        <ele>4.893313805572689</ele>
        <time>2026-08-02T11:32:29Z</time>
      </trkpt>
      <trkpt lat="32.05255650666076" lon="118.80448498777093">
        <ele>5.363635460846126</ele>
        <time>2026-08-02T11:32:41Z</time>
      </trkpt>
      <trkpt lat="32.0528517599763" lon="118.80459217319601">
        <ele>5.437621514312923</ele>
        <time>2026-08-02T11:32:53Z</time>
      </trkpt>
      <trkpt lat="32.05307189494633" lon="118.80464125036838">
        <ele>5.04920522402972</ele>
        <time>2026-08-02T11:33:02Z</time>
      </trkpt>
      <trkpt lat="32.05321588493093" lon="118.80461718942811">
        <ele>5.186602990143001</ele>
        <time>2026-08-02T11:33:08Z</time>
      </trkpt>
      <trkpt lat="32.05332678866885" lon="118.80454804212168">
        <ele>5.353068749420345</ele>
        <time>2026-08-02T11:33:14Z</time>
      </trkpt>
      <trkpt lat="32.053365720238176" lon="118.8045039511475">
        <ele>4.755916039459407</ele>
        <time>2026-08-02T11:33:17Z</time>
      </trkpt>
      <trkpt lat="32.05342551816696" lon="118.80438070150258">
        <ele>5.017497460357845</ele>
        <time>2026-08-02T11:33:20Z</time>
      </trkpt>
      <trkpt lat="32.05343922213228" lon="118.8042093612188">
        <ele>5.289653222076595</ele>
        <time>2026-08-02T11:33:26Z</time>
      </trkpt>
      <trkpt lat="32.05343006983362" lon="118.80412319173503">
        <ele>4.578883568756282</ele>
        <time>2026-08-02T11:33:29Z</time>
      </trkpt>
      <trkpt lat="32.05340292934387" lon="118.80404604183113">
        <ele>5.752047936432064</ele>
        <time>2026-08-02T11:33:32Z</time>
      </trkpt>
      <trkpt lat="32.05328866664229" lon="118.80390978339805">
        <ele>5.271159569732845</ele>
        <time>2026-08-02T11:33:38Z</time>
      </trkpt>
      <trkpt lat="32.05320558712314" lon="118.80387472187122">
        <ele>5.04920522402972</ele>
        <time>2026-08-02T11:33:41Z</time>
      </trkpt>
      <trkpt lat="32.05289436794289" lon="118.8037885806178">
        <ele>5.247378746978939</ele>
        <time>2026-08-02T11:33:50Z</time>
      </trkpt>
      <trkpt lat="32.05259812955834" lon="118.80368941246459">
        <ele>3.897174279205501</ele>
        <time>2026-08-02T11:34:05Z</time>
      </trkpt>
      <trkpt lat="32.05230087889653" lon="118.8035832307716">
        <ele>4.829898278228939</ele>
        <time>2026-08-02T11:34:18Z</time>
      </trkpt>
      <trkpt lat="32.05224482640956" lon="118.80356019059641">
        <ele>4.999003808014095</ele>
        <time>2026-08-02T11:34:21Z</time>
      </trkpt>
      <trkpt lat="32.05213482795865" lon="118.80357523026488">
        <ele>4.6634363336488605</ele>
        <time>2026-08-02T11:34:27Z</time>
      </trkpt>
      <trkpt lat="32.0519472735312" lon="118.80385579996776">
        <ele>4.483760277740657</ele>
        <time>2026-08-02T11:34:36Z</time>
      </trkpt>
      <trkpt lat="32.05194266324398" lon="118.80408024329698">
        <ele>4.5048975152894855</ele>
        <time>2026-08-02T11:34:45Z</time>
      </trkpt>
      <trkpt lat="32.052025991094084" lon="118.80425758619418">
        <ele>4.483760277740657</ele>
        <time>2026-08-02T11:34:51Z</time>
      </trkpt>
      <trkpt lat="32.05208709391456" lon="118.8043086816811">
        <ele>4.589450280182064</ele>
        <time>2026-08-02T11:34:54Z</time>
      </trkpt>
      <trkpt lat="32.05222415946865" lon="118.80432870874603">
        <ele>3.709575097076595</ele>
        <time>2026-08-02T11:35:00Z</time>
      </trkpt>
      <trkpt lat="32.052355358492086" lon="118.804425889129">
        <ele>4.578883568756282</ele>
        <time>2026-08-02T11:35:06Z</time>
      </trkpt>
      <trkpt lat="32.05248644900688" lon="118.80446094655761">
        <ele>6.045344750396907</ele>
        <time>2026-08-02T11:35:12Z</time>
      </trkpt>
      <trkpt lat="32.052615477768086" lon="118.8044609347021">
        <ele>4.851035515777767</ele>
        <time>2026-08-02T11:35:18Z</time>
      </trkpt>
      <trkpt lat="32.05289277262129" lon="118.80459417340242">
        <ele>5.028067986480892</ele>
        <time>2026-08-02T11:35:27Z</time>
      </trkpt>
      <trkpt lat="32.053033895250564" lon="118.8046462638006">
        <ele>4.829898278228939</ele>
        <time>2026-08-02T11:35:33Z</time>
      </trkpt>
      <trkpt lat="32.053098911488334" lon="118.80464725981507">
        <ele>4.557742516510189</ele>
        <time>2026-08-02T11:35:36Z</time>
      </trkpt>
      <trkpt lat="32.05326981804716" lon="118.80457209504037">
        <ele>4.4731897516176105</ele>
        <time>2026-08-02T11:35:45Z</time>
      </trkpt>
      <trkpt lat="32.05333271814465" lon="118.80450696013779">
        <ele>4.829898278228939</ele>
        <time>2026-08-02T11:35:48Z</time>
      </trkpt>
      <trkpt lat="32.05340648417621" lon="118.8043636695263">
        <ele>4.526034752838314</ele>
        <time>2026-08-02T11:35:54Z</time>
      </trkpt>
      <trkpt lat="32.05344224203173" lon="118.80422038273568">
        <ele>3.5721773309633136</ele>
        <time>2026-08-02T11:36:00Z</time>
      </trkpt>
      <trkpt lat="32.053369864386916" lon="118.80401297958586">
        <ele>4.317298333160579</ele>
        <time>2026-08-02T11:36:09Z</time>
      </trkpt>
      <trkpt lat="32.05333375341345" lon="118.80395386622934">
        <ele>4.002864281646907</ele>
        <time>2026-08-02T11:36:12Z</time>
      </trkpt>
      <trkpt lat="32.0532806666041" lon="118.80391078610957">
        <ele>4.024005333893001</ele>
        <time>2026-08-02T11:36:15Z</time>
      </trkpt>
      <trkpt lat="32.05295535192232" lon="118.80377154145229">
        <ele>4.430915276519954</ele>
        <time>2026-08-02T11:36:30Z</time>
      </trkpt>
      <trkpt lat="32.05282327895991" lon="118.80374650424359">
        <ele>3.40571157168597</ele>
        <time>2026-08-02T11:36:40Z</time>
      </trkpt>
      <trkpt lat="32.05251803514364" lon="118.80364533304343">
        <ele>3.667296807281673</ele>
        <time>2026-08-02T11:36:52Z</time>
      </trkpt>
      <trkpt lat="32.052307882196864" lon="118.8035842320989">
        <ele>4.526034752838314</ele>
        <time>2026-08-02T11:37:01Z</time>
      </trkpt>
      <trkpt lat="32.05207994442125" lon="118.80364938119115">
        <ele>4.179896752350032</ele>
        <time>2026-08-02T11:37:10Z</time>
      </trkpt>
      <trkpt lat="32.05195126222191" lon="118.80384878577372">
        <ele>3.3634370965883136</ele>
        <time>2026-08-02T11:37:19Z</time>
      </trkpt>
      <trkpt lat="32.05192639264618" lon="118.80392694218263">
        <ele>4.4546960992738605</ele>
        <time>2026-08-02T11:37:22Z</time>
      </trkpt>
      <trkpt lat="32.05193466669828" lon="118.8040832499691">
        <ele>4.211604516021907</ele>
        <time>2026-08-02T11:37:28Z</time>
      </trkpt>
      <trkpt lat="32.05195380894936" lon="118.80416240461302">
        <ele>4.055713097564876</ele>
        <time>2026-08-02T11:37:31Z</time>
      </trkpt>
      <trkpt lat="32.05202461931115" lon="118.80425221031071">
        <ele>3.971160332672298</ele>
        <time>2026-08-02T11:37:34Z</time>
      </trkpt>
      <trkpt lat="32.05205312832498" lon="118.80433273239362">
        <ele>3.0622171564027667</ele>
        <time>2026-08-02T11:37:37Z</time>
      </trkpt>
      <trkpt lat="32.05230333638806" lon="118.80441988200117">
        <ele>4.097987572662532</ele>
        <time>2026-08-02T11:37:49Z</time>
      </trkpt>
      <trkpt lat="32.05263754749771" lon="118.8044980061392">
        <ele>3.918315331451595</ele>
        <time>2026-08-02T11:38:04Z</time>
      </trkpt>
      <trkpt lat="32.05290878670917" lon="118.80460018385553">
        <ele>2.6843713922426105</ele>
        <time>2026-08-02T11:38:16Z</time>
      </trkpt>
      <trkpt lat="32.05308790552866" lon="118.80464525684992">
        <ele>4.171969811432064</ele>
        <time>2026-08-02T11:38:22Z</time>
      </trkpt>
      <trkpt lat="32.0531619237707" lon="118.80464625203723">
        <ele>3.772986809723079</ele>
        <time>2026-08-02T11:38:25Z</time>
      </trkpt>
      <trkpt lat="32.05335677081091" lon="118.80453401155532">
        <ele>2.3593706293031573</ele>
        <time>2026-08-02T11:38:34Z</time>
      </trkpt>
      <trkpt lat="32.05345832253755" lon="118.80426446845517">
        <ele>3.490264336578548</ele>
        <time>2026-08-02T11:38:43Z</time>
      </trkpt>
      <trkpt lat="32.053447008991014" lon="118.80408611693619">
        <ele>4.211604516021907</ele>
        <time>2026-08-02T11:38:49Z</time>
      </trkpt>
      <trkpt lat="32.053382785263864" lon="118.8039658854494">
        <ele>3.730712334625423</ele>
        <time>2026-08-02T11:38:56Z</time>
      </trkpt>
      <trkpt lat="32.05328062824076" lon="118.80388874263738">
        <ele>1.9709581537172198</ele>
        <time>2026-08-02T11:38:59Z</time>
      </trkpt>
      <trkpt lat="32.05299640983883" lon="118.80379959295901">
        <ele>3.1546968622133136</ele>
        <time>2026-08-02T11:39:11Z</time>
      </trkpt>
      <trkpt lat="32.05270820282698" lon="118.80371745759061">
        <ele>4.108558098785579</ele>
        <time>2026-08-02T11:39:26Z</time>
      </trkpt>
      <trkpt lat="32.052508029433824" lon="118.80364333001909">
        <ele>3.1864046258851886</ele>
        <time>2026-08-02T11:39:35Z</time>
      </trkpt>
      <trkpt lat="32.05244501712649" lon="118.80364433778179">
        <ele>3.74128286074847</ele>
        <time>2026-08-02T11:39:38Z</time>
      </trkpt>
      <trkpt lat="32.052408946465476" lon="118.8036082701181">
        <ele>2.7160791559144855</ele>
        <time>2026-08-02T11:39:41Z</time>
      </trkpt>
      <trkpt lat="32.05231995967234" lon="118.80362731575411">
        <ele>4.275020043365657</ele>
        <time>2026-08-02T11:39:44Z</time>
      </trkpt>
      <trkpt lat="32.052269925904675" lon="118.80361429472224">
        <ele>3.5721773309633136</ele>
        <time>2026-08-02T11:39:47Z</time>
      </trkpt>
      <trkpt lat="32.05207688633486" lon="118.80361631640518">
        <ele>2.9776643915101886</ele>
        <time>2026-08-02T11:39:53Z</time>
      </trkpt>
      <trkpt lat="32.05203295829998" lon="118.80366341311873">
        <ele>2.642096917144954</ele>
        <time>2026-08-02T11:40:02Z</time>
      </trkpt>
      <trkpt lat="32.0519452504252" lon="118.80384277447466">
        <ele>0.026244561187922955</ele>
        <time>2026-08-02T11:40:05Z</time>
      </trkpt>
      <trkpt lat="32.05188219976964" lon="118.803821738793">
        <ele>2.9776643915101886</ele>
        <time>2026-08-02T11:40:11Z</time>
      </trkpt>
      <trkpt lat="32.0518812448606" lon="118.80384779023254">
        <ele>2.274817864410579</ele>
        <time>2026-08-02T11:40:14Z</time>
      </trkpt>
    </trkseg>
  </trk>
</gpx>