<?xml version="1.0" encoding="UTF-8"?>
<gpx xmlns="http://www.topografix.com/GPX/1/1" xmlns:gpxtpx="http://www.garmin.com/xmlschemas/TrackPointExtension/v1" xmlns:xsi="http://www.w3.org/2001/XMLSchema-instance" xsi:schemaLocation="http://www.topografix.com/GPX/1/1 http://www.topografix.com/GPX/1/1/gpx.xsd" version="1.1" creator="gpx.py -- https://github.com/tkrajina/gpxpy">
  <trk>
    <name>gpx from keep</name>
    <type>Run</type>
    <trkseg>
      <trkpt lat="31.22615008854937" lon="121.39941711927744">
        <ele>14.865286693908274</ele>
        <time>2026-09-21T09:31:12Z</time>
      </trkpt>
      <trkpt lat="31.226110096669856" lon="121.39926810766248">
        <ele>14.376466021873057</ele>
        <time>2026-09-21T09:31:18Z</time>
      </trkpt>
      <trkpt lat="31.226001135393396" lon="121.399075099332">
        <ele>15.13744090590626</ele>
        <time>2026-09-21T09:31:27Z</time>
      </trkpt>
      <trkpt lat="31.225926167112778" lon="121.39901710089218">
        <ele>15.229920492507517</ele>
        <time>2026-09-21T09:31:30Z</time>
      </trkpt>
      <trkpt lat="31.225848202031457" lon="121.39898910535162">
        <ele>14.450449691154063</ele>
        <time>2026-09-21T09:31:33Z</time>
      </trkpt>
      <trkpt lat="31.225756244632944" lon="121.39898111271043">
        <ele>15.13744090590626</ele>
        <time>2026-09-21T09:31:36Z</time>
      </trkpt>
      <trkpt lat="31.225602319051745" lon="121.39902312964276">
        <ele>15.116302714683115</ele>
        <time>2026-09-21T09:31:42Z</time>
      </trkpt>
      <trkpt lat="31.22531345322344" lon="121.39900315315333">
        <ele>12.109395013190806</ele>
        <time>2026-09-21T09:31:51Z</time>
      </trkpt>
      <trkpt lat="31.225187510575257" lon="121.39897316165317">
        <ele>15.449229226447642</ele>
        <time>2026-09-21T09:31:54Z</time>
      </trkpt>
      <trkpt lat="31.224984605353573" lon="121.39896717885762">
        <ele>14.228498683311045</ele>
        <time>2026-09-21T09:32:00Z</time>
      </trkpt>
      <trkpt lat="31.224924634237077" lon="121.39898118523656">
        <ele>16.521992431022227</ele>
        <time>2026-09-21T09:32:03Z</time>
      </trkpt>
      <trkpt lat="31.224819686832344" lon="121.39904119942885">
        <ele>12.701264367438853</ele>
        <time>2026-09-21T09:32:06Z</time>
      </trkpt>
      <trkpt lat="31.224736731793868" lon="121.39914221557267">
        <ele>15.750448451377451</ele>
        <time>2026-09-21T09:32:09Z</time>
      </trkpt>
      <trkpt lat="31.22468476267711" lon="121.3992432295485">
        <ele>14.992115841247141</ele>
        <time>2026-09-21T09:32:12Z</time>
      </trkpt>
      <trkpt lat="31.224656784406854" lon="121.39936724431355">
        <ele>12.067118511535227</ele>
        <time>2026-09-21T09:32:15Z</time>
      </trkpt>
      <trkpt lat="31.224661790569915" lon="121.39948125591921">
        <ele>12.833377943374217</ele>
        <time>2026-09-21T09:32:18Z</time>
      </trkpt>
      <trkpt lat="31.224732771884987" lon="121.39966127013071">
        <ele>15.155936823226511</ele>
        <time>2026-09-21T09:32:24Z</time>
      </trkpt>
      <trkpt lat="31.22479674733244" lon="121.39972427209365">
        <ele>11.047200785018504</ele>
        <time>2026-09-21T09:32:27Z</time>
      </trkpt>
      <trkpt lat="31.225073627086374" lon="121.39983026110713">
        <ele>14.648620233871043</ele>
        <time>2026-09-21T09:32:40Z</time>
      </trkpt>
      <trkpt lat="31.22540347317485" lon="121.39983723323066">
        <ele>14.429311499930918</ele>
        <time>2026-09-21T09:32:52Z</time>
      </trkpt>
      <trkpt lat="31.225560399489755" lon="121.3998352192903">
        <ele>15.282765970565379</ele>
        <time>2026-09-21T09:33:01Z</time>
      </trkpt>
      <trkpt lat="31.225622368899128" lon="121.399818211731">
        <ele>28.060803041793406</ele>
        <time>2026-09-21T09:33:04Z</time>
      </trkpt>
      <trkpt lat="31.225706330788846" lon="121.39983120605487">
        <ele>13.34597931895405</ele>
        <time>2026-09-21T09:33:07Z</time>
      </trkpt>
      <trkpt lat="31.225822015944456" lon="121.39981606842463">
        <ele>14.408173427917063</ele>
        <time>2026-09-21T09:33:13Z</time>
      </trkpt>
      <trkpt lat="31.22602974132156" lon="121.39968427032225">
        <ele>13.890287742950022</ele>
        <time>2026-09-21T09:33:19Z</time>
      </trkpt>
      <trkpt lat="31.22609912123445" lon="121.39953213617493">
        <ele>15.177075133658946</ele>
        <time>2026-09-21T09:33:25Z</time>
      </trkpt>
      <trkpt lat="31.226124098132043" lon="121.39938211789196">
        <ele>14.648620353080332</ele>
        <time>2026-09-21T09:33:31Z</time>
      </trkpt>
      <trkpt lat="31.226078105589057" lon="121.39917610170828">
        <ele>14.564067588187754</ele>
        <time>2026-09-21T09:33:40Z</time>
      </trkpt>
      <trkpt lat="31.225935163872336" lon="121.39903410154838">
        <ele>8.531756148673594</ele>
        <time>2026-09-21T09:33:49Z</time>
      </trkpt>
      <trkpt lat="31.225720261039033" lon="121.39897311519093">
        <ele>14.302482352592051</ele>
        <time>2026-09-21T09:33:58Z</time>
      </trkpt>
      <trkpt lat="31.22545138838301" lon="121.39899914078985">
        <ele>14.635408864356577</ele>
        <time>2026-09-21T09:34:10Z</time>
      </trkpt>
      <trkpt lat="31.225293460113217" lon="121.39895815118896">
        <ele>10.788258061744273</ele>
        <time>2026-09-21T09:34:16Z</time>
      </trkpt>
      <trkpt lat="31.22495961745076" lon="121.39897418160997">
        <ele>13.59435294661671</ele>
        <time>2026-09-21T09:34:28Z</time>
      </trkpt>
      <trkpt lat="31.224812689653334" lon="121.3990331993562">
        <ele>12.151671395637095</ele>
        <time>2026-09-21T09:34:34Z</time>
      </trkpt>
      <trkpt lat="31.224708746678843" lon="121.39917022057774">
        <ele>14.595774636603892</ele>
        <time>2026-09-21T09:34:40Z</time>
      </trkpt>
      <trkpt lat="31.224669769910168" lon="121.3992462311447">
        <ele>14.553498254157603</ele>
        <time>2026-09-21T09:34:43Z</time>
      </trkpt>
      <trkpt lat="31.22463879658184" lon="121.39941825118535">
        <ele>14.281344042159617</ele>
        <time>2026-09-21T09:34:49Z</time>
      </trkpt>
      <trkpt lat="31.22462423443383" lon="121.39954579441874">
        <ele>14.281344042159617</ele>
        <time>2026-09-21T09:34:55Z</time>
      </trkpt>
      <trkpt lat="31.224815740104273" lon="121.39974327275281">
        <ele>14.302482233382761</ele>
        <time>2026-09-21T09:35:01Z</time>
      </trkpt>
      <trkpt lat="31.224908701371657" lon="121.39979727133009">
        <ele>12.680126057006419</ele>
        <time>2026-09-21T09:35:04Z</time>
      </trkpt>
      <trkpt lat="31.225121606085946" lon="121.39984625896054">
        <ele>12.252077684737742</ele>
        <time>2026-09-21T09:35:13Z</time>
      </trkpt>
      <trkpt lat="31.22535249724107" lon="121.39983923793106">
        <ele>16.458577738143504</ele>
        <time>2026-09-21T09:35:22Z</time>
      </trkpt>
      <trkpt lat="31.22566835165269" lon="121.39986421358635">
        <ele>17.000243769027293</ele>
        <time>2026-09-21T09:35:34Z</time>
      </trkpt>
      <trkpt lat="31.225745316658454" lon="121.39987520829314">
        <ele>16.6461793044582</ele>
        <time>2026-09-21T09:35:37Z</time>
      </trkpt>
      <trkpt lat="31.22589424338691" lon="121.39983719042931">
        <ele>13.38825546298176</ele>
        <time>2026-09-21T09:35:43Z</time>
      </trkpt>
      <trkpt lat="31.225980197305972" lon="121.39977317489306">
        <ele>13.451670036651194</ele>
        <time>2026-09-21T09:35:46Z</time>
      </trkpt>
      <trkpt lat="31.226073143918256" lon="121.39966015311632">
        <ele>14.88642476592213</ele>
        <time>2026-09-21T09:35:49Z</time>
      </trkpt>
      <trkpt lat="31.226142096520846" lon="121.39947312595162">
        <ele>14.471587763167918</ele>
        <time>2026-09-21T09:35:55Z</time>
      </trkpt>
      <trkpt lat="31.226094102205813" lon="121.39923910625322">
        <ele>2.1374527076259255</ele>
        <time>2026-09-21T09:36:04Z</time>
      </trkpt>
      <trkpt lat="31.226021127775326" lon="121.39910410014346">
        <ele>13.573214159347117</ele>
        <time>2026-09-21T09:36:10Z</time>
      </trkpt>
      <trkpt lat="31.22590617528825" lon="121.39899610087677">
        <ele>11.565085993148386</ele>
        <time>2026-09-21T09:36:17Z</time>
      </trkpt>
      <trkpt lat="31.225584325346052" lon="121.39898512803411">
        <ele>14.585205183364451</ele>
        <time>2026-09-21T09:36:32Z</time>
      </trkpt>
      <trkpt lat="31.225306454895424" lon="121.39897415136193">
        <ele>14.439880118705332</ele>
        <time>2026-09-21T09:36:44Z</time>
      </trkpt>
      <trkpt lat="31.225182511349605" lon="121.39894415973296">
        <ele>14.92870079074055</ele>
        <time>2026-09-21T09:36:50Z</time>
      </trkpt>
      <trkpt lat="31.224968612201113" lon="121.39895517927584">
        <ele>14.42931102309376</ele>
        <time>2026-09-21T09:36:59Z</time>
      </trkpt>
      <trkpt lat="31.224873658636387" lon="121.3989901904261">
        <ele>14.450449214316905</ele>
        <time>2026-09-21T09:37:02Z</time>
      </trkpt>
      <trkpt lat="31.22476771432818" lon="121.39909420856995">
        <ele>14.450449214316905</ele>
        <time>2026-09-21T09:37:08Z</time>
      </trkpt>
      <trkpt lat="31.22465777701607" lon="121.39926823432197">
        <ele>13.763457999564707</ele>
        <time>2026-09-21T09:37:14Z</time>
      </trkpt>
      <trkpt lat="31.22463279429828" lon="121.39934824446492">
        <ele>14.180937276221812</ele>
        <time>2026-09-21T09:37:17Z</time>
      </trkpt>
      <trkpt lat="31.22465679376562" lon="121.39949225755299">
        <ele>13.948417172767222</ele>
        <time>2026-09-21T09:37:23Z</time>
      </trkpt>
      <trkpt lat="31.22474276660217" lon="121.39965426843389">
        <ele>15.12687133345753</ele>
        <time>2026-09-21T09:37:29Z</time>
      </trkpt>
      <trkpt lat="31.224873713630046" lon="121.39975126867758">
        <ele>14.42931102309376</ele>
        <time>2026-09-21T09:37:35Z</time>
      </trkpt>
      <trkpt lat="31.22506962656796" lon="121.39980425817342">
        <ele>11.776468024589121</ele>
        <time>2026-09-21T09:37:44Z</time>
      </trkpt>
      <trkpt lat="31.225383481243096" lon="121.39982323319708">
        <ele>15.438659653998911</ele>
        <time>2026-09-21T09:37:56Z</time>
      </trkpt>
      <trkpt lat="31.22571432704529" lon="121.39983120535749">
        <ele>13.742319808341563</ele>
        <time>2026-09-21T09:38:11Z</time>
      </trkpt>
      <trkpt lat="31.225862255314663" lon="121.39980418904666">
        <ele>15.261627302505076</ele>
        <time>2026-09-21T09:38:17Z</time>
      </trkpt>
      <trkpt lat="31.22607013931106" lon="121.39958814501745">
        <ele>14.281343684531748</ele>
        <time>2026-09-21T09:38:29Z</time>
      </trkpt>
      <trkpt lat="31.226121103905065" lon="121.39944112434682">
        <ele>13.77402709517628</ele>
        <time>2026-09-21T09:38:35Z</time>
      </trkpt>
      <trkpt lat="31.226126097634303" lon="121.39938811833912">
        <ele>14.677684769965708</ele>
        <time>2026-09-21T09:38:38Z</time>
      </trkpt>
      <trkpt lat="31.226080107563426" lon="121.39922110575537">
        <ele>12.553296552039683</ele>
        <time>2026-09-21T09:38:44Z</time>
      </trkpt>
      <trkpt lat="31.226007133720124" lon="121.3990941004779">
        <ele>14.521790609695017</ele>
        <time>2026-09-21T09:38:50Z</time>
      </trkpt>
      <trkpt lat="31.22595215632365" lon="121.3990411006641">
        <ele>14.022400842048228</ele>
        <time>2026-09-21T09:38:53Z</time>
      </trkpt>
      <trkpt lat="31.22580822096699" lon="121.39899310917029">
        <ele>14.88642440829426</ele>
        <time>2026-09-21T09:38:59Z</time>
      </trkpt>
      <trkpt lat="31.225582326558865" lon="121.39899012862224">
        <ele>13.552076087333262</ele>
        <time>2026-09-21T09:39:08Z</time>
      </trkpt>
      <trkpt lat="31.225474378401398" lon="121.39901313995713">
        <ele>14.823009834624827</ele>
        <time>2026-09-21T09:39:14Z</time>
      </trkpt>
      <trkpt lat="31.225360429389657" lon="121.3989701463269">
        <ele>15.626261101104319</ele>
        <time>2026-09-21T09:39:17Z</time>
      </trkpt>
      <trkpt lat="31.22513653321895" lon="121.39895016422665">
        <ele>14.574636087752879</ele>
        <time>2026-09-21T09:39:26Z</time>
      </trkpt>
      <trkpt lat="31.224917637133323" lon="121.39897418527109">
        <ele>14.823009834624827</ele>
        <time>2026-09-21T09:39:35Z</time>
      </trkpt>
      <trkpt lat="31.22478970077958" lon="121.3990392018729">
        <ele>14.73053024802357</ele>
        <time>2026-09-21T09:39:41Z</time>
      </trkpt>
      <trkpt lat="31.224733730568143" lon="121.39909921197604">
        <ele>13.795165286399424</ele>
        <time>2026-09-21T09:39:44Z</time>
      </trkpt>
      <trkpt lat="31.224661773861648" lon="121.39924923213117">
        <ele>14.815083012916148</ele>
        <time>2026-09-21T09:39:50Z</time>
      </trkpt>
      <trkpt lat="31.22463679811595" lon="121.39942625220387">
        <ele>14.815083012916148</ele>
        <time>2026-09-21T09:39:56Z</time>
      </trkpt>
      <trkpt lat="31.22464679978068" lon="121.39950926028853">
        <ele>11.004924044944346</ele>
        <time>2026-09-21T09:39:59Z</time>
      </trkpt>
      <trkpt lat="31.224843726448174" lon="121.39973726957885">
        <ele>14.949838862754405</ele>
        <time>2026-09-21T09:40:11Z</time>
      </trkpt>
      <trkpt lat="31.224913698209967" lon="121.3997882697696">
        <ele>14.291912660934031</ele>
        <time>2026-09-21T09:40:14Z</time>
      </trkpt>
      <trkpt lat="31.22522055794701" lon="121.39982724791257">
        <ele>14.92870067153126</ele>
        <time>2026-09-21T09:40:29Z</time>
      </trkpt>
      <trkpt lat="31.225518417486363" lon="121.39981722067056">
        <ele>14.804513798095286</ele>
        <time>2026-09-21T09:40:41Z</time>
      </trkpt>
      <trkpt lat="31.22581128147398" lon="121.39982919664794">
        <ele>16.625040636397898</ele>
        <time>2026-09-21T09:40:53Z</time>
      </trkpt>
      <trkpt lat="31.225933220735808" lon="121.39978918097985">
        <ele>14.47158728633076</ele>
        <time>2026-09-21T09:40:59Z</time>
      </trkpt>
      <trkpt lat="31.225992188922728" lon="121.39974217003018">
        <ele>12.563865528441966</ele>
        <time>2026-09-21T09:41:02Z</time>
      </trkpt>
      <trkpt lat="31.226044158503615" lon="121.39967215706417">
        <ele>14.542928681708872</ele>
        <time>2026-09-21T09:41:06Z</time>
      </trkpt>
      <trkpt lat="31.226103118335576" lon="121.39951913438388">
        <ele>14.844147906638682</ele>
        <time>2026-09-21T09:41:12Z</time>
      </trkpt>
      <trkpt lat="31.22611410107413" lon="121.3993581162966">
        <ele>14.762237415648997</ele>
        <time>2026-09-21T09:41:18Z</time>
      </trkpt>
      <trkpt lat="31.22604911732262" lon="121.39914710157201">
        <ele>14.281343565322459</ele>
        <time>2026-09-21T09:41:27Z</time>
      </trkpt>
      <trkpt lat="31.225927168248294" lon="121.39904510318608">
        <ele>12.991913900710642</ele>
        <time>2026-09-21T09:41:33Z</time>
      </trkpt>
      <trkpt lat="31.22579422712908" lon="121.39898610981065">
        <ele>14.648619637824595</ele>
        <time>2026-09-21T09:41:39Z</time>
      </trkpt>
      <trkpt lat="31.22549836543674" lon="121.39898213528319">
        <ele>7.480130658484995</ele>
        <time>2026-09-21T09:41:51Z</time>
      </trkpt>
      <trkpt lat="31.225214497329475" lon="121.39896215840074">
        <ele>13.594352231360972</ele>
        <time>2026-09-21T09:42:03Z</time>
      </trkpt>
      <trkpt lat="31.224955619052057" lon="121.39896918154903">
        <ele>13.958986029960215</ele>
        <time>2026-09-21T09:42:15Z</time>
      </trkpt>
      <trkpt lat="31.22485666649344" lon="121.39898819174232">
        <ele>14.564066753722727</ele>
        <time>2026-09-21T09:42:18Z</time>
      </trkpt>
      <trkpt lat="31.224683756208115" lon="121.39913521955795">
        <ele>14.698822722770274</ele>
        <time>2026-09-21T09:42:27Z</time>
      </trkpt>
      <trkpt lat="31.22465177545543" lon="121.39920222852733">
        <ele>14.907562361098826</ele>
        <time>2026-09-21T09:42:30Z</time>
      </trkpt>
      <trkpt lat="31.2246297966352" lon="121.39936124605221">
        <ele>14.223213420249522</ele>
        <time>2026-09-21T09:42:36Z</time>
      </trkpt>
      <trkpt lat="31.22465179727954" lon="121.39950725963261">
        <ele>14.844147787429392</ele>
        <time>2026-09-21T09:42:42Z</time>
      </trkpt>
      <trkpt lat="31.224722775470482" lon="121.39964826947207">
        <ele>8.55289374385029</ele>
        <time>2026-09-21T09:42:48Z</time>
      </trkpt>
      <trkpt lat="31.224803744315047" lon="121.39972727184778">
        <ele>14.823009596206248</ele>
        <time>2026-09-21T09:42:54Z</time>
      </trkpt>
      <trkpt lat="31.224887709580496" lon="121.39977927091563">
        <ele>13.7740268567577</ele>
        <time>2026-09-21T09:42:57Z</time>
      </trkpt>
      <trkpt lat="31.224972671561602" lon="121.39979926600174">
        <ele>14.564066753722727</ele>
        <time>2026-09-21T09:43:03Z</time>
      </trkpt>
      <trkpt lat="31.2251216010213" lon="121.3997912520127">
        <ele>14.585204944945872</ele>
        <time>2026-09-21T09:43:12Z</time>
      </trkpt>
      <trkpt lat="31.22519156959855" lon="121.3998062477899">
        <ele>14.73053000960499</ele>
        <time>2026-09-21T09:43:15Z</time>
      </trkpt>
      <trkpt lat="31.225466439815946" lon="121.39979522243877">
        <ele>14.37646530661732</ele>
        <time>2026-09-21T09:43:24Z</time>
      </trkpt>
      <trkpt lat="31.225789289284325" lon="121.39980219515922">
        <ele>14.656546340323985</ele>
        <time>2026-09-21T09:43:39Z</time>
      </trkpt>
      <trkpt lat="31.225921224722008" lon="121.39977117978847">
        <ele>33.229090438224375</ele>
        <time>2026-09-21T09:43:45Z</time>
      </trkpt>
      <trkpt lat="31.225978193881158" lon="121.39972416905755">
        <ele>13.916710601188242</ele>
        <time>2026-09-21T09:43:48Z</time>
      </trkpt>
      <trkpt lat="31.225978193881158" lon="121.39972416905755">
        <ele>23.264311095935188</ele>
        <time>2026-09-21T09:43:51Z</time>
      </trkpt>
    </trkseg>
  </trk>
</gpx>