<?xml version="1.0" encoding="UTF-8"?>
<gpx xmlns="http://www.topografix.com/GPX/1/1" xmlns:gpxtpx="http://www.garmin.com/xmlschemas/TrackPointExtension/v1" xmlns:xsi="http://www.w3.org/2001/XMLSchema-instance" xsi:schemaLocation="http://www.topografix.com/GPX/1/1 http://www.topografix.com/GPX/1/1/gpx.xsd" version="1.1" creator="gpx.py -- https://github.com/tkrajina/gpxpy">
  <trk>
    <name>gpx from keep</name>
    <type>Walk</type>
    <trkseg>
      <trkpt lat="31.229715481484657" lon="121.40004088420609">
        <ele>17.804546754807234</ele>
        <time>2026-06-11T09:21:28Z</time>
      </trkpt>
      <trkpt lat="31.229792468116955" lon="121.40025090763432">
        <ele>17.857392709702253</ele>
        <time>2026-06-11T09:21:43Z</time>
      </trkpt>
      <trkpt lat="31.229849449321986" lon="121.40031891292179">
        <ele>17.389709871262312</ele>
        <time>2026-06-11T09:21:49Z</time>
      </trkpt>
      <trkpt lat="31.22998939397584" lon="121.40040191356502">
        <ele>17.952514093369246</ele>
        <time>2026-06-11T09:22:01Z</time>
      </trkpt>
      <trkpt lat="31.230062361991745" lon="121.40041790971907">
        <ele>21.538079660385847</ele>
        <time>2026-06-11T09:22:07Z</time>
      </trkpt>
      <trkpt lat="31.230382203736387" lon="121.4003338687469">
        <ele>19.463895242661238</ele>
        <time>2026-06-11T09:22:31Z</time>
      </trkpt>
      <trkpt lat="31.230531127720266" lon="121.40027284649547">
        <ele>20.452105920761824</ele>
        <time>2026-06-11T09:22:43Z</time>
      </trkpt>
      <trkpt lat="31.23060809045819" lon="121.40025883768426">
        <ele>20.34905568882823</ele>
        <time>2026-06-11T09:22:49Z</time>
      </trkpt>
      <trkpt lat="31.23091593180435" lon="121.40011178942596">
        <ele>18.724057596176863</ele>
        <time>2026-06-11T09:23:13Z</time>
      </trkpt>
      <trkpt lat="31.23112681871411" lon="121.39996075022479">
        <ele>17.63015691563487</ele>
        <time>2026-06-11T09:23:28Z</time>
      </trkpt>
      <trkpt lat="31.231182780089416" lon="121.39982772801002">
        <ele>21.16287748143077</ele>
        <time>2026-06-11T09:23:37Z</time>
      </trkpt>
      <trkpt lat="31.231199759874908" lon="121.39968970952589">
        <ele>23.474866311997175</ele>
        <time>2026-06-11T09:23:46Z</time>
      </trkpt>
      <trkpt lat="31.231189756415542" lon="121.39959369915985">
        <ele>19.786252420395613</ele>
        <time>2026-06-11T09:23:52Z</time>
      </trkpt>
      <trkpt lat="31.231151766329017" lon="121.39949769171864">
        <ele>-3.407627660781145</ele>
        <time>2026-06-11T09:23:58Z</time>
      </trkpt>
      <trkpt lat="31.23109478655985" lon="121.39941668799034">
        <ele>22.380965631455183</ele>
        <time>2026-06-11T09:24:04Z</time>
      </trkpt>
      <trkpt lat="31.230888875609132" lon="121.3993286968914">
        <ele>22.04803792759776</ele>
        <time>2026-06-11T09:24:19Z</time>
      </trkpt>
      <trkpt lat="31.23084289706213" lon="121.39933070110348">
        <ele>22.151088159531355</ele>
        <time>2026-06-11T09:24:22Z</time>
      </trkpt>
      <trkpt lat="31.230706956203722" lon="121.39927470740118">
        <ele>16.11877576634288</ele>
        <time>2026-06-11T09:24:28Z</time>
      </trkpt>
      <trkpt lat="31.23050805078688" lon="121.39930872810767">
        <ele>25.14478437229991</ele>
        <time>2026-06-11T09:24:43Z</time>
      </trkpt>
      <trkpt lat="31.23020419828317" lon="121.39939976389313">
        <ele>21.75738851353526</ele>
        <time>2026-06-11T09:25:07Z</time>
      </trkpt>
      <trkpt lat="31.229905346255833" lon="121.3995208029743">
        <ele>19.01470796391368</ele>
        <time>2026-06-11T09:25:31Z</time>
      </trkpt>
      <trkpt lat="31.229825387556026" lon="121.39957281577718">
        <ele>23.68624822422862</ele>
        <time>2026-06-11T09:25:37Z</time>
      </trkpt>
      <trkpt lat="31.229763423319138" lon="121.39965683089683">
        <ele>21.24478666111827</ele>
        <time>2026-06-11T09:25:43Z</time>
      </trkpt>
      <trkpt lat="31.229719457170162" lon="121.39980885325224">
        <ele>20.285642068833113</ele>
        <time>2026-06-11T09:25:52Z</time>
      </trkpt>
      <trkpt lat="31.22970248148476" lon="121.39998087715335">
        <ele>18.536456506699324</ele>
        <time>2026-06-11T09:26:04Z</time>
      </trkpt>
      <trkpt lat="31.229737483606463" lon="121.40015889893932">
        <ele>-16.090542394667864</ele>
        <time>2026-06-11T09:26:13Z</time>
      </trkpt>
      <trkpt lat="31.229904429559554" lon="121.40036891582366">
        <ele>9.254147928208113</ele>
        <time>2026-06-11T09:26:28Z</time>
      </trkpt>
      <trkpt lat="31.230042369026144" lon="121.40039890847343">
        <ele>25.300677698105574</ele>
        <time>2026-06-11T09:26:40Z</time>
      </trkpt>
      <trkpt lat="31.230242272719266" lon="121.40036888635481">
        <ele>21.131169717758894</ele>
        <time>2026-06-11T09:26:55Z</time>
      </trkpt>
      <trkpt lat="31.23050313935822" lon="121.400260847138">
        <ele>24.875272195786238</ele>
        <time>2026-06-11T09:27:16Z</time>
      </trkpt>
      <trkpt lat="31.230806988797806" lon="121.4001728076737">
        <ele>20.129746835678816</ele>
        <time>2026-06-11T09:27:37Z</time>
      </trkpt>
      <trkpt lat="31.230994893533875" lon="121.40009578027686">
        <ele>13.014104288071394</ele>
        <time>2026-06-11T09:27:55Z</time>
      </trkpt>
      <trkpt lat="31.231134816589513" lon="121.39997675167497">
        <ele>18.409627359360456</ele>
        <time>2026-06-11T09:28:07Z</time>
      </trkpt>
      <trkpt lat="31.231193781197703" lon="121.39989373553574">
        <ele>13.909835260361433</ele>
        <time>2026-06-11T09:28:13Z</time>
      </trkpt>
      <trkpt lat="31.231205760147652" lon="121.39972471322021">
        <ele>25.874051492661238</ele>
        <time>2026-06-11T09:28:25Z</time>
      </trkpt>
      <trkpt lat="31.231185750197035" lon="121.39949268820729">
        <ele>25.895188730210066</ele>
        <time>2026-06-11T09:28:31Z</time>
      </trkpt>
      <trkpt lat="31.23107878951881" lon="121.39935568306201">
        <ele>15.23361436650157</ele>
        <time>2026-06-11T09:28:40Z</time>
      </trkpt>
      <trkpt lat="31.230953842236566" lon="121.39928168655156">
        <ele>18.346212785691023</ele>
        <time>2026-06-11T09:28:49Z</time>
      </trkpt>
      <trkpt lat="31.230772923530186" lon="121.39924369863958">
        <ele>25.583402078598738</ele>
        <time>2026-06-11T09:29:01Z</time>
      </trkpt>
      <trkpt lat="31.230535036887296" lon="121.3992887237721">
        <ele>18.618367593735456</ele>
        <time>2026-06-11T09:29:19Z</time>
      </trkpt>
      <trkpt lat="31.2304260935658" lon="121.39937574204784">
        <ele>13.524062555283308</ele>
        <time>2026-06-11T09:29:25Z</time>
      </trkpt>
      <trkpt lat="31.230341134222808" lon="121.39939275121922">
        <ele>24.780148904770613</ele>
        <time>2026-06-11T09:29:31Z</time>
      </trkpt>
      <trkpt lat="31.230284158770232" lon="121.39936675350253">
        <ele>24.09051648899913</ele>
        <time>2026-06-11T09:29:34Z</time>
      </trkpt>
      <trkpt lat="31.23017921225766" lon="121.39943176943945">
        <ele>21.464095514267683</ele>
        <time>2026-06-11T09:29:43Z</time>
      </trkpt>
      <trkpt lat="31.23009225360122" lon="121.3994447784077">
        <ele>20.140317361801863</ele>
        <time>2026-06-11T09:29:49Z</time>
      </trkpt>
      <trkpt lat="31.229860368253757" lon="121.39953480845277">
        <ele>19.37934247776866</ele>
        <time>2026-06-11T09:30:07Z</time>
      </trkpt>
      <trkpt lat="31.22981939042276" lon="121.39957381641375">
        <ele>22.46551839634776</ele>
        <time>2026-06-11T09:30:10Z</time>
      </trkpt>
      <trkpt lat="31.229723458454814" lon="121.39984285721195">
        <ele>15.503126543015242</ele>
        <time>2026-06-11T09:30:25Z</time>
      </trkpt>
      <trkpt lat="31.22973447276417" lon="121.40004188268762">
        <ele>17.2417425327003</ele>
        <time>2026-06-11T09:30:37Z</time>
      </trkpt>
      <trkpt lat="31.229816452888706" lon="121.40021390006298">
        <ele>12.763087671250105</ele>
        <time>2026-06-11T09:30:49Z</time>
      </trkpt>
      <trkpt lat="31.229923417035614" lon="121.40033690922587">
        <ele>21.80759183689952</ele>
        <time>2026-06-11T09:30:58Z</time>
      </trkpt>
      <trkpt lat="31.229976396257637" lon="121.4003699097016">
        <ele>20.901292245835066</ele>
        <time>2026-06-11T09:31:01Z</time>
      </trkpt>
      <trkpt lat="31.230050363083297" lon="121.40037990480558">
        <ele>10.76288739964366</ele>
        <time>2026-06-11T09:31:07Z</time>
      </trkpt>
      <trkpt lat="31.230370204174477" lon="121.40028886294267">
        <ele>23.71531431004405</ele>
        <time>2026-06-11T09:31:31Z</time>
      </trkpt>
      <trkpt lat="31.230648066502035" lon="121.40020982693575">
        <ele>19.160033624619246</ele>
        <time>2026-06-11T09:31:50Z</time>
      </trkpt>
      <trkpt lat="31.230892947019186" lon="121.40015479757488">
        <ele>16.00251619145274</ele>
        <time>2026-06-11T09:32:08Z</time>
      </trkpt>
      <trkpt lat="31.231005886360226" lon="121.40007577651022">
        <ele>21.538079660385847</ele>
        <time>2026-06-11T09:32:20Z</time>
      </trkpt>
      <trkpt lat="31.23118378260906" lon="121.39985973200811">
        <ele>19.651496332138777</ele>
        <time>2026-06-11T09:32:38Z</time>
      </trkpt>
      <trkpt lat="31.231203751751263" lon="121.39961570047184">
        <ele>25.010028284043074</ele>
        <time>2026-06-11T09:32:53Z</time>
      </trkpt>
      <trkpt lat="31.231128770592296" lon="121.39941368471035">
        <ele>13.513493936508894</ele>
        <time>2026-06-11T09:33:02Z</time>
      </trkpt>
      <trkpt lat="31.231088786039216" lon="121.39937168382984">
        <ele>20.34905568882823</ele>
        <time>2026-06-11T09:33:05Z</time>
      </trkpt>
      <trkpt lat="31.231006821938035" lon="121.39934268801727">
        <ele>24.14336149021983</ele>
        <time>2026-06-11T09:33:11Z</time>
      </trkpt>
      <trkpt lat="31.230872884296545" lon="121.39934670010656">
        <ele>21.213080804795027</ele>
        <time>2026-06-11T09:33:20Z</time>
      </trkpt>
      <trkpt lat="31.230701960581897" lon="121.39930471079522">
        <ele>11.711463373154402</ele>
        <time>2026-06-11T09:33:29Z</time>
      </trkpt>
      <trkpt lat="31.230472069089195" lon="121.39933173355107">
        <ele>14.398655336350203</ele>
        <time>2026-06-11T09:33:44Z</time>
      </trkpt>
      <trkpt lat="31.23016821849053" lon="121.3994467719951">
        <ele>15.941743295639753</ele>
        <time>2026-06-11T09:34:05Z</time>
      </trkpt>
      <trkpt lat="31.230125238138488" lon="121.39944277531721">
        <ele>6.714923303574324</ele>
        <time>2026-06-11T09:34:08Z</time>
      </trkpt>
    </trkseg>
  </trk>
</gpx>