<?xml version="1.0" encoding="UTF-8"?>
<gpx xmlns="http://www.topografix.com/GPX/1/1" xmlns:gpxtpx="http://www.garmin.com/xmlschemas/TrackPointExtension/v1" xmlns:xsi="http://www.w3.org/2001/XMLSchema-instance" xsi:schemaLocation="http://www.topografix.com/GPX/1/1 http://www.topografix.com/GPX/1/1/gpx.xsd" version="1.1" creator="gpx.py -- https://github.com/tkrajina/gpxpy">
  <trk>
    <name>gpx from keep</name>
    <type>Run</type>
    <trkseg>
      <trkpt lat="32.05195891669201" lon="118.80422352497985">
        <ele>12.945224805735052</ele>
        <time>2026-07-22T10:38:41Z</time>
      </trkpt>
      <trkpt lat="32.051983012983534" lon="118.80427562582122">
        <ele>13.827747388742864</ele>
        <time>2026-07-22T10:38:41Z</time>
      </trkpt>
      <trkpt lat="32.052044131567186" lon="118.80433573916986">
        <ele>11.864536329172552</ele>
        <time>2026-07-22T10:38:41Z</time>
      </trkpt>
      <trkpt lat="32.05212423518049" lon="118.80438482900706">
        <ele>13.375919385813177</ele>
        <time>2026-07-22T10:38:41Z</time>
      </trkpt>
      <trkpt lat="32.052438440055724" lon="118.80446195295404">
        <ele>11.64522938337177</ele>
        <time>2026-07-22T10:38:41Z</time>
      </trkpt>
      <trkpt lat="32.05272166963251" lon="118.80455711560191">
        <ele>10.376934095285833</ele>
        <time>2026-07-22T10:38:41Z</time>
      </trkpt>
      <trkpt lat="32.05300987235971" lon="118.80463624612668">
        <ele>13.867382093332708</ele>
        <time>2026-07-22T10:38:41Z</time>
      </trkpt>
      <trkpt lat="32.05316987468263" lon="118.80461719365562">
        <ele>12.348072095774114</ele>
        <time>2026-07-22T10:38:41Z</time>
      </trkpt>
      <trkpt lat="32.05324883090288" lon="118.8045821168398">
        <ele>13.60579304303974</ele>
        <time>2026-07-22T10:38:41Z</time>
      </trkpt>
      <trkpt lat="32.05330673338297" lon="118.80451898635843">
        <ele>12.53567127790302</ele>
        <time>2026-07-22T10:38:41Z</time>
      </trkpt>
      <trkpt lat="32.05338238083019" lon="118.80430756067896">
        <ele>13.930797620676458</ele>
        <time>2026-07-22T10:38:41Z</time>
      </trkpt>
      <trkpt lat="32.05339717606814" lon="118.80418832348045">
        <ele>13.14339832868427</ele>
        <time>2026-07-22T10:38:41Z</time>
      </trkpt>
      <trkpt lat="32.053355945065015" lon="118.80406107582901">
        <ele>11.571239515207708</ele>
        <time>2026-07-22T10:38:41Z</time>
      </trkpt>
      <trkpt lat="32.053102543254695" lon="118.80386270763279">
        <ele>13.196239515207708</ele>
        <time>2026-07-22T10:38:41Z</time>
      </trkpt>
      <trkpt lat="32.05279433868629" lon="118.80378458191306">
        <ele>12.369213148020208</ele>
        <time>2026-07-22T10:38:41Z</time>
      </trkpt>
      <trkpt lat="32.052490067186206" lon="118.80366737900049">
        <ele>12.80782703962177</ele>
        <time>2026-07-22T10:38:41Z</time>
      </trkpt>
      <trkpt lat="32.05233594758265" lon="118.80361829654073">
        <ele>13.082622571848333</ele>
        <time>2026-07-22T10:38:41Z</time>
      </trkpt>
      <trkpt lat="32.05215293112462" lon="118.80363234096218">
        <ele>12.348072095774114</ele>
        <time>2026-07-22T10:38:41Z</time>
      </trkpt>
      <trkpt lat="32.05207596789255" lon="118.80366340916626">
        <ele>13.06148914899677</ele>
        <time>2026-07-22T10:38:41Z</time>
      </trkpt>
      <trkpt lat="32.05200604453611" lon="118.80371652014382">
        <ele>13.856807752512395</ele>
        <time>2026-07-22T10:38:41Z</time>
      </trkpt>
      <trkpt lat="32.05195717294145" lon="118.80379668253725">
        <ele>12.966365857981145</ele>
        <time>2026-07-22T10:38:41Z</time>
      </trkpt>
      <trkpt lat="32.05190748784862" lon="118.80398405661182">
        <ele>14.509449048899114</ele>
        <time>2026-07-22T10:38:41Z</time>
      </trkpt>
      <trkpt lat="32.051915658966266" lon="118.80408124775744">
        <ele>13.407627149485052</ele>
        <time>2026-07-22T10:38:41Z</time>
      </trkpt>
      <trkpt lat="32.051981977780116" lon="118.80425558627445">
        <ele>12.168399854563177</ele>
        <time>2026-07-22T10:38:41Z</time>
      </trkpt>
      <trkpt lat="32.05203410658741" lon="118.80432271431043">
        <ele>13.428760572336614</ele>
        <time>2026-07-22T10:38:41Z</time>
      </trkpt>
      <trkpt lat="32.05217227390029" lon="118.80440085633944">
        <ele>13.626934095285833</ele>
        <time>2026-07-22T10:38:41Z</time>
      </trkpt>
      <trkpt lat="32.052468478279486" lon="118.80447998593124">
        <ele>12.11819080915302</ele>
        <time>2026-07-22T10:38:41Z</time>
      </trkpt>
      <trkpt lat="32.05279272929076" lon="118.80458215874727">
        <ele>12.097057386301458</ele>
        <time>2026-07-22T10:38:41Z</time>
      </trkpt>
      <trkpt lat="32.05299288786866" lon="118.80464726955658">
        <ele>12.53567127790302</ele>
        <time>2026-07-22T10:38:41Z</time>
      </trkpt>
      <trkpt lat="32.053149917588435" lon="118.80464424916401">
        <ele>13.867382093332708</ele>
        <time>2026-07-22T10:38:41Z</time>
      </trkpt>
      <trkpt lat="32.053294765764264" lon="118.80453902718489">
        <ele>11.277950330637395</ele>
        <time>2026-07-22T10:38:41Z</time>
      </trkpt>
      <trkpt lat="32.0533646551873" lon="118.80446687777632">
        <ele>13.114330335520208</ele>
        <time>2026-07-22T10:38:41Z</time>
      </trkpt>
      <trkpt lat="32.053405546977075" lon="118.80439974103614">
        <ele>13.700916334055364</ele>
        <time>2026-07-22T10:38:41Z</time>
      </trkpt>
      <trkpt lat="32.05342028434305" lon="118.80424743825698">
        <ele>13.66920857038349</ele>
        <time>2026-07-22T10:38:41Z</time>
      </trkpt>
      <trkpt lat="32.05340612913659" lon="118.80416026719953">
        <ele>13.323070569895208</ele>
        <time>2026-07-22T10:38:41Z</time>
      </trkpt>
      <trkpt lat="32.053330873154614" lon="118.80402300295002">
        <ele>11.761486097238958</ele>
        <time>2026-07-22T10:38:41Z</time>
      </trkpt>
      <trkpt lat="32.05320966125096" lon="118.8039168044931">
        <ele>13.47896198835224</ele>
        <time>2026-07-22T10:38:41Z</time>
      </trkpt>
      <trkpt lat="32.05290739871689" lon="118.80380461101169">
        <ele>13.291362806223333</ele>
        <time>2026-07-22T10:38:41Z</time>
      </trkpt>
      <trkpt lat="32.05262416669045" lon="118.80370744558276">
        <ele>13.690349622629583</ele>
        <time>2026-07-22T10:38:41Z</time>
      </trkpt>
      <trkpt lat="32.052288919704566" lon="118.80360828114848">
        <ele>13.74319080915302</ele>
        <time>2026-07-22T10:38:41Z</time>
      </trkpt>
      <trkpt lat="32.052208896643315" lon="118.80360528258863">
        <ele>12.11819080915302</ele>
        <time>2026-07-22T10:38:41Z</time>
      </trkpt>
      <trkpt lat="32.05211092697575" lon="118.80363535073752">
        <ele>12.567379041574895</ele>
        <time>2026-07-22T10:38:41Z</time>
      </trkpt>
      <trkpt lat="32.05200405453699" lon="118.8037225321657">
        <ele>12.556812330149114</ele>
        <time>2026-07-22T10:38:41Z</time>
      </trkpt>
      <trkpt lat="32.051921269473404" lon="118.80385680433277">
        <ele>12.736484571360052</ele>
        <time>2026-07-22T10:38:41Z</time>
      </trkpt>
      <trkpt lat="32.051896532514554" lon="118.80401111101753">
        <ele>13.700916334055364</ele>
        <time>2026-07-22T10:38:41Z</time>
      </trkpt>
      <trkpt lat="32.05190572310837" lon="118.80411932388824">
        <ele>12.46168903913349</ele>
        <time>2026-07-22T10:38:41Z</time>
      </trkpt>
      <trkpt lat="32.051962977038926" lon="118.80425759198422">
        <ele>13.722057386301458</ele>
        <time>2026-07-22T10:38:41Z</time>
      </trkpt>
      <trkpt lat="32.05204610401504" lon="118.80431970725908">
        <ele>13.153965040110052</ele>
        <time>2026-07-22T10:38:41Z</time>
      </trkpt>
      <trkpt lat="32.052259342336285" lon="118.80442890390532">
        <ele>14.591365857981145</ele>
        <time>2026-07-22T10:38:41Z</time>
      </trkpt>
      <trkpt lat="32.05254452501157" lon="118.80449701270048">
        <ele>13.785465284250677</ele>
        <time>2026-07-22T10:38:41Z</time>
      </trkpt>
      <trkpt lat="32.05263164956948" lon="118.80455712387305">
        <ele>13.46046833600849</ele>
        <time>2026-07-22T10:38:41Z</time>
      </trkpt>
      <trkpt lat="32.05270671538149" lon="118.80458517261188">
        <ele>14.047054334543645</ele>
        <time>2026-07-22T10:38:41Z</time>
      </trkpt>
      <trkpt lat="32.052872785700906" lon="118.80460419511331">
        <ele>13.365345044992864</ele>
        <time>2026-07-22T10:38:41Z</time>
      </trkpt>
      <trkpt lat="32.053054919228686" lon="118.80465728374003">
        <ele>23.91066364850849</ele>
        <time>2026-07-22T10:38:41Z</time>
      </trkpt>
      <trkpt lat="32.0531409418997" lon="118.804659279813">
        <ele>13.552951856516302</ele>
        <time>2026-07-22T10:38:41Z</time>
      </trkpt>
      <trkpt lat="32.05325487783428" lon="118.80460816795635">
        <ele>13.082622571848333</ele>
        <time>2026-07-22T10:38:41Z</time>
      </trkpt>
      <trkpt lat="32.053349685133824" lon="118.80448591687646">
        <ele>14.372051282785833</ele>
        <time>2026-07-22T10:38:41Z</time>
      </trkpt>
      <trkpt lat="32.0533883751683" lon="118.80430355219707">
        <ele>14.01534657087177</ele>
        <time>2026-07-22T10:38:41Z</time>
      </trkpt>
      <trkpt lat="32.053393220627925" lon="118.8042143753522">
        <ele>13.95193104352802</ele>
        <time>2026-07-22T10:38:41Z</time>
      </trkpt>
      <trkpt lat="32.05335894573326" lon="118.80406107555326">
        <ele>13.06148914899677</ele>
        <time>2026-07-22T10:38:41Z</time>
      </trkpt>
      <trkpt lat="32.05329773841602" lon="118.80394986163088">
        <ele>13.88851551618427</ele>
        <time>2026-07-22T10:38:41Z</time>
      </trkpt>
      <trkpt lat="32.05316256882613" lon="118.80386971594592">
        <ele>14.152744336985052</ele>
        <time>2026-07-22T10:38:41Z</time>
      </trkpt>
      <trkpt lat="32.05288438139441" lon="118.80379759930517">
        <ele>13.574085279367864</ele>
        <time>2026-07-22T10:38:41Z</time>
      </trkpt>
      <trkpt lat="32.052574131170694" lon="118.80369342256085">
        <ele>13.66920857038349</ele>
        <time>2026-07-22T10:38:41Z</time>
      </trkpt>
      <trkpt lat="32.052289951241946" lon="118.8036263165402">
        <ele>12.778759046457708</ele>
        <time>2026-07-22T10:38:41Z</time>
      </trkpt>
      <trkpt lat="32.05205700020482" lon="118.80368445232997">
        <ele>13.407627149485052</ele>
        <time>2026-07-22T10:38:41Z</time>
      </trkpt>
      <trkpt lat="32.05196811790769" lon="118.8037636163839">
        <ele>12.93465809430927</ele>
        <time>2026-07-22T10:38:41Z</time>
      </trkpt>
      <trkpt lat="32.05189937790125" lon="118.80392193478234">
        <ele>13.531810804270208</ele>
        <time>2026-07-22T10:38:41Z</time>
      </trkpt>
      <trkpt lat="32.05189454079544" lon="118.80401612109054">
        <ele>13.500103040598333</ele>
        <time>2026-07-22T10:38:41Z</time>
      </trkpt>
      <trkpt lat="32.05193887901242" lon="118.80420448917707">
        <ele>13.33363728132099</ele>
        <time>2026-07-22T10:38:41Z</time>
      </trkpt>
      <trkpt lat="32.05198399396675" lon="118.80426460392725">
        <ele>12.839534803293645</ele>
        <time>2026-07-22T10:38:41Z</time>
      </trkpt>
      <trkpt lat="32.052153243399964" lon="118.80438582832574">
        <ele>14.403759046457708</ele>
        <time>2026-07-22T10:38:41Z</time>
      </trkpt>
      <trkpt lat="32.0524284798727" lon="118.80448600151992">
        <ele>12.955791517160833</ele>
        <time>2026-07-22T10:38:41Z</time>
      </trkpt>
      <trkpt lat="32.05271269567792" lon="118.8045731482169">
        <ele>14.025913282297552</ele>
        <time>2026-07-22T10:38:41Z</time>
      </trkpt>
      <trkpt lat="32.05305394181564" lon="118.80467030967998">
        <ele>13.492176099680364</ele>
        <time>2026-07-22T10:38:41Z</time>
      </trkpt>
      <trkpt lat="32.05313495635426" lon="118.80466829825922">
        <ele>11.927951856516302</ele>
        <time>2026-07-22T10:38:41Z</time>
      </trkpt>
      <trkpt lat="32.05324588635251" lon="118.80461418070838">
        <ele>13.846241041086614</ele>
        <time>2026-07-22T10:38:41Z</time>
      </trkpt>
      <trkpt lat="32.05332376871857" lon="118.80453702054703">
        <ele>13.531810804270208</ele>
        <time>2026-07-22T10:38:41Z</time>
      </trkpt>
      <trkpt lat="32.053403511516244" lon="118.80437970154075">
        <ele>11.811687513254583</ele>
        <time>2026-07-22T10:38:41Z</time>
      </trkpt>
      <trkpt lat="32.0534212023898" lon="118.80420034504434">
        <ele>12.87124256696552</ele>
        <time>2026-07-22T10:38:41Z</time>
      </trkpt>
      <trkpt lat="32.053364903421574" lon="118.80403602554065">
        <ele>14.55965809430927</ele>
        <time>2026-07-22T10:38:41Z</time>
      </trkpt>
      <trkpt lat="32.05326967112956" lon="118.80391479502555">
        <ele>14.456607862375677</ele>
        <time>2026-07-22T10:38:41Z</time>
      </trkpt>
      <trkpt lat="32.05315054523333" lon="118.80385769334397">
        <ele>13.238521619699895</ele>
        <time>2026-07-22T10:38:41Z</time>
      </trkpt>
      <trkpt lat="32.052907424854716" lon="118.80381964063005">
        <ele>13.81453327741474</ele>
        <time>2026-07-22T10:38:41Z</time>
      </trkpt>
      <trkpt lat="32.05261412616257" lon="118.80368540310394">
        <ele>12.46168903913349</ele>
        <time>2026-07-22T10:38:41Z</time>
      </trkpt>
      <trkpt lat="32.05227992639531" lon="118.80361329183178">
        <ele>14.036487623117864</ele>
        <time>2026-07-22T10:38:41Z</time>
      </trkpt>
      <trkpt lat="32.052191894591054" lon="118.80360628612239">
        <ele>13.61635975446552</ele>
        <time>2026-07-22T10:38:41Z</time>
      </trkpt>
      <trkpt lat="32.0520579586561" lon="118.80366040490462">
        <ele>13.082622571848333</ele>
        <time>2026-07-22T10:38:41Z</time>
      </trkpt>
      <trkpt lat="32.05195716945688" lon="118.80379467858872">
        <ele>14.152744336985052</ele>
        <time>2026-07-22T10:38:41Z</time>
      </trkpt>
      <trkpt lat="32.05192933576545" lon="118.80389387669383">
        <ele>13.39705280866474</ele>
        <time>2026-07-22T10:38:41Z</time>
      </trkpt>
      <trkpt lat="32.051943811960975" lon="118.80416541147297">
        <ele>13.132823987863958</ele>
        <time>2026-07-22T10:38:41Z</time>
      </trkpt>
      <trkpt lat="32.051990992030476" lon="118.80426259932011">
        <ele>12.157825513742864</ele>
        <time>2026-07-22T10:38:41Z</time>
      </trkpt>
      <trkpt lat="32.05212920128465" lon="118.80436478887368">
        <ele>13.238521619699895</ele>
        <time>2026-07-22T10:38:41Z</time>
      </trkpt>
      <trkpt lat="32.05240043333393" lon="118.80446295843144">
        <ele>13.626934095285833</ele>
        <time>2026-07-22T10:38:41Z</time>
      </trkpt>
      <trkpt lat="32.05271671059671" lon="118.80458116374477">
        <ele>13.74319080915302</ele>
        <time>2026-07-22T10:38:41Z</time>
      </trkpt>
      <trkpt lat="32.052984861526134" lon="118.80463324246067">
        <ele>13.552951856516302</ele>
        <time>2026-07-22T10:38:41Z</time>
      </trkpt>
      <trkpt lat="32.05315394830521" lon="118.8046612825948">
        <ele>13.74319080915302</ele>
        <time>2026-07-22T10:38:41Z</time>
      </trkpt>
      <trkpt lat="32.05324889929854" lon="118.80462119434578">
        <ele>14.07876209821552</ele>
        <time>2026-07-22T10:38:41Z</time>
      </trkpt>
      <trkpt lat="32.05333178802964" lon="118.80454703967568">
        <ele>13.407627149485052</ele>
        <time>2026-07-22T10:38:41Z</time>
      </trkpt>
      <trkpt lat="32.05339563056119" lon="118.80444883919635">
        <ele>12.514537855051458</ele>
        <time>2026-07-22T10:38:41Z</time>
      </trkpt>
      <trkpt lat="32.05342344770715" lon="118.80434062234663">
        <ele>13.722057386301458</ele>
        <time>2026-07-22T10:38:41Z</time>
      </trkpt>
      <trkpt lat="32.053422260307265" lon="118.80423341033134">
        <ele>13.88851551618427</ele>
        <time>2026-07-22T10:38:41Z</time>
      </trkpt>
      <trkpt lat="32.053400078875185" lon="118.80413221231004">
        <ele>13.531810804270208</ele>
        <time>2026-07-22T10:38:41Z</time>
      </trkpt>
      <trkpt lat="32.053306770079615" lon="118.80396689441213">
        <ele>12.80782703962177</ele>
        <time>2026-07-22T10:38:41Z</time>
      </trkpt>
      <trkpt lat="32.053246657285946" lon="118.80390978725858">
        <ele>12.474903150461614</ele>
        <time>2026-07-22T10:38:41Z</time>
      </trkpt>
      <trkpt lat="32.052962440597106" lon="118.80382163952397">
        <ele>13.386486097238958</ele>
        <time>2026-07-22T10:38:41Z</time>
      </trkpt>
      <trkpt lat="32.05273831400939" lon="118.80377757324217">
        <ele>14.47774128522724</ele>
        <time>2026-07-22T10:38:41Z</time>
      </trkpt>
      <trkpt lat="32.05247806277012" lon="118.80366637813135">
        <ele>12.168399854563177</ele>
        <time>2026-07-22T10:38:41Z</time>
      </trkpt>
      <trkpt lat="32.05223791876766" lon="118.80361429766366">
        <ele>12.778759046457708</ele>
        <time>2026-07-22T10:38:41Z</time>
      </trkpt>
      <trkpt lat="32.05208096726758" lon="118.80366240673462">
        <ele>13.500103040598333</ele>
        <time>2026-07-22T10:38:41Z</time>
      </trkpt>
      <trkpt lat="32.05200603931277" lon="118.80371351422504">
        <ele>13.66920857038349</ele>
        <time>2026-07-22T10:38:41Z</time>
      </trkpt>
      <trkpt lat="32.051910275735125" lon="118.80386181522039">
        <ele>13.700916334055364</ele>
        <time>2026-07-22T10:38:41Z</time>
      </trkpt>
      <trkpt lat="32.051890429967415" lon="118.80395299688402">
        <ele>13.60579304303974</ele>
        <time>2026-07-22T10:38:41Z</time>
      </trkpt>
      <trkpt lat="32.05190376808732" lon="118.80414537554623">
        <ele>13.217380567453802</ele>
        <time>2026-07-22T10:38:41Z</time>
      </trkpt>
      <trkpt lat="32.05198706285792" lon="118.80430368095861">
        <ele>13.175106092356145</ele>
        <time>2026-07-22T10:38:41Z</time>
      </trkpt>
      <trkpt lat="32.05223632494764" lon="118.80442189212752">
        <ele>13.175106092356145</ele>
        <time>2026-07-22T10:38:41Z</time>
      </trkpt>
      <trkpt lat="32.052435407856954" lon="118.80444391750065">
        <ele>13.238521619699895</ele>
        <time>2026-07-22T10:38:41Z</time>
      </trkpt>
      <trkpt lat="32.05269860666035" lon="118.80452405216606">
        <ele>13.722057386301458</ele>
        <time>2026-07-22T10:38:41Z</time>
      </trkpt>
      <trkpt lat="32.05297684044831" lon="118.80462222133073">
        <ele>13.196239515207708</ele>
        <time>2026-07-22T10:38:41Z</time>
      </trkpt>
      <trkpt lat="32.05305488940406" lon="118.80464024994276">
        <ele>13.365345044992864</ele>
        <time>2026-07-22T10:38:41Z</time>
      </trkpt>
      <trkpt lat="32.05318987913848" lon="118.80461719181757">
        <ele>12.71535114850849</ele>
        <time>2026-07-22T10:38:41Z</time>
      </trkpt>
      <trkpt lat="32.053254837499985" lon="118.8045851222495">
        <ele>13.407627149485052</ele>
        <time>2026-07-22T10:38:41Z</time>
      </trkpt>
      <trkpt lat="32.05336163349785" lon="118.80445485423088">
        <ele>13.61635975446552</ele>
        <time>2026-07-22T10:38:41Z</time>
      </trkpt>
      <trkpt lat="32.05339935487542" lon="118.80429052541395">
        <ele>13.27022175397724</ele>
        <time>2026-07-22T10:38:41Z</time>
      </trkpt>
      <trkpt lat="32.05339920797848" lon="118.80420635895214">
        <ele>13.66920857038349</ele>
        <time>2026-07-22T10:38:41Z</time>
      </trkpt>
      <trkpt lat="32.05337804951665" lon="118.80411818661644">
        <ele>11.016368909738958</ele>
        <time>2026-07-22T10:38:41Z</time>
      </trkpt>
      <trkpt lat="32.05334191051896" lon="118.80404304150278">
        <ele>13.407627149485052</ele>
        <time>2026-07-22T10:38:41Z</time>
      </trkpt>
      <trkpt lat="32.05322966919471" lon="118.80391880660736">
        <ele>13.793392225168645</ele>
        <time>2026-07-22T10:38:41Z</time>
      </trkpt>
      <trkpt lat="32.052899438756064" lon="118.80382865913818">
        <ele>13.626934095285833</ele>
        <time>2026-07-22T10:38:41Z</time>
      </trkpt>
      <trkpt lat="32.05262819195766" lon="118.80372147283617">
        <ele>13.81453327741474</ele>
        <time>2026-07-22T10:38:41Z</time>
      </trkpt>
      <trkpt lat="32.052463047243016" lon="118.80365936570561">
        <ele>13.94136433210224</ele>
        <time>2026-07-22T10:38:41Z</time>
      </trkpt>
      <trkpt lat="32.05229094972516" lon="118.80362531447683">
        <ele>13.973072095774114</ele>
        <time>2026-07-22T10:38:41Z</time>
      </trkpt>
      <trkpt lat="32.052206932730186" lon="118.80362632416949">
        <ele>14.089328809641302</ele>
        <time>2026-07-22T10:38:41Z</time>
      </trkpt>
      <trkpt lat="32.0521239611971" lon="118.80365338503427">
        <ele>14.163311048410833</ele>
        <time>2026-07-22T10:38:41Z</time>
      </trkpt>
      <trkpt lat="32.05202703877451" lon="118.80371050637613">
        <ele>13.88851551618427</ele>
        <time>2026-07-22T10:38:41Z</time>
      </trkpt>
      <trkpt lat="32.05195115069627" lon="118.80378465939854">
        <ele>12.567379041574895</ele>
        <time>2026-07-22T10:38:41Z</time>
      </trkpt>
      <trkpt lat="32.05191329383761" lon="118.80387183469901">
        <ele>13.73262409772724</ele>
        <time>2026-07-22T10:38:41Z</time>
      </trkpt>
      <trkpt lat="32.05189946861435" lon="118.80397403757432">
        <ele>13.764331861399114</ele>
        <time>2026-07-22T10:38:41Z</time>
      </trkpt>
      <trkpt lat="32.05190765368855" lon="118.80407924453486">
        <ele>12.11819080915302</ele>
        <time>2026-07-22T10:38:41Z</time>
      </trkpt>
      <trkpt lat="32.05194187618548" lon="118.80420248493948">
        <ele>11.30965809430927</ele>
        <time>2026-07-22T10:38:41Z</time>
      </trkpt>
      <trkpt lat="32.05199703010064" lon="118.80428364039184">
        <ele>12.168399854563177</ele>
        <time>2026-07-22T10:38:41Z</time>
      </trkpt>
      <trkpt lat="32.05206816492308" lon="118.80435176869526">
        <ele>12.242382093332708</ele>
        <time>2026-07-22T10:38:41Z</time>
      </trkpt>
      <trkpt lat="32.05239043460761" lon="118.80446496332071">
        <ele>12.503963514231145</ele>
        <time>2026-07-22T10:38:41Z</time>
      </trkpt>
      <trkpt lat="32.052661649245046" lon="118.8045531131697">
        <ele>12.768192335031927</ele>
        <time>2026-07-22T10:38:41Z</time>
      </trkpt>
      <trkpt lat="32.05301990441174" lon="118.80465327900384">
        <ele>13.531810804270208</ele>
        <time>2026-07-22T10:38:41Z</time>
      </trkpt>
      <trkpt lat="32.053149924605854" lon="118.80464825711617">
        <ele>13.711483045481145</ele>
        <time>2026-07-22T10:38:41Z</time>
      </trkpt>
      <trkpt lat="32.05329081045234" lon="118.80456507920275">
        <ele>13.12489704694599</ele>
        <time>2026-07-22T10:38:41Z</time>
      </trkpt>
      <trkpt lat="32.05337862677464" lon="118.80444884075875">
        <ele>12.52510456647724</ele>
        <time>2026-07-22T10:38:41Z</time>
      </trkpt>
      <trkpt lat="32.05341934358633" lon="118.8042815057351">
        <ele>13.365345044992864</ele>
        <time>2026-07-22T10:38:41Z</time>
      </trkpt>
      <trkpt lat="32.05342317137193" lon="118.80418230920674">
        <ele>13.67977528180927</ele>
        <time>2026-07-22T10:38:41Z</time>
      </trkpt>
      <trkpt lat="32.05337692704448" lon="118.80404804817775">
        <ele>14.654773755930364</ele>
        <time>2026-07-22T10:38:41Z</time>
      </trkpt>
      <trkpt lat="32.05331276094791" lon="118.80396088199828">
        <ele>14.099903150461614</ele>
        <time>2026-07-22T10:38:41Z</time>
      </trkpt>
      <trkpt lat="32.05302949909845" lon="118.80384668273855">
        <ele>14.340343519113958</ele>
        <time>2026-07-22T10:38:41Z</time>
      </trkpt>
      <trkpt lat="32.05272123532647" lon="118.80373448993885">
        <ele>12.99807362165302</ele>
        <time>2026-07-22T10:38:41Z</time>
      </trkpt>
      <trkpt lat="32.052403023422315" lon="118.80365335938897">
        <ele>10.83668903913349</ele>
        <time>2026-07-22T10:38:41Z</time>
      </trkpt>
      <trkpt lat="32.05226588500466" lon="118.80359124975529">
        <ele>14.905796094797552</ele>
        <time>2026-07-22T10:38:41Z</time>
      </trkpt>
      <trkpt lat="32.05217986234464" lon="118.80358925371867">
        <ele>13.12489704694599</ele>
        <time>2026-07-22T10:38:41Z</time>
      </trkpt>
      <trkpt lat="32.052034005518124" lon="118.80369046627891">
        <ele>15.24135975446552</ele>
        <time>2026-07-22T10:38:41Z</time>
      </trkpt>
      <trkpt lat="32.051976097050115" lon="118.80375058999141">
        <ele>15.117176099680364</ele>
        <time>2026-07-22T10:38:41Z</time>
      </trkpt>
      <trkpt lat="32.051897339088136" lon="118.80389989149062">
        <ele>16.250713392160833</ele>
        <time>2026-07-22T10:38:41Z</time>
      </trkpt>
      <trkpt lat="32.05188446701236" lon="118.80397504093018">
        <ele>14.884655042551458</ele>
        <time>2026-07-22T10:38:41Z</time>
      </trkpt>
      <trkpt lat="32.05190173619183" lon="118.8041273400929">
        <ele>15.35762409772724</ele>
        <time>2026-07-22T10:38:41Z</time>
      </trkpt>
      <trkpt lat="32.05193797845693" lon="118.80426160220921">
        <ele>14.22408680524677</ele>
        <time>2026-07-22T10:38:41Z</time>
      </trkpt>
      <trkpt lat="32.052195280781355" lon="118.8044018562098">
        <ele>14.527950330637395</ele>
        <time>2026-07-22T10:38:41Z</time>
      </trkpt>
      <trkpt lat="32.05251046486899" lon="118.8044669562627">
        <ele>13.531810804270208</ele>
        <time>2026-07-22T10:38:41Z</time>
      </trkpt>
      <trkpt lat="32.05277572725502" lon="118.80458316229661">
        <ele>14.884655042551458</ele>
        <time>2026-07-22T10:38:41Z</time>
      </trkpt>
      <trkpt lat="32.05302890817169" lon="118.8046542801649">
        <ele>15.09603504743427</ele>
        <time>2026-07-22T10:38:41Z</time>
      </trkpt>
      <trkpt lat="32.05318287757895" lon="118.80461719246088">
        <ele>14.55965809430927</ele>
        <time>2026-07-22T10:38:41Z</time>
      </trkpt>
      <trkpt lat="32.05329776818542" lon="118.80454002889553">
        <ele>6.035678907297552</ele>
        <time>2026-07-22T10:38:41Z</time>
      </trkpt>
      <trkpt lat="32.05334468927651" lon="118.80448892329254">
        <ele>8.804782911203802</ele>
        <time>2026-07-22T10:38:41Z</time>
      </trkpt>
      <trkpt lat="32.053404471478274" lon="118.80435665582571">
        <ele>15.064327283762395</ele>
        <time>2026-07-22T10:38:41Z</time>
      </trkpt>
      <trkpt lat="32.05339818677866" lon="118.80419433527312">
        <ele>15.569004102610052</ele>
        <time>2026-07-22T10:38:41Z</time>
      </trkpt>
      <trkpt lat="32.053304841181145" lon="118.80400797567124">
        <ele>14.948070569895208</ele>
        <time>2026-07-22T10:38:41Z</time>
      </trkpt>
      <trkpt lat="32.053175610079784" lon="118.80389175821624">
        <ele>16.11331562604755</ele>
        <time>2026-07-22T10:38:41Z</time>
      </trkpt>
      <trkpt lat="32.053106547632474" lon="118.80386471121595">
        <ele>15.201725049875677</ele>
        <time>2026-07-22T10:38:41Z</time>
      </trkpt>
      <trkpt lat="32.05301752780119" lon="118.80386471939657">
        <ele>12.673069044016302</ele>
        <time>2026-07-22T10:38:41Z</time>
      </trkpt>
      <trkpt lat="32.0528753811309" lon="118.80379860210675">
        <ele>14.62306599225849</ele>
        <time>2026-07-22T10:38:41Z</time>
      </trkpt>
      <trkpt lat="32.0525501554155" lon="118.80371045830326">
        <ele>11.528965040110052</ele>
        <time>2026-07-22T10:38:41Z</time>
      </trkpt>
      <trkpt lat="32.05227992291608" lon="118.80361128788932">
        <ele>15.16737751569599</ele>
        <time>2026-07-22T10:38:41Z</time>
      </trkpt>
      <trkpt lat="32.05213191426136" lon="118.80362532909196">
        <ele>14.601932569406927</ele>
        <time>2026-07-22T10:38:41Z</time>
      </trkpt>
      <trkpt lat="32.052030002885026" lon="118.80368946467406">
        <ele>15.074901624582708</ele>
        <time>2026-07-22T10:38:41Z</time>
      </trkpt>
      <trkpt lat="32.05195114198583" lon="118.80377964952835">
        <ele>13.60579304303974</ele>
        <time>2026-07-22T10:38:41Z</time>
      </trkpt>
      <trkpt lat="32.051891505219714" lon="118.80399608181189">
        <ele>14.884655042551458</ele>
        <time>2026-07-22T10:38:41Z</time>
      </trkpt>
      <trkpt lat="32.05190074295703" lon="118.80413134810372">
        <ele>15.09603504743427</ele>
        <time>2026-07-22T10:38:41Z</time>
      </trkpt>
      <trkpt lat="32.05194292011607" lon="118.80422753437549">
        <ele>16.060466810129583</ele>
        <time>2026-07-22T10:38:41Z</time>
      </trkpt>
      <trkpt lat="32.05198602239881" lon="118.80428063545618">
        <ele>15.262500806711614</ele>
        <time>2026-07-22T10:38:41Z</time>
      </trkpt>
      <trkpt lat="32.052186317297995" lon="118.8044239006916">
        <ele>13.962497754953802</ele>
        <time>2026-07-22T10:38:41Z</time>
      </trkpt>
      <trkpt lat="32.05247548509649" lon="118.80448299124414">
        <ele>14.821239515207708</ele>
        <time>2026-07-22T10:38:41Z</time>
      </trkpt>
      <trkpt lat="32.052779722886235" lon="118.80458015596798">
        <ele>14.884655042551458</ele>
        <time>2026-07-22T10:38:41Z</time>
      </trkpt>
      <trkpt lat="32.05302189257658" lon="118.80464626490341">
        <ele>14.739330335520208</ele>
        <time>2026-07-22T10:38:41Z</time>
      </trkpt>
      <trkpt lat="32.0531649104047" lon="118.80463823585775">
        <ele>14.456607862375677</ele>
        <time>2026-07-22T10:38:41Z</time>
      </trkpt>
      <trkpt lat="32.05323787580093" lon="118.80460917150614">
        <ele>13.95193104352802</ele>
        <time>2026-07-22T10:38:41Z</time>
      </trkpt>
      <trkpt lat="32.05335274012449" lon="118.80451697815879">
        <ele>14.95863728132099</ele>
        <time>2026-07-22T10:38:41Z</time>
      </trkpt>
      <trkpt lat="32.05339657649111" lon="118.80441777758007">
        <ele>14.372051282785833</ele>
        <time>2026-07-22T10:38:41Z</time>
      </trkpt>
      <trkpt lat="32.05344415332855" lon="118.8041692815299">
        <ele>15.872867628000677</ele>
        <time>2026-07-22T10:38:41Z</time>
      </trkpt>
      <trkpt lat="32.05340296077222" lon="118.80406407744506">
        <ele>14.520023389719427</ele>
        <time>2026-07-22T10:38:41Z</time>
      </trkpt>
      <trkpt lat="32.05334280601672" lon="118.80398292273902">
        <ele>13.983638807199895</ele>
        <time>2026-07-22T10:38:41Z</time>
      </trkpt>
      <trkpt lat="32.05326369595464" lon="118.80392982522271">
        <ele>5.092388196848333</ele>
        <time>2026-07-22T10:38:41Z</time>
      </trkpt>
      <trkpt lat="32.053104606466825" lon="118.80389877857387">
        <ele>15.442173047922552</ele>
        <time>2026-07-22T10:38:41Z</time>
      </trkpt>
      <trkpt lat="32.05302250799701" lon="118.80385269523305">
        <ele>15.043193860910833</ele>
        <time>2026-07-22T10:38:41Z</time>
      </trkpt>
      <trkpt lat="32.05273930378043" lon="118.80377156130665">
        <ele>15.201725049875677</ele>
        <time>2026-07-22T10:38:41Z</time>
      </trkpt>
      <trkpt lat="32.05248005799493" lon="118.8036633720312">
        <ele>14.654773755930364</ele>
        <time>2026-07-22T10:38:41Z</time>
      </trkpt>
      <trkpt lat="32.05226589891957" lon="118.80359926552285">
        <ele>13.648067518137395</ele>
        <time>2026-07-22T10:38:41Z</time>
      </trkpt>
      <trkpt lat="32.052181895839645" lon="118.80360829098386">
        <ele>15.30477528180927</ele>
        <time>2026-07-22T10:38:41Z</time>
      </trkpt>
      <trkpt lat="32.05201801935696" lon="118.80370048747565">
        <ele>14.884655042551458</ele>
        <time>2026-07-22T10:38:41Z</time>
      </trkpt>
      <trkpt lat="32.051944156103104" lon="118.8037886679384">
        <ele>15.220226331613958</ele>
        <time>2026-07-22T10:38:41Z</time>
      </trkpt>
      <trkpt lat="32.05189632840253" lon="118.80389387972694">
        <ele>15.14888386335224</ele>
        <time>2026-07-22T10:38:41Z</time>
      </trkpt>
      <trkpt lat="32.0518785232622" lon="118.80400810673856">
        <ele>15.000911756418645</ele>
        <time>2026-07-22T10:38:41Z</time>
      </trkpt>
      <trkpt lat="32.05188470968827" lon="118.80411431592069">
        <ele>14.121036573313177</ele>
        <time>2026-07-22T10:38:41Z</time>
      </trkpt>
      <trkpt lat="32.0519108535364" lon="118.80419346996102">
        <ele>14.446041150949895</ele>
        <time>2026-07-22T10:38:41Z</time>
      </trkpt>
      <trkpt lat="32.051953983775654" lon="118.8042626027206">
        <ele>14.245227857492864</ele>
        <time>2026-07-22T10:38:41Z</time>
      </trkpt>
      <trkpt lat="32.05208118532613" lon="118.80436178733454">
        <ele>11.906810804270208</ele>
        <time>2026-07-22T10:38:41Z</time>
      </trkpt>
      <trkpt lat="32.05215126046169" lon="118.80439584834905">
        <ele>15.043193860910833</ele>
        <time>2026-07-22T10:38:41Z</time>
      </trkpt>
      <trkpt lat="32.05243644136154" lon="118.80446295512294">
        <ele>10.97408680524677</ele>
        <time>2026-07-22T10:38:41Z</time>
      </trkpt>
      <trkpt lat="32.052566533421135" lon="118.80449901464996">
        <ele>15.389331861399114</ele>
        <time>2026-07-22T10:38:41Z</time>
      </trkpt>
      <trkpt lat="32.05268167649446" lon="118.80456613715816">
        <ele>15.074901624582708</ele>
        <time>2026-07-22T10:38:41Z</time>
      </trkpt>
      <trkpt lat="32.05294386993179" lon="118.80464326610768">
        <ele>13.492176099680364</ele>
        <time>2026-07-22T10:38:41Z</time>
      </trkpt>
      <trkpt lat="32.053015915801915" lon="118.80466029328886">
        <ele>15.16737751569599</ele>
        <time>2026-07-22T10:38:41Z</time>
      </trkpt>
      <trkpt lat="32.0532288474899" lon="118.80459414252327">
        <ele>14.802745862863958</ele>
        <time>2026-07-22T10:38:41Z</time>
      </trkpt>
      <trkpt lat="32.05328979620422" lon="118.80455706340112">
        <ele>14.926929517649114</ele>
        <time>2026-07-22T10:38:41Z</time>
      </trkpt>
      <trkpt lat="32.05339657649111" lon="118.80441777758007">
        <ele>14.89522175397724</ele>
        <time>2026-07-22T10:38:41Z</time>
      </trkpt>
      <trkpt lat="32.05342641162684" lon="118.80431958042782">
        <ele>14.340343519113958</ele>
        <time>2026-07-22T10:38:41Z</time>
      </trkpt>
      <trkpt lat="32.053401079097924" lon="118.80413221221812">
        <ele>17.86513905134052</ele>
        <time>2026-07-22T10:38:41Z</time>
      </trkpt>
      <trkpt lat="32.053374949297165" lon="118.80406107408264">
        <ele>13.930797620676458</ele>
        <time>2026-07-22T10:38:41Z</time>
      </trkpt>
      <trkpt lat="32.05328872943323" lon="118.80394585455093">
        <ele>13.072055860422552</ele>
        <time>2026-07-22T10:38:41Z</time>
      </trkpt>
      <trkpt lat="32.05315959605326" lon="118.80388574783197">
        <ele>15.16737751569599</ele>
        <time>2026-07-22T10:38:41Z</time>
      </trkpt>
      <trkpt lat="32.052883400337855" lon="118.80380862111558">
        <ele>13.846241041086614</ele>
        <time>2026-07-22T10:38:41Z</time>
      </trkpt>
      <trkpt lat="32.052599227285555" lon="118.80374552285983">
        <ele>14.47774128522724</ele>
        <time>2026-07-22T10:38:41Z</time>
      </trkpt>
      <trkpt lat="32.05247606580501" lon="118.8036683822595">
        <ele>12.609653516672552</ele>
        <time>2026-07-22T10:38:41Z</time>
      </trkpt>
      <trkpt lat="32.05226893611977" lon="118.80362030664203">
        <ele>13.909656568430364</ele>
        <time>2026-07-22T10:38:41Z</time>
      </trkpt>
      <trkpt lat="32.05218391020266" lon="118.80361630656985">
        <ele>14.718189283274114</ele>
        <time>2026-07-22T10:38:41Z</time>
      </trkpt>
      <trkpt lat="32.052065979585116" lon="118.80367142586258">
        <ele>14.549083753488958</ele>
        <time>2026-07-22T10:38:41Z</time>
      </trkpt>
      <trkpt lat="32.05202105832958" lon="118.80372253060312">
        <ele>13.06148914899677</ele>
        <time>2026-07-22T10:38:41Z</time>
      </trkpt>
      <trkpt lat="32.051993182715464" lon="118.80379768120261">
        <ele>14.580791517160833</ele>
        <time>2026-07-22T10:38:41Z</time>
      </trkpt>
      <trkpt lat="32.0519363041995" lon="118.80387483851165">
        <ele>14.319210096262395</ele>
        <time>2026-07-22T10:38:41Z</time>
      </trkpt>
      <trkpt lat="32.05189962047134" lon="118.80406120965233">
        <ele>13.909656568430364</ele>
        <time>2026-07-22T10:38:41Z</time>
      </trkpt>
      <trkpt lat="32.05191478626799" lon="118.80415439235581">
        <ele>10.649089857004583</ele>
        <time>2026-07-22T10:38:41Z</time>
      </trkpt>
      <trkpt lat="32.052011062963636" lon="118.80430067280534">
        <ele>14.057621045969427</ele>
        <time>2026-07-22T10:38:41Z</time>
      </trkpt>
      <trkpt lat="32.05212924329873" lon="118.8043888364831">
        <ele>13.66920857038349</ele>
        <time>2026-07-22T10:38:41Z</time>
      </trkpt>
      <trkpt lat="32.052414452222564" lon="118.80447197501142">
        <ele>13.510669752024114</ele>
        <time>2026-07-22T10:38:41Z</time>
      </trkpt>
      <trkpt lat="32.05268366466797" lon="118.80455912306745">
        <ele>14.340343519113958</ele>
        <time>2026-07-22T10:38:41Z</time>
      </trkpt>
      <trkpt lat="32.05288378990626" lon="118.80460519608978">
        <ele>13.050914808176458</ele>
        <time>2026-07-22T10:38:41Z</time>
      </trkpt>
      <trkpt lat="32.05298490713936" lon="118.80465929414953">
        <ele>12.369213148020208</ele>
        <time>2026-07-22T10:38:41Z</time>
      </trkpt>
      <trkpt lat="32.05305794621634" lon="118.80467231328923">
        <ele>14.601932569406927</ele>
        <time>2026-07-22T10:38:41Z</time>
      </trkpt>
      <trkpt lat="32.053200939477115" lon="118.80465025640535">
        <ele>14.025913282297552</ele>
        <time>2026-07-22T10:38:41Z</time>
      </trkpt>
      <trkpt lat="32.05328783959089" lon="118.80458211325556">
        <ele>13.962497754953802</ele>
        <time>2026-07-22T10:38:41Z</time>
      </trkpt>
      <trkpt lat="32.05341157983212" lon="118.80441777620148">
        <ele>15.410465284250677</ele>
        <time>2026-07-22T10:38:41Z</time>
      </trkpt>
      <trkpt lat="32.053437454325504" lon="118.80434262502628">
        <ele>15.011486097238958</ele>
        <time>2026-07-22T10:38:41Z</time>
      </trkpt>
      <trkpt lat="32.05344529340876" lon="118.8042494399226">
        <ele>14.07876209821552</ele>
        <time>2026-07-22T10:38:41Z</time>
      </trkpt>
      <trkpt lat="32.0534341511013" lon="118.80416928244901">
        <ele>13.973072095774114</ele>
        <time>2026-07-22T10:38:41Z</time>
      </trkpt>
      <trkpt lat="32.05334789788914" lon="118.80403502512497">
        <ele>13.386486097238958</ele>
        <time>2026-07-22T10:38:41Z</time>
      </trkpt>
      <trkpt lat="32.05309257938163" lon="118.80388475201464">
        <ele>14.163311048410833</ele>
        <time>2026-07-22T10:38:41Z</time>
      </trkpt>
      <trkpt lat="32.05293447967128" lon="118.80384769344585">
        <ele>13.88851551618427</ele>
        <time>2026-07-22T10:38:41Z</time>
      </trkpt>
      <trkpt lat="32.05276630979883" lon="118.80377155882486">
        <ele>14.245227857492864</ele>
        <time>2026-07-22T10:38:41Z</time>
      </trkpt>
      <trkpt lat="32.052507168462995" lon="118.80372348790443">
        <ele>10.15498737897724</ele>
        <time>2026-07-22T10:38:41Z</time>
      </trkpt>
      <trkpt lat="32.0522729752895" lon="118.80364234964838">
        <ele>14.152744336985052</ele>
        <time>2026-07-22T10:38:41Z</time>
      </trkpt>
      <trkpt lat="32.05213802001431" lon="118.80368544685709">
        <ele>12.358638807199895</ele>
        <time>2026-07-22T10:38:41Z</time>
      </trkpt>
      <trkpt lat="32.052066087522746" lon="118.80373354817151">
        <ele>14.675914808176458</ele>
        <time>2026-07-22T10:38:41Z</time>
      </trkpt>
      <trkpt lat="32.05191350140269" lon="118.80399106990228">
        <ele>5.20864491071552</ele>
        <time>2026-07-22T10:38:41Z</time>
      </trkpt>
      <trkpt lat="32.05194681787315" lon="118.80416841713826">
        <ele>14.361484571360052</ele>
        <time>2026-07-22T10:38:41Z</time>
      </trkpt>
      <trkpt lat="32.05198298150099" lon="118.80425759014612">
        <ele>14.329776807688177</ele>
        <time>2026-07-22T10:38:41Z</time>
      </trkpt>
      <trkpt lat="32.052038112729306" lon="118.80432571989145">
        <ele>14.308635755442083</ele>
        <time>2026-07-22T10:38:41Z</time>
      </trkpt>
      <trkpt lat="32.05212425093736" lon="118.8043938468624">
        <ele>14.21352009382099</ele>
        <time>2026-07-22T10:38:41Z</time>
      </trkpt>
      <trkpt lat="32.052399394574806" lon="118.80444091485482">
        <ele>14.393192335031927</ele>
        <time>2026-07-22T10:38:41Z</time>
      </trkpt>
      <trkpt lat="32.05274766666272" lon="118.80455210327959">
        <ele>15.389331861399114</ele>
        <time>2026-07-22T10:38:41Z</time>
      </trkpt>
      <trkpt lat="32.05303291432648" lon="118.80465728576185">
        <ele>13.563518567942083</ele>
        <time>2026-07-22T10:38:41Z</time>
      </trkpt>
      <trkpt lat="32.05314194387704" lon="118.80466028170933">
        <ele>11.30965809430927</ele>
        <time>2026-07-22T10:38:41Z</time>
      </trkpt>
      <trkpt lat="32.05323189901937" lon="118.80462319988344">
        <ele>11.779979749582708</ele>
        <time>2026-07-22T10:38:41Z</time>
      </trkpt>
      <trkpt lat="32.05334672476802" lon="118.80450896282281">
        <ele>13.909656568430364</ele>
        <time>2026-07-22T10:38:41Z</time>
      </trkpt>
      <trkpt lat="32.053399528132275" lon="118.80438972174719">
        <ele>13.700916334055364</ele>
        <time>2026-07-22T10:38:41Z</time>
      </trkpt>
      <trkpt lat="32.053411352300174" lon="118.804287518364">
        <ele>13.962497754953802</ele>
        <time>2026-07-22T10:38:41Z</time>
      </trkpt>
      <trkpt lat="32.05337798489036" lon="118.80408111338316">
        <ele>12.52510456647724</ele>
        <time>2026-07-22T10:38:41Z</time>
      </trkpt>
      <trkpt lat="32.053344860563676" lon="118.80401398386162">
        <ele>14.739330335520208</ele>
        <time>2026-07-22T10:38:41Z</time>
      </trkpt>
      <trkpt lat="32.0532396487509" lon="118.80390577999742">
        <ele>13.87794880475849</ele>
        <time>2026-07-22T10:38:41Z</time>
      </trkpt>
      <trkpt lat="32.05311552871943" lon="118.80385268668472">
        <ele>14.874088331125677</ele>
        <time>2026-07-22T10:38:41Z</time>
      </trkpt>
      <trkpt lat="32.05281536775813" lon="118.80379860762181">
        <ele>14.372051282785833</ele>
        <time>2026-07-22T10:38:41Z</time>
      </trkpt>
      <trkpt lat="32.05252415135962" lon="118.80371146266602">
        <ele>14.131603284738958</ele>
        <time>2026-07-22T10:38:41Z</time>
      </trkpt>
      <trkpt lat="32.05238406095472" lon="118.8036774084662">
        <ele>14.675914808176458</ele>
        <time>2026-07-22T10:38:41Z</time>
      </trkpt>
      <trkpt lat="32.052256923005295" lon="118.80361429591719">
        <ele>10.889537855051458</ele>
        <time>2026-07-22T10:38:41Z</time>
      </trkpt>
      <trkpt lat="32.05212794816811" lon="118.80364536889185">
        <ele>14.47774128522724</ele>
        <time>2026-07-22T10:38:41Z</time>
      </trkpt>
      <trkpt lat="32.05206400002573" lon="118.80368344971411">
        <ele>14.81331257428974</ele>
        <time>2026-07-22T10:38:41Z</time>
      </trkpt>
      <trkpt lat="32.051982216853126" lon="118.80381872367758">
        <ele>14.916362806223333</ele>
        <time>2026-07-22T10:38:41Z</time>
      </trkpt>
      <trkpt lat="32.051910718983216" lon="118.80411631749007">
        <ele>12.200107618235052</ele>
        <time>2026-07-22T10:38:41Z</time>
      </trkpt>
      <trkpt lat="32.051926906055655" lon="118.80422152395836">
        <ele>14.527950330637395</ele>
        <time>2026-07-22T10:38:41Z</time>
      </trkpt>
      <trkpt lat="32.052007051574435" lon="118.80429466127825">
        <ele>12.400920911692083</ele>
        <time>2026-07-22T10:38:41Z</time>
      </trkpt>
      <trkpt lat="32.052271294230295" lon="118.80439984525691">
        <ele>14.047054334543645</ele>
        <time>2026-07-22T10:38:41Z</time>
      </trkpt>
      <trkpt lat="32.052466377990335" lon="118.80442287297426">
        <ele>14.527950330637395</ele>
        <time>2026-07-22T10:38:41Z</time>
      </trkpt>
      <trkpt lat="32.05273469181544" lon="118.80456813626093">
        <ele>14.255794568918645</ele>
        <time>2026-07-22T10:38:41Z</time>
      </trkpt>
      <trkpt lat="32.05301087784525" lon="118.80463925199848">
        <ele>14.099903150461614</ele>
        <time>2026-07-22T10:38:41Z</time>
      </trkpt>
      <trkpt lat="32.05315190575409" lon="118.80463723506458">
        <ele>14.509449048899114</ele>
        <time>2026-07-22T10:38:41Z</time>
      </trkpt>
      <trkpt lat="32.053267833382094" lon="118.80458111310662">
        <ele>15.03261952009052</ele>
        <time>2026-07-22T10:38:41Z</time>
      </trkpt>
      <trkpt lat="32.05342851883515" lon="118.80438070122686">
        <ele>14.057621045969427</ele>
        <time>2026-07-22T10:38:41Z</time>
      </trkpt>
      <trkpt lat="32.053414144899065" lon="118.80416828230685">
        <ele>13.175106092356145</ele>
        <time>2026-07-22T10:38:41Z</time>
      </trkpt>
      <trkpt lat="32.053389991056044" lon="118.80408311623817">
        <ele>13.856807752512395</ele>
        <time>2026-07-22T10:38:41Z</time>
      </trkpt>
      <trkpt lat="32.05334483612905" lon="118.8039999561729">
        <ele>14.771038099192083</ele>
        <time>2026-07-22T10:38:41Z</time>
      </trkpt>
      <trkpt lat="32.05319561627929" lon="118.8038927583538">
        <ele>14.979778333567083</ele>
        <time>2026-07-22T10:38:41Z</time>
      </trkpt>
      <trkpt lat="32.05285035116788" lon="118.80378457676565">
        <ele>16.544002576731145</ele>
        <time>2026-07-22T10:38:41Z</time>
      </trkpt>
      <trkpt lat="32.05248607325611" lon="118.80367138725688">
        <ele>14.62306599225849</ele>
        <time>2026-07-22T10:38:41Z</time>
      </trkpt>
      <trkpt lat="32.052251916671274" lon="118.80361129046308">
        <ele>14.266361280344427</ele>
        <time>2026-07-22T10:38:41Z</time>
      </trkpt>
      <trkpt lat="32.052060006096134" lon="118.80368745797156">
        <ele>4.820232435129583</ele>
        <time>2026-07-22T10:38:41Z</time>
      </trkpt>
      <trkpt lat="32.0519283704193" lon="118.80391391630667">
        <ele>14.591365857981145</ele>
        <time>2026-07-22T10:38:41Z</time>
      </trkpt>
      <trkpt lat="32.051905485657386" lon="118.80398305481829">
        <ele>14.863513990305364</ele>
        <time>2026-07-22T10:38:41Z</time>
      </trkpt>
      <trkpt lat="32.05191174541136" lon="118.80413134709275">
        <ele>9.370227857492864</ele>
        <time>2026-07-22T10:38:41Z</time>
      </trkpt>
      <trkpt lat="32.051977002899314" lon="118.80427061646239">
        <ele>13.072055860422552</ele>
        <time>2026-07-22T10:38:41Z</time>
      </trkpt>
      <trkpt lat="32.05210124930849" lon="118.8043958529442">
        <ele>13.365345044992864</ele>
        <time>2026-07-22T10:38:41Z</time>
      </trkpt>
      <trkpt lat="32.05238145887958" lon="118.80447999392675">
        <ele>14.308635755442083</ele>
        <time>2026-07-22T10:38:41Z</time>
      </trkpt>
      <trkpt lat="32.05264364873847" lon="118.80455511879705">
        <ele>13.930797620676458</ele>
        <time>2026-07-22T10:38:41Z</time>
      </trkpt>
      <trkpt lat="32.052797823358354" lon="118.80463526362179">
        <ele>12.93465809430927</ele>
        <time>2026-07-22T10:38:41Z</time>
      </trkpt>
      <trkpt lat="32.05306794318048" lon="118.80466930640496">
        <ele>12.786685987375677</ele>
        <time>2026-07-22T10:38:41Z</time>
      </trkpt>
      <trkpt lat="32.05314495682763" lon="118.80466729535182">
        <ele>13.690349622629583</ele>
        <time>2026-07-22T10:38:41Z</time>
      </trkpt>
      <trkpt lat="32.05326387282403" lon="118.8046041591796">
        <ele>14.485668226145208</ele>
        <time>2026-07-22T10:38:41Z</time>
      </trkpt>
      <trkpt lat="32.05335670596721" lon="118.80449693807455">
        <ele>14.110469861887395</ele>
        <time>2026-07-22T10:38:41Z</time>
      </trkpt>
      <trkpt lat="32.05338660403554" lon="118.80443481223641">
        <ele>14.298069044016302</ele>
        <time>2026-07-22T10:38:41Z</time>
      </trkpt>
      <trkpt lat="32.05341236476855" lon="118.80429453214872">
        <ele>14.025913282297552</ele>
        <time>2026-07-22T10:38:41Z</time>
      </trkpt>
      <trkpt lat="32.05337199927202" lon="118.8040901317461">
        <ele>14.00477985944599</ele>
        <time>2026-07-22T10:38:41Z</time>
      </trkpt>
      <trkpt lat="32.05332283297373" lon="118.8040009601727">
        <ele>13.291362806223333</ele>
        <time>2026-07-22T10:38:41Z</time>
      </trkpt>
      <trkpt lat="32.05307749236459" lon="118.80383665857605">
        <ele>14.855587049387395</ele>
        <time>2026-07-22T10:38:41Z</time>
      </trkpt>
      <trkpt lat="32.05301244651134" lon="118.803818629004">
        <ele>13.920223279856145</ele>
        <time>2026-07-22T10:38:41Z</time>
      </trkpt>
      <trkpt lat="32.052939447670475" lon="118.80382865546149">
        <ele>14.121036573313177</ele>
        <time>2026-07-22T10:38:41Z</time>
      </trkpt>
      <trkpt lat="32.052639220529656" lon="118.80373650142273">
        <ele>12.620227857492864</ele>
        <time>2026-07-22T10:38:41Z</time>
      </trkpt>
      <trkpt lat="32.05232197925742" lon="118.80363833725755">
        <ele>13.552951856516302</ele>
        <time>2026-07-22T10:38:41Z</time>
      </trkpt>
      <trkpt lat="32.05212792902794" lon="118.8036343472033">
        <ele>13.33363728132099</ele>
        <time>2026-07-22T10:38:41Z</time>
      </trkpt>
      <trkpt lat="32.05206993871019" lon="118.80364737816669">
        <ele>13.291362806223333</ele>
        <time>2026-07-22T10:38:41Z</time>
      </trkpt>
      <trkpt lat="32.052018012393475" lon="118.80369647958503">
        <ele>13.492176099680364</ele>
        <time>2026-07-22T10:38:41Z</time>
      </trkpt>
      <trkpt lat="32.05190946735588" lon="118.80397203270086">
        <ele>12.86067585553974</ele>
        <time>2026-07-22T10:38:41Z</time>
      </trkpt>
      <trkpt lat="32.05190269099645" lon="118.80410128853444">
        <ele>13.764331861399114</ele>
        <time>2026-07-22T10:38:41Z</time>
      </trkpt>
      <trkpt lat="32.0519549997401" lon="118.80427162046631">
        <ele>13.711483045481145</ele>
        <time>2026-07-22T10:38:41Z</time>
      </trkpt>
      <trkpt lat="32.0520190315102" lon="118.80428163440553">
        <ele>6.904987378977239</ele>
        <time>2026-07-22T10:38:41Z</time>
      </trkpt>
      <trkpt lat="32.05229434839086" lon="118.80442789870415">
        <ele>13.531810804270208</ele>
        <time>2026-07-22T10:38:41Z</time>
      </trkpt>
      <trkpt lat="32.052592616332625" lon="118.80454309964621">
        <ele>13.531810804270208</ele>
        <time>2026-07-22T10:38:41Z</time>
      </trkpt>
      <trkpt lat="32.052907863663215" lon="118.80464427140409">
        <ele>13.584659620188177</ele>
        <time>2026-07-22T10:38:41Z</time>
      </trkpt>
      <trkpt lat="32.053043932568734" lon="118.80466630264546">
        <ele>12.913517042063177</ele>
        <time>2026-07-22T10:38:41Z</time>
      </trkpt>
      <trkpt lat="32.05322186522122" lon="118.8046051650269">
        <ele>13.722057386301458</ele>
        <time>2026-07-22T10:38:41Z</time>
      </trkpt>
      <trkpt lat="32.05332677639828" lon="118.80454102821668">
        <ele>13.521244092844427</ele>
        <time>2026-07-22T10:38:41Z</time>
      </trkpt>
      <trkpt lat="32.053400523102766" lon="118.80438671570346">
        <ele>13.531810804270208</ele>
        <time>2026-07-22T10:38:41Z</time>
      </trkpt>
      <trkpt lat="32.05342621049592" lon="118.80420435250856">
        <ele>13.280796094797552</ele>
        <time>2026-07-22T10:38:41Z</time>
      </trkpt>
      <trkpt lat="32.05331982183426" lon="118.80399494858274">
        <ele>10.281810804270208</ele>
        <time>2026-07-22T10:38:41Z</time>
      </trkpt>
      <trkpt lat="32.05318664740685" lon="118.80391179672594">
        <ele>13.33363728132099</ele>
        <time>2026-07-22T10:38:41Z</time>
      </trkpt>
      <trkpt lat="32.052883431704686" lon="118.80382665665924">
        <ele>12.828968091867864</ele>
        <time>2026-07-22T10:38:41Z</time>
      </trkpt>
      <trkpt lat="32.05282635452953" lon="118.8037895888424">
        <ele>14.099903150461614</ele>
        <time>2026-07-22T10:38:41Z</time>
      </trkpt>
      <trkpt lat="32.05270727922866" lon="118.80376154451002">
        <ele>12.305797620676458</ele>
        <time>2026-07-22T10:38:41Z</time>
      </trkpt>
      <trkpt lat="32.05263617458874" lon="118.80371045039826">
        <ele>13.019207044504583</ele>
        <time>2026-07-22T10:38:41Z</time>
      </trkpt>
      <trkpt lat="32.05248114177199" lon="118.8037114666185">
        <ele>8.289539380930364</ele>
        <time>2026-07-22T10:38:41Z</time>
      </trkpt>
      <trkpt lat="32.052222988500006" lon="118.80365638185017">
        <ele>11.875103040598333</ele>
        <time>2026-07-22T10:38:41Z</time>
      </trkpt>
      <trkpt lat="32.05208402015375" lon="118.80369246562813">
        <ele>6.558849378488958</ele>
        <time>2026-07-22T10:38:41Z</time>
      </trkpt>
      <trkpt lat="32.05197917088068" lon="118.80379267261813">
        <ele>13.973072095774114</ele>
        <time>2026-07-22T10:38:41Z</time>
      </trkpt>
      <trkpt lat="32.051935272597014" lon="118.80385680304599">
        <ele>14.538517042063177</ele>
        <time>2026-07-22T10:38:41Z</time>
      </trkpt>
      <trkpt lat="32.0519164410023" lon="118.80395600042498">
        <ele>13.690349622629583</ele>
        <time>2026-07-22T10:38:41Z</time>
      </trkpt>
      <trkpt lat="32.051935831148235" lon="118.80417743597314">
        <ele>13.500103040598333</ele>
        <time>2026-07-22T10:38:41Z</time>
      </trkpt>
      <trkpt lat="32.05198001056508" lon="118.80427462411485">
        <ele>13.584659620188177</ele>
        <time>2026-07-22T10:38:41Z</time>
      </trkpt>
      <trkpt lat="32.05213524988943" lon="118.8043918418835">
        <ele>13.856807752512395</ele>
        <time>2026-07-22T10:38:41Z</time>
      </trkpt>
      <trkpt lat="32.05244345168158" lon="118.80446796440538">
        <ele>7.544414564035833</ele>
        <time>2026-07-22T10:38:41Z</time>
      </trkpt>
      <trkpt lat="32.05265456530628" lon="118.80450602046274">
        <ele>13.217380567453802</ele>
        <time>2026-07-22T10:38:41Z</time>
      </trkpt>
      <trkpt lat="32.052909836041486" lon="118.80462823941431">
        <ele>13.12489704694599</ele>
        <time>2026-07-22T10:38:41Z</time>
      </trkpt>
      <trkpt lat="32.053042946383414" lon="118.80467431864467">
        <ele>13.33363728132099</ele>
        <time>2026-07-22T10:38:41Z</time>
      </trkpt>
      <trkpt lat="32.05317392118125" lon="118.80464324497038">
        <ele>13.185672803781927</ele>
        <time>2026-07-22T10:38:41Z</time>
      </trkpt>
      <trkpt lat="32.05335170835805" lon="118.80449894250545">
        <ele>12.242382093332708</ele>
        <time>2026-07-22T10:38:41Z</time>
      </trkpt>
      <trkpt lat="32.0534124645088" lon="118.8043516451735">
        <ele>13.312503858469427</ele>
        <time>2026-07-22T10:38:41Z</time>
      </trkpt>
      <trkpt lat="32.05342632590464" lon="118.80427048328828">
        <ele>12.80782703962177</ele>
        <time>2026-07-22T10:38:41Z</time>
      </trkpt>
      <trkpt lat="32.05336994119914" lon="118.80405706662775">
        <ele>13.531810804270208</ele>
        <time>2026-07-22T10:38:41Z</time>
      </trkpt>
      <trkpt lat="32.05331377687327" lon="118.80396989970012">
        <ele>13.27022175397724</ele>
        <time>2026-07-22T10:38:41Z</time>
      </trkpt>
      <trkpt lat="32.053202628301186" lon="118.80389876956602">
        <ele>12.295223279856145</ele>
        <time>2026-07-22T10:38:41Z</time>
      </trkpt>
      <trkpt lat="32.05288839622485" lon="118.80380561473257">
        <ele>13.082622571848333</ele>
        <time>2026-07-22T10:38:41Z</time>
      </trkpt>
      <trkpt lat="32.052574145097545" lon="118.80370143834207">
        <ele>13.47103504743427</ele>
        <time>2026-07-22T10:38:41Z</time>
      </trkpt>
      <trkpt lat="32.052510069905175" lon="118.80366637518995">
        <ele>13.103763624094427</ele>
        <time>2026-07-22T10:38:41Z</time>
      </trkpt>
      <trkpt lat="32.05231996141218" lon="118.8036283177256">
        <ele>12.902950330637395</ele>
        <time>2026-07-22T10:38:41Z</time>
      </trkpt>
      <trkpt lat="32.05214193215081" lon="118.80363434591645">
        <ele>11.991367383860052</ele>
        <time>2026-07-22T10:38:41Z</time>
      </trkpt>
      <trkpt lat="32.05202706140935" lon="118.80372353202469">
        <ele>11.24624256696552</ele>
        <time>2026-07-22T10:38:41Z</time>
      </trkpt>
      <trkpt lat="32.051897384431555" lon="118.80392594287164">
        <ele>13.354778333567083</ele>
        <time>2026-07-22T10:38:41Z</time>
      </trkpt>
      <trkpt lat="32.05192380050845" lon="118.80416140538998">
        <ele>13.449901624582708</ele>
        <time>2026-07-22T10:38:41Z</time>
      </trkpt>
      <trkpt lat="32.05202810524889" lon="118.80432271486185">
        <ele>12.704776807688177</ele>
        <time>2026-07-22T10:38:41Z</time>
      </trkpt>
      <trkpt lat="32.052136241358674" lon="118.80438683187197">
        <ele>12.337505384348333</ele>
        <time>2026-07-22T10:38:41Z</time>
      </trkpt>
      <trkpt lat="32.05244742980043" lon="118.80445493823164">
        <ele>13.132823987863958</ele>
        <time>2026-07-22T10:38:41Z</time>
      </trkpt>
      <trkpt lat="32.05264965182915" lon="118.80455612023223">
        <ele>7.31454090680927</ele>
        <time>2026-07-22T10:38:41Z</time>
      </trkpt>
      <trkpt lat="32.05296182658173" lon="118.80461621078362">
        <ele>12.86067585553974</ele>
        <time>2026-07-22T10:38:41Z</time>
      </trkpt>
      <trkpt lat="32.053109915693646" lon="118.80464826079222">
        <ele>12.630794568918645</ele>
        <time>2026-07-22T10:38:41Z</time>
      </trkpt>
      <trkpt lat="32.05324184161804" lon="118.80458913139266">
        <ele>-5.851909593679011</ele>
        <time>2026-07-22T10:38:41Z</time>
      </trkpt>
      <trkpt lat="32.05334971842661" lon="118.80450495460376">
        <ele>12.902950330637395</ele>
        <time>2026-07-22T10:38:41Z</time>
      </trkpt>
      <trkpt lat="32.05338263817544" lon="118.80445485230085">
        <ele>12.577953382395208</ele>
        <time>2026-07-22T10:38:41Z</time>
      </trkpt>
      <trkpt lat="32.05340736890322" lon="118.80429753855563">
        <ele>12.37977985944599</ele>
        <time>2026-07-22T10:38:41Z</time>
      </trkpt>
      <trkpt lat="32.053373030934445" lon="118.80410816728102">
        <ele>11.320224805735052</ele>
        <time>2026-07-22T10:38:41Z</time>
      </trkpt>
      <trkpt lat="32.053303818270116" lon="118.80399495005338">
        <ele>12.358638807199895</ele>
        <time>2026-07-22T10:38:41Z</time>
      </trkpt>
      <trkpt lat="32.05316360566257" lon="118.80389075734338">
        <ele>13.082622571848333</ele>
        <time>2026-07-22T10:38:41Z</time>
      </trkpt>
      <trkpt lat="32.05286037081861" lon="118.80379459558831">
        <ele>13.238521619699895</ele>
        <time>2026-07-22T10:38:41Z</time>
      </trkpt>
      <trkpt lat="32.05253912684893" lon="118.80369542972323">
        <ele>9.76656727399677</ele>
        <time>2026-07-22T10:38:41Z</time>
      </trkpt>
      <trkpt lat="32.05230194695905" lon="118.80362230755146">
        <ele>12.474903150461614</ele>
        <time>2026-07-22T10:38:41Z</time>
      </trkpt>
      <trkpt lat="32.0521889217562" lon="118.80362231793833">
        <ele>13.375919385813177</ele>
        <time>2026-07-22T10:38:41Z</time>
      </trkpt>
      <trkpt lat="32.05211995856463" lon="118.80365238343003">
        <ele>12.913517042063177</ele>
        <time>2026-07-22T10:38:41Z</time>
      </trkpt>
      <trkpt lat="32.05197616324253" lon="118.80378866499714">
        <ele>11.571239515207708</ele>
        <time>2026-07-22T10:38:41Z</time>
      </trkpt>
      <trkpt lat="32.051951344161346" lon="118.80389587862355">
        <ele>13.20681385602802</ele>
        <time>2026-07-22T10:38:41Z</time>
      </trkpt>
      <trkpt lat="32.05191347697267" lon="118.80397704221924">
        <ele>13.090549512766302</ele>
        <time>2026-07-22T10:38:41Z</time>
      </trkpt>
      <trkpt lat="32.051897635740644" lon="118.80407022764439">
        <ele>13.27022175397724</ele>
        <time>2026-07-22T10:38:41Z</time>
      </trkpt>
      <trkpt lat="32.05190582445474" lon="118.80417743873035">
        <ele>13.114330335520208</ele>
        <time>2026-07-22T10:38:41Z</time>
      </trkpt>
      <trkpt lat="32.05200608984217" lon="118.80431670498692">
        <ele>12.577953382395208</ele>
        <time>2026-07-22T10:38:41Z</time>
      </trkpt>
      <trkpt lat="32.0521883177441" lon="118.8044239005078">
        <ele>11.415348096750677</ele>
        <time>2026-07-22T10:38:41Z</time>
      </trkpt>
      <trkpt lat="32.05237336600872" lon="118.80442789144381">
        <ele>13.386486097238958</ele>
        <time>2026-07-22T10:38:41Z</time>
      </trkpt>
      <trkpt lat="32.05264759879658" lon="118.80452606082528">
        <ele>13.386486097238958</ele>
        <time>2026-07-22T10:38:41Z</time>
      </trkpt>
      <trkpt lat="32.052971835826064" lon="118.80462021781497">
        <ele>14.601932569406927</ele>
        <time>2026-07-22T10:38:41Z</time>
      </trkpt>
      <trkpt lat="32.05309490708837" lon="118.80464525620661">
        <ele>13.196239515207708</ele>
        <time>2026-07-22T10:38:41Z</time>
      </trkpt>
      <trkpt lat="32.05322288122861" lon="118.80461418282214">
        <ele>12.778759046457708</ele>
        <time>2026-07-22T10:38:41Z</time>
      </trkpt>
      <trkpt lat="32.053322750968185" lon="118.80452700077663">
        <ele>13.227947278879583</ele>
        <time>2026-07-22T10:38:41Z</time>
      </trkpt>
      <trkpt lat="32.053404432975036" lon="118.80433461219414">
        <ele>12.054782911203802</ele>
        <time>2026-07-22T10:38:41Z</time>
      </trkpt>
      <trkpt lat="32.05340616583767" lon="118.80418130878863">
        <ele>13.39705280866474</ele>
        <time>2026-07-22T10:38:41Z</time>
      </trkpt>
      <trkpt lat="32.05336291694252" lon="118.80404404155094">
        <ele>13.175106092356145</ele>
        <time>2026-07-22T10:38:41Z</time>
      </trkpt>
      <trkpt lat="32.053225649119774" lon="118.8039077852365">
        <ele>12.32693104352802</ele>
        <time>2026-07-22T10:38:41Z</time>
      </trkpt>
      <trkpt lat="32.05314358551423" lon="118.80388174139968">
        <ele>12.683643384836614</ele>
        <time>2026-07-22T10:38:41Z</time>
      </trkpt>
      <trkpt lat="32.052996420293134" lon="118.80380560480542">
        <ele>13.492176099680364</ele>
        <time>2026-07-22T10:38:41Z</time>
      </trkpt>
      <trkpt lat="32.05273124452127" lon="118.80373849691287">
        <ele>14.21352009382099</ele>
        <time>2026-07-22T10:38:41Z</time>
      </trkpt>
      <trkpt lat="32.05238499678684" lon="118.80364033541002">
        <ele>12.44319538678974</ele>
        <time>2026-07-22T10:38:41Z</time>
      </trkpt>
      <trkpt lat="32.05225595235831" lon="118.80363132952299">
        <ele>13.249088331125677</ele>
        <time>2026-07-22T10:38:41Z</time>
      </trkpt>
      <trkpt lat="32.05206607533343" lon="118.80372653435924">
        <ele>13.552951856516302</ele>
        <time>2026-07-22T10:38:41Z</time>
      </trkpt>
      <trkpt lat="32.052015145812256" lon="118.80377363180206">
        <ele>13.132823987863958</ele>
        <time>2026-07-22T10:38:41Z</time>
      </trkpt>
      <trkpt lat="32.05187749686049" lon="118.80399307716603">
        <ele>14.047054334543645</ele>
        <time>2026-07-22T10:38:41Z</time>
      </trkpt>
      <trkpt lat="32.05192558786155" lon="118.80403916373702">
        <ele>12.694210096262395</ele>
        <time>2026-07-22T10:38:41Z</time>
      </trkpt>
      <trkpt lat="32.051940872466155" lon="118.8042004810696">
        <ele>13.365345044992864</ele>
        <time>2026-07-22T10:38:41Z</time>
      </trkpt>
      <trkpt lat="32.05197202102462" lon="118.80428163872504">
        <ele>13.47896198835224</ele>
        <time>2026-07-22T10:38:41Z</time>
      </trkpt>
      <trkpt lat="32.0520361420329" lon="118.80434275378693">
        <ele>13.407627149485052</ele>
        <time>2026-07-22T10:38:41Z</time>
      </trkpt>
      <trkpt lat="32.0521723019169" lon="118.80441688808727">
        <ele>13.54237751569599</ele>
        <time>2026-07-22T10:38:41Z</time>
      </trkpt>
      <trkpt lat="32.05240845088461" lon="118.80447197556285">
        <ele>13.793392225168645</ele>
        <time>2026-07-22T10:38:41Z</time>
      </trkpt>
      <trkpt lat="32.052662666999254" lon="118.80456313294408">
        <ele>12.31636433210224</ele>
        <time>2026-07-22T10:38:41Z</time>
      </trkpt>
      <trkpt lat="32.052921808898056" lon="118.80461120452209">
        <ele>13.196239515207708</ele>
        <time>2026-07-22T10:38:41Z</time>
      </trkpt>
      <trkpt lat="32.05306196816523" lon="118.80468433678413">
        <ele>12.556812330149114</ele>
        <time>2026-07-22T10:38:41Z</time>
      </trkpt>
      <trkpt lat="32.053272894121264" lon="118.80461518021455">
        <ele>12.976932569406927</ele>
        <time>2026-07-22T10:38:41Z</time>
      </trkpt>
      <trkpt lat="32.053399615688306" lon="118.80443982096523">
        <ele>13.259655042551458</ele>
        <time>2026-07-22T10:38:41Z</time>
      </trkpt>
      <trkpt lat="32.05342547265506" lon="118.8043546499288">
        <ele>9.098072095774114</ele>
        <time>2026-07-22T10:38:41Z</time>
      </trkpt>
      <trkpt lat="32.053380008040136" lon="118.8040941389274">
        <ele>11.550106092356145</ele>
        <time>2026-07-22T10:38:41Z</time>
      </trkpt>
      <trkpt lat="32.05329674168231" lon="118.80395186567648">
        <ele>13.46046833600849</ele>
        <time>2026-07-22T10:38:41Z</time>
      </trkpt>
      <trkpt lat="32.05319559535608" lon="118.80388073464427">
        <ele>14.446041150949895</ele>
        <time>2026-07-22T10:38:41Z</time>
      </trkpt>
      <trkpt lat="32.05302646531515" lon="118.80382764548983">
        <ele>9.851123853586614</ele>
        <time>2026-07-22T10:38:41Z</time>
      </trkpt>
      <trkpt lat="32.052937452453115" lon="118.80383166156989">
        <ele>13.47103504743427</ele>
        <time>2026-07-22T10:38:41Z</time>
      </trkpt>
      <trkpt lat="32.05283835371976" lon="118.80378758379105">
        <ele>13.835674329660833</ele>
        <time>2026-07-22T10:38:41Z</time>
      </trkpt>
      <trkpt lat="32.052790349989934" lon="118.80379159609984">
        <ele>13.793392225168645</ele>
        <time>2026-07-22T10:38:41Z</time>
      </trkpt>
      <trkpt lat="32.05269425891358" lon="118.80375152596862">
        <ele>13.312503858469427</ele>
        <time>2026-07-22T10:38:41Z</time>
      </trkpt>
      <trkpt lat="32.05253216358993" lon="118.80371747376827">
        <ele>13.500103040598333</ele>
        <time>2026-07-22T10:38:41Z</time>
      </trkpt>
      <trkpt lat="32.05240300254081" lon="118.80364133572718">
        <ele>13.386486097238958</ele>
        <time>2026-07-22T10:38:41Z</time>
      </trkpt>
      <trkpt lat="32.05234497220709" lon="118.80363132134217">
        <ele>14.255794568918645</ele>
        <time>2026-07-22T10:38:41Z</time>
      </trkpt>
      <trkpt lat="32.052097063095594" lon="118.80371550980647">
        <ele>13.531810804270208</ele>
        <time>2026-07-22T10:38:41Z</time>
      </trkpt>
      <trkpt lat="32.05194625239128" lon="118.8038437763578">
        <ele>14.110469861887395</ele>
        <time>2026-07-22T10:38:41Z</time>
      </trkpt>
      <trkpt lat="32.051921412461795" lon="118.80393896636046">
        <ele>14.28750233259052</ele>
        <time>2026-07-22T10:38:41Z</time>
      </trkpt>
      <trkpt lat="32.0519228509699" lon="118.80419046291591">
        <ele>12.001934095285833</ele>
        <time>2026-07-22T10:38:41Z</time>
      </trkpt>
      <trkpt lat="32.052072199072384" lon="118.80437080601367">
        <ele>13.61635975446552</ele>
        <time>2026-07-22T10:38:41Z</time>
      </trkpt>
      <trkpt lat="32.052338363457515" lon="118.80443090061414">
        <ele>13.66920857038349</ele>
        <time>2026-07-22T10:38:41Z</time>
      </trkpt>
      <trkpt lat="32.05248542250895" lon="118.80444591687514">
        <ele>14.00477985944599</ele>
        <time>2026-07-22T10:38:41Z</time>
      </trkpt>
      <trkpt lat="32.052736674729275" lon="118.80455811621002">
        <ele>14.718189283274114</ele>
        <time>2026-07-22T10:38:41Z</time>
      </trkpt>
      <trkpt lat="32.052989829313546" lon="118.8046142042353">
        <ele>13.700916334055364</ele>
        <time>2026-07-22T10:38:41Z</time>
      </trkpt>
      <trkpt lat="32.05304889157567" lon="118.80464225447007">
        <ele>14.06819538678974</ele>
        <time>2026-07-22T10:38:41Z</time>
      </trkpt>
      <trkpt lat="32.053131922349806" lon="118.80464926075847">
        <ele>13.962497754953802</ele>
        <time>2026-07-22T10:38:41Z</time>
      </trkpt>
      <trkpt lat="32.053245844262705" lon="118.80459013301218">
        <ele>12.72591785993427</ele>
        <time>2026-07-22T10:38:41Z</time>
      </trkpt>
      <trkpt lat="32.05337958496305" lon="118.80442479303375">
        <ele>13.312503858469427</ele>
        <time>2026-07-22T10:38:41Z</time>
      </trkpt>
      <trkpt lat="32.05340735665729" lon="118.80429052467866">
        <ele>14.435466810129583</ele>
        <time>2026-07-22T10:38:41Z</time>
      </trkpt>
      <trkpt lat="32.05340223137418" lon="118.80421938443091">
        <ele>14.152744336985052</ele>
        <time>2026-07-22T10:38:41Z</time>
      </trkpt>
      <trkpt lat="32.053374074831105" lon="118.80413321667959">
        <ele>14.424900098703802</ele>
        <time>2026-07-22T10:38:41Z</time>
      </trkpt>
      <trkpt lat="32.05324177304795" lon="118.80397692015858">
        <ele>15.661479993723333</ele>
        <time>2026-07-22T10:38:41Z</time>
      </trkpt>
      <trkpt lat="32.05292747113925" lon="118.80384368618881">
        <ele>12.411487623117864</ele>
        <time>2026-07-22T10:38:41Z</time>
      </trkpt>
      <trkpt lat="32.05282233970088" lon="118.80378157341714">
        <ele>14.55965809430927</ele>
        <time>2026-07-22T10:38:41Z</time>
      </trkpt>
      <trkpt lat="32.052557160458306" lon="118.80371246160561">
        <ele>14.308635755442083</ele>
        <time>2026-07-22T10:38:41Z</time>
      </trkpt>
      <trkpt lat="32.05243510714152" lon="118.80369744322802">
        <ele>13.114330335520208</ele>
        <time>2026-07-22T10:38:41Z</time>
      </trkpt>
      <trkpt lat="32.05226693219428" lon="118.80361830288318">
        <ele>14.361484571360052</ele>
        <time>2026-07-22T10:38:41Z</time>
      </trkpt>
      <trkpt lat="32.05204699623332" lon="118.80368345127671">
        <ele>-5.42386241350323</ele>
        <time>2026-07-22T10:38:41Z</time>
      </trkpt>
      <trkpt lat="32.05196413966014" lon="118.80377664241152">
        <ele>16.879573865793645</ele>
        <time>2026-07-22T10:38:41Z</time>
      </trkpt>
      <trkpt lat="32.05190332298969" lon="118.80388987118016">
        <ele>12.79726032819599</ele>
        <time>2026-07-22T10:38:41Z</time>
      </trkpt>
      <trkpt lat="32.051888523748126" lon="118.80400710384173">
        <ele>14.509449048899114</ele>
        <time>2026-07-22T10:38:41Z</time>
      </trkpt>
      <trkpt lat="32.05189668092449" lon="118.80409627918974">
        <ele>14.21352009382099</ele>
        <time>2026-07-22T10:38:41Z</time>
      </trkpt>
      <trkpt lat="32.0519860468894" lon="118.80429466320824">
        <ele>14.760471387766302</ele>
        <time>2026-07-22T10:38:41Z</time>
      </trkpt>
      <trkpt lat="32.0522433440218" lon="118.8044319113295">
        <ele>14.498882337473333</ele>
        <time>2026-07-22T10:38:41Z</time>
      </trkpt>
      <trkpt lat="32.05256857767897" lon="118.80452406411334">
        <ele>13.531810804270208</ele>
        <time>2026-07-22T10:38:41Z</time>
      </trkpt>
      <trkpt lat="32.05285979332642" lon="118.8046102082325">
        <ele>14.62306599225849</ele>
        <time>2026-07-22T10:38:41Z</time>
      </trkpt>
      <trkpt lat="32.05304093190025" lon="118.80466630292116">
        <ele>13.88851551618427</ele>
        <time>2026-07-22T10:38:41Z</time>
      </trkpt>
      <trkpt lat="32.05312796005867" lon="118.80467130486775">
        <ele>14.527950330637395</ele>
        <time>2026-07-22T10:38:41Z</time>
      </trkpt>
      <trkpt lat="32.05323691241185" lon="118.80463021333802">
        <ele>14.163311048410833</ele>
        <time>2026-07-22T10:38:41Z</time>
      </trkpt>
      <trkpt lat="32.05331475794978" lon="118.80453201144282">
        <ele>14.549083753488958</ele>
        <time>2026-07-22T10:38:41Z</time>
      </trkpt>
      <trkpt lat="32.05336270555142" lon="118.80449593553746">
        <ele>14.446041150949895</ele>
        <time>2026-07-22T10:38:41Z</time>
      </trkpt>
      <trkpt lat="32.053400612408126" lon="118.80443781690383">
        <ele>15.011486097238958</ele>
        <time>2026-07-22T10:38:41Z</time>
      </trkpt>
      <trkpt lat="32.05342842082136" lon="118.80432459015837">
        <ele>14.35091785993427</ele>
        <time>2026-07-22T10:38:41Z</time>
      </trkpt>
      <trkpt lat="32.05335397430538" lon="118.80407810965224">
        <ele>14.654773755930364</ele>
        <time>2026-07-22T10:38:41Z</time>
      </trkpt>
      <trkpt lat="32.0531717295364" lon="118.80396089495841">
        <ele>14.424900098703802</ele>
        <time>2026-07-22T10:38:41Z</time>
      </trkpt>
      <trkpt lat="32.05307355945653" lon="118.80387573597991">
        <ele>14.95863728132099</ele>
        <time>2026-07-22T10:38:41Z</time>
      </trkpt>
      <trkpt lat="32.05281333072671" lon="118.80377756634833">
        <ele>14.22408680524677</ele>
        <time>2026-07-22T10:38:41Z</time>
      </trkpt>
      <trkpt lat="32.052580156880985" lon="118.80370744962718">
        <ele>13.531810804270208</ele>
        <time>2026-07-22T10:38:41Z</time>
      </trkpt>
      <trkpt lat="32.05250916368528" lon="118.80372048180142">
        <ele>11.938518567942083</ele>
        <time>2026-07-22T10:38:41Z</time>
      </trkpt>
      <trkpt lat="32.05246020500193" lon="118.80375054550383">
        <ele>14.329776807688177</ele>
        <time>2026-07-22T10:38:41Z</time>
      </trkpt>
      <trkpt lat="32.05229700152376" lon="118.8036543711043">
        <ele>15.02205280866474</ele>
        <time>2026-07-22T10:38:41Z</time>
      </trkpt>
      <trkpt lat="32.052095953210966" lon="118.80365238563607">
        <ele>14.538517042063177</ele>
        <time>2026-07-22T10:38:41Z</time>
      </trkpt>
      <trkpt lat="32.052051992126856" lon="118.80368044489998">
        <ele>15.672054334543645</ele>
        <time>2026-07-22T10:38:41Z</time>
      </trkpt>
      <trkpt lat="32.05196820153172" lon="118.80381171114227">
        <ele>15.587497754953802</ele>
        <time>2026-07-22T10:38:41Z</time>
      </trkpt>
      <trkpt lat="32.0519413785518" lon="118.80391692104052">
        <ele>13.14339832868427</ele>
        <time>2026-07-22T10:38:41Z</time>
      </trkpt>
      <trkpt lat="32.05192567691556" lon="118.80409026464955">
        <ele>14.538517042063177</ele>
        <time>2026-07-22T10:38:41Z</time>
      </trkpt>
      <trkpt lat="32.052004005424834" lon="118.80426861001695">
        <ele>15.70376209821552</ele>
        <time>2026-07-22T10:38:41Z</time>
      </trkpt>
      <trkpt lat="32.05211821808638" lon="118.80437581170445">
        <ele>14.781604810617864</ele>
        <time>2026-07-22T10:38:41Z</time>
      </trkpt>
      <trkpt lat="32.052431494559066" lon="118.80449401712853">
        <ele>14.990345044992864</ele>
        <time>2026-07-22T10:38:41Z</time>
      </trkpt>
      <trkpt lat="32.052693712483574" lon="118.8045851738066">
        <ele>14.403759046457708</ele>
        <time>2026-07-22T10:39:14Z</time>
      </trkpt>
      <trkpt lat="32.052958887309515" lon="118.80465128063354">
        <ele>15.117176099680364</ele>
        <time>2026-07-22T10:39:14Z</time>
      </trkpt>
      <trkpt lat="32.05301593334811" lon="118.8046703131722">
        <ele>15.15945057477802</ele>
        <time>2026-07-22T10:39:14Z</time>
      </trkpt>
      <trkpt lat="32.053141940367965" lon="118.80465827773284">
        <ele>15.273067518137395</ele>
        <time>2026-07-22T10:39:15Z</time>
      </trkpt>
      <trkpt lat="32.053219913887055" lon="118.80463322086379">
        <ele>15.473880811594427</ele>
        <time>2026-07-22T10:39:15Z</time>
      </trkpt>
      <trkpt lat="32.05330978312901" lon="118.80454704169757">
        <ele>15.180591627024114</ele>
        <time>2026-07-22T10:39:15Z</time>
      </trkpt>
      <trkpt lat="32.0534004828398" lon="118.80436367007775">
        <ele>15.30477528180927</ele>
        <time>2026-07-22T10:39:15Z</time>
      </trkpt>
      <trkpt lat="32.05340806493355" lon="118.80412319375712">
        <ele>14.21352009382099</ele>
        <time>2026-07-22T10:39:15Z</time>
      </trkpt>
      <trkpt lat="32.05337593380553" lon="118.80405205618355">
        <ele>15.505588575266302</ele>
        <time>2026-07-22T10:39:15Z</time>
      </trkpt>
      <trkpt lat="32.05324066118116" lon="118.80391279373865">
        <ele>14.467174573801458</ele>
        <time>2026-07-22T10:39:15Z</time>
      </trkpt>
      <trkpt lat="32.05309852493163" lon="118.80385268824733">
        <ele>15.106609388254583</ele>
        <time>2026-07-22T10:39:15Z</time>
      </trkpt>
      <trkpt lat="32.05291546149312" lon="118.80383967939163">
        <ele>15.505588575266302</ele>
        <time>2026-07-22T10:39:15Z</time>
      </trkpt>
      <trkpt lat="32.052797363746116" lon="118.80379860927634">
        <ele>14.95863728132099</ele>
        <time>2026-07-22T10:39:15Z</time>
      </trkpt>
      <trkpt lat="32.052716262076096" lon="118.80375052197287">
        <ele>14.74989704694599</ele>
        <time>2026-07-22T10:39:15Z</time>
      </trkpt>
      <trkpt lat="32.05243307014078" lon="118.80367640198989">
        <ele>15.201725049875677</ele>
        <time>2026-07-22T10:39:15Z</time>
      </trkpt>
      <trkpt lat="32.05222994655941" lon="118.80363133191288">
        <ele>15.15945057477802</ele>
        <time>2026-07-22T10:39:15Z</time>
      </trkpt>
      <trkpt lat="32.052115954192" lon="118.80365037985396">
        <ele>15.138309522531927</ele>
        <time>2026-07-22T10:39:15Z</time>
      </trkpt>
      <trkpt lat="32.052001113077644" lon="118.80375659953494">
        <ele>12.58852009382099</ele>
        <time>2026-07-22T10:39:15Z</time>
      </trkpt>
      <trkpt lat="32.051937443943125" lon="118.80395499651794">
        <ele>15.127742811106145</ele>
        <time>2026-07-22T10:39:16Z</time>
      </trkpt>
      <trkpt lat="32.051926677138674" lon="118.80409026455763">
        <ele>15.273067518137395</ele>
        <time>2026-07-22T10:39:16Z</time>
      </trkpt>
      <trkpt lat="32.052027080529655" lon="118.80430868719537">
        <ele>18.47286610212177</ele>
        <time>2026-07-22T10:39:16Z</time>
      </trkpt>
      <trkpt lat="32.052317346515174" lon="118.80442388865232">
        <ele>14.654773755930364</ele>
        <time>2026-07-22T10:39:16Z</time>
      </trkpt>
      <trkpt lat="32.052449446012126" lon="118.80446395591332">
        <ele>16.52286152448505</ele>
        <time>2026-07-22T10:39:16Z</time>
      </trkpt>
      <trkpt lat="32.05271167967553" lon="118.80456413042764">
        <ele>14.81331257428974</ele>
        <time>2026-07-22T10:39:16Z</time>
      </trkpt>
      <trkpt lat="32.053005925855736" lon="118.80466730812604">
        <ele>15.043193860910833</ele>
        <time>2026-07-22T10:39:16Z</time>
      </trkpt>
      <trkpt lat="32.053099960838935" lon="118.80467531539482">
        <ele>14.644207044504583</ele>
        <time>2026-07-22T10:39:16Z</time>
      </trkpt>
      <trkpt lat="32.05321486015419" lon="118.80460316169548">
        <ele>14.181812330149114</ele>
        <time>2026-07-22T10:39:16Z</time>
      </trkpt>
      <trkpt lat="32.05337559633126" lon="118.80443180729341">
        <ele>15.127742811106145</ele>
        <time>2026-07-22T10:39:17Z</time>
      </trkpt>
      <trkpt lat="32.05341138379035" lon="118.80430555404836">
        <ele>13.46046833600849</ele>
        <time>2026-07-22T10:39:17Z</time>
      </trkpt>
      <trkpt lat="32.05340715732148" lon="118.8041762987939">
        <ele>14.916362806223333</ele>
        <time>2026-07-22T10:39:17Z</time>
      </trkpt>
      <trkpt lat="32.05336599618904" lon="118.80408913031845">
        <ele>15.000911756418645</ele>
        <time>2026-07-22T10:39:17Z</time>
      </trkpt>
      <trkpt lat="32.0532737731972" lon="118.8039729093083">
        <ele>14.83180622663349</ele>
        <time>2026-07-22T10:39:17Z</time>
      </trkpt>
      <trkpt lat="32.05321069635731" lon="118.80393684393019">
        <ele>15.273067518137395</ele>
        <time>2026-07-22T10:39:17Z</time>
      </trkpt>
      <trkpt lat="32.05313770102624" lon="118.80394887436063">
        <ele>15.442173047922552</ele>
        <time>2026-07-22T10:39:17Z</time>
      </trkpt>
      <trkpt lat="32.052853437217955" lon="118.80383367324073">
        <ele>15.42103962507099</ele>
        <time>2026-07-22T10:39:17Z</time>
      </trkpt>
      <trkpt lat="32.05253618363528" lon="118.80372849510442">
        <ele>15.619205518625677</ele>
        <time>2026-07-22T10:39:17Z</time>
      </trkpt>
      <trkpt lat="32.052202921399356" lon="118.8036203127087">
        <ele>15.693187757395208</ele>
        <time>2026-07-22T10:39:17Z</time>
      </trkpt>
      <trkpt lat="32.05207399181287" lon="118.8036774369608">
        <ele>14.456607862375677</ele>
        <time>2026-07-22T10:39:17Z</time>
      </trkpt>
      <trkpt lat="32.051980151940015" lon="118.80378165081085">
        <ele>15.201725049875677</ele>
        <time>2026-07-22T10:39:17Z</time>
      </trkpt>
      <trkpt lat="32.05192340244217" lon="118.8039329543172">
        <ele>15.24135975446552</ele>
        <time>2026-07-22T10:39:17Z</time>
      </trkpt>
      <trkpt lat="32.05191972099128" lon="118.8041163166629">
        <ele>15.505588575266302</ele>
        <time>2026-07-22T10:39:17Z</time>
      </trkpt>
      <trkpt lat="32.051937864804565" lon="118.80419647342191">
        <ele>15.315341993235052</ele>
        <time>2026-07-22T10:39:18Z</time>
      </trkpt>
      <trkpt lat="32.05206015088715" lon="118.80434475554763">
        <ele>14.821239515207708</ele>
        <time>2026-07-22T10:39:18Z</time>
      </trkpt>
      <trkpt lat="32.052117209110634" lon="118.80437080187801">
        <ele>15.505588575266302</ele>
        <time>2026-07-22T10:39:18Z</time>
      </trkpt>
      <trkpt lat="32.05231929267926" lon="118.80439282695724">
        <ele>15.505588575266302</ele>
        <time>2026-07-22T10:39:18Z</time>
      </trkpt>
      <trkpt lat="32.05238644422682" lon="118.80447097559946">
        <ele>15.798885389231145</ele>
        <time>2026-07-22T10:39:18Z</time>
      </trkpt>
      <trkpt lat="32.052686681115574" lon="118.80456814067219">
        <ele>15.36819080915302</ele>
        <time>2026-07-22T10:39:18Z</time>
      </trkpt>
      <trkpt lat="32.05282468908478" lon="118.80455510216281">
        <ele>14.771038099192083</ele>
        <time>2026-07-22T11:41:04Z</time>
      </trkpt>
      <trkpt lat="32.053150935355205" lon="118.80465426895296">
        <ele>15.64034657087177</ele>
        <time>2026-07-22T11:41:19Z</time>
      </trkpt>
      <trkpt lat="32.05321392833849" lon="118.80464223930632">
        <ele>14.467174573801458</ele>
        <time>2026-07-22T11:41:22Z</time>
      </trkpt>
      <trkpt lat="32.05331779718223" lon="118.804554054868">
        <ele>15.442173047922552</ele>
        <time>2026-07-22T11:41:28Z</time>
      </trkpt>
      <trkpt lat="32.05341048681755" lon="118.80436467114221">
        <ele>15.629772230051458</ele>
        <time>2026-07-22T11:41:37Z</time>
      </trkpt>
      <trkpt lat="32.05341831362854" lon="118.80426447213158">
        <ele>15.619205518625677</ele>
        <time>2026-07-22T11:41:43Z</time>
      </trkpt>
      <trkpt lat="32.053365099035055" lon="118.80414824720597">
        <ele>14.393192335031927</ele>
        <time>2026-07-22T11:41:49Z</time>
      </trkpt>
      <trkpt lat="32.05333379877707" lon="118.80397991763422">
        <ele>14.633640333078802</ele>
        <time>2026-07-22T11:41:52Z</time>
      </trkpt>
      <trkpt lat="32.05326862731118" lon="118.80388974571623">
        <ele>15.904575391672552</ele>
        <time>2026-07-22T11:41:58Z</time>
      </trkpt>
      <trkpt lat="32.0531185206725" lon="118.80384767653304">
        <ele>13.962497754953802</ele>
        <time>2026-07-22T11:42:04Z</time>
      </trkpt>
      <trkpt lat="32.053047501366365" lon="118.80384567910892">
        <ele>14.601932569406927</ele>
        <time>2026-07-22T11:42:07Z</time>
      </trkpt>
    </trkseg>
  </trk>
</gpx>