<?xml version="1.0" encoding="UTF-8"?>
<gpx xmlns="http://www.topografix.com/GPX/1/1" xmlns:gpxtpx="http://www.garmin.com/xmlschemas/TrackPointExtension/v1" xmlns:xsi="http://www.w3.org/2001/XMLSchema-instance" xsi:schemaLocation="http://www.topografix.com/GPX/1/1 http://www.topografix.com/GPX/1/1/gpx.xsd" version="1.1" creator="gpx.py -- https://github.com/tkrajina/gpxpy">
  <trk>
    <name>gpx from keep</name>
    <type>Run</type>
    <trkseg>
      <trkpt lat="31.226147097526034" lon="121.39951613021667">
        <ele>12.928018365986645</ele>
        <time>2026-09-24T09:29:13Z</time>
      </trkpt>
      <trkpt lat="31.226123096794225" lon="121.3993571154099">
        <ele>13.493464265950024</ele>
        <time>2026-09-24T09:29:19Z</time>
      </trkpt>
      <trkpt lat="31.226090109463478" lon="121.399318114344">
        <ele>12.568668161518872</ele>
        <time>2026-09-24T09:29:22Z</time>
      </trkpt>
      <trkpt lat="31.22607211156733" lon="121.39922510683311">
        <ele>12.246310983784497</ele>
        <time>2026-09-24T09:29:25Z</time>
      </trkpt>
      <trkpt lat="31.226032125898694" lon="121.3991571039677">
        <ele>7.141437326557934</ele>
        <time>2026-09-24T09:29:28Z</time>
      </trkpt>
      <trkpt lat="31.225864198241037" lon="121.39905410945202">
        <ele>15.020698343403637</ele>
        <time>2026-09-24T09:29:34Z</time>
      </trkpt>
      <trkpt lat="31.225606317293494" lon="121.39902512946342">
        <ele>14.201594148762524</ele>
        <time>2026-09-24T09:29:43Z</time>
      </trkpt>
      <trkpt lat="31.22526747482215" lon="121.39900415724678">
        <ele>9.741435800679028</ele>
        <time>2026-09-24T09:29:55Z</time>
      </trkpt>
      <trkpt lat="31.224980610231786" lon="121.39902118369379">
        <ele>13.667854105122387</ele>
        <time>2026-09-24T09:30:04Z</time>
      </trkpt>
      <trkpt lat="31.224817688815612" lon="121.39905920115177">
        <ele>13.847529207356274</ele>
        <time>2026-09-24T09:30:10Z</time>
      </trkpt>
      <trkpt lat="31.224695753537784" lon="121.39918222282252">
        <ele>9.128428255207837</ele>
        <time>2026-09-24T09:30:16Z</time>
      </trkpt>
      <trkpt lat="31.22465877641181" lon="121.39926623404">
        <ele>13.847529207356274</ele>
        <time>2026-09-24T09:30:19Z</time>
      </trkpt>
      <trkpt lat="31.224641790793044" lon="121.39935824469946">
        <ele>13.578017030842602</ele>
        <time>2026-09-24T09:30:22Z</time>
      </trkpt>
      <trkpt lat="31.2246437980873" lon="121.39946925618864">
        <ele>13.636147295124829</ele>
        <time>2026-09-24T09:30:25Z</time>
      </trkpt>
      <trkpt lat="31.22466879311782" lon="121.39955526349017">
        <ele>13.847529207356274</ele>
        <time>2026-09-24T09:30:28Z</time>
      </trkpt>
      <trkpt lat="31.224790750673215" lon="121.39973027334578">
        <ele>13.48289564717561</ele>
        <time>2026-09-24T09:30:34Z</time>
      </trkpt>
      <trkpt lat="31.224876715914117" lon="121.39979227349419">
        <ele>12.743058954365551</ele>
        <time>2026-09-24T09:30:37Z</time>
      </trkpt>
      <trkpt lat="31.224954682106393" lon="121.39982227046657">
        <ele>12.848749910481274</ele>
        <time>2026-09-24T09:30:40Z</time>
      </trkpt>
      <trkpt lat="31.22525554341226" lon="121.39984724740751">
        <ele>13.086554323323071</ele>
        <time>2026-09-24T09:30:52Z</time>
      </trkpt>
      <trkpt lat="31.22558439342792" lon="121.39989022427307">
        <ele>13.916228090412915</ele>
        <time>2026-09-24T09:31:01Z</time>
      </trkpt>
      <trkpt lat="31.225872256673878" lon="121.39986919644745">
        <ele>13.969074045307934</ele>
        <time>2026-09-24T09:31:10Z</time>
      </trkpt>
      <trkpt lat="31.225943222052475" lon="121.39985418832946">
        <ele>13.345496927388012</ele>
        <time>2026-09-24T09:31:13Z</time>
      </trkpt>
      <trkpt lat="31.226008187940653" lon="121.3998141775777">
        <ele>13.710130487568676</ele>
        <time>2026-09-24T09:31:16Z</time>
      </trkpt>
      <trkpt lat="31.22610912793737" lon="121.39967015116075">
        <ele>15.464601312763989</ele>
        <time>2026-09-24T09:31:22Z</time>
      </trkpt>
      <trkpt lat="31.226157097407988" lon="121.39957313572584">
        <ele>15.718259607441723</ele>
        <time>2026-09-24T09:31:25Z</time>
      </trkpt>
      <trkpt lat="31.226153087742663" lon="121.3994251198597">
        <ele>14.301999841816723</ele>
        <time>2026-09-24T09:31:28Z</time>
      </trkpt>
      <trkpt lat="31.2260471205963" lon="121.39918410515337">
        <ele>11.66501120198518</ele>
        <time>2026-09-24T09:31:34Z</time>
      </trkpt>
      <trkpt lat="31.225990143185637" lon="121.3991191041846">
        <ele>14.270293031819165</ele>
        <time>2026-09-24T09:31:37Z</time>
      </trkpt>
      <trkpt lat="31.225902181167502" lon="121.39906610717814">
        <ele>14.841024194844067</ele>
        <time>2026-09-24T09:31:40Z</time>
      </trkpt>
      <trkpt lat="31.225595322784717" lon="121.3990311309316">
        <ele>14.228016649372876</ele>
        <time>2026-09-24T09:31:49Z</time>
      </trkpt>
      <trkpt lat="31.225265476661573" lon="121.39902015876582">
        <ele>15.195089136250317</ele>
        <time>2026-09-24T09:32:01Z</time>
      </trkpt>
      <trkpt lat="31.224987606104328" lon="121.39900618182176">
        <ele>13.773546014912426</ele>
        <time>2026-09-24T09:32:13Z</time>
      </trkpt>
      <trkpt lat="31.22484467442492" lon="121.39902919622662">
        <ele>13.324358736164868</ele>
        <time>2026-09-24T09:32:19Z</time>
      </trkpt>
      <trkpt lat="31.224722737061647" lon="121.39912121489674">
        <ele>14.011350427754223</ele>
        <time>2026-09-24T09:32:25Z</time>
      </trkpt>
      <trkpt lat="31.224640784514175" lon="121.39926123512296">
        <ele>12.193465982563794</ele>
        <time>2026-09-24T09:32:31Z</time>
      </trkpt>
      <trkpt lat="31.22461980010941" lon="121.39934424519195">
        <ele>14.386552606709301</ele>
        <time>2026-09-24T09:32:34Z</time>
      </trkpt>
      <trkpt lat="31.224622808625643" lon="121.39947825899317">
        <ele>13.11826113332063</ele>
        <time>2026-09-24T09:32:40Z</time>
      </trkpt>
      <trkpt lat="31.224621437241122" lon="121.39956224121647">
        <ele>12.278018747456372</ele>
        <time>2026-09-24T09:32:43Z</time>
      </trkpt>
      <trkpt lat="31.224847728147772" lon="121.399777274154">
        <ele>13.18167666066438</ele>
        <time>2026-09-24T09:32:52Z</time>
      </trkpt>
      <trkpt lat="31.224914700207272" lon="121.3998152730691">
        <ele>13.567448412068188</ele>
        <time>2026-09-24T09:32:55Z</time>
      </trkpt>
      <trkpt lat="31.225172580893233" lon="121.39983225273124">
        <ele>10.137777124531567</ele>
        <time>2026-09-24T09:33:07Z</time>
      </trkpt>
      <trkpt lat="31.225502428692476" lon="121.39985722715713">
        <ele>13.815822397358716</ele>
        <time>2026-09-24T09:33:22Z</time>
      </trkpt>
      <trkpt lat="31.22580129007869" lon="121.39987120289474">
        <ele>13.43004969228059</ele>
        <time>2026-09-24T09:33:34Z</time>
      </trkpt>
      <trkpt lat="31.225871256764748" lon="121.39986519601914">
        <ele>13.17110708821565</ele>
        <time>2026-09-24T09:33:37Z</time>
      </trkpt>
      <trkpt lat="31.225963210648203" lon="121.39983218377857">
        <ele>11.643873010762036</ele>
        <time>2026-09-24T09:33:43Z</time>
      </trkpt>
      <trkpt lat="31.226041169318904" lon="121.39977917032006">
        <ele>15.395901476033032</ele>
        <time>2026-09-24T09:33:46Z</time>
      </trkpt>
      <trkpt lat="31.226159095582197" lon="121.39956213430683">
        <ele>13.213383470661938</ele>
        <time>2026-09-24T09:33:55Z</time>
      </trkpt>
      <trkpt lat="31.226170083814065" lon="121.3994781240524">
        <ele>13.731269632466137</ele>
        <time>2026-09-24T09:33:58Z</time>
      </trkpt>
      <trkpt lat="31.226050117355456" lon="121.39915510221542">
        <ele>12.267449175007641</ele>
        <time>2026-09-24T09:34:10Z</time>
      </trkpt>
      <trkpt lat="31.225928168653677" lon="121.39906010439137">
        <ele>12.970294748432934</ele>
        <time>2026-09-24T09:34:16Z</time>
      </trkpt>
      <trkpt lat="31.22584520603027" lon="121.39903510947914">
        <ele>13.93736628163606</ele>
        <time>2026-09-24T09:34:19Z</time>
      </trkpt>
      <trkpt lat="31.22554434546355" lon="121.39901013360308">
        <ele>13.636147295124829</ele>
        <time>2026-09-24T09:34:31Z</time>
      </trkpt>
      <trkpt lat="31.225268474691017" lon="121.39901015766229">
        <ele>15.882079874165356</ele>
        <time>2026-09-24T09:34:40Z</time>
      </trkpt>
      <trkpt lat="31.22500959602057" lon="121.39901018023937">
        <ele>14.439398561604321</ele>
        <time>2026-09-24T09:34:49Z</time>
      </trkpt>
      <trkpt lat="31.22485267147995" lon="121.39904319672348">
        <ele>12.78533533681184</ele>
        <time>2026-09-24T09:34:56Z</time>
      </trkpt>
      <trkpt lat="31.224783706050914" lon="121.3990812060313">
        <ele>17.224355493672192</ele>
        <time>2026-09-24T09:34:59Z</time>
      </trkpt>
      <trkpt lat="31.224648778628175" lon="121.39922923134574">
        <ele>13.710130487568676</ele>
        <time>2026-09-24T09:35:05Z</time>
      </trkpt>
      <trkpt lat="31.224605800455283" lon="121.39925423749554">
        <ele>14.201594148762524</ele>
        <time>2026-09-24T09:35:08Z</time>
      </trkpt>
      <trkpt lat="31.22456782485028" lon="121.39934925023253">
        <ele>14.12761000264436</ele>
        <time>2026-09-24T09:35:11Z</time>
      </trkpt>
      <trkpt lat="31.224583833620052" lon="121.39956327180113">
        <ele>14.333707605488598</ele>
        <time>2026-09-24T09:35:17Z</time>
      </trkpt>
      <trkpt lat="31.224777759432143" lon="121.39976027815295">
        <ele>13.504033838398755</ele>
        <time>2026-09-24T09:35:26Z</time>
      </trkpt>
      <trkpt lat="31.224860725148552" lon="121.3998112772721">
        <ele>13.879236017353833</ele>
        <time>2026-09-24T09:35:29Z</time>
      </trkpt>
      <trkpt lat="31.22501665602807" lon="121.3998542691372">
        <ele>13.636147295124829</ele>
        <time>2026-09-24T09:35:35Z</time>
      </trkpt>
      <trkpt lat="31.225332507072046" lon="121.39984424031215">
        <ele>13.234521661885083</ele>
        <time>2026-09-24T09:35:50Z</time>
      </trkpt>
      <trkpt lat="31.225531415023294" lon="121.39985622450084">
        <ele>13.958504472859204</ele>
        <time>2026-09-24T09:35:59Z</time>
      </trkpt>
      <trkpt lat="31.225598386875202" lon="121.39989022305267">
        <ele>13.794683252461255</ele>
        <time>2026-09-24T09:36:02Z</time>
      </trkpt>
      <trkpt lat="31.225678350580658" lon="121.39990221764366">
        <ele>13.599155222065747</ele>
        <time>2026-09-24T09:36:05Z</time>
      </trkpt>
      <trkpt lat="31.225936224299122" lon="121.39984318753277">
        <ele>13.636147295124829</ele>
        <time>2026-09-24T09:36:17Z</time>
      </trkpt>
      <trkpt lat="31.22599519411246" lon="121.39981517883706">
        <ele>13.89508989918977</ele>
        <time>2026-09-24T09:36:20Z</time>
      </trkpt>
      <trkpt lat="31.226088138528297" lon="121.39967915406028">
        <ele>14.032488618977368</ele>
        <time>2026-09-24T09:36:26Z</time>
      </trkpt>
      <trkpt lat="31.226121116944437" lon="121.3996061426362">
        <ele>13.535740648396313</ele>
        <time>2026-09-24T09:36:29Z</time>
      </trkpt>
      <trkpt lat="31.226137101965737" lon="121.39951313075727">
        <ele>14.323138986714184</ele>
        <time>2026-09-24T09:36:32Z</time>
      </trkpt>
      <trkpt lat="31.22610210088577" lon="121.3992751090433">
        <ele>13.89508989918977</ele>
        <time>2026-09-24T09:36:41Z</time>
      </trkpt>
      <trkpt lat="31.226061113538652" lon="121.39917610319023">
        <ele>14.365415369160473</ele>
        <time>2026-09-24T09:36:44Z</time>
      </trkpt>
      <trkpt lat="31.22587019479586" lon="121.39904310798349">
        <ele>13.667854105122387</ele>
        <time>2026-09-24T09:36:53Z</time>
      </trkpt>
      <trkpt lat="31.225576331050586" lon="121.3990201316556">
        <ele>14.16988638509065</ele>
        <time>2026-09-24T09:37:05Z</time>
      </trkpt>
      <trkpt lat="31.225296461860104" lon="121.39901515564186">
        <ele>12.690212999470532</ele>
        <time>2026-09-24T09:37:17Z</time>
      </trkpt>
      <trkpt lat="31.225028584899913" lon="121.39897017526746">
        <ele>13.752406870014966</ele>
        <time>2026-09-24T09:37:29Z</time>
      </trkpt>
      <trkpt lat="31.224965613822906" lon="121.39895917986202">
        <ele>13.89508989918977</ele>
        <time>2026-09-24T09:37:32Z</time>
      </trkpt>
      <trkpt lat="31.224843674665298" lon="121.39902519597449">
        <ele>13.234521661885083</ele>
        <time>2026-09-24T09:37:38Z</time>
      </trkpt>
      <trkpt lat="31.224729734889287" lon="121.39913921591055">
        <ele>13.741838251240551</ele>
        <time>2026-09-24T09:37:44Z</time>
      </trkpt>
      <trkpt lat="31.2246717685062" lon="121.39923923029755">
        <ele>13.398342882283032</ele>
        <time>2026-09-24T09:37:50Z</time>
      </trkpt>
      <trkpt lat="31.22464978406913" lon="121.39931623975731">
        <ele>13.5251720296219</ele>
        <time>2026-09-24T09:37:53Z</time>
      </trkpt>
      <trkpt lat="31.22465379649845" lon="121.39950925967835">
        <ele>13.731269632466137</ele>
        <time>2026-09-24T09:37:59Z</time>
      </trkpt>
      <trkpt lat="31.224729773121307" lon="121.39965927015619">
        <ele>13.599155222065747</ele>
        <time>2026-09-24T09:38:05Z</time>
      </trkpt>
      <trkpt lat="31.224841731955465" lon="121.3997882760458">
        <ele>13.440619264729321</ele>
        <time>2026-09-24T09:38:11Z</time>
      </trkpt>
      <trkpt lat="31.224921698033054" lon="121.39982727397637">
        <ele>13.245090280659497</ele>
        <time>2026-09-24T09:38:14Z</time>
      </trkpt>
      <trkpt lat="31.22520156992175" lon="121.39986025378082">
        <ele>14.043057237751782</ele>
        <time>2026-09-24T09:38:26Z</time>
      </trkpt>
      <trkpt lat="31.225533414838463" lon="121.39986422535452">
        <ele>13.599155222065747</ele>
        <time>2026-09-24T09:38:42Z</time>
      </trkpt>
      <trkpt lat="31.225814283807804" lon="121.39986920150345">
        <ele>14.719479356892407</ele>
        <time>2026-09-24T09:38:54Z</time>
      </trkpt>
      <trkpt lat="31.225884246953115" lon="121.39982518977726">
        <ele>15.163381372578442</ele>
        <time>2026-09-24T09:38:57Z</time>
      </trkpt>
      <trkpt lat="31.225965207226505" lon="121.39980518019345">
        <ele>15.041837488301098</ele>
        <time>2026-09-24T09:39:00Z</time>
      </trkpt>
      <trkpt lat="31.226109121813142" lon="121.39959714264786">
        <ele>13.213383470661938</ele>
        <time>2026-09-24T09:39:09Z</time>
      </trkpt>
      <trkpt lat="31.226132105249494" lon="121.39952513252045">
        <ele>14.698341165669262</ele>
        <time>2026-09-24T09:39:12Z</time>
      </trkpt>
      <trkpt lat="31.22612509557278" lon="121.3993531148275">
        <ele>13.60444048512727</ele>
        <time>2026-09-24T09:39:18Z</time>
      </trkpt>
      <trkpt lat="31.22604012247214" lon="121.39916210372915">
        <ele>13.044277940876782</ele>
        <time>2026-09-24T09:39:27Z</time>
      </trkpt>
      <trkpt lat="31.226000138020986" lon="121.3991111025974">
        <ele>13.731269632466137</ele>
        <time>2026-09-24T09:39:30Z</time>
      </trkpt>
      <trkpt lat="31.225783234521927" lon="121.39902611411873">
        <ele>15.94549444783479</ele>
        <time>2026-09-24T09:39:39Z</time>
      </trkpt>
      <trkpt lat="31.225450389976956" lon="121.39901914255476">
        <ele>14.407691751606762</ele>
        <time>2026-09-24T09:39:54Z</time>
      </trkpt>
      <trkpt lat="31.225176517725615" lon="121.39900916559807">
        <ele>12.600375925190747</ele>
        <time>2026-09-24T09:40:06Z</time>
      </trkpt>
      <trkpt lat="31.224894650194138" lon="121.39901519068422">
        <ele>14.397122179158032</ele>
        <time>2026-09-24T09:40:18Z</time>
      </trkpt>
      <trkpt lat="31.22479669819279" lon="121.39905120229196">
        <ele>12.901594911701977</ele>
        <time>2026-09-24T09:40:21Z</time>
      </trkpt>
      <trkpt lat="31.224739728178196" lon="121.39910621207449">
        <ele>16.21500662434846</ele>
        <time>2026-09-24T09:40:24Z</time>
      </trkpt>
      <trkpt lat="31.22463578896996" lon="121.39929223859357">
        <ele>13.451187883503735</ele>
        <time>2026-09-24T09:40:33Z</time>
      </trkpt>
      <trkpt lat="31.22461381238461" lon="121.39947225912788">
        <ele>13.667854105122387</ele>
        <time>2026-09-24T09:40:39Z</time>
      </trkpt>
      <trkpt lat="31.22462381437895" lon="121.39955726763785">
        <ele>13.11826113332063</ele>
        <time>2026-09-24T09:40:42Z</time>
      </trkpt>
      <trkpt lat="31.224840732605745" lon="121.39979027638252">
        <ele>11.31094626057893</ele>
        <time>2026-09-24T09:40:54Z</time>
      </trkpt>
      <trkpt lat="31.22491470112878" lon="121.39982527433312">
        <ele>14.12761000264436</ele>
        <time>2026-09-24T09:40:57Z</time>
      </trkpt>
      <trkpt lat="31.22518857395544" lon="121.39983825209967">
        <ele>14.323138986714184</ele>
        <time>2026-09-24T09:41:09Z</time>
      </trkpt>
      <trkpt lat="31.22544145856749" lon="121.39987123427656">
        <ele>12.325579439289868</ele>
        <time>2026-09-24T09:41:21Z</time>
      </trkpt>
      <trkpt lat="31.22577530224345" lon="121.39987120516122">
        <ele>14.354845796711743</ele>
        <time>2026-09-24T09:41:36Z</time>
      </trkpt>
      <trkpt lat="31.225904242839754" lon="121.39988119520942">
        <ele>14.259723459370434</ele>
        <time>2026-09-24T09:41:42Z</time>
      </trkpt>
      <trkpt lat="31.225961212978845" lon="121.39984718586432">
        <ele>12.558099542744458</ele>
        <time>2026-09-24T09:41:45Z</time>
      </trkpt>
      <trkpt lat="31.22608814235107" lon="121.39972315934719">
        <ele>12.003222261555493</ele>
        <time>2026-09-24T09:41:51Z</time>
      </trkpt>
    </trkseg>
  </trk>
</gpx>