<?xml version="1.0" encoding="UTF-8"?>
<gpx xmlns="http://www.topografix.com/GPX/1/1" xmlns:gpxtpx="http://www.garmin.com/xmlschemas/TrackPointExtension/v1" xmlns:xsi="http://www.w3.org/2001/XMLSchema-instance" xsi:schemaLocation="http://www.topografix.com/GPX/1/1 http://www.topografix.com/GPX/1/1/gpx.xsd" version="1.1" creator="gpx.py -- https://github.com/tkrajina/gpxpy">
  <trk>
    <name>gpx from keep</name>
    <type>Ride</type>
    <trkseg>
      <trkpt lat="32.16223747720776" lon="118.90252254882476">
        <ele>44.12521196436137</ele>
        <time>2026-08-26T06:46:09Z</time>
      </trkpt>
      <trkpt lat="32.162311494319766" lon="118.90250554904229">
        <ele>44.45021654199809</ele>
        <time>2026-08-26T06:46:46Z</time>
      </trkpt>
      <trkpt lat="32.16267454223315" lon="118.90256049351333">
        <ele>44.376226673834026</ele>
        <time>2026-08-26T06:46:57Z</time>
      </trkpt>
      <trkpt lat="32.16317663546822" lon="118.9025324593591">
        <ele>43.966673146001995</ele>
        <time>2026-08-26T06:47:09Z</time>
      </trkpt>
      <trkpt lat="32.16334465896849" lon="118.90255243588312">
        <ele>44.112005482427776</ele>
        <time>2026-08-26T06:47:13Z</time>
      </trkpt>
      <trkpt lat="32.16377774331551" lon="118.90251241289529">
        <ele>44.775213490240276</ele>
        <time>2026-08-26T06:47:22Z</time>
      </trkpt>
      <trkpt lat="32.16426881709949" lon="118.90255035269129">
        <ele>44.175413380376995</ele>
        <time>2026-08-26T06:47:32Z</time>
      </trkpt>
      <trkpt lat="32.16472789387041" lon="118.90255530890339">
        <ele>45.59696031641215</ele>
        <time>2026-08-26T06:47:42Z</time>
      </trkpt>
      <trkpt lat="32.1649099237435" lon="118.9025592907113">
        <ele>44.59818101953715</ele>
        <time>2026-08-26T06:47:47Z</time>
      </trkpt>
      <trkpt lat="32.165001950573995" lon="118.90251629996885">
        <ele>44.33395219873637</ele>
        <time>2026-08-26T06:47:58Z</time>
      </trkpt>
      <trkpt lat="32.165501042455354" lon="118.90248826601885">
        <ele>43.504278431646526</ele>
        <time>2026-08-26T06:48:09Z</time>
      </trkpt>
      <trkpt lat="32.16574709081787" lon="118.90246225422047">
        <ele>43.33517290186137</ele>
        <time>2026-08-26T06:48:14Z</time>
      </trkpt>
      <trkpt lat="32.16624821787683" lon="118.90229527570925">
        <ele>41.47501207422465</ele>
        <time>2026-08-26T06:48:22Z</time>
      </trkpt>
      <trkpt lat="32.16667334396913" lon="118.90207332391628">
        <ele>41.369322071783245</ele>
        <time>2026-08-26T06:48:30Z</time>
      </trkpt>
      <trkpt lat="32.1671114870523" lon="118.90177639622867">
        <ele>38.72968889307231</ele>
        <time>2026-08-26T06:48:40Z</time>
      </trkpt>
      <trkpt lat="32.16749662375806" lon="118.9014484796768">
        <ele>37.61465288233012</ele>
        <time>2026-08-26T06:48:48Z</time>
      </trkpt>
      <trkpt lat="32.16784475467321" lon="118.90109356987274">
        <ele>36.2908690078184</ele>
        <time>2026-08-26T06:48:56Z</time>
      </trkpt>
      <trkpt lat="32.168148877555254" lon="118.90071066626388">
        <ele>35.47176958154887</ele>
        <time>2026-08-26T06:49:05Z</time>
      </trkpt>
      <trkpt lat="32.168299938318235" lon="118.90050771515655">
        <ele>34.58924699854106</ele>
        <time>2026-08-26T06:49:09Z</time>
      </trkpt>
      <trkpt lat="32.16865004892872" lon="118.90018877737829">
        <ele>32.980100880376995</ele>
        <time>2026-08-26T06:49:16Z</time>
      </trkpt>
      <trkpt lat="32.168812100707136" lon="118.90002680836922">
        <ele>33.22318864893168</ele>
        <time>2026-08-26T06:49:20Z</time>
      </trkpt>
      <trkpt lat="32.16913717936979" lon="118.89985882478238">
        <ele>30.565061817876995</ele>
        <time>2026-08-26T06:49:28Z</time>
      </trkpt>
      <trkpt lat="32.16930921382926" lon="118.89981782013624">
        <ele>31.080305348150432</ele>
        <time>2026-08-26T06:49:34Z</time>
      </trkpt>
      <trkpt lat="32.1693852317753" lon="118.89977982333644">
        <ele>28.128889332525432</ele>
        <time>2026-08-26T06:49:36Z</time>
      </trkpt>
      <trkpt lat="32.16944524888823" lon="118.89972783159425">
        <ele>27.99149156641215</ele>
        <time>2026-08-26T06:49:38Z</time>
      </trkpt>
      <trkpt lat="32.16987933568772" lon="118.89961882041804">
        <ele>28.411611805669963</ele>
        <time>2026-08-26T06:49:48Z</time>
      </trkpt>
      <trkpt lat="32.17021939392188" lon="118.89960579283377">
        <ele>27.016493092291057</ele>
        <time>2026-08-26T06:49:54Z</time>
      </trkpt>
      <trkpt lat="32.170615457451724" lon="118.89962275246504">
        <ele>25.09291673731059</ele>
        <time>2026-08-26T06:50:03Z</time>
      </trkpt>
      <trkpt lat="32.1710095265374" lon="118.89959372406476">
        <ele>25.555311451666057</ele>
        <time>2026-08-26T06:50:10Z</time>
      </trkpt>
      <trkpt lat="32.171188554222496" lon="118.89960870395097">
        <ele>24.4323485000059</ele>
        <time>2026-08-26T06:50:14Z</time>
      </trkpt>
      <trkpt lat="32.17136258676735" lon="118.89957969553473">
        <ele>24.284376393072307</ele>
        <time>2026-08-26T06:50:19Z</time>
      </trkpt>
      <trkpt lat="32.17143659835729" lon="118.89958468753163">
        <ele>24.16019273828715</ele>
        <time>2026-08-26T06:50:25Z</time>
      </trkpt>
      <trkpt lat="32.17148159478465" lon="118.89966866184346">
        <ele>23.602674732916057</ele>
        <time>2026-08-26T06:50:28Z</time>
      </trkpt>
      <trkpt lat="32.171480578622976" lon="118.89978663097443">
        <ele>22.765074024908245</ele>
        <time>2026-08-26T06:50:31Z</time>
      </trkpt>
      <trkpt lat="32.17143250306758" lon="118.90024250885506">
        <ele>22.376653919927776</ele>
        <time>2026-08-26T06:50:41Z</time>
      </trkpt>
      <trkpt lat="32.17142341320005" lon="118.90076235215352">
        <ele>22.302671681158245</ele>
        <time>2026-08-26T06:50:49Z</time>
      </trkpt>
      <trkpt lat="32.171404297085346" lon="118.90134316111347">
        <ele>24.464056263677776</ele>
        <time>2026-08-26T06:50:58Z</time>
      </trkpt>
      <trkpt lat="32.171389169620994" lon="118.90191095688576">
        <ele>22.292104969732463</ele>
        <time>2026-08-26T06:51:08Z</time>
      </trkpt>
      <trkpt lat="32.17138809369061" lon="118.90222683525305">
        <ele>25.262022267095745</ele>
        <time>2026-08-26T06:51:15Z</time>
      </trkpt>
      <trkpt lat="32.17142005000266" lon="118.90242175460583">
        <ele>24.234174977056682</ele>
        <time>2026-08-26T06:51:19Z</time>
      </trkpt>
      <trkpt lat="32.17147203542009" lon="118.90251171332247">
        <ele>23.100637684576213</ele>
        <time>2026-08-26T06:51:23Z</time>
      </trkpt>
      <trkpt lat="32.17154305285329" lon="118.90248971583985">
        <ele>24.33986497949809</ele>
        <time>2026-08-26T06:51:39Z</time>
      </trkpt>
      <trkpt lat="32.171540960929974" lon="118.90283357276961">
        <ele>25.272588978521526</ele>
        <time>2026-08-26T06:51:58Z</time>
      </trkpt>
      <trkpt lat="32.17146282023067" lon="118.90328338305086">
        <ele>25.88295579981059</ele>
        <time>2026-08-26T06:52:06Z</time>
      </trkpt>
      <trkpt lat="32.171467736036035" lon="118.90356625334951">
        <ele>26.133970509283245</ele>
        <time>2026-08-26T06:52:16Z</time>
      </trkpt>
      <trkpt lat="32.171438704383945" lon="118.90365321540439">
        <ele>26.585798512212932</ele>
        <time>2026-08-26T06:52:34Z</time>
      </trkpt>
      <trkpt lat="32.171394573525006" lon="118.90404003403769">
        <ele>27.613645802251995</ele>
        <time>2026-08-26T06:52:43Z</time>
      </trkpt>
      <trkpt lat="32.17137946138496" lon="118.9043668726025">
        <ele>27.99149156641215</ele>
        <time>2026-08-26T06:52:50Z</time>
      </trkpt>
      <trkpt lat="32.17132738616227" lon="118.90455877910885">
        <ele>27.130110035650432</ele>
        <time>2026-08-26T06:52:54Z</time>
      </trkpt>
      <trkpt lat="32.17124618962726" lon="118.90506351881568">
        <ele>29.473806629888713</ele>
        <time>2026-08-26T06:53:10Z</time>
      </trkpt>
      <trkpt lat="32.171238112990046" lon="118.90526241036054">
        <ele>27.888441334478557</ele>
        <time>2026-08-26T06:53:18Z</time>
      </trkpt>
      <trkpt lat="32.171314120580455" lon="118.90527539624154">
        <ele>28.39047075342387</ele>
        <time>2026-08-26T06:54:00Z</time>
      </trkpt>
      <trkpt lat="32.17126908734028" lon="118.90534236305687">
        <ele>30.59676958154887</ele>
        <time>2026-08-26T06:55:28Z</time>
      </trkpt>
      <trkpt lat="32.171282055692664" lon="118.90542931311344">
        <ele>29.209577809087932</ele>
        <time>2026-08-26T06:55:41Z</time>
      </trkpt>
      <trkpt lat="32.17124401171671" lon="118.90552526229976">
        <ele>30.911199818365276</ele>
        <time>2026-08-26T06:56:18Z</time>
      </trkpt>
      <trkpt lat="32.17125308159963" lon="118.90535036004533">
        <ele>31.437017689459026</ele>
        <time>2026-08-26T06:56:22Z</time>
      </trkpt>
      <trkpt lat="32.17132626835295" lon="118.90488660688894">
        <ele>28.559576283209026</ele>
        <time>2026-08-26T06:56:30Z</time>
      </trkpt>
      <trkpt lat="32.17140434247" lon="118.90471768928698">
        <ele>27.478887806646526</ele>
        <time>2026-08-26T06:56:44Z</time>
      </trkpt>
      <trkpt lat="32.17137140990056" lon="118.90451179933112">
        <ele>26.96364427637309</ele>
        <time>2026-08-26T06:56:52Z</time>
      </trkpt>
      <trkpt lat="32.171455543257856" lon="118.90416196841163">
        <ele>27.225225697271526</ele>
        <time>2026-08-26T06:56:58Z</time>
      </trkpt>
      <trkpt lat="32.17149573020798" lon="118.90360023499035">
        <ele>26.271368275396526</ele>
        <time>2026-08-26T06:57:09Z</time>
      </trkpt>
      <trkpt lat="32.171534796217436" lon="118.9034043217586">
        <ele>25.346571217291057</ele>
        <time>2026-08-26T06:57:18Z</time>
      </trkpt>
      <trkpt lat="32.171508849182864" lon="118.90321041152035">
        <ele>25.127264271490276</ele>
        <time>2026-08-26T06:57:24Z</time>
      </trkpt>
      <trkpt lat="32.171537908423346" lon="118.90302049255274">
        <ele>24.75734544824809</ele>
        <time>2026-08-26T06:57:30Z</time>
      </trkpt>
      <trkpt lat="32.171573926750305" lon="118.9029765083831">
        <ele>23.62380815576762</ele>
        <time>2026-08-26T06:57:44Z</time>
      </trkpt>
      <trkpt lat="32.17246672482999" lon="118.8933831785368">
        <ele>7.929228930734098</ele>
        <time>2026-08-26T07:11:03Z</time>
      </trkpt>
      <trkpt lat="32.172442708513884" lon="118.89329717495309">
        <ele>8.243659167550504</ele>
        <time>2026-08-26T07:11:23Z</time>
      </trkpt>
      <trkpt lat="32.17246366697877" lon="118.89300115032984">
        <ele>8.190810351632535</ele>
        <time>2026-08-26T07:11:38Z</time>
      </trkpt>
      <trkpt lat="32.17251962829505" lon="118.89271011858041">
        <ele>8.872519641183317</ele>
        <time>2026-08-26T07:11:54Z</time>
      </trkpt>
      <trkpt lat="32.17255154105044" lon="118.89220105874911">
        <ele>8.137969165109098</ele>
        <time>2026-08-26T07:12:04Z</time>
      </trkpt>
      <trkpt lat="32.17259944257295" lon="118.89167898244018">
        <ele>8.410117297433317</ele>
        <time>2026-08-26T07:12:12Z</time>
      </trkpt>
      <trkpt lat="32.17265132242973" lon="118.89111188404881">
        <ele>8.568656115792692</ele>
        <time>2026-08-26T07:12:20Z</time>
      </trkpt>
      <trkpt lat="32.17271318949336" lon="118.89054176802371">
        <ele>9.879225878976285</ele>
        <time>2026-08-26T07:12:28Z</time>
      </trkpt>
      <trkpt lat="32.172780095495604" lon="118.89015467774095">
        <ele>9.062758593820035</ele>
        <time>2026-08-26T07:12:34Z</time>
      </trkpt>
      <trkpt lat="32.17292301298373" lon="118.8897855775218">
        <ele>10.080039172433317</ele>
        <time>2026-08-26T07:12:44Z</time>
      </trkpt>
      <trkpt lat="32.172971921991916" lon="118.88945748986627">
        <ele>7.3188621094450355</ele>
        <time>2026-08-26T07:12:53Z</time>
      </trkpt>
      <trkpt lat="32.17307181705183" lon="118.88907437688006">
        <ele>8.735121875070035</ele>
        <time>2026-08-26T07:13:00Z</time>
      </trkpt>
      <trkpt lat="32.17320679298351" lon="118.88893332453081">
        <ele>9.712760119698942</ele>
        <time>2026-08-26T07:13:10Z</time>
      </trkpt>
      <trkpt lat="32.173228697535976" lon="118.88863923581951">
        <ele>8.798537402413785</ele>
        <time>2026-08-26T07:13:17Z</time>
      </trkpt>
      <trkpt lat="32.17339450516249" lon="118.88802202492546">
        <ele>7.392844348214567</ele>
        <time>2026-08-26T07:13:29Z</time>
      </trkpt>
      <trkpt lat="32.173540321970755" lon="118.88747682318001">
        <ele>11.749953418038785</ele>
        <time>2026-08-26T07:13:37Z</time>
      </trkpt>
      <trkpt lat="32.17364218740381" lon="118.88709767429354">
        <ele>6.156256823800504</ele>
        <time>2026-08-26T07:13:43Z</time>
      </trkpt>
      <trkpt lat="32.17371411905311" lon="118.8869025931907">
        <ele>10.18308940436691</ele>
        <time>2026-08-26T07:13:46Z</time>
      </trkpt>
      <trkpt lat="32.173851913303466" lon="118.88636636620336">
        <ele>11.033896594308317</ele>
        <time>2026-08-26T07:13:54Z</time>
      </trkpt>
      <trkpt lat="32.17400868417373" lon="118.88579810952572">
        <ele>7.802397876046598</ele>
        <time>2026-08-26T07:14:03Z</time>
      </trkpt>
      <trkpt lat="32.174127444841425" lon="118.88524884965562">
        <ele>7.675566821359098</ele>
        <time>2026-08-26T07:14:10Z</time>
      </trkpt>
      <trkpt lat="32.17420630918841" lon="118.88494469835022">
        <ele>8.589797168038785</ele>
        <time>2026-08-26T07:14:48Z</time>
      </trkpt>
      <trkpt lat="32.174216264128034" lon="118.88485065198307">
        <ele>8.946501879952848</ele>
        <time>2026-08-26T07:14:58Z</time>
      </trkpt>
      <trkpt lat="32.17441199856641" lon="118.88426734281734">
        <ele>9.43003764655441</ele>
        <time>2026-08-26T07:15:10Z</time>
      </trkpt>
      <trkpt lat="32.17455172761467" lon="118.88371603990188">
        <ele>9.09446635749191</ele>
        <time>2026-08-26T07:15:18Z</time>
      </trkpt>
      <trkpt lat="32.1747244606366" lon="118.88318373038294">
        <ele>9.070685534738004</ele>
        <time>2026-08-26T07:15:26Z</time>
      </trkpt>
      <trkpt lat="32.17487015212928" lon="118.88260738402737">
        <ele>8.935935168527067</ele>
        <time>2026-08-26T07:15:36Z</time>
      </trkpt>
      <trkpt lat="32.17493993892435" lon="118.88223015125719">
        <ele>8.716620593331754</ele>
        <time>2026-08-26T07:15:42Z</time>
      </trkpt>
      <trkpt lat="32.174932782684955" lon="118.88197499500387">
        <ele>9.733901171945035</ele>
        <time>2026-08-26T07:15:46Z</time>
      </trkpt>
      <trkpt lat="32.174834452026225" lon="118.88146968431163">
        <ele>8.872519641183317</ele>
        <time>2026-08-26T07:15:54Z</time>
      </trkpt>
      <trkpt lat="32.17475306509261" lon="118.88088931007562">
        <ele>10.016623645089567</ele>
        <time>2026-08-26T07:16:02Z</time>
      </trkpt>
      <trkpt lat="32.17462569143731" lon="118.88035895941388">
        <ele>7.960936694405973</ele>
        <time>2026-08-26T07:16:11Z</time>
      </trkpt>
      <trkpt lat="32.174513291935334" lon="118.87980357655822">
        <ele>10.225363879464567</ele>
        <time>2026-08-26T07:16:18Z</time>
      </trkpt>
      <trkpt lat="32.17443190576697" lon="118.87927619777385">
        <ele>8.307074694894254</ele>
        <time>2026-08-26T07:16:27Z</time>
      </trkpt>
      <trkpt lat="32.17433351580415" lon="118.87876181799376">
        <ele>7.152396350167692</ele>
        <time>2026-08-26T07:16:33Z</time>
      </trkpt>
      <trkpt lat="32.17421211432141" lon="118.87825043083184">
        <ele>9.186949877999723</ele>
        <time>2026-08-26T07:16:41Z</time>
      </trkpt>
      <trkpt lat="32.17416192882657" lon="118.87801724995992">
        <ele>7.289794116280973</ele>
        <time>2026-08-26T07:16:46Z</time>
      </trkpt>
      <trkpt lat="32.17411059647665" lon="118.8775979150931">
        <ele>7.635932116769254</ele>
        <time>2026-08-26T07:16:52Z</time>
      </trkpt>
      <trkpt lat="32.17400824841973" lon="118.87717757626453">
        <ele>8.21195140387863</ele>
        <time>2026-08-26T07:16:58Z</time>
      </trkpt>
      <trkpt lat="32.17395215618944" lon="118.87707349396122">
        <ele>8.011138110421598</ele>
        <time>2026-08-26T07:17:00Z</time>
      </trkpt>
      <trkpt lat="32.173863096732255" lon="118.87701745480202">
        <ele>8.999350695870817</ele>
        <time>2026-08-26T07:17:03Z</time>
      </trkpt>
      <trkpt lat="32.1737640989846" lon="118.87704048323688">
        <ele>7.8552390625700355</ele>
        <time>2026-08-26T07:17:04Z</time>
      </trkpt>
      <trkpt lat="32.17352513026829" lon="118.87712857909642">
        <ele>6.637152819894254</ele>
        <time>2026-08-26T07:17:08Z</time>
      </trkpt>
      <trkpt lat="32.173295140414254" lon="118.87718865036037">
        <ele>7.876380114816129</ele>
        <time>2026-08-26T07:17:12Z</time>
      </trkpt>
      <trkpt lat="32.173116122189015" lon="118.87720267837028">
        <ele>8.042845874093473</ele>
        <time>2026-08-26T07:17:15Z</time>
      </trkpt>
      <trkpt lat="32.17299508480269" lon="118.8771806709562">
        <ele>6.322722583077848</ele>
        <time>2026-08-26T07:17:17Z</time>
      </trkpt>
      <trkpt lat="32.172886032603145" lon="118.87713764480193">
        <ele>5.6304465821012855</ele>
        <time>2026-08-26T07:17:19Z</time>
      </trkpt>
      <trkpt lat="32.17276393493906" lon="118.87704057423184">
        <ele>5.545897631905973</ele>
        <time>2026-08-26T07:17:22Z</time>
      </trkpt>
      <trkpt lat="32.17275900693904" lon="118.87713165131817">
        <ele>6.227599292062223</ele>
        <time>2026-08-26T07:19:09Z</time>
      </trkpt>
      <trkpt lat="32.172800075056934" lon="118.87720871214502">
        <ele>6.177397876046598</ele>
        <time>2026-08-26T07:19:14Z</time>
      </trkpt>
      <trkpt lat="32.172810144199104" lon="118.87729378219683">
        <ele>6.227599292062223</ele>
        <time>2026-08-26T07:19:22Z</time>
      </trkpt>
      <trkpt lat="32.172791065618846" lon="118.87719870459459">
        <ele>6.209105639718473</ele>
        <time>2026-08-26T07:23:24Z</time>
      </trkpt>
      <trkpt lat="32.17274899730762" lon="118.87712164382486">
        <ele>6.240813403390348</ele>
        <time>2026-08-26T07:23:26Z</time>
      </trkpt>
      <trkpt lat="32.17261884682014" lon="118.87696051975719">
        <ele>6.930449633859098</ele>
        <time>2026-08-26T07:23:30Z</time>
      </trkpt>
      <trkpt lat="32.17237737700098" lon="118.87643208804396">
        <ele>5.799552111886442</ele>
        <time>2026-08-26T07:23:40Z</time>
      </trkpt>
      <trkpt lat="32.17215690960125" lon="118.87591465209613">
        <ele>6.6477195313200355</ele>
        <time>2026-08-26T07:23:48Z</time>
      </trkpt>
      <trkpt lat="32.17198456323392" lon="118.87554033068045">
        <ele>7.310935168527067</ele>
        <time>2026-08-26T07:23:54Z</time>
      </trkpt>
      <trkpt lat="32.17173010133649" lon="118.87505490771727">
        <ele>6.848532824777067</ele>
        <time>2026-08-26T07:24:02Z</time>
      </trkpt>
      <trkpt lat="32.17148661484122" lon="118.87454945465764">
        <ele>7.3003684571012855</ele>
        <time>2026-08-26T07:24:10Z</time>
      </trkpt>
      <trkpt lat="32.17130024760503" lon="118.87417511268059">
        <ele>3.868048815988004</ele>
        <time>2026-08-26T07:24:16Z</time>
      </trkpt>
      <trkpt lat="32.17109174628599" lon="118.8736646326652">
        <ele>7.791831164620817</ele>
        <time>2026-08-26T07:24:25Z</time>
      </trkpt>
      <trkpt lat="32.17094548985566" lon="118.87341439737693">
        <ele>6.605445056222379</ele>
        <time>2026-08-26T07:24:28Z</time>
      </trkpt>
      <trkpt lat="32.170713970926776" lon="118.87290390320432">
        <ele>5.944876818917692</ele>
        <time>2026-08-26T07:24:36Z</time>
      </trkpt>
      <trkpt lat="32.17047643116205" lon="118.87238238730792">
        <ele>3.6381751587614417</ele>
        <time>2026-08-26T07:24:43Z</time>
      </trkpt>
      <trkpt lat="32.17025596067245" lon="118.87193794046208">
        <ele>4.1507712891325355</ele>
        <time>2026-08-26T07:24:50Z</time>
      </trkpt>
      <trkpt lat="32.16999742994467" lon="118.87144643825489">
        <ele>5.5168296387419105</ele>
        <time>2026-08-26T07:24:56Z</time>
      </trkpt>
      <trkpt lat="32.16975784000225" lon="118.87090186613104">
        <ele>7.036139636300504</ele>
        <time>2026-08-26T07:25:04Z</time>
      </trkpt>
      <trkpt lat="32.169591411719004" lon="118.87051144813394">
        <ele>8.180243640206754</ele>
        <time>2026-08-26T07:25:10Z</time>
      </trkpt>
      <trkpt lat="32.16931578581216" lon="118.86995484518296">
        <ele>5.231467395089567</ele>
        <time>2026-08-26T07:25:18Z</time>
      </trkpt>
      <trkpt lat="32.169123266017984" lon="118.86949433381965">
        <ele>6.848532824777067</ele>
        <time>2026-08-26T07:25:25Z</time>
      </trkpt>
      <trkpt lat="32.168942783376686" lon="118.86907285888896">
        <ele>6.428412585519254</ele>
        <time>2026-08-26T07:25:31Z</time>
      </trkpt>
      <trkpt lat="32.16872528647097" lon="118.86864937800614">
        <ele>5.527396350167692</ele>
        <time>2026-08-26T07:25:39Z</time>
      </trkpt>
      <trkpt lat="32.16866602808524" lon="118.86842311304196">
        <ele>6.8062583496794105</ele>
        <time>2026-08-26T07:25:43Z</time>
      </trkpt>
      <trkpt lat="32.16850652737968" lon="118.86799561135979">
        <ele>7.540808825753629</ele>
        <time>2026-08-26T07:25:52Z</time>
      </trkpt>
      <trkpt lat="32.16827999819995" lon="118.8675580964358">
        <ele>6.209105639718473</ele>
        <time>2026-08-26T07:26:00Z</time>
      </trkpt>
      <trkpt lat="32.1682338703839" lon="118.86745196963132">
        <ele>10.143454699777067</ele>
        <time>2026-08-26T07:26:03Z</time>
      </trkpt>
      <trkpt lat="32.16800923148785" lon="118.86692533369312">
        <ele>5.4851218750700355</ele>
        <time>2026-08-26T07:26:12Z</time>
      </trkpt>
      <trkpt lat="32.16776362575736" lon="118.8664377390264">
        <ele>6.859107165597379</ele>
        <time>2026-08-26T07:26:21Z</time>
      </trkpt>
      <trkpt lat="32.16751702887915" lon="118.86596415369941">
        <ele>9.723326831124723</ele>
        <time>2026-08-26T07:26:28Z</time>
      </trkpt>
      <trkpt lat="32.16725836785734" lon="118.86544450082556">
        <ele>9.554221301339567</ele>
        <time>2026-08-26T07:26:39Z</time>
      </trkpt>
      <trkpt lat="32.16701769904538" lon="118.86492283376333">
        <ele>8.42069163825363</ele>
        <time>2026-08-26T07:26:48Z</time>
      </trkpt>
      <trkpt lat="32.16671693049877" lon="118.86433507308394">
        <ele>6.145690112374723</ele>
        <time>2026-08-26T07:26:58Z</time>
      </trkpt>
      <trkpt lat="32.16648033069265" lon="118.86388247936127">
        <ele>3.9103309204801917</ele>
        <time>2026-08-26T07:27:06Z</time>
      </trkpt>
      <trkpt lat="32.166395031536375" lon="118.86365417400712">
        <ele>8.08512034919113</ele>
        <time>2026-08-26T07:27:10Z</time>
      </trkpt>
      <trkpt lat="32.16614839924693" lon="118.86318454658955">
        <ele>7.8552390625700355</ele>
        <time>2026-08-26T07:27:19Z</time>
      </trkpt>
      <trkpt lat="32.16596894559042" lon="118.86285109681387">
        <ele>8.787963061593473</ele>
        <time>2026-08-26T07:27:24Z</time>
      </trkpt>
      <trkpt lat="32.16573719878044" lon="118.86229933817408">
        <ele>5.5168296387419105</ele>
        <time>2026-08-26T07:27:34Z</time>
      </trkpt>
      <trkpt lat="32.1655045253102" lon="118.86181066003468">
        <ele>6.407279162667692</ele>
        <time>2026-08-26T07:27:45Z</time>
      </trkpt>
      <trkpt lat="32.165361101228264" lon="118.86150523188647">
        <ele>6.008292346261442</ele>
        <time>2026-08-26T07:27:51Z</time>
      </trkpt>
      <trkpt lat="32.165293966099995" lon="118.86141110138625">
        <ele>5.220893054269254</ele>
        <time>2026-08-26T07:27:52Z</time>
      </trkpt>
      <trkpt lat="32.16510034136452" lon="118.86096346529081">
        <ele>8.872519641183317</ele>
        <time>2026-08-26T07:28:00Z</time>
      </trkpt>
      <trkpt lat="32.165071185893375" lon="118.86085030162256">
        <ele>6.0294333985075355</ele>
        <time>2026-08-26T07:28:02Z</time>
      </trkpt>
      <trkpt lat="32.16481240554963" lon="118.86030051108347">
        <ele>6.428412585519254</ele>
        <time>2026-08-26T07:28:12Z</time>
      </trkpt>
      <trkpt lat="32.16460974081767" lon="118.85983483221608">
        <ele>6.2698813965544105</ele>
        <time>2026-08-26T07:28:20Z</time>
      </trkpt>
      <trkpt lat="32.164389086291735" lon="118.85938316924408">
        <ele>9.554221301339567</ele>
        <time>2026-08-26T07:28:28Z</time>
      </trkpt>
      <trkpt lat="32.16412831669694" lon="118.85885738958257">
        <ele>5.799552111886442</ele>
        <time>2026-08-26T07:28:39Z</time>
      </trkpt>
      <trkpt lat="32.16390868817555" lon="118.85843275431701">
        <ele>4.803412585519254</ele>
        <time>2026-08-26T07:28:46Z</time>
      </trkpt>
      <trkpt lat="32.16386652124265" lon="118.85831858100501">
        <ele>8.43125834967941</ele>
        <time>2026-08-26T07:28:48Z</time>
      </trkpt>
      <trkpt lat="32.163809185310384" lon="118.85808622444152">
        <ele>6.166831164620817</ele>
        <time>2026-08-26T07:28:52Z</time>
      </trkpt>
      <trkpt lat="32.16358752076626" lon="118.8576425491485">
        <ele>4.560324816964567</ele>
        <time>2026-08-26T07:29:01Z</time>
      </trkpt>
      <trkpt lat="32.16336772240916" lon="118.85710872434389">
        <ele>8.15910258796066</ele>
        <time>2026-08-26T07:29:09Z</time>
      </trkpt>
      <trkpt lat="32.16319320054686" lon="118.85676619358605">
        <ele>5.873534350655973</ele>
        <time>2026-08-26T07:29:15Z</time>
      </trkpt>
      <trkpt lat="32.162989406041646" lon="118.85624136772331">
        <ele>5.873534350655973</ele>
        <time>2026-08-26T07:29:24Z</time>
      </trkpt>
      <trkpt lat="32.16273464582559" lon="118.8557505938852">
        <ele>7.728415637277067</ele>
        <time>2026-08-26T07:29:34Z</time>
      </trkpt>
      <trkpt lat="32.162650320964204" lon="118.85553925616249">
        <ele>5.767844348214567</ele>
        <time>2026-08-26T07:29:39Z</time>
      </trkpt>
      <trkpt lat="32.16254208550479" lon="118.8553920246201">
        <ele>6.417845874093473</ele>
        <time>2026-08-26T07:29:46Z</time>
      </trkpt>
      <trkpt lat="32.1622702777746" lon="118.85487820200244">
        <ele>5.913169055245817</ele>
        <time>2026-08-26T07:29:56Z</time>
      </trkpt>
      <trkpt lat="32.16207065311951" lon="118.85448256255911">
        <ele>7.635932116769254</ele>
        <time>2026-08-26T07:30:02Z</time>
      </trkpt>
      <trkpt lat="32.16187592591498" lon="118.85402080717454">
        <ele>8.399550586007535</ele>
        <time>2026-08-26T07:30:11Z</time>
      </trkpt>
      <trkpt lat="32.16164910749424" lon="118.85350595880162">
        <ele>7.519675402902067</ele>
        <time>2026-08-26T07:30:19Z</time>
      </trkpt>
      <trkpt lat="32.16140637676913" lon="118.85305421238112">
        <ele>6.584311633370817</ele>
        <time>2026-08-26T07:30:27Z</time>
      </trkpt>
      <trkpt lat="32.1612127562211" lon="118.8526715747226">
        <ele>9.44853129889816</ele>
        <time>2026-08-26T07:30:34Z</time>
      </trkpt>
      <trkpt lat="32.160998959765124" lon="118.85217974614112">
        <ele>8.904227404855192</ele>
        <time>2026-08-26T07:30:42Z</time>
      </trkpt>
      <trkpt lat="32.16075702163447" lon="118.85160376690358">
        <ele>5.944876818917692</ele>
        <time>2026-08-26T07:30:52Z</time>
      </trkpt>
      <trkpt lat="32.16048620999029" lon="118.85111593679626">
        <ele>10.698325305245817</ele>
        <time>2026-08-26T07:31:02Z</time>
      </trkpt>
      <trkpt lat="32.16025033416949" lon="118.85058702465572">
        <ele>10.468451648019254</ele>
        <time>2026-08-26T07:31:13Z</time>
      </trkpt>
      <trkpt lat="32.159994522450305" lon="118.85010418953281">
        <ele>8.547515063546598</ele>
        <time>2026-08-26T07:31:22Z</time>
      </trkpt>
      <trkpt lat="32.15984691570885" lon="118.84974055266555">
        <ele>8.600363879464567</ele>
        <time>2026-08-26T07:31:30Z</time>
      </trkpt>
      <trkpt lat="32.1597024582459" lon="118.84947108183285">
        <ele>9.36662211921066</ele>
        <time>2026-08-26T07:32:13Z</time>
      </trkpt>
      <trkpt lat="32.159670286699814" lon="118.84936789897174">
        <ele>9.63877788092941</ele>
        <time>2026-08-26T07:32:18Z</time>
      </trkpt>
      <trkpt lat="32.159414469298575" lon="118.84888905673407">
        <ele>9.868651538155973</ele>
        <time>2026-08-26T07:32:30Z</time>
      </trkpt>
      <trkpt lat="32.15918964941218" lon="118.84840820257169">
        <ele>11.129019885323942</ele>
        <time>2026-08-26T07:32:40Z</time>
      </trkpt>
      <trkpt lat="32.15902504039361" lon="118.8480525672231">
        <ele>10.18308940436691</ele>
        <time>2026-08-26T07:32:46Z</time>
      </trkpt>
      <trkpt lat="32.1589858154924" lon="118.84791932638957">
        <ele>10.016623645089567</ele>
        <time>2026-08-26T07:32:48Z</time>
      </trkpt>
      <trkpt lat="32.15874203105927" lon="118.84746751683308">
        <ele>10.080039172433317</ele>
        <time>2026-08-26T07:32:56Z</time>
      </trkpt>
      <trkpt lat="32.15858842415087" lon="118.84711588029627">
        <ele>9.250365405343473</ele>
        <time>2026-08-26T07:33:03Z</time>
      </trkpt>
      <trkpt lat="32.15831359914586" lon="118.84664703371283">
        <ele>5.474555163644254</ele>
        <time>2026-08-26T07:33:09Z</time>
      </trkpt>
      <trkpt lat="32.15800877655879" lon="118.8461851982236">
        <ele>8.988776355050504</ele>
        <time>2026-08-26T07:33:16Z</time>
      </trkpt>
      <trkpt lat="32.15768301367666" lon="118.84576343556938">
        <ele>7.226378588937223</ele>
        <time>2026-08-26T07:33:23Z</time>
      </trkpt>
      <trkpt lat="32.15734835235523" lon="118.8454047893643">
        <ele>7.844672351144254</ele>
        <time>2026-08-26T07:33:30Z</time>
      </trkpt>
      <trkpt lat="32.157155014587694" lon="118.84522446573902">
        <ele>6.637152819894254</ele>
        <time>2026-08-26T07:33:35Z</time>
      </trkpt>
      <trkpt lat="32.15697461753385" lon="118.84500807179066">
        <ele>7.635932116769254</ele>
        <time>2026-08-26T07:33:39Z</time>
      </trkpt>
      <trkpt lat="32.156595964084616" lon="118.8446614469566">
        <ele>6.721709399484098</ele>
        <time>2026-08-26T07:33:45Z</time>
      </trkpt>
      <trkpt lat="32.15624633749754" lon="118.84432884388603">
        <ele>8.724547534249723</ele>
        <time>2026-08-26T07:33:52Z</time>
      </trkpt>
      <trkpt lat="32.15582067681304" lon="118.84398522442899">
        <ele>8.589797168038785</ele>
        <time>2026-08-26T07:34:00Z</time>
      </trkpt>
      <trkpt lat="32.15540500898235" lon="118.84363759404262">
        <ele>5.220893054269254</ele>
        <time>2026-08-26T07:34:09Z</time>
      </trkpt>
      <trkpt lat="32.15503236907889" lon="118.84330298257613">
        <ele>8.809104113839567</ele>
        <time>2026-08-26T07:34:16Z</time>
      </trkpt>
      <trkpt lat="32.15475594110206" lon="118.84308258148972">
        <ele>4.319876818917692</ele>
        <time>2026-08-26T07:34:22Z</time>
      </trkpt>
      <trkpt lat="32.15457861452017" lon="118.84291126567804">
        <ele>6.941016345284879</ele>
        <time>2026-08-26T07:34:27Z</time>
      </trkpt>
      <trkpt lat="32.154406380068515" lon="118.84279305199148">
        <ele>4.528617053292692</ele>
        <time>2026-08-26T07:34:30Z</time>
      </trkpt>
      <trkpt lat="32.154029746960646" lon="118.84246544928337">
        <ele>8.27536693122238</ele>
        <time>2026-08-26T07:34:38Z</time>
      </trkpt>
      <trkpt lat="32.15369112757313" lon="118.84214285094086">
        <ele>6.8062583496794105</ele>
        <time>2026-08-26T07:34:47Z</time>
      </trkpt>
      <trkpt lat="32.1532874444191" lon="118.84179119975713">
        <ele>10.24649730231613</ele>
        <time>2026-08-26T07:34:56Z</time>
      </trkpt>
      <trkpt lat="32.15285971482317" lon="118.84141650329926">
        <ele>5.9660178711637855</ele>
        <time>2026-08-26T07:35:06Z</time>
      </trkpt>
      <trkpt lat="32.152557168596445" lon="118.84113497671271">
        <ele>10.090605883859098</ele>
        <time>2026-08-26T07:35:14Z</time>
      </trkpt>
      <trkpt lat="32.152175536756694" lon="118.8408133768192">
        <ele>8.346701770089567</ele>
        <time>2026-08-26T07:35:25Z</time>
      </trkpt>
      <trkpt lat="32.15209840865376" lon="118.8407482551211">
        <ele>7.992636828683317</ele>
        <time>2026-08-26T07:35:27Z</time>
      </trkpt>
      <trkpt lat="32.151973134526976" lon="118.84060498307639">
        <ele>12.859709887765348</ele>
        <time>2026-08-26T07:35:30Z</time>
      </trkpt>
      <trkpt lat="32.15159754895367" lon="118.84031043350356">
        <ele>8.851378588937223</ele>
        <time>2026-08-26T07:35:40Z</time>
      </trkpt>
      <trkpt lat="32.15124392002714" lon="118.83998982868562">
        <ele>12.87027659919113</ele>
        <time>2026-08-26T07:35:50Z</time>
      </trkpt>
      <trkpt lat="32.150871295129996" lon="118.83967423396271">
        <ele>12.78836741950363</ele>
        <time>2026-08-26T07:36:00Z</time>
      </trkpt>
      <trkpt lat="32.15070708468454" lon="118.83957204503454">
        <ele>12.880850940011442</ele>
        <time>2026-08-26T07:36:04Z</time>
      </trkpt>
      <trkpt lat="32.1503394766459" lon="118.83926646784852">
        <ele>8.515807299874723</ele>
        <time>2026-08-26T07:36:13Z</time>
      </trkpt>
      <trkpt lat="32.14993574133513" lon="118.83889375786079">
        <ele>13.12393870856613</ele>
        <time>2026-08-26T07:36:22Z</time>
      </trkpt>
      <trkpt lat="32.14952408862065" lon="118.83856914328295">
        <ele>12.104018359445035</ele>
        <time>2026-08-26T07:36:33Z</time>
      </trkpt>
      <trkpt lat="32.149134429518575" lon="118.83823951504905">
        <ele>14.801779895089567</ele>
        <time>2026-08-26T07:36:42Z</time>
      </trkpt>
      <trkpt lat="32.14872171277815" lon="118.83788082863637">
        <ele>12.26255717780441</ele>
        <time>2026-08-26T07:36:54Z</time>
      </trkpt>
      <trkpt lat="32.148574470563204" lon="118.83776059896275">
        <ele>14.320883898995817</ele>
        <time>2026-08-26T07:36:58Z</time>
      </trkpt>
      <trkpt lat="32.148263811567645" lon="118.83742494754416">
        <ele>16.513976245187223</ele>
        <time>2026-08-26T07:37:08Z</time>
      </trkpt>
      <trkpt lat="32.14788208422104" lon="118.83705924000267">
        <ele>16.001372485421598</ele>
        <time>2026-08-26T07:37:19Z</time>
      </trkpt>
      <trkpt lat="32.14751632562844" lon="118.83667549247531">
        <ele>18.783690600655973</ele>
        <time>2026-08-26T07:37:30Z</time>
      </trkpt>
      <trkpt lat="32.14718349515198" lon="118.83624965406078">
        <ele>15.443854480050504</ele>
        <time>2026-08-26T07:37:40Z</time>
      </trkpt>
      <trkpt lat="32.14688070455111" lon="118.83584385166546">
        <ele>18.10990825202316</ele>
        <time>2026-08-26T07:37:48Z</time>
      </trkpt>
      <trkpt lat="32.146607117966234" lon="118.83554827079311">
        <ele>17.742629199288785</ele>
        <time>2026-08-26T07:37:55Z</time>
      </trkpt>
      <trkpt lat="32.146412543017014" lon="118.83525167958715">
        <ele>16.16783824469894</ele>
        <time>2026-08-26T07:37:59Z</time>
      </trkpt>
      <trkpt lat="32.146097713191324" lon="118.83482783631568">
        <ele>15.74771800544113</ele>
        <time>2026-08-26T07:38:06Z</time>
      </trkpt>
      <trkpt lat="32.14573175320907" lon="118.83433886120656">
        <ele>14.88633647467941</ele>
        <time>2026-08-26T07:38:14Z</time>
      </trkpt>
      <trkpt lat="32.14549612880854" lon="118.8340212262008">
        <ele>13.19792094733566</ele>
        <time>2026-08-26T07:38:19Z</time>
      </trkpt>
      <trkpt lat="32.14531551721714" lon="118.8337055892474">
        <ele>12.45279613044113</ele>
        <time>2026-08-26T07:38:24Z</time>
      </trkpt>
      <trkpt lat="32.14497563076742" lon="118.83325668921073">
        <ele>10.394469409249723</ele>
        <time>2026-08-26T07:38:32Z</time>
      </trkpt>
      <trkpt lat="32.1446828287423" lon="118.83284987044581">
        <ele>14.519057421945035</ele>
        <time>2026-08-26T07:38:41Z</time>
      </trkpt>
      <trkpt lat="32.14455443421471" lon="118.8326484629964">
        <ele>10.352194934152067</ele>
        <time>2026-08-26T07:38:44Z</time>
      </trkpt>
      <trkpt lat="32.14448533291952" lon="118.83260036916033">
        <ele>10.394469409249723</ele>
        <time>2026-08-26T07:38:53Z</time>
      </trkpt>
      <trkpt lat="32.14424357511885" lon="118.8322135850376">
        <ele>10.03775706794113</ele>
        <time>2026-08-26T07:39:23Z</time>
      </trkpt>
      <trkpt lat="32.14393273683742" lon="118.83179073053007">
        <ele>8.62150493171066</ele>
        <time>2026-08-26T07:39:31Z</time>
      </trkpt>
      <trkpt lat="32.14375623544995" lon="118.83153721659586">
        <ele>12.838568835519254</ele>
        <time>2026-08-26T07:39:36Z</time>
      </trkpt>
      <trkpt lat="32.14352136821184" lon="118.83109230653714">
        <ele>10.687758593820035</ele>
        <time>2026-08-26T07:39:44Z</time>
      </trkpt>
      <trkpt lat="32.1433436534118" lon="118.83072455162247">
        <ele>11.874144702218473</ele>
        <time>2026-08-26T07:39:51Z</time>
      </trkpt>
      <trkpt lat="32.14316266338068" lon="118.8302094864086">
        <ele>8.978209643624723</ele>
        <time>2026-08-26T07:39:58Z</time>
      </trkpt>
      <trkpt lat="32.14303872896071" lon="118.82971946684472">
        <ele>8.264792590402067</ele>
        <time>2026-08-26T07:40:06Z</time>
      </trkpt>
      <trkpt lat="32.14294800483566" lon="118.82933967504606">
        <ele>10.331053881905973</ele>
        <time>2026-08-26T07:40:12Z</time>
      </trkpt>
      <trkpt lat="32.1427779755839" lon="118.82880456177493">
        <ele>12.714385180734098</ele>
        <time>2026-08-26T07:40:20Z</time>
      </trkpt>
      <trkpt lat="32.142641239448004" lon="118.82842376999066">
        <ele>12.545279650948942</ele>
        <time>2026-08-26T07:40:27Z</time>
      </trkpt>
      <trkpt lat="32.14250322327102" lon="118.8278936616507">
        <ele>12.04325023200363</ele>
        <time>2026-08-26T07:40:34Z</time>
      </trkpt>
      <trkpt lat="32.14235206663336" lon="118.82729039814767">
        <ele>12.431662707589567</ele>
        <time>2026-08-26T07:40:45Z</time>
      </trkpt>
      <trkpt lat="32.142306819999554" lon="118.82716313261002">
        <ele>8.254225878976285</ele>
        <time>2026-08-26T07:40:46Z</time>
      </trkpt>
      <trkpt lat="32.14217739824195" lon="118.82695069414093">
        <ele>11.715605883859098</ele>
        <time>2026-08-26T07:40:50Z</time>
      </trkpt>
      <trkpt lat="32.14208575229942" lon="118.82661499055632">
        <ele>8.89365306403488</ele>
        <time>2026-08-26T07:40:57Z</time>
      </trkpt>
      <trkpt lat="32.1419787194108" lon="118.82660798549185">
        <ele>9.155242114327848</ele>
        <time>2026-08-26T07:41:40Z</time>
      </trkpt>
      <trkpt lat="32.141831897033185" lon="118.82671723067197">
        <ele>9.48288646247238</ele>
        <time>2026-08-26T07:41:44Z</time>
      </trkpt>
      <trkpt lat="32.141718413054065" lon="118.82700384883937">
        <ele>9.35605540778488</ele>
        <time>2026-08-26T07:41:50Z</time>
      </trkpt>
      <trkpt lat="32.14145078212891" lon="118.82722734703191">
        <ele>10.99162211921066</ele>
        <time>2026-08-26T07:41:58Z</time>
      </trkpt>
      <trkpt lat="32.141324038242665" lon="118.82737667500805">
        <ele>11.160727648995817</ele>
        <time>2026-08-26T07:42:03Z</time>
      </trkpt>
      <trkpt lat="32.141088352880054" lon="118.82756810200061">
        <ele>10.16458812262863</ele>
        <time>2026-08-26T07:42:09Z</time>
      </trkpt>
      <trkpt lat="32.14074199731959" lon="118.82794693552034">
        <ele>12.273123889230192</ele>
        <time>2026-08-26T07:42:19Z</time>
      </trkpt>
      <trkpt lat="32.14050950121113" lon="118.82823957569799">
        <ele>11.538573413155973</ele>
        <time>2026-08-26T07:42:26Z</time>
      </trkpt>
      <trkpt lat="32.14016602717043" lon="118.82855527428737">
        <ele>13.417227893136442</ele>
        <time>2026-08-26T07:42:38Z</time>
      </trkpt>
      <trkpt lat="32.1400472240281" lon="118.82867253281877">
        <ele>13.208487658761442</ele>
        <time>2026-08-26T07:42:42Z</time>
      </trkpt>
      <trkpt lat="32.139688591308435" lon="118.82890505650941">
        <ele>15.652594714425504</ele>
        <time>2026-08-26T07:42:53Z</time>
      </trkpt>
      <trkpt lat="32.13951361300188" lon="118.8289341338785">
        <ele>16.35807719733566</ele>
        <time>2026-08-26T07:43:35Z</time>
      </trkpt>
      <trkpt lat="32.139289924653745" lon="118.82912355395888">
        <ele>14.981452136300504</ele>
        <time>2026-08-26T07:43:43Z</time>
      </trkpt>
      <trkpt lat="32.138895099631064" lon="118.82925687120016">
        <ele>15.118849902413785</ele>
        <time>2026-08-26T07:43:52Z</time>
      </trkpt>
      <trkpt lat="32.138461246608735" lon="118.82937916867415">
        <ele>17.36478343512863</ele>
        <time>2026-08-26T07:44:03Z</time>
      </trkpt>
      <trkpt lat="32.13813727577005" lon="118.82942729973401">
        <ele>18.783690600655973</ele>
        <time>2026-08-26T07:44:10Z</time>
      </trkpt>
      <trkpt lat="32.13793724587368" lon="118.82943132651306">
        <ele>15.391005664132535</ele>
        <time>2026-08-26T07:44:14Z</time>
      </trkpt>
      <trkpt lat="32.137833301128545" lon="118.82947142050006">
        <ele>15.48612895514816</ele>
        <time>2026-08-26T07:44:16Z</time>
      </trkpt>
      <trkpt lat="32.1373392460483" lon="118.82949150800437">
        <ele>17.64750590827316</ele>
        <time>2026-08-26T07:44:26Z</time>
      </trkpt>
      <trkpt lat="32.13700314949392" lon="118.82947350080212">
        <ele>15.977591662667692</ele>
        <time>2026-08-26T07:44:35Z</time>
      </trkpt>
      <trkpt lat="32.13673312687418" lon="118.8294885572174">
        <ele>15.652594714425504</ele>
        <time>2026-08-26T07:44:40Z</time>
      </trkpt>
      <trkpt lat="32.13654205929135" lon="118.829471538835">
        <ele>20.25279155280441</ele>
        <time>2026-08-26T07:44:44Z</time>
      </trkpt>
      <trkpt lat="32.13636307236385" lon="118.82949660801957">
        <ele>20.149741320870817</ele>
        <time>2026-08-26T07:44:48Z</time>
      </trkpt>
      <trkpt lat="32.13626904537207" lon="118.82949160608021">
        <ele>17.95401683356613</ele>
        <time>2026-08-26T07:44:50Z</time>
      </trkpt>
      <trkpt lat="32.1360111854428" lon="118.8295928429109">
        <ele>20.56986156012863</ele>
        <time>2026-08-26T07:44:57Z</time>
      </trkpt>
      <trkpt lat="32.135497090598335" lon="118.82959389213129">
        <ele>19.864379077218473</ele>
        <time>2026-08-26T07:45:08Z</time>
      </trkpt>
      <trkpt lat="32.134969039625915" lon="118.82961999539077">
        <ele>20.56986156012863</ele>
        <time>2026-08-26T07:45:20Z</time>
      </trkpt>
      <trkpt lat="32.13447999959006" lon="118.82964809929">
        <ele>21.964987902902067</ele>
        <time>2026-08-26T07:45:30Z</time>
      </trkpt>
      <trkpt lat="32.13401004138383" lon="118.82971829004745">
        <ele>20.757468371652067</ele>
        <time>2026-08-26T07:45:41Z</time>
      </trkpt>
      <trkpt lat="32.1335370190238" lon="118.8297544093334">
        <ele>23.246489672921598</ele>
        <time>2026-08-26T07:45:51Z</time>
      </trkpt>
      <trkpt lat="32.13304496494117" lon="118.82977549871416">
        <ele>23.687750964425504</ele>
        <time>2026-08-26T07:46:02Z</time>
      </trkpt>
      <trkpt lat="32.132537960103654" lon="118.82982464851393">
        <ele>24.25583568122238</ele>
        <time>2026-08-26T07:46:14Z</time>
      </trkpt>
      <trkpt lat="32.13209483297906" lon="118.82980164060515">
        <ele>24.12107768561691</ele>
        <time>2026-08-26T07:46:24Z</time>
      </trkpt>
      <trkpt lat="32.131617682473376" lon="118.8297696168262">
        <ele>24.25583568122238</ele>
        <time>2026-08-26T07:46:37Z</time>
      </trkpt>
      <trkpt lat="32.13143065243695" lon="118.82977264028926">
        <ele>26.514983325265348</ele>
        <time>2026-08-26T07:46:43Z</time>
      </trkpt>
      <trkpt lat="32.13130956966426" lon="118.82974058388204">
        <ele>26.61009898688644</ele>
        <time>2026-08-26T07:46:45Z</time>
      </trkpt>
      <trkpt lat="32.131106538409426" lon="118.82974461092103">
        <ele>27.209899096749723</ele>
        <time>2026-08-26T07:46:49Z</time>
      </trkpt>
      <trkpt lat="32.13082639540007" lon="118.82969653532493">
        <ele>25.505629687570035</ele>
        <time>2026-08-26T07:47:04Z</time>
      </trkpt>
      <trkpt lat="32.130726413624046" lon="118.82971658667904">
        <ele>25.843840747140348</ele>
        <time>2026-08-26T07:47:06Z</time>
      </trkpt>
      <trkpt lat="32.13019719307275" lon="118.82965250013352">
        <ele>26.07372203376144</ele>
        <time>2026-08-26T07:47:18Z</time>
      </trkpt>
      <trkpt lat="32.12971697799835" lon="118.82958640485096">
        <ele>27.513762622140348</ele>
        <time>2026-08-26T07:47:28Z</time>
      </trkpt>
      <trkpt lat="32.1292697952416" lon="118.82953433606623">
        <ele>26.39079204108566</ele>
        <time>2026-08-26T07:47:36Z</time>
      </trkpt>
      <trkpt lat="32.12874759422078" lon="118.82948026991474">
        <ele>24.876769213937223</ele>
        <time>2026-08-26T07:47:44Z</time>
      </trkpt>
      <trkpt lat="32.128184340325646" lon="118.82940215682862">
        <ele>24.13957896735519</ele>
        <time>2026-08-26T07:47:53Z</time>
      </trkpt>
      <trkpt lat="32.12788525102252" lon="118.82938514833062">
        <ele>25.180632739327848</ele>
        <time>2026-08-26T07:47:57Z</time>
      </trkpt>
      <trkpt lat="32.127738239518685" lon="118.82939418080394">
        <ele>24.749938159249723</ele>
        <time>2026-08-26T07:47:59Z</time>
      </trkpt>
      <trkpt lat="32.127241057788176" lon="118.8293481292085">
        <ele>24.72880473639816</ele>
        <time>2026-08-26T07:48:05Z</time>
      </trkpt>
      <trkpt lat="32.12675892364413" lon="118.82932612691286">
        <ele>23.574126391671598</ele>
        <time>2026-08-26T07:48:16Z</time>
      </trkpt>
      <trkpt lat="32.12669682199574" lon="118.82927803121538">
        <ele>23.500144152902067</ele>
        <time>2026-08-26T07:48:20Z</time>
      </trkpt>
      <trkpt lat="32.12662183739467" lon="118.82929407188186">
        <ele>23.973113208077848</ele>
        <time>2026-08-26T07:48:47Z</time>
      </trkpt>
      <trkpt lat="32.1263777696747" lon="118.82928307100553">
        <ele>24.099944262765348</ele>
        <time>2026-08-26T07:49:07Z</time>
      </trkpt>
      <trkpt lat="32.12631792245522" lon="118.82937126234901">
        <ele>24.91904368903488</ele>
        <time>2026-08-26T07:49:13Z</time>
      </trkpt>
      <trkpt lat="32.12625199186626" lon="118.82941536130082">
        <ele>24.940184741280973</ele>
        <time>2026-08-26T07:49:14Z</time>
      </trkpt>
      <trkpt lat="32.12595310392718" lon="118.82950658079997">
        <ele>23.217421679757535</ele>
        <time>2026-08-26T07:49:20Z</time>
      </trkpt>
      <trkpt lat="32.12574303338206" lon="118.82949056626767">
        <ele>25.72758403327316</ele>
        <time>2026-08-26T07:49:24Z</time>
      </trkpt>
      <trkpt lat="32.12539386303563" lon="118.82943548213763">
        <ele>24.287543444894254</ele>
        <time>2026-08-26T07:49:30Z</time>
      </trkpt>
      <trkpt lat="32.12495179034497" lon="118.82944253741152">
        <ele>23.86742320563644</ele>
        <time>2026-08-26T07:49:38Z</time>
      </trkpt>
      <trkpt lat="32.1247307175448" lon="118.82942652388037">
        <ele>23.309905200265348</ele>
        <time>2026-08-26T07:49:42Z</time>
      </trkpt>
      <trkpt lat="32.124508541797624" lon="118.82935539430693">
        <ele>24.224127917550504</ele>
        <time>2026-08-26T07:49:47Z</time>
      </trkpt>
      <trkpt lat="32.12427343072303" lon="118.8293203419252">
        <ele>23.888556628488004</ele>
        <time>2026-08-26T07:49:51Z</time>
      </trkpt>
      <trkpt lat="32.12408840220093" lon="118.82932436732209">
        <ele>24.171286731027067</ele>
        <time>2026-08-26T07:49:54Z</time>
      </trkpt>
      <trkpt lat="32.124008287617926" lon="118.82927126271453">
        <ele>23.71945872809738</ele>
        <time>2026-08-26T07:49:57Z</time>
      </trkpt>
      <trkpt lat="32.12396413891715" lon="118.8291961083146">
        <ele>20.99791636969894</ele>
        <time>2026-08-26T07:51:15Z</time>
      </trkpt>
      <trkpt lat="32.123892085656045" lon="118.82917507054435">
        <ele>23.436728625558317</ele>
        <time>2026-08-26T07:51:19Z</time>
      </trkpt>
      <trkpt lat="32.12362619266935" lon="118.82926027447841">
        <ele>22.554213671945035</ele>
        <time>2026-08-26T07:51:26Z</time>
      </trkpt>
      <trkpt lat="32.1231880997972" lon="118.82925630615773">
        <ele>24.245268969796598</ele>
        <time>2026-08-26T07:51:36Z</time>
      </trkpt>
      <trkpt lat="32.122892982432454" lon="118.82922426558915">
        <ele>23.132872729562223</ele>
        <time>2026-08-26T07:51:40Z</time>
      </trkpt>
      <trkpt lat="32.12261696028858" lon="118.8292413267857">
        <ele>23.101164965890348</ele>
        <time>2026-08-26T07:51:44Z</time>
      </trkpt>
      <trkpt lat="32.12226682833956" lon="118.82920728702777">
        <ele>24.171286731027067</ele>
        <time>2026-08-26T07:51:50Z</time>
      </trkpt>
      <trkpt lat="32.12208369536636" lon="118.82915519393283">
        <ele>23.196288256905973</ele>
        <time>2026-08-26T07:51:59Z</time>
      </trkpt>
      <trkpt lat="32.12191970625157" lon="118.8291782575516">
        <ele>24.887343554757535</ele>
        <time>2026-08-26T07:52:27Z</time>
      </trkpt>
      <trkpt lat="32.121837763075064" lon="118.82921734745497">
        <ele>24.11051097419113</ele>
        <time>2026-08-26T07:52:30Z</time>
      </trkpt>
      <trkpt lat="32.12175874013091" lon="118.82921334624241">
        <ele>24.59404674079269</ele>
        <time>2026-08-26T07:52:35Z</time>
      </trkpt>
      <trkpt lat="32.12167278121003" lon="118.82924441960533">
        <ele>23.99425426032394</ele>
        <time>2026-08-26T07:52:38Z</time>
      </trkpt>
      <trkpt lat="32.121478644164725" lon="118.82919132541748">
        <ele>25.296889453195035</ele>
        <time>2026-08-26T07:52:41Z</time>
      </trkpt>
      <trkpt lat="32.1210445590565" lon="118.82919136517664">
        <ele>25.52677073981613</ele>
        <time>2026-08-26T07:52:50Z</time>
      </trkpt>
      <trkpt lat="32.12070349211691" lon="118.82919139641552">
        <ele>26.232260852120817</ele>
        <time>2026-08-26T07:52:56Z</time>
      </trkpt>
      <trkpt lat="32.12048450702139" lon="118.82922248196549">
        <ele>22.25035014655441</ele>
        <time>2026-08-26T07:53:01Z</time>
      </trkpt>
      <trkpt lat="32.11995627986008" lon="118.82915639090206">
        <ele>22.670470385812223</ele>
        <time>2026-08-26T07:53:10Z</time>
      </trkpt>
      <trkpt lat="32.119487208070815" lon="118.82916745710575">
        <ele>21.30441966559738</ele>
        <time>2026-08-26T07:53:17Z</time>
      </trkpt>
      <trkpt lat="32.119022097711905" lon="118.82915747857432">
        <ele>20.221083789132535</ele>
        <time>2026-08-26T07:53:24Z</time>
      </trkpt>
      <trkpt lat="32.11849687072464" lon="118.82909138720996">
        <ele>20.11803355719894</ele>
        <time>2026-08-26T07:54:39Z</time>
      </trkpt>
      <trkpt lat="32.117945730031664" lon="118.82907440175833">
        <ele>20.768035083077848</ele>
        <time>2026-08-26T07:54:53Z</time>
      </trkpt>
      <trkpt lat="32.11744267159087" lon="118.82909649432355">
        <ele>21.230429797433317</ele>
        <time>2026-08-26T07:55:00Z</time>
      </trkpt>
      <trkpt lat="32.116898560029405" lon="118.82909453992694">
        <ele>22.17636790778488</ele>
        <time>2026-08-26T07:55:10Z</time>
      </trkpt>
      <trkpt lat="32.11634142517515" lon="118.8290815634754">
        <ele>18.677992968820035</ele>
        <time>2026-08-26T07:55:20Z</time>
      </trkpt>
      <trkpt lat="32.116086316561784" lon="118.82905052132091">
        <ele>18.69913402106613</ele>
        <time>2026-08-26T07:55:25Z</time>
      </trkpt>
      <trkpt lat="32.11556717034558" lon="118.82902752024992">
        <ele>21.964987902902067</ele>
        <time>2026-08-26T07:55:33Z</time>
      </trkpt>
      <trkpt lat="32.1151270472112" lon="118.8290085203939">
        <ele>21.51315989997238</ele>
        <time>2026-08-26T07:55:41Z</time>
      </trkpt>
      <trkpt lat="32.11473495037835" lon="118.82899853516201">
        <ele>22.007262377999723</ele>
        <time>2026-08-26T07:55:48Z</time>
      </trkpt>
      <trkpt lat="32.11426578013439" lon="118.82895749145428">
        <ele>19.465392260812223</ele>
        <time>2026-08-26T07:55:56Z</time>
      </trkpt>
      <trkpt lat="32.11387970302904" lon="118.82895752680822">
        <ele>21.66112437751144</ele>
        <time>2026-08-26T07:56:04Z</time>
      </trkpt>
      <trkpt lat="32.11369873228863" lon="118.8289926173676">
        <ele>22.85807719733566</ele>
        <time>2026-08-26T07:56:09Z</time>
      </trkpt>
      <trkpt lat="32.11344457304056" lon="118.82893451802914">
        <ele>21.861937670968473</ele>
        <time>2026-08-26T07:56:16Z</time>
      </trkpt>
      <trkpt lat="32.11294143120635" lon="118.82891251758879">
        <ele>22.091811328195035</ele>
        <time>2026-08-26T07:56:30Z</time>
      </trkpt>
      <trkpt lat="32.11246124710386" lon="118.828865462181">
        <ele>22.900351672433317</ele>
        <time>2026-08-26T07:56:44Z</time>
      </trkpt>
      <trkpt lat="32.11230122997187" lon="118.82887349374968">
        <ele>24.940184741280973</ele>
        <time>2026-08-26T07:56:48Z</time>
      </trkpt>
      <trkpt lat="32.11199510309767" lon="118.82883844776998">
        <ele>22.879210620187223</ele>
        <time>2026-08-26T07:56:55Z</time>
      </trkpt>
      <trkpt lat="32.11151608729251" lon="118.828881582558">
        <ele>27.00908580329269</ele>
        <time>2026-08-26T07:57:06Z</time>
      </trkpt>
      <trkpt lat="32.1113620956042" lon="118.82890264105998">
        <ele>25.296889453195035</ele>
        <time>2026-08-26T07:57:10Z</time>
      </trkpt>
      <trkpt lat="32.11107101462768" lon="118.82889064234021">
        <ele>25.71701732184738</ele>
        <time>2026-08-26T07:57:16Z</time>
      </trkpt>
      <trkpt lat="32.11063383687573" lon="118.8288425808729">
        <ele>28.155829577706754</ele>
        <time>2026-08-26T07:57:25Z</time>
      </trkpt>
      <trkpt lat="32.11030572776029" lon="118.82881956227696">
        <ele>27.336730151437223</ele>
        <time>2026-08-26T07:57:31Z</time>
      </trkpt>
      <trkpt lat="32.109815688775136" lon="118.82885167481474">
        <ele>26.46213450934738</ele>
        <time>2026-08-26T07:57:42Z</time>
      </trkpt>
      <trkpt lat="32.10947765980598" lon="118.82887275016884">
        <ele>25.20177379157394</ele>
        <time>2026-08-26T07:57:48Z</time>
      </trkpt>
      <trkpt lat="32.109030556378066" lon="118.82886577630302">
        <ele>26.53611674811691</ele>
        <time>2026-08-26T07:57:56Z</time>
      </trkpt>
      <trkpt lat="32.10885552846655" lon="118.8288698007857">
        <ele>27.18875804450363</ele>
        <time>2026-08-26T07:58:00Z</time>
      </trkpt>
      <trkpt lat="32.10878447295702" lon="118.82884776077195">
        <ele>28.335509448312223</ele>
        <time>2026-08-26T07:58:02Z</time>
      </trkpt>
      <trkpt lat="32.10826531925994" lon="118.82882175332229">
        <ele>27.85197368171066</ele>
        <time>2026-08-26T07:58:13Z</time>
      </trkpt>
      <trkpt lat="32.10779414710759" lon="118.82878070975198">
        <ele>29.112334399484098</ele>
        <time>2026-08-26T07:58:22Z</time>
      </trkpt>
      <trkpt lat="32.107525053256616" lon="118.82875968997342">
        <ele>27.883681445382535</ele>
        <time>2026-08-26T07:58:29Z</time>
      </trkpt>
      <trkpt lat="32.10744006032648" lon="118.82877272525002">
        <ele>29.13347545173019</ele>
        <time>2026-08-26T07:58:54Z</time>
      </trkpt>
      <trkpt lat="32.10727197945547" lon="118.82874768776196">
        <ele>27.45298686530441</ele>
        <time>2026-08-26T07:59:01Z</time>
      </trkpt>
      <trkpt lat="32.10694501218448" lon="118.82880082978934">
        <ele>27.79912486579269</ele>
        <time>2026-08-26T07:59:08Z</time>
      </trkpt>
      <trkpt lat="32.10647485116399" lon="118.82876579881076">
        <ele>26.369658618234098</ele>
        <time>2026-08-26T07:59:19Z</time>
      </trkpt>
      <trkpt lat="32.10615584050293" lon="118.8287948893481">
        <ele>26.369658618234098</ele>
        <time>2026-08-26T07:59:25Z</time>
      </trkpt>
      <trkpt lat="32.10568461175561" lon="118.82872378232109">
        <ele>25.04587474372238</ele>
        <time>2026-08-26T07:59:33Z</time>
      </trkpt>
      <trkpt lat="32.10550441976915" lon="118.82864062323432">
        <ele>24.435507922433317</ele>
        <time>2026-08-26T07:59:39Z</time>
      </trkpt>
      <trkpt lat="32.105396375294546" lon="118.82862860773695">
        <ele>27.030226855538785</ele>
        <time>2026-08-26T07:59:40Z</time>
      </trkpt>
      <trkpt lat="32.1052063795836" lon="118.82865167379146">
        <ele>26.475348620675504</ele>
        <time>2026-08-26T07:59:44Z</time>
      </trkpt>
      <trkpt lat="32.104740123531535" lon="118.8285655345121">
        <ele>24.340392260812223</ele>
        <time>2026-08-26T07:59:55Z</time>
      </trkpt>
      <trkpt lat="32.104246828131345" lon="118.82846135956896">
        <ele>26.59953227546066</ele>
        <time>2026-08-26T08:00:02Z</time>
      </trkpt>
      <trkpt lat="32.103763409152975" lon="118.82829004179877">
        <ele>25.989165454171598</ele>
        <time>2026-08-26T08:00:10Z</time>
      </trkpt>
      <trkpt lat="32.10331105999315" lon="118.82815279305592">
        <ele>23.79344096686691</ele>
        <time>2026-08-26T08:00:18Z</time>
      </trkpt>
      <trkpt lat="32.102876691868325" lon="118.82800351714347">
        <ele>27.273314624093473</ele>
        <time>2026-08-26T08:00:28Z</time>
      </trkpt>
      <trkpt lat="32.10245236498721" lon="118.82787528471573">
        <ele>25.07494273688644</ele>
        <time>2026-08-26T08:00:37Z</time>
      </trkpt>
      <trkpt lat="32.10226719578845" lon="118.82780515328075">
        <ele>24.04709544684738</ele>
        <time>2026-08-26T08:00:39Z</time>
      </trkpt>
      <trkpt lat="32.10182290583683" lon="118.8276989692114">
        <ele>25.38144603278488</ele>
        <time>2026-08-26T08:00:48Z</time>
      </trkpt>
      <trkpt lat="32.10154062844695" lon="118.82758174692526">
        <ele>25.505629687570035</ele>
        <time>2026-08-26T08:00:54Z</time>
      </trkpt>
      <trkpt lat="32.101411343056064" lon="118.82744346601446">
        <ele>29.027785449288785</ele>
        <time>2026-08-26T08:00:58Z</time>
      </trkpt>
      <trkpt lat="32.101330223205174" lon="118.82738835674283">
        <ele>25.31803050544113</ele>
        <time>2026-08-26T08:01:00Z</time>
      </trkpt>
      <trkpt lat="32.1010180238926" lon="118.82731623253842">
        <ele>28.145262866280973</ele>
        <time>2026-08-26T08:01:06Z</time>
      </trkpt>
      <trkpt lat="32.10078884912473" lon="118.82724810920003">
        <ele>24.287543444894254</ele>
        <time>2026-08-26T08:01:11Z</time>
      </trkpt>
      <trkpt lat="32.10033462230472" lon="118.82717700007986">
        <ele>25.180632739327848</ele>
        <time>2026-08-26T08:01:17Z</time>
      </trkpt>
      <trkpt lat="32.09982724551877" lon="118.82703173868315">
        <ele>28.544249682687223</ele>
        <time>2026-08-26T08:01:27Z</time>
      </trkpt>
      <trkpt lat="32.099391872162535" lon="118.82688045786435">
        <ele>27.87046733405441</ele>
        <time>2026-08-26T08:01:34Z</time>
      </trkpt>
      <trkpt lat="32.09891649601594" lon="118.82673218699307">
        <ele>28.86131969001144</ele>
        <time>2026-08-26T08:01:42Z</time>
      </trkpt>
      <trkpt lat="32.09844108025208" lon="118.82656287141364">
        <ele>29.080626635812223</ele>
        <time>2026-08-26T08:01:51Z</time>
      </trkpt>
      <trkpt lat="32.09797878727068" lon="118.82645769057567">
        <ele>29.18631663825363</ele>
        <time>2026-08-26T08:01:57Z</time>
      </trkpt>
      <trkpt lat="32.097489471651464" lon="118.82634349303967">
        <ele>27.429206042550504</ele>
        <time>2026-08-26T08:02:06Z</time>
      </trkpt>
      <trkpt lat="32.09696323091506" lon="118.82627339239876">
        <ele>27.47148051764816</ele>
        <time>2026-08-26T08:02:16Z</time>
      </trkpt>
      <trkpt lat="32.09667706248546" lon="118.82621529527562">
        <ele>27.98937144782394</ele>
        <time>2026-08-26T08:02:23Z</time>
      </trkpt>
      <trkpt lat="32.09642200948545" lon="118.82621531863073">
        <ele>28.565383105538785</ele>
        <time>2026-08-26T08:03:09Z</time>
      </trkpt>
      <trkpt lat="32.09624579806371" lon="118.82612213699421">
        <ele>28.829611926339567</ele>
        <time>2026-08-26T08:03:16Z</time>
      </trkpt>
      <trkpt lat="32.09612580694266" lon="118.82614018626252">
        <ele>27.830832629464567</ele>
        <time>2026-08-26T08:03:18Z</time>
      </trkpt>
      <trkpt lat="32.09589087835439" lon="118.82620434387468">
        <ele>27.60887828376144</ele>
        <time>2026-08-26T08:03:22Z</time>
      </trkpt>
      <trkpt lat="32.095789956954924" lon="118.8262574658129">
        <ele>30.364775805734098</ele>
        <time>2026-08-26T08:03:24Z</time>
      </trkpt>
      <trkpt lat="32.095712070404" lon="118.82632661964895">
        <ele>26.842620044015348</ele>
        <time>2026-08-26T08:03:26Z</time>
      </trkpt>
      <trkpt lat="32.09563811889539" lon="118.82636069870316">
        <ele>28.829611926339567</ele>
        <time>2026-08-26T08:03:28Z</time>
      </trkpt>
      <trkpt lat="32.095127119552124" lon="118.82641786666173">
        <ele>31.58286204840988</ele>
        <time>2026-08-26T08:03:39Z</time>
      </trkpt>
      <trkpt lat="32.0946612008809" lon="118.82651311124451">
        <ele>31.91050639655441</ele>
        <time>2026-08-26T08:03:48Z</time>
      </trkpt>
      <trkpt lat="32.094179237420384" lon="118.82658631050998">
        <ele>32.1086722901091</ele>
        <time>2026-08-26T08:03:58Z</time>
      </trkpt>
      <trkpt lat="32.09373026759613" lon="118.82665249185906">
        <ele>33.12859263923019</ele>
        <time>2026-08-26T08:04:09Z</time>
      </trkpt>
      <trkpt lat="32.093349392668046" lon="118.82676175830723">
        <ele>34.10887828376144</ele>
        <time>2026-08-26T08:04:16Z</time>
      </trkpt>
      <trkpt lat="32.09299131399358" lon="118.82675978683896">
        <ele>34.402167468331754</ele>
        <time>2026-08-26T08:04:24Z</time>
      </trkpt>
      <trkpt lat="32.09273541251577" lon="118.82684098232599">
        <ele>30.72148051764816</ele>
        <time>2026-08-26T08:04:30Z</time>
      </trkpt>
      <trkpt lat="32.09231142507984" lon="118.82689513583053">
        <ele>33.612128405831754</ele>
        <time>2026-08-26T08:04:40Z</time>
      </trkpt>
      <trkpt lat="32.09207832364594" lon="118.82686709769999">
        <ele>36.74850383307785</ele>
        <time>2026-08-26T08:04:46Z</time>
      </trkpt>
      <trkpt lat="32.09153611789618" lon="118.82681804325591">
        <ele>33.26599040534347</ele>
        <time>2026-08-26T08:04:57Z</time>
      </trkpt>
      <trkpt lat="32.09131403747339" lon="118.82680002535015">
        <ele>32.4891654541716</ele>
        <time>2026-08-26T08:05:00Z</time>
      </trkpt>
      <trkpt lat="32.0910698979384" lon="118.82675294785768">
        <ele>33.18144145514816</ele>
        <time>2026-08-26T08:05:04Z</time>
      </trkpt>
      <trkpt lat="32.09080388147171" lon="118.82677401681869">
        <ele>31.046477465890348</ele>
        <time>2026-08-26T08:05:08Z</time>
      </trkpt>
      <trkpt lat="32.090530964917484" lon="118.82684920110897">
        <ele>32.150954394601285</ele>
        <time>2026-08-26T08:05:12Z</time>
      </trkpt>
      <trkpt lat="32.09015022648472" lon="118.82703162245252">
        <ele>30.446684985421598</ele>
        <time>2026-08-26T08:05:18Z</time>
      </trkpt>
      <trkpt lat="32.08971275736535" lon="118.82736436716355">
        <ele>28.78733745124191</ele>
        <time>2026-08-26T08:05:26Z</time>
      </trkpt>
      <trkpt lat="32.08944211296045" lon="118.82758485861312">
        <ele>27.936522631905973</ele>
        <time>2026-08-26T08:05:32Z</time>
      </trkpt>
      <trkpt lat="32.08899646705743" lon="118.82782440612185">
        <ele>26.758071093820035</ele>
        <time>2026-08-26T08:05:40Z</time>
      </trkpt>
      <trkpt lat="32.08869469385225" lon="118.82797976221677">
        <ele>28.303801684640348</ele>
        <time>2026-08-26T08:05:47Z</time>
      </trkpt>
      <trkpt lat="32.0882898369345" lon="118.82810205772219">
        <ele>24.707663684152067</ele>
        <time>2026-08-26T08:05:54Z</time>
      </trkpt>
      <trkpt lat="32.08812693550916" lon="118.82817322300743">
        <ele>20.72576060798019</ele>
        <time>2026-08-26T08:05:58Z</time>
      </trkpt>
      <trkpt lat="32.087665056986616" lon="118.82829051301803">
        <ele>27.79912486579269</ele>
        <time>2026-08-26T08:06:09Z</time>
      </trkpt>
      <trkpt lat="32.08737113336594" lon="118.82836469656871">
        <ele>27.85197368171066</ele>
        <time>2026-08-26T08:06:15Z</time>
      </trkpt>
      <trkpt lat="32.086862117352176" lon="118.82841384685486">
        <ele>28.808470874093473</ele>
        <time>2026-08-26T08:06:23Z</time>
      </trkpt>
      <trkpt lat="32.08658004449995" lon="118.82840685784468">
        <ele>26.32737651374191</ele>
        <time>2026-08-26T08:06:29Z</time>
      </trkpt>
      <trkpt lat="32.08609458211026" lon="118.82821449577828">
        <ele>26.969451098702848</ele>
        <time>2026-08-26T08:06:40Z</time>
      </trkpt>
      <trkpt lat="32.08566097309571" lon="118.8279379508005">
        <ele>29.79668345954269</ele>
        <time>2026-08-26T08:06:51Z</time>
      </trkpt>
      <trkpt lat="32.08522145807139" lon="118.82771251411796">
        <ele>31.035910754464567</ele>
        <time>2026-08-26T08:07:00Z</time>
      </trkpt>
      <trkpt lat="32.08482794318528" lon="118.82748206238254">
        <ele>29.870665698312223</ele>
        <time>2026-08-26T08:07:10Z</time>
      </trkpt>
      <trkpt lat="32.084503450238685" lon="118.82725561258191">
        <ele>30.446684985421598</ele>
        <time>2026-08-26T08:07:18Z</time>
      </trkpt>
      <trkpt lat="32.08430004290837" lon="118.82706121941844">
        <ele>29.701560168527067</ele>
        <time>2026-08-26T08:07:28Z</time>
      </trkpt>
      <trkpt lat="32.08425884643497" lon="118.82696101087086">
        <ele>28.985503344796598</ele>
        <time>2026-08-26T08:07:31Z</time>
      </trkpt>
      <trkpt lat="32.084042310289945" lon="118.8266994763487">
        <ele>30.99363627936691</ele>
        <time>2026-08-26T08:07:38Z</time>
      </trkpt>
      <trkpt lat="32.083772396153634" lon="118.82624253193671">
        <ele>29.26030650641769</ele>
        <time>2026-08-26T08:07:47Z</time>
      </trkpt>
      <trkpt lat="32.08347956495072" lon="118.82583268890606">
        <ele>27.99729838874191</ele>
        <time>2026-08-26T08:07:54Z</time>
      </trkpt>
      <trkpt lat="32.08316669332942" lon="118.82540380676306">
        <ele>27.830832629464567</ele>
        <time>2026-08-26T08:08:03Z</time>
      </trkpt>
      <trkpt lat="32.08300024206484" lon="118.82518235152011">
        <ele>28.240386157296598</ele>
        <time>2026-08-26T08:08:06Z</time>
      </trkpt>
      <trkpt lat="32.08272369570653" lon="118.82492282530974">
        <ele>29.37656322028488</ele>
        <time>2026-08-26T08:08:12Z</time>
      </trkpt>
      <trkpt lat="32.08231522269729" lon="118.82471742606447">
        <ele>23.143439440988004</ele>
        <time>2026-08-26T08:08:21Z</time>
      </trkpt>
      <trkpt lat="32.0821961577464" lon="118.82469639223117">
        <ele>28.282660632394254</ele>
        <time>2026-08-26T08:08:22Z</time>
      </trkpt>
      <trkpt lat="32.0818761270301" lon="118.82471646413389">
        <ele>25.61131969001144</ele>
        <time>2026-08-26T08:08:28Z</time>
      </trkpt>
      <trkpt lat="32.08143894699864" lon="118.82467040616851">
        <ele>27.400145678780973</ele>
        <time>2026-08-26T08:08:36Z</time>
      </trkpt>
      <trkpt lat="32.08091800495706" lon="118.82476064557238">
        <ele>27.492621569894254</ele>
        <time>2026-08-26T08:08:49Z</time>
      </trkpt>
      <trkpt lat="32.080568965993656" lon="118.82477971799551">
        <ele>28.607665210030973</ele>
        <time>2026-08-26T08:08:58Z</time>
      </trkpt>
      <trkpt lat="32.080513170482796" lon="118.8248949680391">
        <ele>32.09810557868332</ele>
        <time>2026-08-26T08:09:01Z</time>
      </trkpt>
      <trkpt lat="32.08048435061974" lon="118.82499418151201">
        <ele>25.547911792062223</ele>
        <time>2026-08-26T08:09:03Z</time>
      </trkpt>
      <trkpt lat="32.08043646832511" lon="118.82506233069796">
        <ele>30.05827250983566</ele>
        <time>2026-08-26T08:09:14Z</time>
      </trkpt>
      <trkpt lat="32.04806839841681" lon="118.80613068126961">
        <ele>8.114953765645623</ele>
        <time>2026-08-26T08:29:22Z</time>
      </trkpt>
      <trkpt lat="32.04806839841681" lon="118.80613068126961">
        <ele>8.482225188985467</ele>
        <time>2026-08-26T08:29:23Z</time>
      </trkpt>
    </trkseg>
  </trk>
</gpx>