<?xml version="1.0" encoding="UTF-8"?>
<gpx xmlns="http://www.topografix.com/GPX/1/1" xmlns:gpxtpx="http://www.garmin.com/xmlschemas/TrackPointExtension/v1" xmlns:xsi="http://www.w3.org/2001/XMLSchema-instance" xsi:schemaLocation="http://www.topografix.com/GPX/1/1 http://www.topografix.com/GPX/1/1/gpx.xsd" version="1.1" creator="gpx.py -- https://github.com/tkrajina/gpxpy">
  <trk>
    <name>gpx from keep</name>
    <type>Run</type>
    <trkseg>
      <trkpt lat="31.231075851264173" lon="121.4000497667886">
        <ele>17.934133054688573</ele>
        <time>2026-06-13T11:23:47Z</time>
      </trkpt>
      <trkpt lat="31.231170796576052" lon="121.39994274398839">
        <ele>17.902425291016698</ele>
        <time>2026-06-13T11:23:53Z</time>
      </trkpt>
      <trkpt lat="31.23121476853789" lon="121.39986272969098">
        <ele>-9.748968599364161</ele>
        <time>2026-06-13T11:23:56Z</time>
      </trkpt>
      <trkpt lat="31.23122874985105" lon="121.39972871170093">
        <ele>20.557912351563573</ele>
        <time>2026-06-13T11:24:02Z</time>
      </trkpt>
      <trkpt lat="31.23119575103163" lon="121.39956169499818">
        <ele>21.258115293458104</ele>
        <time>2026-06-13T11:24:08Z</time>
      </trkpt>
      <trkpt lat="31.231112780246754" lon="121.39944368928207">
        <ele>22.470918180420995</ele>
        <time>2026-06-13T11:24:14Z</time>
      </trkpt>
      <trkpt lat="31.231021817213932" lon="121.39937368987745">
        <ele>21.57254553027451</ele>
        <time>2026-06-13T11:24:17Z</time>
      </trkpt>
      <trkpt lat="31.23094285172545" lon="121.39934469380026">
        <ele>18.81136846728623</ele>
        <time>2026-06-13T11:24:20Z</time>
      </trkpt>
      <trkpt lat="31.230725952269015" lon="121.39934471272022">
        <ele>14.995927335694432</ele>
        <time>2026-06-13T11:24:29Z</time>
      </trkpt>
      <trkpt lat="31.23052204919944" lon="121.39937773388415">
        <ele>19.50100469775498</ele>
        <time>2026-06-13T11:24:38Z</time>
      </trkpt>
      <trkpt lat="31.23043209034939" lon="121.39936974090699">
        <ele>13.104058744385839</ele>
        <time>2026-06-13T11:24:41Z</time>
      </trkpt>
      <trkpt lat="31.23029215746302" lon="121.39939975622067">
        <ele>24.941445829346776</ele>
        <time>2026-06-13T11:24:47Z</time>
      </trkpt>
      <trkpt lat="31.230176215766097" lon="121.39945977269088">
        <ele>15.894299985840917</ele>
        <time>2026-06-13T11:24:53Z</time>
      </trkpt>
      <trkpt lat="31.230051275993286" lon="121.39948878672915">
        <ele>15.67498922534287</ele>
        <time>2026-06-13T11:25:00Z</time>
      </trkpt>
      <trkpt lat="31.22992234091282" lon="121.39955280506183">
        <ele>23.474980833008885</ele>
        <time>2026-06-13T11:25:06Z</time>
      </trkpt>
      <trkpt lat="31.229840385126042" lon="121.39962782078801">
        <ele>2.553456785157323</ele>
        <time>2026-06-13T11:25:09Z</time>
      </trkpt>
      <trkpt lat="31.229766428862288" lon="121.39973684023109">
        <ele>8.244916440919042</ele>
        <time>2026-06-13T11:25:12Z</time>
      </trkpt>
      <trkpt lat="31.229718469340796" lon="121.39993286934563">
        <ele>23.612382413819432</ele>
        <time>2026-06-13T11:25:18Z</time>
      </trkpt>
      <trkpt lat="31.229736484070795" lon="121.40015889902652">
        <ele>17.891858579590917</ele>
        <time>2026-06-13T11:25:24Z</time>
      </trkpt>
      <trkpt lat="31.22978447116452" lon="121.40024490743842">
        <ele>21.194699766114354</ele>
        <time>2026-06-13T11:25:27Z</time>
      </trkpt>
      <trkpt lat="31.229934416801687" lon="121.40037891476331">
        <ele>16.43860769458115</ele>
        <time>2026-06-13T11:25:33Z</time>
      </trkpt>
      <trkpt lat="31.230056365013372" lon="121.40041991055797">
        <ele>22.452424528077245</ele>
        <time>2026-06-13T11:25:39Z</time>
      </trkpt>
      <trkpt lat="31.230123333568688" lon="121.40041690424292">
        <ele>23.26624441333115</ele>
        <time>2026-06-13T11:25:42Z</time>
      </trkpt>
      <trkpt lat="31.230466158643484" lon="121.4002798532154">
        <ele>23.884534360840917</ele>
        <time>2026-06-13T11:25:54Z</time>
      </trkpt>
      <trkpt lat="31.23062807974048" lon="121.40024583400182">
        <ele>22.838193418458104</ele>
        <time>2026-06-13T11:26:00Z</time>
      </trkpt>
      <trkpt lat="31.23091693430081" lon="121.40013979332821">
        <ele>23.580674650147557</ele>
        <time>2026-06-13T11:26:12Z</time>
      </trkpt>
      <trkpt lat="31.2310498646396" lon="121.40006277086027">
        <ele>21.30038976855576</ele>
        <time>2026-06-13T11:26:18Z</time>
      </trkpt>
      <trkpt lat="31.231152804325973" lon="121.39993674476158">
        <ele>23.59124136157334</ele>
        <time>2026-06-13T11:26:24Z</time>
      </trkpt>
      <trkpt lat="31.231209763108918" lon="121.39977871950452">
        <ele>23.414208890870214</ele>
        <time>2026-06-13T11:26:30Z</time>
      </trkpt>
      <trkpt lat="31.23121875168382" lon="121.39969670870762">
        <ele>20.7877898234874</ele>
        <time>2026-06-13T11:26:33Z</time>
      </trkpt>
      <trkpt lat="31.231208749436277" lon="121.3996157000359">
        <ele>16.753037931397557</ele>
        <time>2026-06-13T11:26:36Z</time>
      </trkpt>
      <trkpt lat="31.23110078370699" lon="121.39941568736197">
        <ele>22.901608945801854</ele>
        <time>2026-06-13T11:26:45Z</time>
      </trkpt>
      <trkpt lat="31.231052801918675" lon="121.39936068583991">
        <ele>14.73434210009873</ele>
        <time>2026-06-13T11:26:48Z</time>
      </trkpt>
      <trkpt lat="31.230775925322042" lon="121.39929070295696">
        <ele>18.50750875659287</ele>
        <time>2026-06-13T11:27:03Z</time>
      </trkpt>
      <trkpt lat="31.230722951266507" lon="121.39931070956156">
        <ele>20.35974264331162</ele>
        <time>2026-06-13T11:27:06Z</time>
      </trkpt>
      <trkpt lat="31.230446080021526" lon="121.39931573421178">
        <ele>25.1184783000499</ele>
        <time>2026-06-13T11:27:21Z</time>
      </trkpt>
      <trkpt lat="31.23038011504224" lon="121.39937774626478">
        <ele>20.473359586670995</ele>
        <time>2026-06-13T11:27:24Z</time>
      </trkpt>
      <trkpt lat="31.230097254106845" lon="121.39948178195662">
        <ele>7.930486204102635</ele>
        <time>2026-06-13T11:27:36Z</time>
      </trkpt>
      <trkpt lat="31.230042283701852" lon="121.39953379247353">
        <ele>18.737386228516698</ele>
        <time>2026-06-13T11:27:39Z</time>
      </trkpt>
      <trkpt lat="31.229953327815196" lon="121.39956880416406">
        <ele>4.849595548585057</ele>
        <time>2026-06-13T11:27:42Z</time>
      </trkpt>
      <trkpt lat="31.22979741209679" lon="121.3997098342522">
        <ele>24.06156683154404</ele>
        <time>2026-06-13T11:27:49Z</time>
      </trkpt>
      <trkpt lat="31.22975246146753" lon="121.4000128771365">
        <ele>13.563813688233495</ele>
        <time>2026-06-13T11:27:58Z</time>
      </trkpt>
      <trkpt lat="31.229753469722542" lon="121.40009788884512">
        <ele>23.768273832276464</ele>
        <time>2026-06-13T11:28:01Z</time>
      </trkpt>
      <trkpt lat="31.229901431768557" lon="121.40037591717332">
        <ele>5.726827146485448</ele>
        <time>2026-06-13T11:28:13Z</time>
      </trkpt>
      <trkpt lat="31.229986395722186" lon="121.4004049142978">
        <ele>11.97580480761826</ele>
        <time>2026-06-13T11:28:16Z</time>
      </trkpt>
      <trkpt lat="31.230136324938293" lon="121.40039489965103">
        <ele>15.727834226563573</ele>
        <time>2026-06-13T11:28:22Z</time>
      </trkpt>
      <trkpt lat="31.23043317462106" lon="121.40028585699697">
        <ele>19.168076993897557</ele>
        <time>2026-06-13T11:28:37Z</time>
      </trkpt>
      <trkpt lat="31.23068762597769" lon="121.40021524087557">
        <ele>22.608315946534276</ele>
        <time>2026-06-13T11:28:49Z</time>
      </trkpt>
      <trkpt lat="31.230707033955355" lon="121.40016181480125">
        <ele>6.553861143067479</ele>
        <time>2026-06-13T11:28:52Z</time>
      </trkpt>
      <trkpt lat="31.230989896791" lon="121.40010478198306">
        <ele>21.123357297852635</ele>
        <time>2026-06-13T11:29:01Z</time>
      </trkpt>
      <trkpt lat="31.23106885553158" lon="121.4000597687864">
        <ele>21.049375059083104</ele>
        <time>2026-06-13T11:29:04Z</time>
      </trkpt>
      <trkpt lat="31.231217762685556" lon="121.3998147233141">
        <ele>17.609136106446385</ele>
        <time>2026-06-13T11:29:13Z</time>
      </trkpt>
      <trkpt lat="31.231234747602695" lon="121.3997347119085">
        <ele>20.473359586670995</ele>
        <time>2026-06-13T11:29:16Z</time>
      </trkpt>
      <trkpt lat="31.231212746177754" lon="121.39959869772785">
        <ele>20.840634824708104</ele>
        <time>2026-06-13T11:29:22Z</time>
      </trkpt>
      <trkpt lat="31.23111977557858" lon="121.39942468665436">
        <ele>18.100598813965917</ele>
        <time>2026-06-13T11:29:28Z</time>
      </trkpt>
      <trkpt lat="31.231061798110215" lon="121.39936568556749">
        <ele>23.435349943116307</ele>
        <time>2026-06-13T11:29:31Z</time>
      </trkpt>
      <trkpt lat="31.230772929285887" lon="121.39932770690467">
        <ele>21.258115293458104</ele>
        <time>2026-06-13T11:29:44Z</time>
      </trkpt>
      <trkpt lat="31.230537043119515" lon="121.39938973381871">
        <ele>23.046933652833104</ele>
        <time>2026-06-13T11:29:56Z</time>
      </trkpt>
      <trkpt lat="31.23043608863916" lon="121.39937174076394">
        <ele>18.779660703614354</ele>
        <time>2026-06-13T11:29:59Z</time>
      </trkpt>
      <trkpt lat="31.230159222590387" lon="121.39944577267296">
        <ele>21.614820005372167</ele>
        <time>2026-06-13T11:30:14Z</time>
      </trkpt>
      <trkpt lat="31.23007026663523" lon="121.39948178431065">
        <ele>-10.998766420409083</ele>
        <time>2026-06-13T11:30:17Z</time>
      </trkpt>
      <trkpt lat="31.229826394494978" lon="121.39966182599406">
        <ele>23.96908331103623</ele>
        <time>2026-06-13T11:30:23Z</time>
      </trkpt>
      <trkpt lat="31.229748440884403" lon="121.39977784684847">
        <ele>19.27111959643662</ele>
        <time>2026-06-13T11:30:26Z</time>
      </trkpt>
      <trkpt lat="31.229720463325272" lon="121.3998798622311">
        <ele>12.329865934327245</ele>
        <time>2026-06-13T11:30:29Z</time>
      </trkpt>
      <trkpt lat="31.22974946661659" lon="121.40004988248604">
        <ele>15.328847410157323</ele>
        <time>2026-06-13T11:30:35Z</time>
      </trkpt>
      <trkpt lat="31.22980745521014" lon="121.40019689835445">
        <ele>11.922955991700292</ele>
        <time>2026-06-13T11:30:41Z</time>
      </trkpt>
      <trkpt lat="31.229928413337262" lon="121.40032490695084">
        <ele>23.47497701831162</ele>
        <time>2026-06-13T11:30:47Z</time>
      </trkpt>
      <trkpt lat="31.23003536586188" lon="121.40034390053737">
        <ele>22.492051603272557</ele>
        <time>2026-06-13T11:30:50Z</time>
      </trkpt>
      <trkpt lat="31.23038419431395" lon="121.40025885721424">
        <ele>21.435143949463964</ele>
        <time>2026-06-13T11:31:03Z</time>
      </trkpt>
      <trkpt lat="31.23069104385032" lon="121.40018481953072">
        <ele>13.217671873047948</ele>
        <time>2026-06-13T11:31:15Z</time>
      </trkpt>
      <trkpt lat="31.230909937543657" lon="121.40013979393854">
        <ele>13.875596525147557</ele>
        <time>2026-06-13T11:31:27Z</time>
      </trkpt>
      <trkpt lat="31.23103487230827" lon="121.40006977314357">
        <ele>22.410142423585057</ele>
        <time>2026-06-13T11:31:33Z</time>
      </trkpt>
      <trkpt lat="31.23119377939266" lon="121.3998747330697">
        <ele>17.06482076831162</ele>
        <time>2026-06-13T11:31:45Z</time>
      </trkpt>
      <trkpt lat="31.231250738786827" lon="121.3997187085691">
        <ele>19.84713506884873</ele>
        <time>2026-06-13T11:31:54Z</time>
      </trkpt>
      <trkpt lat="31.23119974725495" lon="121.39953769195579">
        <ele>22.67172765918076</ele>
        <time>2026-06-13T11:32:03Z</time>
      </trkpt>
      <trkpt lat="31.23115176294451" lon="121.39945368695105">
        <ele>-6.4434876423329115</ele>
        <time>2026-06-13T11:32:06Z</time>
      </trkpt>
      <trkpt lat="31.23099782696233" lon="121.39935469002232">
        <ele>22.94388342089951</ele>
        <time>2026-06-13T11:32:16Z</time>
      </trkpt>
      <trkpt lat="31.230826903492677" lon="121.39931670109311">
        <ele>22.336160184815526</ele>
        <time>2026-06-13T11:32:22Z</time>
      </trkpt>
      <trkpt lat="31.230513056459706" lon="121.39941973905015">
        <ele>24.333718778565526</ele>
        <time>2026-06-13T11:32:31Z</time>
      </trkpt>
      <trkpt lat="31.23043009494375" lon="121.39941974628672">
        <ele>19.741445066407323</ele>
        <time>2026-06-13T11:32:34Z</time>
      </trkpt>
      <trkpt lat="31.230152230531598" lon="121.39950677989447">
        <ele>23.90566778369248</ele>
        <time>2026-06-13T11:32:43Z</time>
      </trkpt>
      <trkpt lat="31.23008626170355" lon="121.39951378641992">
        <ele>25.277009489014745</ele>
        <time>2026-06-13T11:32:46Z</time>
      </trkpt>
      <trkpt lat="31.22988736239059" lon="121.39961681541388">
        <ele>24.711564542725682</ele>
        <time>2026-06-13T11:32:55Z</time>
      </trkpt>
      <trkpt lat="31.229821398614167" lon="121.39968282892188">
        <ele>25.72619772143662</ele>
        <time>2026-06-13T11:32:58Z</time>
      </trkpt>
      <trkpt lat="31.229735459609174" lon="121.39991386535854">
        <ele>21.9503874797374</ele>
        <time>2026-06-13T11:33:07Z</time>
      </trkpt>
      <trkpt lat="31.22974947126661" lon="121.40009488877108">
        <ele>20.861768247559667</ele>
        <time>2026-06-13T11:33:13Z</time>
      </trkpt>
      <trkpt lat="31.229795461435298" lon="121.4002029002789">
        <ele>15.162385465577245</ele>
        <time>2026-06-13T11:33:19Z</time>
      </trkpt>
      <trkpt lat="31.229859439919778" lon="121.40027690568598">
        <ele>20.946321012452245</ele>
        <time>2026-06-13T11:33:22Z</time>
      </trkpt>
      <trkpt lat="31.2299863890637" lon="121.40034790542566">
        <ele>21.593678953126073</ele>
        <time>2026-06-13T11:33:28Z</time>
      </trkpt>
      <trkpt lat="31.230197291158056" lon="121.40034788702941">
        <ele>22.230466367676854</ele>
        <time>2026-06-13T11:33:37Z</time>
      </trkpt>
      <trkpt lat="31.230402187197033" lon="121.40026985729224">
        <ele>21.551404478028417</ele>
        <time>2026-06-13T11:33:46Z</time>
      </trkpt>
      <trkpt lat="31.230608087792508" lon="121.40023483411208">
        <ele>21.781281949952245</ele>
        <time>2026-06-13T11:33:55Z</time>
      </trkpt>
      <trkpt lat="31.23087595202254" lon="121.40012779518815">
        <ele>22.39957189746201</ele>
        <time>2026-06-13T11:34:08Z</time>
      </trkpt>
      <trkpt lat="31.230991894506307" lon="121.40009177997523">
        <ele>15.97884893603623</ele>
        <time>2026-06-13T11:34:14Z</time>
      </trkpt>
      <trkpt lat="31.231097835914372" lon="121.39999875787599">
        <ele>13.63779211230576</ele>
        <time>2026-06-13T11:34:20Z</time>
      </trkpt>
      <trkpt lat="31.231195777334857" lon="121.3998627313476">
        <ele>-3.5951180439442396</ele>
        <time>2026-06-13T11:34:26Z</time>
      </trkpt>
      <trkpt lat="31.231235743726508" lon="121.39969570710547">
        <ele>16.90892934985459</ele>
        <time>2026-06-13T11:34:35Z</time>
      </trkpt>
      <trkpt lat="31.231209745440275" lon="121.39957269502221">
        <ele>18.19571447558701</ele>
        <time>2026-06-13T11:34:41Z</time>
      </trkpt>
      <trkpt lat="31.231135769596104" lon="121.3994436872767">
        <ele>17.934129239991307</ele>
        <time>2026-06-13T11:34:50Z</time>
      </trkpt>
      <trkpt lat="31.23097001717097" lon="121.39930950159373">
        <ele>18.415025236085057</ele>
        <time>2026-06-13T11:34:59Z</time>
      </trkpt>
      <trkpt lat="31.23089487240771" lon="121.39932269576532">
        <ele>20.254048826172948</ele>
        <time>2026-06-13T11:35:02Z</time>
      </trkpt>
      <trkpt lat="31.23072595057467" lon="121.39932071029965">
        <ele>15.320920469239354</ele>
        <time>2026-06-13T11:35:11Z</time>
      </trkpt>
      <trkpt lat="31.230603004816405" lon="121.3992807170566">
        <ele>22.315019132569432</ele>
        <time>2026-06-13T11:35:14Z</time>
      </trkpt>
      <trkpt lat="31.230548032939986" lon="121.39931872561878">
        <ele>22.230466367676854</ele>
        <time>2026-06-13T11:35:20Z</time>
      </trkpt>
      <trkpt lat="31.23045507683057" lon="121.39932973483175">
        <ele>15.445107938721776</ele>
        <time>2026-06-13T11:35:23Z</time>
      </trkpt>
      <trkpt lat="31.23037012055398" lon="121.39938974837902">
        <ele>24.774976255372167</ele>
        <time>2026-06-13T11:35:26Z</time>
      </trkpt>
      <trkpt lat="31.230063271202006" lon="121.3994987867759">
        <ele>22.555467130616307</ele>
        <time>2026-06-13T11:35:35Z</time>
      </trkpt>
      <trkpt lat="31.229941329862097" lon="121.39952480027888">
        <ele>-1.3412575703114271</ele>
        <time>2026-06-13T11:35:38Z</time>
      </trkpt>
      <trkpt lat="31.229840380186893" lon="121.39956781390283">
        <ele>12.372144224122167</ele>
        <time>2026-06-13T11:35:41Z</time>
      </trkpt>
      <trkpt lat="31.229767423857325" lon="121.39968483386842">
        <ele>24.428838254883885</ele>
        <time>2026-06-13T11:35:44Z</time>
      </trkpt>
      <trkpt lat="31.229725453196284" lon="121.39979585109782">
        <ele>22.74307012744248</ele>
        <time>2026-06-13T11:35:48Z</time>
      </trkpt>
      <trkpt lat="31.229710472473467" lon="121.39992686925002">
        <ele>23.998147489503026</ele>
        <time>2026-06-13T11:35:51Z</time>
      </trkpt>
      <trkpt lat="31.229732474305525" lon="121.40004788369131">
        <ele>23.424775602295995</ele>
        <time>2026-06-13T11:35:54Z</time>
      </trkpt>
      <trkpt lat="31.229851440059413" lon="121.40024490159702">
        <ele>21.696729185059667</ele>
        <time>2026-06-13T11:36:00Z</time>
      </trkpt>
      <trkpt lat="31.22993441043784" lon="121.4003239062748">
        <ele>13.323361875489354</ele>
        <time>2026-06-13T11:36:03Z</time>
      </trkpt>
      <trkpt lat="31.23014231621276" lon="121.40034389120846">
        <ele>22.555467130616307</ele>
        <time>2026-06-13T11:36:12Z</time>
      </trkpt>
      <trkpt lat="31.230263255841518" lon="121.40030687499906">
        <ele>21.300385953858495</ele>
        <time>2026-06-13T11:36:18Z</time>
      </trkpt>
      <trkpt lat="31.230351215139745" lon="121.40030786747866">
        <ele>11.682511808350682</ele>
        <time>2026-06-13T11:36:21Z</time>
      </trkpt>
      <trkpt lat="31.23054611808563" lon="121.4002488415978">
        <ele>21.88697195239365</ele>
        <time>2026-06-13T11:36:27Z</time>
      </trkpt>
      <trkpt lat="31.23061408259018" lon="121.40021283034108">
        <ele>18.42559194751084</ele>
        <time>2026-06-13T11:36:30Z</time>
      </trkpt>
      <trkpt lat="31.23072902721598" lon="121.40019381752992">
        <ele>21.717866422608495</ele>
        <time>2026-06-13T11:36:36Z</time>
      </trkpt>
      <trkpt lat="31.230832973537055" lon="121.40014280108194">
        <ele>17.12823629565537</ele>
        <time>2026-06-13T11:36:42Z</time>
      </trkpt>
      <trkpt lat="31.230915934445296" lon="121.40013679298598">
        <ele>22.650590421631932</ele>
        <time>2026-06-13T11:36:45Z</time>
      </trkpt>
      <trkpt lat="31.231139814373332" lon="121.39997775137368">
        <ele>20.81949377246201</ele>
        <time>2026-06-13T11:36:57Z</time>
      </trkpt>
      <trkpt lat="31.231217765369973" lon="121.39984372699429">
        <ele>21.60424947924912</ele>
        <time>2026-06-13T11:37:03Z</time>
      </trkpt>
      <trkpt lat="31.231237748795465" lon="121.39976371520532">
        <ele>19.6172575969249</ele>
        <time>2026-06-13T11:37:06Z</time>
      </trkpt>
      <trkpt lat="31.23120675304459" lon="121.39964770393945">
        <ele>5.037190916016698</ele>
        <time>2026-06-13T11:37:12Z</time>
      </trkpt>
      <trkpt lat="31.231131773273226" lon="121.39946769020078">
        <ele>21.007096769288182</ele>
        <time>2026-06-13T11:37:18Z</time>
      </trkpt>
      <trkpt lat="31.231083790691674" lon="121.39940368758548">
        <ele>20.077016355469823</ele>
        <time>2026-06-13T11:37:21Z</time>
      </trkpt>
      <trkpt lat="31.23086866807743" lon="121.39922272120572">
        <ele>15.957707883790135</ele>
        <time>2026-06-13T11:37:30Z</time>
      </trkpt>
      <trkpt lat="31.230788920195454" lon="121.39930370311046">
        <ele>15.968278409913182</ele>
        <time>2026-06-13T11:37:36Z</time>
      </trkpt>
      <trkpt lat="31.230509056687136" lon="121.3993977370924">
        <ele>15.33941793628037</ele>
        <time>2026-06-13T11:37:57Z</time>
      </trkpt>
      <trkpt lat="31.230224197678506" lon="121.39951377438818">
        <ele>9.489423276856542</ele>
        <time>2026-06-13T11:38:15Z</time>
      </trkpt>
      <trkpt lat="31.2301212466477" lon="121.39952878502949">
        <ele>7.544709684327245</ele>
        <time>2026-06-13T11:38:19Z</time>
      </trkpt>
      <trkpt lat="31.230004299519965" lon="121.39951079323838">
        <ele>20.996526243165135</ele>
        <time>2026-06-13T11:38:25Z</time>
      </trkpt>
      <trkpt lat="31.229865367934803" lon="121.39955981081945">
        <ele>23.7392058391124</ele>
        <time>2026-06-13T11:38:31Z</time>
      </trkpt>
      <trkpt lat="31.229826389135926" lon="121.3995978185424">
        <ele>8.831498624756932</ele>
        <time>2026-06-13T11:38:34Z</time>
      </trkpt>
      <trkpt lat="31.22972346174273" lon="121.39987786171052">
        <ele>5.716256620362401</ele>
        <time>2026-06-13T11:38:43Z</time>
      </trkpt>
      <trkpt lat="31.22970747896451" lon="121.3999788764478">
        <ele>14.295720579102635</ele>
        <time>2026-06-13T11:38:46Z</time>
      </trkpt>
      <trkpt lat="31.22977846802187" lon="121.4001909000065">
        <ele>4.630280973389745</ele>
        <time>2026-06-13T11:38:55Z</time>
      </trkpt>
      <trkpt lat="31.22990242944136" lon="121.40035991460286">
        <ele>8.255479337647557</ele>
        <time>2026-06-13T11:39:01Z</time>
      </trkpt>
      <trkpt lat="31.230088343119686" lon="121.40035989838633">
        <ele>10.052228452637792</ele>
        <time>2026-06-13T11:39:07Z</time>
      </trkpt>
      <trkpt lat="31.230467157393168" lon="121.40027285207546">
        <ele>20.766648771241307</ele>
        <time>2026-06-13T11:39:19Z</time>
      </trkpt>
      <trkpt lat="31.23075101876591" lon="121.40020981795539">
        <ele>23.30851507373154</ele>
        <time>2026-06-13T11:39:28Z</time>
      </trkpt>
      <trkpt lat="31.230916930606593" lon="121.40010478834786">
        <ele>4.944711210206151</ele>
        <time>2026-06-13T11:39:34Z</time>
      </trkpt>
      <trkpt lat="31.23108184848549" lon="121.40004976626545">
        <ele>2.260159971192479</ele>
        <time>2026-06-13T11:39:40Z</time>
      </trkpt>
      <trkpt lat="31.23113581622557" lon="121.39997775172245">
        <ele>20.671525480225682</ele>
        <time>2026-06-13T11:39:43Z</time>
      </trkpt>
      <trkpt lat="31.23117079032605" lon="121.39987773546318">
        <ele>19.596120359376073</ele>
        <time>2026-06-13T11:39:46Z</time>
      </trkpt>
      <trkpt lat="31.23118377487629" lon="121.39977572139894">
        <ele>21.10221624560654</ele>
        <time>2026-06-13T11:39:49Z</time>
      </trkpt>
      <trkpt lat="31.23114277159132" lon="121.39951169404158">
        <ele>9.92804098315537</ele>
        <time>2026-06-13T11:39:58Z</time>
      </trkpt>
      <trkpt lat="31.231091788172282" lon="121.39941968856793">
        <ele>18.2459197062999</ele>
        <time>2026-06-13T11:40:01Z</time>
      </trkpt>
      <trkpt lat="31.23104580646085" lon="121.39937868830059">
        <ele>22.1591277141124</ele>
        <time>2026-06-13T11:40:04Z</time>
      </trkpt>
      <trkpt lat="31.23090886726282" lon="121.39934169646047">
        <ele>4.683125974610448</ele>
        <time>2026-06-13T11:40:10Z</time>
      </trkpt>
      <trkpt lat="31.230607009577664" lon="121.39937472616378">
        <ele>17.52457952685654</ele>
        <time>2026-06-13T11:40:22Z</time>
      </trkpt>
      <trkpt lat="31.230382117351407" lon="121.39942175068265">
        <ele>17.220716001465917</ele>
        <time>2026-06-13T11:40:34Z</time>
      </trkpt>
      <trkpt lat="31.230100254501842" lon="121.3995047842083">
        <ele>22.148557187989354</ele>
        <time>2026-06-13T11:40:49Z</time>
      </trkpt>
      <trkpt lat="31.229852379555297" lon="121.3996278197418">
        <ele>21.406079770997167</ele>
        <time>2026-06-13T11:41:01Z</time>
      </trkpt>
      <trkpt lat="31.22978741465769" lon="121.39968583224406">
        <ele>-7.526821611449122</ele>
        <time>2026-06-13T11:41:04Z</time>
      </trkpt>
      <trkpt lat="31.229768431688537" lon="121.399778845229">
        <ele>18.026608945801854</ele>
        <time>2026-06-13T11:41:07Z</time>
      </trkpt>
      <trkpt lat="31.22973245511607" lon="121.39985185757793">
        <ele>8.02560186572373</ele>
        <time>2026-06-13T11:41:10Z</time>
      </trkpt>
      <trkpt lat="31.229704481950293" lon="121.39999487887216">
        <ele>20.462785245850682</ele>
        <time>2026-06-13T11:41:16Z</time>
      </trkpt>
      <trkpt lat="31.229712485439993" lon="121.40006588793437">
        <ele>19.532704832032323</ele>
        <time>2026-06-13T11:41:19Z</time>
      </trkpt>
      <trkpt lat="31.229785465859948" lon="121.4002009008578">
        <ele>17.97640752978623</ele>
        <time>2026-06-13T11:41:26Z</time>
      </trkpt>
      <trkpt lat="31.229891427662235" lon="121.40029990636958">
        <ele>22.02172994799912</ele>
        <time>2026-06-13T11:41:32Z</time>
      </trkpt>
      <trkpt lat="31.229957401254694" lon="121.40033690626156">
        <ele>16.972341062501073</ele>
        <time>2026-06-13T11:41:35Z</time>
      </trkpt>
      <trkpt lat="31.230213283966766" lon="121.40034988594283">
        <ele>16.34348058886826</ele>
        <time>2026-06-13T11:41:47Z</time>
      </trkpt>
      <trkpt lat="31.23036320866574" lon="121.4002998652177">
        <ele>15.894296171143651</ele>
        <time>2026-06-13T11:41:56Z</time>
      </trkpt>
      <trkpt lat="31.230446164449805" lon="121.40024885031654">
        <ele>13.167466642335057</ele>
        <time>2026-06-13T11:42:02Z</time>
      </trkpt>
      <trkpt lat="31.23067106181551" lon="121.40026383293944">
        <ele>23.612378599122167</ele>
        <time>2026-06-13T11:42:11Z</time>
      </trkpt>
      <trkpt lat="31.2307690139491" lon="121.40024182111357">
        <ele>20.222341062501073</ele>
        <time>2026-06-13T11:42:14Z</time>
      </trkpt>
      <trkpt lat="31.23105286459178" lon="121.40007577241234">
        <ele>20.705876829102635</ele>
        <time>2026-06-13T11:42:23Z</time>
      </trkpt>
      <trkpt lat="31.231113829206564" lon="121.4000057574329">
        <ele>12.382714750245214</ele>
        <time>2026-06-13T11:42:26Z</time>
      </trkpt>
      <trkpt lat="31.231212764083477" lon="121.39980472249125">
        <ele>10.617673398926854</ele>
        <time>2026-06-13T11:42:32Z</time>
      </trkpt>
      <trkpt lat="31.231225747147427" lon="121.39968170630397">
        <ele>-2.7178826313465834</ele>
        <time>2026-06-13T11:42:35Z</time>
      </trkpt>
      <trkpt lat="31.231193751232915" lon="121.3995526941589">
        <ele>20.494493009522557</ele>
        <time>2026-06-13T11:42:38Z</time>
      </trkpt>
      <trkpt lat="31.231132771514915" lon="121.39945068828628">
        <ele>9.708730222657323</ele>
        <time>2026-06-13T11:42:41Z</time>
      </trkpt>
      <trkpt lat="31.23106179941439" lon="121.39938368742254">
        <ele>21.58311224170029</ele>
        <time>2026-06-13T11:42:44Z</time>
      </trkpt>
      <trkpt lat="31.2308678868269" lon="121.39934970084751">
        <ele>20.671525480225682</ele>
        <time>2026-06-13T11:42:50Z</time>
      </trkpt>
      <trkpt lat="31.23074994236246" lon="121.39936171236053">
        <ele>21.384938718751073</ele>
        <time>2026-06-13T11:42:53Z</time>
      </trkpt>
      <trkpt lat="31.230583024754782" lon="121.3994297340038">
        <ele>20.09815359301865</ele>
        <time>2026-06-13T11:42:59Z</time>
      </trkpt>
      <trkpt lat="31.23036412734938" lon="121.3994437545862">
        <ele>21.133924009278417</ele>
        <time>2026-06-13T11:43:09Z</time>
      </trkpt>
      <trkpt lat="31.230312153751232" lon="121.3994737623438">
        <ele>21.144494535401464</ele>
        <time>2026-06-13T11:43:12Z</time>
      </trkpt>
      <trkpt lat="31.230166223255637" lon="121.39949677757669">
        <ele>7.848569395020604</ele>
        <time>2026-06-13T11:43:18Z</time>
      </trkpt>
      <trkpt lat="31.229915350311003" lon="121.3996278142491">
        <ele>15.299783231690526</ele>
        <time>2026-06-13T11:43:30Z</time>
      </trkpt>
      <trkpt lat="31.229754440460937" lon="121.39980384957228">
        <ele>19.178639890626073</ele>
        <time>2026-06-13T11:43:39Z</time>
      </trkpt>
      <trkpt lat="31.22972947600547" lon="121.40005088436826">
        <ele>22.97558736987412</ele>
        <time>2026-06-13T11:43:51Z</time>
      </trkpt>
      <trkpt lat="31.22976247296486" lon="121.40016789805976">
        <ele>-10.166452882811427</ele>
        <time>2026-06-13T11:43:57Z</time>
      </trkpt>
      <trkpt lat="31.229892431540094" lon="121.40033791208221">
        <ele>4.923573972657323</ele>
        <time>2026-06-13T11:44:00Z</time>
      </trkpt>
      <trkpt lat="31.229965402413466" lon="121.40037891206055">
        <ele>21.445710660889745</ele>
        <time>2026-06-13T11:44:03Z</time>
      </trkpt>
      <trkpt lat="31.23009434454339" lon="121.40039590346949">
        <ele>21.406079770997167</ele>
        <time>2026-06-13T11:44:06Z</time>
      </trkpt>
      <trkpt lat="31.230245272027346" lon="121.40037488702575">
        <ele>17.6196990031749</ele>
        <time>2026-06-13T11:44:12Z</time>
      </trkpt>
      <trkpt lat="31.23051413819464" lon="121.40029585144636">
        <ele>10.710153104737401</ele>
        <time>2026-06-13T11:44:24Z</time>
      </trkpt>
      <trkpt lat="31.230805992187612" lon="121.4001998116937">
        <ele>12.789624692872167</ele>
        <time>2026-06-13T11:44:37Z</time>
      </trkpt>
      <trkpt lat="31.231014881468315" lon="121.40006877474785">
        <ele>15.56136846728623</ele>
        <time>2026-06-13T11:44:49Z</time>
      </trkpt>
      <trkpt lat="31.2311288190708" lon="121.39997375179438">
        <ele>15.947141172364354</ele>
        <time>2026-06-13T11:44:55Z</time>
      </trkpt>
      <trkpt lat="31.23120177277788" lon="121.39984372838933">
        <ele>16.459741117432714</ele>
        <time>2026-06-13T11:45:01Z</time>
      </trkpt>
      <trkpt lat="31.23121475881742" lon="121.39975671634774">
        <ele>16.33291387744248</ele>
        <time>2026-06-13T11:45:07Z</time>
      </trkpt>
      <trkpt lat="31.231186757067107" lon="121.39958469839264">
        <ele>14.430474760010839</ele>
        <time>2026-06-13T11:45:16Z</time>
      </trkpt>
      <trkpt lat="31.231103780474854" lon="121.39939068448659">
        <ele>19.857705594971776</ele>
        <time>2026-06-13T11:45:25Z</time>
      </trkpt>
      <trkpt lat="31.231039807080684" lon="121.39934868574926">
        <ele>21.802419187501073</ele>
        <time>2026-06-13T11:45:28Z</time>
      </trkpt>
      <trkpt lat="31.230812913385208" lon="121.39936470717501">
        <ele>15.70669317431748</ele>
        <time>2026-06-13T11:45:37Z</time>
      </trkpt>
      <trkpt lat="31.230699968371084" lon="121.39940072075251">
        <ele>17.49551153369248</ele>
        <time>2026-06-13T11:45:43Z</time>
      </trkpt>
      <trkpt lat="31.23060301325702" lon="121.39939972910537">
        <ele>19.46929311938584</ele>
        <time>2026-06-13T11:45:46Z</time>
      </trkpt>
      <trkpt lat="31.23045608408461" lon="121.39943574571323">
        <ele>20.579045774415135</ele>
        <time>2026-06-13T11:45:55Z</time>
      </trkpt>
      <trkpt lat="31.23039011850217" lon="121.39948575684598">
        <ele>4.817883970215917</ele>
        <time>2026-06-13T11:45:58Z</time>
      </trkpt>
      <trkpt lat="31.23033114742035" lon="121.39950576417807">
        <ele>18.047749998047948</ele>
        <time>2026-06-13T11:46:01Z</time>
      </trkpt>
      <trkpt lat="31.230221385537025" lon="121.39946293506868">
        <ele>16.647344114258885</ele>
        <time>2026-06-13T11:46:04Z</time>
      </trkpt>
      <trkpt lat="31.230201209929046" lon="121.39953377861089">
        <ele>9.716657163575292</ele>
        <time>2026-06-13T11:46:07Z</time>
      </trkpt>
      <trkpt lat="31.229943333350636" lon="121.39957980628463">
        <ele>24.291440488770604</ele>
        <time>2026-06-13T11:46:20Z</time>
      </trkpt>
      <trkpt lat="31.229804407542737" lon="121.39969483183837">
        <ele>13.061776639893651</ele>
        <time>2026-06-13T11:46:26Z</time>
      </trkpt>
      <trkpt lat="31.229729452710178" lon="121.39981085263214">
        <ele>20.663598539307714</ele>
        <time>2026-06-13T11:46:29Z</time>
      </trkpt>
      <trkpt lat="31.229709471778378" lon="121.39991486775672">
        <ele>19.12579488940537</ele>
        <time>2026-06-13T11:46:32Z</time>
      </trkpt>
      <trkpt lat="31.229712478035747" lon="121.3999928779036">
        <ele>12.247956754639745</ele>
        <time>2026-06-13T11:46:35Z</time>
      </trkpt>
      <trkpt lat="31.2297544724121" lon="121.40012789301183">
        <ele>16.290635587647557</ele>
        <time>2026-06-13T11:46:41Z</time>
      </trkpt>
      <trkpt lat="31.22981945636159" lon="121.40025790632495">
        <ele>11.545114042237401</ele>
        <time>2026-06-13T11:46:47Z</time>
      </trkpt>
      <trkpt lat="31.229979392543633" lon="121.40034990634437">
        <ele>15.25750875659287</ele>
        <time>2026-06-13T11:46:56Z</time>
      </trkpt>
      <trkpt lat="31.23010633616383" lon="121.40037189867816">
        <ele>20.140428068116307</ele>
        <time>2026-06-13T11:47:02Z</time>
      </trkpt>
      <trkpt lat="31.230375208249534" lon="121.40034487104796">
        <ele>-5.648163316771388</ele>
        <time>2026-06-13T11:47:11Z</time>
      </trkpt>
      <trkpt lat="31.230587098301907" lon="121.40024183698179">
        <ele>19.419087888672948</ele>
        <time>2026-06-13T11:47:20Z</time>
      </trkpt>
      <trkpt lat="31.230763013972133" lon="121.40021681793867">
        <ele>18.864209653809667</ele>
        <time>2026-06-13T11:47:26Z</time>
      </trkpt>
      <trkpt lat="31.230893945062387" lon="121.40014079547679">
        <ele>20.705876829102635</ele>
        <time>2026-06-13T11:47:32Z</time>
      </trkpt>
      <trkpt lat="31.231002893191064" lon="121.40012778411516">
        <ele>19.10465765185654</ele>
        <time>2026-06-13T11:47:38Z</time>
      </trkpt>
      <trkpt lat="31.231058864414024" lon="121.40010077540192">
        <ele>19.490430356934667</ele>
        <time>2026-06-13T11:47:41Z</time>
      </trkpt>
      <trkpt lat="31.231208775209108" lon="121.39990373553343">
        <ele>20.557908536866307</ele>
        <time>2026-06-13T11:47:54Z</time>
      </trkpt>
      <trkpt lat="31.231240740374993" lon="121.39968370523455">
        <ele>22.09571218676865</ele>
        <time>2026-06-13T11:48:03Z</time>
      </trkpt>
      <trkpt lat="31.231113777168073" lon="121.39940868549333">
        <ele>17.26299429126084</ele>
        <time>2026-06-13T11:48:15Z</time>
      </trkpt>
      <trkpt lat="31.231062797359215" lon="121.39936168507039">
        <ele>13.92844152636826</ele>
        <time>2026-06-13T11:48:18Z</time>
      </trkpt>
      <trkpt lat="31.23088587685824" lon="121.39932669695176">
        <ele>19.146935941651464</ele>
        <time>2026-06-13T11:48:27Z</time>
      </trkpt>
      <trkpt lat="31.23057902372209" lon="121.39939073026069">
        <ele>22.085141660645604</ele>
        <time>2026-06-13T11:48:39Z</time>
      </trkpt>
      <trkpt lat="31.23047007902909" lon="121.39945474652095">
        <ele>20.18270635791123</ele>
        <time>2026-06-13T11:48:42Z</time>
      </trkpt>
      <trkpt lat="31.230195212157184" lon="121.39952677835552">
        <ele>-1.9146313648670912</ele>
        <time>2026-06-13T11:48:58Z</time>
      </trkpt>
      <trkpt lat="31.22986737385172" lon="121.39964282018481">
        <ele>10.710153104737401</ele>
        <time>2026-06-13T11:49:10Z</time>
      </trkpt>
      <trkpt lat="31.22980341001079" lon="121.39971783469582">
        <ele>10.448567869141698</ele>
        <time>2026-06-13T11:49:13Z</time>
      </trkpt>
      <trkpt lat="31.229743452077592" lon="121.39987385944946">
        <ele>18.57091665454209</ele>
        <time>2026-06-13T11:49:19Z</time>
      </trkpt>
      <trkpt lat="31.22974046683806" lon="121.40001087790975">
        <ele>12.591451169922948</ele>
        <time>2026-06-13T11:49:25Z</time>
      </trkpt>
      <trkpt lat="31.22975747539399" lon="121.4001688986404">
        <ele>20.222341062501073</ele>
        <time>2026-06-13T11:49:31Z</time>
      </trkpt>
      <trkpt lat="31.229801462939047" lon="121.40024190551031">
        <ele>20.359738828614354</ele>
        <time>2026-06-13T11:49:37Z</time>
      </trkpt>
      <trkpt lat="31.22997039522109" lon="121.40033690512814">
        <ele>19.46929311938584</ele>
        <time>2026-06-13T11:49:43Z</time>
      </trkpt>
      <trkpt lat="31.230286246769737" lon="121.40032087512687">
        <ele>14.85852194018662</ele>
        <time>2026-06-13T11:49:58Z</time>
      </trkpt>
      <trkpt lat="31.23054411834667" lon="121.40024284087946">
        <ele>9.645318510010839</ele>
        <time>2026-06-13T11:50:11Z</time>
      </trkpt>
      <trkpt lat="31.230726033654292" lon="121.40023982456562">
        <ele>8.694097043946385</ele>
        <time>2026-06-13T11:50:20Z</time>
      </trkpt>
      <trkpt lat="31.230985901382876" lon="121.40013078602536">
        <ele>18.53921270556748</ele>
        <time>2026-06-13T11:50:32Z</time>
      </trkpt>
      <trkpt lat="31.2310788519304" lon="121.40006976930724">
        <ele>9.362592222169042</ele>
        <time>2026-06-13T11:50:38Z</time>
      </trkpt>
      <trkpt lat="31.2311707955052" lon="121.39993174253006">
        <ele>20.81949377246201</ele>
        <time>2026-06-13T11:50:44Z</time>
      </trkpt>
      <trkpt lat="31.231224752320863" lon="121.39973571290237">
        <ele>14.451611997559667</ele>
        <time>2026-06-13T11:50:50Z</time>
      </trkpt>
      <trkpt lat="31.231221746438212" lon="121.39965170310153">
        <ele>12.382714750245214</ele>
        <time>2026-06-13T11:50:53Z</time>
      </trkpt>
      <trkpt lat="31.23118675192619" lon="121.39952069119954">
        <ele>15.360555173829198</ele>
        <time>2026-06-13T11:50:59Z</time>
      </trkpt>
      <trkpt lat="31.23105979990433" lon="121.39937768697668">
        <ele>17.75445699878037</ele>
        <time>2026-06-13T11:51:08Z</time>
      </trkpt>
      <trkpt lat="31.23099282884965" lon="121.39934868984716">
        <ele>19.12579488940537</ele>
        <time>2026-06-13T11:51:11Z</time>
      </trkpt>
      <trkpt lat="31.230669977090272" lon="121.3993287159857">
        <ele>18.946122648194432</ele>
        <time>2026-06-13T11:51:26Z</time>
      </trkpt>
      <trkpt lat="31.2305840177305" lon="121.39933972459417">
        <ele>19.553845884278417</ele>
        <time>2026-06-13T11:51:32Z</time>
      </trkpt>
      <trkpt lat="31.230309153159954" lon="121.39944775980862">
        <ele>16.229863645508885</ele>
        <time>2026-06-13T11:51:47Z</time>
      </trkpt>
      <trkpt lat="31.2300182963576" lon="121.39955279669198">
        <ele>18.224782468751073</ele>
        <time>2026-06-13T11:52:03Z</time>
      </trkpt>
      <trkpt lat="31.229855376002774" lon="121.39960181647346">
        <ele>13.135762693360448</ele>
        <time>2026-06-13T11:52:09Z</time>
      </trkpt>
      <trkpt lat="31.22976143349903" lon="121.39976284385799">
        <ele>19.84713506884873</ele>
        <time>2026-06-13T11:52:18Z</time>
      </trkpt>
      <trkpt lat="31.229719464169186" lon="121.39988386283692">
        <ele>20.349168302491307</ele>
        <time>2026-06-13T11:52:21Z</time>
      </trkpt>
      <trkpt lat="31.229714472074345" lon="121.39994187088755">
        <ele>14.065843107178807</ele>
        <time>2026-06-13T11:52:24Z</time>
      </trkpt>
      <trkpt lat="31.229810456662523" lon="121.40022290191217">
        <ele>12.77905416674912</ele>
        <time>2026-06-13T11:52:39Z</time>
      </trkpt>
      <trkpt lat="31.229854444497775" lon="121.40029690914079">
        <ele>-14.293684480711818</ele>
        <time>2026-06-13T11:52:42Z</time>
      </trkpt>
      <trkpt lat="31.229869451448607" lon="121.40041692638809">
        <ele>17.31583929248154</ele>
        <time>2026-06-13T11:52:48Z</time>
      </trkpt>
      <trkpt lat="31.2298694446437" lon="121.40035891732522">
        <ele>13.98129034228623</ele>
        <time>2026-06-13T11:53:07Z</time>
      </trkpt>
      <trkpt lat="31.229841449289253" lon="121.40028590861122">
        <ele>14.557305814698339</ele>
        <time>2026-06-13T11:53:13Z</time>
      </trkpt>
      <trkpt lat="31.229864424965804" lon="121.40016188829969">
        <ele>13.99185705371201</ele>
        <time>2026-06-13T11:53:22Z</time>
      </trkpt>
      <trkpt lat="31.229842415196423" lon="121.39996786319868">
        <ele>14.536164762452245</ele>
        <time>2026-06-13T11:53:34Z</time>
      </trkpt>
      <trkpt lat="31.22976743709528" lon="121.3998328521023">
        <ele>19.691243650391698</ele>
        <time>2026-06-13T11:53:43Z</time>
      </trkpt>
      <trkpt lat="31.229599497116435" lon="121.39962884191597">
        <ele>-16.03494500927627</ele>
        <time>2026-06-13T11:54:01Z</time>
      </trkpt>
      <trkpt lat="31.22952153343016" lon="121.39962984883277">
        <ele>6.0623927135020494</ele>
        <time>2026-06-13T11:54:07Z</time>
      </trkpt>
      <trkpt lat="31.22951254288756" lon="121.39969185693705">
        <ele>14.599578382447362</ele>
        <time>2026-06-13T11:54:16Z</time>
      </trkpt>
      <trkpt lat="31.229478553824688" lon="121.39963485316451">
        <ele>4.212798597291112</ele>
        <time>2026-06-13T11:54:25Z</time>
      </trkpt>
      <trkpt lat="31.22917669772858" lon="121.39967688444148">
        <ele>0.4026408214122057</ele>
        <time>2026-06-13T11:54:34Z</time>
      </trkpt>
      <trkpt lat="31.228913827734264" lon="121.39976491803678">
        <ele>2.188819410279393</ele>
        <time>2026-06-13T11:54:40Z</time>
      </trkpt>
      <trkpt lat="31.228792886361916" lon="121.39979093181502">
        <ele>13.981288434937596</ele>
        <time>2026-06-13T11:54:43Z</time>
      </trkpt>
      <trkpt lat="31.228656945768517" lon="121.39974793835037">
        <ele>6.992473127320409</ele>
        <time>2026-06-13T11:54:46Z</time>
      </trkpt>
      <trkpt lat="31.228506015772755" lon="121.39974495114713">
        <ele>7.859138013795018</ele>
        <time>2026-06-13T11:54:49Z</time>
      </trkpt>
      <trkpt lat="31.22837508353944" lon="121.39981997190046">
        <ele>5.9989771861582994</ele>
        <time>2026-06-13T11:54:52Z</time>
      </trkpt>
      <trkpt lat="31.22828213617975" lon="121.39991899277955">
        <ele>15.059333326295018</ele>
        <time>2026-06-13T11:54:55Z</time>
      </trkpt>
      <trkpt lat="31.22818918575701" lon="121.39998300941744">
        <ele>17.651404859498143</ele>
        <time>2026-06-13T11:54:58Z</time>
      </trkpt>
      <trkpt lat="31.227889332681436" lon="121.40005404528618">
        <ele>1.30101347155869</ele>
        <time>2026-06-13T11:55:04Z</time>
      </trkpt>
      <trkpt lat="31.22763346077285" lon="121.40013807943963">
        <ele>14.660350324586034</ele>
        <time>2026-06-13T11:55:10Z</time>
      </trkpt>
      <trkpt lat="31.227558490277605" lon="121.40008607860737">
        <ele>12.927020551636815</ele>
        <time>2026-06-13T11:55:13Z</time>
      </trkpt>
      <trkpt lat="31.227526474209114" lon="121.39976603916642">
        <ele>17.630267621949315</ele>
        <time>2026-06-13T11:55:19Z</time>
      </trkpt>
      <trkpt lat="31.22751846539024" lon="121.39962102249812">
        <ele>5.6766200084239244</ele>
        <time>2026-06-13T11:55:22Z</time>
      </trkpt>
      <trkpt lat="31.227399516696632" lon="121.39957002702658">
        <ele>20.402011396363378</ele>
        <time>2026-06-13T11:55:25Z</time>
      </trkpt>
      <trkpt lat="31.2271026563245" lon="121.3995830543953">
        <ele>20.925181867554784</ele>
        <time>2026-06-13T11:55:31Z</time>
      </trkpt>
      <trkpt lat="31.226898761059633" lon="121.39969608539232">
        <ele>21.205264570191503</ele>
        <time>2026-06-13T11:55:37Z</time>
      </trkpt>
    </trkseg>
  </trk>
</gpx>