<?xml version="1.0" encoding="UTF-8"?>
<gpx xmlns="http://www.topografix.com/GPX/1/1" xmlns:gpxtpx="http://www.garmin.com/xmlschemas/TrackPointExtension/v1" xmlns:xsi="http://www.w3.org/2001/XMLSchema-instance" xsi:schemaLocation="http://www.topografix.com/GPX/1/1 http://www.topografix.com/GPX/1/1/gpx.xsd" version="1.1" creator="gpx.py -- https://github.com/tkrajina/gpxpy">
  <trk>
    <name>gpx from keep</name>
    <type>Run</type>
    <trkseg>
      <trkpt lat="32.05192189003117" lon="118.80363837402493">
        <ele>13.370276619680226</ele>
        <time>2026-08-19T10:32:47Z</time>
      </trkpt>
      <trkpt lat="32.05195218924961" lon="118.80380670274046">
        <ele>22.322302986867726</ele>
        <time>2026-08-19T10:32:53Z</time>
      </trkpt>
      <trkpt lat="32.051934368270025" lon="118.8039119118028">
        <ele>13.1932441489771</ele>
        <time>2026-08-19T10:32:56Z</time>
      </trkpt>
      <trkpt lat="32.05190546471858" lon="118.80397103109134">
        <ele>13.716414620168507</ele>
        <time>2026-08-19T10:32:59Z</time>
      </trkpt>
      <trkpt lat="32.0519045622276" lon="118.80402714192917">
        <ele>12.878813912160695</ele>
        <time>2026-08-19T10:33:02Z</time>
      </trkpt>
      <trkpt lat="32.05196794842516" lon="118.80424055783637">
        <ele>13.56051938701421</ele>
        <time>2026-08-19T10:33:11Z</time>
      </trkpt>
      <trkpt lat="32.05202208291348" lon="118.80431069162019">
        <ele>11.77170102763921</ele>
        <time>2026-08-19T10:33:14Z</time>
      </trkpt>
      <trkpt lat="32.05209819436956" lon="118.8043647917227">
        <ele>13.224951912648976</ele>
        <time>2026-08-19T10:33:17Z</time>
      </trkpt>
      <trkpt lat="32.05241445397449" lon="118.80447297699669">
        <ele>15.127391030080616</ele>
        <time>2026-08-19T10:33:29Z</time>
      </trkpt>
      <trkpt lat="32.05266861224163" lon="118.80453106882614">
        <ele>15.38897626567632</ele>
        <time>2026-08-19T10:33:38Z</time>
      </trkpt>
      <trkpt lat="32.052912864777525" lon="118.80464427094458">
        <ele>14.720481087453663</ele>
        <time>2026-08-19T10:33:44Z</time>
      </trkpt>
      <trkpt lat="32.05314396362353" lon="118.80467130339733">
        <ele>15.148528267629445</ele>
        <time>2026-08-19T10:33:50Z</time>
      </trkpt>
      <trkpt lat="32.05323292204578" lon="118.80463622563262">
        <ele>14.81296079326421</ele>
        <time>2026-08-19T10:33:53Z</time>
      </trkpt>
      <trkpt lat="32.05330683154947" lon="118.80457509760062">
        <ele>15.6082832114771</ele>
        <time>2026-08-19T10:33:56Z</time>
      </trkpt>
      <trkpt lat="32.05337170054719" lon="118.80449192676781">
        <ele>13.6107246177271</ele>
        <time>2026-08-19T10:33:59Z</time>
      </trkpt>
      <trkpt lat="32.05340850912868" lon="118.80437769711365">
        <ele>14.770682503469288</ele>
        <time>2026-08-19T10:34:02Z</time>
      </trkpt>
      <trkpt lat="32.05342631016344" lon="118.80426146545052">
        <ele>7.8003646628931165</ele>
        <time>2026-08-19T10:34:05Z</time>
      </trkpt>
      <trkpt lat="32.05342413489328" lon="118.80416126752537">
        <ele>14.667632271535695</ele>
        <time>2026-08-19T10:34:08Z</time>
      </trkpt>
      <trkpt lat="32.05339593651435" lon="118.80405105236677">
        <ele>14.84466474223882</ele>
        <time>2026-08-19T10:34:11Z</time>
      </trkpt>
      <trkpt lat="32.05328469365601" lon="118.80392581538658">
        <ele>8.164996315725148</ele>
        <time>2026-08-19T10:34:14Z</time>
      </trkpt>
      <trkpt lat="32.05317257454083" lon="118.8038717189778">
        <ele>15.233081032522023</ele>
        <time>2026-08-19T10:34:17Z</time>
      </trkpt>
      <trkpt lat="32.05298047074988" lon="118.80383666749205">
        <ele>14.165602852590382</ele>
        <time>2026-08-19T10:34:23Z</time>
      </trkpt>
      <trkpt lat="32.052664236551706" lon="118.80374251096488">
        <ele>14.030844856984913</ele>
        <time>2026-08-19T10:34:35Z</time>
      </trkpt>
      <trkpt lat="32.05247204924981" lon="118.80365936487834">
        <ele>13.1932441489771</ele>
        <time>2026-08-19T10:34:41Z</time>
      </trkpt>
      <trkpt lat="32.0522249106493" lon="118.8036112929449">
        <ele>13.03735273052007</ele>
        <time>2026-08-19T10:34:53Z</time>
      </trkpt>
      <trkpt lat="32.052158899407374" lon="118.80361330295402">
        <ele>13.454829384572804</ele>
        <time>2026-08-19T10:34:56Z</time>
      </trkpt>
      <trkpt lat="32.05205802030321" lon="118.80364900884601">
        <ele>14.247512032277882</ele>
        <time>2026-08-19T10:35:02Z</time>
      </trkpt>
      <trkpt lat="32.05193314668026" lon="118.803784661053">
        <ele>13.988570381887257</ele>
        <time>2026-08-19T10:35:05Z</time>
      </trkpt>
      <trkpt lat="32.05188130761935" lon="118.80388386134763">
        <ele>12.514182259328663</ele>
        <time>2026-08-19T10:35:08Z</time>
      </trkpt>
      <trkpt lat="32.05186947762488" lon="118.80398305812707">
        <ele>14.90808026958257</ele>
        <time>2026-08-19T10:35:11Z</time>
      </trkpt>
      <trkpt lat="32.05189171998465" lon="118.80411932517495">
        <ele>14.081050087697804</ele>
        <time>2026-08-19T10:35:17Z</time>
      </trkpt>
      <trkpt lat="32.051983049718984" lon="118.8042966674488">
        <ele>14.522307564504445</ele>
        <time>2026-08-19T10:35:23Z</time>
      </trkpt>
      <trkpt lat="32.052068175424736" lon="118.80435778059548">
        <ele>12.82861249614507</ele>
        <time>2026-08-19T10:35:26Z</time>
      </trkpt>
      <trkpt lat="32.052345372024085" lon="118.80443490790933">
        <ele>14.363772560842335</ele>
        <time>2026-08-19T10:35:38Z</time>
      </trkpt>
      <trkpt lat="32.05267464513095" lon="118.8045491040289">
        <ele>14.102187325246632</ele>
        <time>2026-08-19T10:35:50Z</time>
      </trkpt>
      <trkpt lat="32.05297587530866" lon="118.80464226117886">
        <ele>14.102187325246632</ele>
        <time>2026-08-19T10:36:02Z</time>
      </trkpt>
      <trkpt lat="32.05312295718995" lon="118.80467030333881">
        <ele>15.106249977834523</ele>
        <time>2026-08-19T10:36:08Z</time>
      </trkpt>
      <trkpt lat="32.05323492775404" lon="118.80463923141254">
        <ele>14.593650032766163</ele>
        <time>2026-08-19T10:36:14Z</time>
      </trkpt>
      <trkpt lat="32.053320845188516" lon="118.80458110823574">
        <ele>12.712351967580616</ele>
        <time>2026-08-19T10:36:17Z</time>
      </trkpt>
      <trkpt lat="32.053416626480775" lon="118.80444382734198">
        <ele>14.04141538310796</ele>
        <time>2026-08-19T10:36:23Z</time>
      </trkpt>
      <trkpt lat="32.05343848605241" lon="118.80436066063469">
        <ele>14.18674009013921</ele>
        <time>2026-08-19T10:36:26Z</time>
      </trkpt>
      <trkpt lat="32.053423223813375" lon="118.80421236863262">
        <ele>13.423121620900929</ele>
        <time>2026-08-19T10:36:32Z</time>
      </trkpt>
      <trkpt lat="32.053342830447924" lon="118.80399695042385">
        <ele>13.277796913869679</ele>
        <time>2026-08-19T10:36:38Z</time>
      </trkpt>
      <trkpt lat="32.05321657039694" lon="118.8038636991296">
        <ele>13.830031563527882</ele>
        <time>2026-08-19T10:36:44Z</time>
      </trkpt>
      <trkpt lat="32.05309545803551" lon="118.80381461347626">
        <ele>13.172106911428273</ele>
        <time>2026-08-19T10:36:51Z</time>
      </trkpt>
      <trkpt lat="32.05277225714327" lon="118.80374049709091">
        <ele>12.022719551809132</ele>
        <time>2026-08-19T10:37:03Z</time>
      </trkpt>
      <trkpt lat="32.052502054198676" lon="118.80365836014876">
        <ele>12.796904732473195</ele>
        <time>2026-08-19T10:37:15Z</time>
      </trkpt>
      <trkpt lat="32.05228699581311" lon="118.80365236807965">
        <ele>13.475966622121632</ele>
        <time>2026-08-19T10:37:27Z</time>
      </trkpt>
      <trkpt lat="32.05215001572843" lon="118.80368143786443">
        <ele>12.931658913381398</ele>
        <time>2026-08-19T10:37:33Z</time>
      </trkpt>
      <trkpt lat="32.05197497494866" lon="118.8036804519776">
        <ele>8.875769783742726</ele>
        <time>2026-08-19T10:37:36Z</time>
      </trkpt>
      <trkpt lat="32.05192505780734" lon="118.80373456310494">
        <ele>12.70178144145757</ele>
        <time>2026-08-19T10:37:39Z</time>
      </trkpt>
      <trkpt lat="32.0518744263974" lon="118.8039529983546">
        <ele>13.518244911916554</ele>
        <time>2026-08-19T10:37:48Z</time>
      </trkpt>
      <trkpt lat="32.05188062670888" lon="118.80406722327062">
        <ele>13.808894325979054</ele>
        <time>2026-08-19T10:37:51Z</time>
      </trkpt>
      <trkpt lat="32.051903799541186" lon="118.80416341118865">
        <ele>13.621295143850148</ele>
        <time>2026-08-19T10:37:54Z</time>
      </trkpt>
      <trkpt lat="32.051947935219886" lon="118.80423554976703">
        <ele>11.845687081106007</ele>
        <time>2026-08-19T10:37:57Z</time>
      </trkpt>
      <trkpt lat="32.05218928294498" lon="118.8044038607295">
        <ele>13.91458432842046</ele>
        <time>2026-08-19T10:38:09Z</time>
      </trkpt>
      <trkpt lat="32.05231043253407" lon="118.80447398853981">
        <ele>12.952799965627491</ele>
        <time>2026-08-19T10:38:12Z</time>
      </trkpt>
      <trkpt lat="32.05248450812919" lon="118.80449501424333">
        <ele>12.242026497609913</ele>
        <time>2026-08-19T10:38:21Z</time>
      </trkpt>
      <trkpt lat="32.05221636575216" lon="118.80447134077193">
        <ele>13.88288037944585</ele>
        <time>2026-08-19T10:38:30Z</time>
      </trkpt>
      <trkpt lat="32.05232733227689" lon="118.80454890636997">
        <ele>11.008086373098195</ele>
        <time>2026-08-19T10:38:33Z</time>
      </trkpt>
      <trkpt lat="32.053095007108396" lon="118.80470236954943">
        <ele>8.751582314260304</ele>
        <time>2026-08-19T10:38:45Z</time>
      </trkpt>
      <trkpt lat="32.053182982841065" lon="118.80467731174407">
        <ele>14.176169564016163</ele>
        <time>2026-08-19T10:38:48Z</time>
      </trkpt>
      <trkpt lat="32.05333482376016" lon="118.80456707913251">
        <ele>12.84710614848882</ele>
        <time>2026-08-19T10:38:54Z</time>
      </trkpt>
      <trkpt lat="32.05341055859645" lon="118.80440575248161">
        <ele>14.007064034231007</ele>
        <time>2026-08-19T10:39:00Z</time>
      </trkpt>
      <trkpt lat="32.05343124482693" lon="118.80422338969048">
        <ele>13.423121620900929</ele>
        <time>2026-08-19T10:39:06Z</time>
      </trkpt>
      <trkpt lat="32.05337396828244" lon="118.80407209594068">
        <ele>13.277796913869679</ele>
        <time>2026-08-19T10:39:12Z</time>
      </trkpt>
      <trkpt lat="32.053197599288715" lon="118.80388273841187">
        <ele>13.129832436330616</ele>
        <time>2026-08-19T10:39:21Z</time>
      </trkpt>
      <trkpt lat="32.053135510516384" lon="118.80383965916977">
        <ele>13.6107246177271</ele>
        <time>2026-08-19T10:39:24Z</time>
      </trkpt>
      <trkpt lat="32.05280831567656" lon="118.80376955101657">
        <ele>12.91052167583257</ele>
        <time>2026-08-19T10:39:39Z</time>
      </trkpt>
      <trkpt lat="32.05274424916053" lon="118.80373949769127">
        <ele>3.7682525413110852</ele>
        <time>2026-08-19T10:39:42Z</time>
      </trkpt>
      <trkpt lat="32.05260017526838" lon="118.80371546357188">
        <ele>13.568446327932179</ele>
        <time>2026-08-19T10:39:48Z</time>
      </trkpt>
      <trkpt lat="32.05246600788889" lon="118.80363632007787">
        <ele>12.429629494436085</ele>
        <time>2026-08-19T10:39:54Z</time>
      </trkpt>
      <trkpt lat="32.052313961813944" lon="118.80362932024862">
        <ele>12.807471443898976</ele>
        <time>2026-08-19T10:40:00Z</time>
      </trkpt>
      <trkpt lat="32.052244895975335" lon="118.80360026942418">
        <ele>12.818041970022023</ele>
        <time>2026-08-19T10:40:03Z</time>
      </trkpt>
      <trkpt lat="32.05215088196685" lon="118.80360428594885">
        <ele>13.246089150197804</ele>
        <time>2026-08-19T10:40:06Z</time>
      </trkpt>
      <trkpt lat="32.05206892108658" lon="118.80363735854134">
        <ele>13.380847145803273</ele>
        <time>2026-08-19T10:40:09Z</time>
      </trkpt>
      <trkpt lat="32.05196210611841" lon="118.80375760509328">
        <ele>13.069056679494679</ele>
        <time>2026-08-19T10:40:12Z</time>
      </trkpt>
      <trkpt lat="32.051906253924805" lon="118.80384979188497">
        <ele>13.309504677541554</ele>
        <time>2026-08-19T10:40:15Z</time>
      </trkpt>
      <trkpt lat="32.05189060449483" lon="118.80405319465108">
        <ele>13.539382149465382</ele>
        <time>2026-08-19T10:40:21Z</time>
      </trkpt>
      <trkpt lat="32.051906791472895" lon="118.80415840101173">
        <ele>13.790400673635304</ele>
        <time>2026-08-19T10:40:24Z</time>
      </trkpt>
      <trkpt lat="32.05193991944673" lon="118.8042275346512">
        <ele>13.579016854055226</ele>
        <time>2026-08-19T10:40:27Z</time>
      </trkpt>
      <trkpt lat="32.052022121409294" lon="118.80433273524264">
        <ele>13.224951912648976</ele>
        <time>2026-08-19T10:40:30Z</time>
      </trkpt>
      <trkpt lat="32.05209823288216" lon="118.80438683536428">
        <ele>11.813979317434132</ele>
        <time>2026-08-19T10:40:33Z</time>
      </trkpt>
      <trkpt lat="32.05237140059163" lon="118.80444793132179">
        <ele>13.737551857717335</ele>
        <time>2026-08-19T10:40:45Z</time>
      </trkpt>
      <trkpt lat="32.05266065252827" lon="118.80455511723473">
        <ele>13.11926191020757</ele>
        <time>2026-08-19T10:40:57Z</time>
      </trkpt>
      <trkpt lat="32.052940788579555" lon="118.80459717495283">
        <ele>13.108691384084523</ele>
        <time>2026-08-19T10:41:09Z</time>
      </trkpt>
      <trkpt lat="32.05307492193063" lon="118.8046562799138">
        <ele>11.824546028859913</ele>
        <time>2026-08-19T10:41:15Z</time>
      </trkpt>
      <trkpt lat="32.053145948277376" lon="118.80466228531827">
        <ele>12.273734261281788</ele>
        <time>2026-08-19T10:41:18Z</time>
      </trkpt>
      <trkpt lat="32.0532579013035" lon="118.80462119351866">
        <ele>3.673133064992726</ele>
        <time>2026-08-19T10:41:24Z</time>
      </trkpt>
      <trkpt lat="32.05335671297642" lon="118.80450094601736">
        <ele>13.235522438772023</ele>
        <time>2026-08-19T10:41:30Z</time>
      </trkpt>
      <trkpt lat="32.053413478733844" lon="118.80435966094889">
        <ele>12.10727231670171</ele>
        <time>2026-08-19T10:41:36Z</time>
      </trkpt>
      <trkpt lat="32.053402201654094" lon="118.8042023507525">
        <ele>12.326579262502491</ele>
        <time>2026-08-19T10:41:42Z</time>
      </trkpt>
      <trkpt lat="32.05335391144611" lon="118.80404203842146">
        <ele>10.611743141897023</ele>
        <time>2026-08-19T10:41:48Z</time>
      </trkpt>
      <trkpt lat="32.053315780808404" lon="118.80397190347064">
        <ele>11.895888497121632</ele>
        <time>2026-08-19T10:41:51Z</time>
      </trkpt>
      <trkpt lat="32.05322463145867" lon="118.80389776556785">
        <ele>12.670073677785695</ele>
        <time>2026-08-19T10:41:57Z</time>
      </trkpt>
      <trkpt lat="32.05306948883916" lon="118.80383565733642">
        <ele>12.659506966359913</ele>
        <time>2026-08-19T10:42:03Z</time>
      </trkpt>
      <trkpt lat="32.05301648922964" lon="118.8038426760331">
        <ele>12.096701790578663</ele>
        <time>2026-08-19T10:42:07Z</time>
      </trkpt>
      <trkpt lat="32.052717241400515" lon="118.80373849819972">
        <ele>13.214381386525929</ele>
        <time>2026-08-19T10:42:19Z</time>
      </trkpt>
      <trkpt lat="32.05265923369558" lon="118.80374150945107">
        <ele>5.6891891257837415</ele>
        <time>2026-08-19T10:42:22Z</time>
      </trkpt>
      <trkpt lat="32.052588163887634" lon="118.80371045481036">
        <ele>11.644873787648976</ele>
        <time>2026-08-19T10:42:25Z</time>
      </trkpt>
      <trkpt lat="32.05253419886172" lon="118.80373751304744">
        <ele>11.959304024465382</ele>
        <time>2026-08-19T10:42:31Z</time>
      </trkpt>
      <trkpt lat="32.05241801632617" lon="118.80364734617898">
        <ele>12.178610970266163</ele>
        <time>2026-08-19T10:42:34Z</time>
      </trkpt>
      <trkpt lat="32.052130914038294" lon="118.80362532918387">
        <ele>11.227393318898976</ele>
        <time>2026-08-19T10:42:49Z</time>
      </trkpt>
      <trkpt lat="32.051951084506065" lon="118.80374658439537">
        <ele>12.440196205861866</ele>
        <time>2026-08-19T10:42:58Z</time>
      </trkpt>
      <trkpt lat="32.05187739915574" lon="118.80393696645136">
        <ele>13.224951912648976</ele>
        <time>2026-08-19T10:43:04Z</time>
      </trkpt>
      <trkpt lat="32.05186261396176" lon="118.80406221503159">
        <ele>12.387351204641163</ele>
        <time>2026-08-19T10:43:07Z</time>
      </trkpt>
      <trkpt lat="32.05187273321533" lon="118.80412934671766">
        <ele>8.114794899709523</ele>
        <time>2026-08-19T10:43:10Z</time>
      </trkpt>
      <trkpt lat="32.051925949546764" lon="118.80424657358586">
        <ele>13.758692909963429</ele>
        <time>2026-08-19T10:43:13Z</time>
      </trkpt>
      <trkpt lat="32.05201010823265" lon="118.80432672444768">
        <ele>13.214381386525929</ele>
        <time>2026-08-19T10:43:16Z</time>
      </trkpt>
      <trkpt lat="32.05228535514036" lon="118.8044329094542">
        <ele>13.359709908254445</ele>
        <time>2026-08-19T10:43:28Z</time>
      </trkpt>
      <trkpt lat="32.052586572928945" lon="118.80451905252886">
        <ele>13.56051938701421</ele>
        <time>2026-08-19T10:43:40Z</time>
      </trkpt>
      <trkpt lat="32.052707696316695" lon="118.80457415066329">
        <ele>13.737551857717335</ele>
        <time>2026-08-19T10:43:46Z</time>
      </trkpt>
      <trkpt lat="32.05288280020634" lon="118.80461120810625">
        <ele>12.680644203908741</ele>
        <time>2026-08-19T10:43:52Z</time>
      </trkpt>
      <trkpt lat="32.05304296393155" lon="118.80468433853024">
        <ele>13.380847145803273</ele>
        <time>2026-08-19T10:43:58Z</time>
      </trkpt>
      <trkpt lat="32.05316399264671" lon="118.80468532939891">
        <ele>12.921092201955616</ele>
        <time>2026-08-19T10:44:04Z</time>
      </trkpt>
      <trkpt lat="32.05323495231501" lon="118.80465325924507">
        <ele>12.775767494924366</ele>
        <time>2026-08-19T10:44:07Z</time>
      </trkpt>
      <trkpt lat="32.05339969101462" lon="118.80448290632475">
        <ele>11.071498085744679</ele>
        <time>2026-08-19T10:44:16Z</time>
      </trkpt>
      <trkpt lat="32.053449478000466" lon="118.80435464772299">
        <ele>5.837153603322804</ele>
        <time>2026-08-19T10:44:22Z</time>
      </trkpt>
      <trkpt lat="32.05341528497816" lon="118.80424844069822">
        <ele>12.786334206350148</ele>
        <time>2026-08-19T10:44:25Z</time>
      </trkpt>
      <trkpt lat="32.05341711061742" lon="118.80414824242652">
        <ele>13.03735273052007</ele>
        <time>2026-08-19T10:44:28Z</time>
      </trkpt>
      <trkpt lat="32.053378936219744" lon="118.80405305788632">
        <ele>12.503611733205616</ele>
        <time>2026-08-19T10:44:31Z</time>
      </trkpt>
      <trkpt lat="32.05322760074168" lon="118.80387972972723">
        <ele>12.744059731252491</ele>
        <time>2026-08-19T10:44:37Z</time>
      </trkpt>
      <trkpt lat="32.053096496598116" lon="118.8038366568296">
        <ele>12.868247200734913</ele>
        <time>2026-08-19T10:44:43Z</time>
      </trkpt>
      <trkpt lat="32.05303447929739" lon="118.8038346585786">
        <ele>11.885317970998585</ele>
        <time>2026-08-19T10:44:46Z</time>
      </trkpt>
      <trkpt lat="32.05288132323744" lon="118.80376453443748">
        <ele>12.524748970754445</ele>
        <time>2026-08-19T10:44:52Z</time>
      </trkpt>
      <trkpt lat="32.05274230270722" lon="118.80377055905703">
        <ele>11.290808846242726</ele>
        <time>2026-08-19T10:44:58Z</time>
      </trkpt>
      <trkpt lat="32.05262916606414" lon="118.80370644315035">
        <ele>10.735930611379445</ele>
        <time>2026-08-19T10:45:04Z</time>
      </trkpt>
      <trkpt lat="32.05247908736018" lon="118.80368040565097">
        <ele>12.535319496877491</ele>
        <time>2026-08-19T10:45:10Z</time>
      </trkpt>
      <trkpt lat="32.052198875279124" lon="118.80359426182662">
        <ele>10.693652321584523</ele>
        <time>2026-08-19T10:45:22Z</time>
      </trkpt>
      <trkpt lat="32.05201990145567" lon="118.80363235318733">
        <ele>12.722918679006398</ele>
        <time>2026-08-19T10:45:28Z</time>
      </trkpt>
      <trkpt lat="32.05194001065968" lon="118.8037055045088">
        <ele>12.440196205861866</ele>
        <time>2026-08-19T10:45:31Z</time>
      </trkpt>
      <trkpt lat="32.051876357072985" lon="118.80391291910989">
        <ele>13.214381386525929</ele>
        <time>2026-08-19T10:45:40Z</time>
      </trkpt>
      <trkpt lat="32.051864548065765" lon="118.80402413967144">
        <ele>9.953818489797413</ele>
        <time>2026-08-19T10:45:43Z</time>
      </trkpt>
      <trkpt lat="32.05193091569024" lon="118.80422653349706">
        <ele>13.04791944194585</ele>
        <time>2026-08-19T10:45:49Z</time>
      </trkpt>
      <trkpt lat="32.05198910179775" lon="118.80432572439474">
        <ele>13.298937966115773</ele>
        <time>2026-08-19T10:45:52Z</time>
      </trkpt>
      <trkpt lat="32.05204721100109" lon="118.80438082814833">
        <ele>12.889384438283741</ele>
        <time>2026-08-19T10:45:55Z</time>
      </trkpt>
      <trkpt lat="32.05232039272144" lon="118.80444993997858">
        <ele>13.956862618215382</ele>
        <time>2026-08-19T10:46:07Z</time>
      </trkpt>
      <trkpt lat="32.05258160686866" lon="118.80453909271169">
        <ele>13.800967385061085</ele>
        <time>2026-08-19T10:46:19Z</time>
      </trkpt>
      <trkpt lat="32.05285482553778" lon="118.80462924645661">
        <ele>12.775767494924366</ele>
        <time>2026-08-19T10:46:31Z</time>
      </trkpt>
      <trkpt lat="32.05298093432234" lon="118.80467532633098">
        <ele>9.377803017385304</ele>
        <time>2026-08-19T10:46:37Z</time>
      </trkpt>
      <trkpt lat="32.053259942094876" lon="118.80464423905482">
        <ele>12.963366677053273</ele>
        <time>2026-08-19T10:46:49Z</time>
      </trkpt>
      <trkpt lat="32.05336777676671" lon="118.80453601451693">
        <ele>12.963366677053273</ele>
        <time>2026-08-19T10:46:55Z</time>
      </trkpt>
      <trkpt lat="32.05340464657905" lon="118.80445685424895">
        <ele>12.263163735158741</ele>
        <time>2026-08-19T10:46:58Z</time>
      </trkpt>
      <trkpt lat="32.05341948357095" lon="118.80436166436444">
        <ele>12.199748207814991</ele>
        <time>2026-08-19T10:47:01Z</time>
      </trkpt>
      <trkpt lat="32.053409203213235" lon="118.80420235010912">
        <ele>13.026782204397023</ele>
        <time>2026-08-19T10:47:07Z</time>
      </trkpt>
      <trkpt lat="32.05338904847297" lon="118.80411618164625">
        <ele>11.885317970998585</ele>
        <time>2026-08-19T10:47:10Z</time>
      </trkpt>
      <trkpt lat="32.05331580523739" lon="118.80398593115294">
        <ele>13.298937966115773</ele>
        <time>2026-08-19T10:47:16Z</time>
      </trkpt>
      <trkpt lat="32.05323063279535" lon="118.80389776501634">
        <ele>13.026782204397023</ele>
        <time>2026-08-19T10:47:22Z</time>
      </trkpt>
      <trkpt lat="32.05303646580072" lon="118.80382664259585">
        <ele>12.648936440236866</ele>
        <time>2026-08-19T10:47:31Z</time>
      </trkpt>
      <trkpt lat="32.052750301006654" lon="118.80376855437399">
        <ele>12.440196205861866</ele>
        <time>2026-08-19T10:47:43Z</time>
      </trkpt>
      <trkpt lat="32.05263217892021" lon="118.80371345668462">
        <ele>12.942229439504445</ele>
        <time>2026-08-19T10:47:49Z</time>
      </trkpt>
      <trkpt lat="32.052481105212934" lon="118.80369042519163">
        <ele>11.959304024465382</ele>
        <time>2026-08-19T10:47:58Z</time>
      </trkpt>
      <trkpt lat="32.05241803720873" lon="118.80365936984198">
        <ele>11.552394081838429</ele>
        <time>2026-08-19T10:48:01Z</time>
      </trkpt>
      <trkpt lat="32.052202947496966" lon="118.80363534228101">
        <ele>12.995074440725148</ele>
        <time>2026-08-19T10:48:10Z</time>
      </trkpt>
      <trkpt lat="32.05213896106265" lon="118.80365137971171">
        <ele>12.326579262502491</ele>
        <time>2026-08-19T10:48:13Z</time>
      </trkpt>
      <trkpt lat="32.052064029618926" lon="118.80370048324747">
        <ele>12.889384438283741</ele>
        <time>2026-08-19T10:48:16Z</time>
      </trkpt>
      <trkpt lat="32.051963080217185" lon="118.80374257539869">
        <ele>12.796904732473195</ele>
        <time>2026-08-19T10:48:22Z</time>
      </trkpt>
      <trkpt lat="32.05185833561759" lon="118.8039029010032">
        <ele>13.46539991069585</ele>
        <time>2026-08-19T10:48:28Z</time>
      </trkpt>
      <trkpt lat="32.05187375789898" lon="118.80414337434351">
        <ele>13.03735273052007</ele>
        <time>2026-08-19T10:48:37Z</time>
      </trkpt>
      <trkpt lat="32.05189692558955" lon="118.80423655643567">
        <ele>12.942229439504445</ele>
        <time>2026-08-19T10:48:40Z</time>
      </trkpt>
      <trkpt lat="32.05201619708289" lon="118.80437682306228">
        <ele>9.504630257375538</ele>
        <time>2026-08-19T10:48:46Z</time>
      </trkpt>
      <trkpt lat="32.05232339689374" lon="118.80445194367272">
        <ele>13.568446327932179</ele>
        <time>2026-08-19T10:48:58Z</time>
      </trkpt>
      <trkpt lat="32.05261660240196" lon="118.80453207559124">
        <ele>12.868247200734913</ele>
        <time>2026-08-19T10:49:10Z</time>
      </trkpt>
      <trkpt lat="32.05291689373998" lon="118.804660302387">
        <ele>13.97799985576421</ele>
        <time>2026-08-19T10:49:22Z</time>
      </trkpt>
      <trkpt lat="32.05314499367828" lon="118.80468833711106">
        <ele>9.734507729299366</ele>
        <time>2026-08-19T10:49:31Z</time>
      </trkpt>
      <trkpt lat="32.05327594215056" lon="118.8046422336084">
        <ele>12.796904732473195</ele>
        <time>2026-08-19T10:49:37Z</time>
      </trkpt>
      <trkpt lat="32.05333785949627" lon="118.80458711859572">
        <ele>12.294871498830616</ele>
        <time>2026-08-19T10:49:40Z</time>
      </trkpt>
      <trkpt lat="32.0533777369305" lon="118.80451196593141">
        <ele>9.734507729299366</ele>
        <time>2026-08-19T10:49:43Z</time>
      </trkpt>
      <trkpt lat="32.05342536241582" lon="118.80429152500666">
        <ele>11.478408028371632</ele>
        <time>2026-08-19T10:49:49Z</time>
      </trkpt>
      <trkpt lat="32.053425191044425" lon="118.8041933308107">
        <ele>9.964385201223195</ele>
        <time>2026-08-19T10:49:52Z</time>
      </trkpt>
      <trkpt lat="32.05336694926133" lon="118.80406207679663">
        <ele>5.720893074758351</ele>
        <time>2026-08-19T10:49:58Z</time>
      </trkpt>
      <trkpt lat="32.05326671406589" lon="118.8039398447128">
        <ele>12.63836591411382</ele>
        <time>2026-08-19T10:50:04Z</time>
      </trkpt>
      <trkpt lat="32.052968401856866" lon="118.80379859355838">
        <ele>12.691214730031788</ele>
        <time>2026-08-19T10:50:19Z</time>
      </trkpt>
      <trkpt lat="32.052844304540336" lon="118.80375852599614">
        <ele>12.733489205129445</ele>
        <time>2026-08-19T10:50:25Z</time>
      </trkpt>
      <trkpt lat="32.05270427333462" lon="118.8037585388647">
        <ele>11.761134316213429</ele>
        <time>2026-08-19T10:50:31Z</time>
      </trkpt>
      <trkpt lat="32.052646218607364" lon="118.80373449683273">
        <ele>12.440196205861866</ele>
        <time>2026-08-19T10:50:34Z</time>
      </trkpt>
      <trkpt lat="32.05259320853306" lon="118.80373550367767">
        <ele>12.316008736379445</ele>
        <time>2026-08-19T10:50:37Z</time>
      </trkpt>
      <trkpt lat="32.052320952936135" lon="118.80362330777639">
        <ele>15.859297920949757</ele>
        <time>2026-08-19T10:50:49Z</time>
      </trkpt>
      <trkpt lat="32.05215092023932" lon="118.80362632931696">
        <ele>10.685725380666554</ele>
        <time>2026-08-19T10:50:58Z</time>
      </trkpt>
      <trkpt lat="32.0520090086448" lon="118.80369547843966">
        <ele>12.963366677053273</ele>
        <time>2026-08-19T10:51:04Z</time>
      </trkpt>
      <trkpt lat="32.05191219775021" lon="118.80381672616232">
        <ele>13.444262673147023</ele>
        <time>2026-08-19T10:51:10Z</time>
      </trkpt>
      <trkpt lat="32.05184949061282" lon="118.80399307973951">
        <ele>13.005644966848195</ele>
        <time>2026-08-19T10:51:16Z</time>
      </trkpt>
      <trkpt lat="32.05184567653144" lon="118.80410029179393">
        <ele>12.70178144145757</ele>
        <time>2026-08-19T10:51:19Z</time>
      </trkpt>
      <trkpt lat="32.05190203164699" lon="118.80429667489304">
        <ele>12.535319496877491</ele>
        <time>2026-08-19T10:51:25Z</time>
      </trkpt>
      <trkpt lat="32.05200320818781" lon="118.80438484012733">
        <ele>5.179228951223195</ele>
        <time>2026-08-19T10:51:31Z</time>
      </trkpt>
      <trkpt lat="32.052093307061114" lon="118.80442992114568">
        <ele>13.1932441489771</ele>
        <time>2026-08-19T10:51:35Z</time>
      </trkpt>
      <trkpt lat="32.05235843097527" lon="118.8044669702319">
        <ele>12.146903206594288</ele>
        <time>2026-08-19T10:51:47Z</time>
      </trkpt>
      <trkpt lat="32.052645628148305" lon="118.80454309477541">
        <ele>12.545886208303273</ele>
        <time>2026-08-19T10:51:59Z</time>
      </trkpt>
      <trkpt lat="32.05293784754391" lon="118.8046312428044">
        <ele>12.931658913381398</ele>
        <time>2026-08-19T10:52:11Z</time>
      </trkpt>
      <trkpt lat="32.05307994936369" lon="118.80467130927899">
        <ele>12.471903969533741</ele>
        <time>2026-08-19T10:52:17Z</time>
      </trkpt>
      <trkpt lat="32.05320997130918" lon="118.80466728937824">
        <ele>12.83917920757085</ele>
        <time>2026-08-19T10:52:23Z</time>
      </trkpt>
      <trkpt lat="32.053321871714566" lon="118.80459613795075">
        <ele>11.91702573467046</ele>
        <time>2026-08-19T10:52:29Z</time>
      </trkpt>
      <trkpt lat="32.05336877698946" lon="118.80453601442503">
        <ele>-0.15816576313227415</ele>
        <time>2026-08-19T10:52:32Z</time>
      </trkpt>
      <trkpt lat="32.05340863520834" lon="118.80444983998648">
        <ele>11.687148262746632</ele>
        <time>2026-08-19T10:52:35Z</time>
      </trkpt>
      <trkpt lat="32.05342415062167" lon="118.80417028534855">
        <ele>12.075564553029835</ele>
        <time>2026-08-19T10:52:47Z</time>
      </trkpt>
      <trkpt lat="32.05335785822318" lon="118.80401097673317">
        <ele>12.627799202688038</ele>
        <time>2026-08-19T10:52:53Z</time>
      </trkpt>
      <trkpt lat="32.05315058358681" lon="118.80387973680486">
        <ele>12.627799202688038</ele>
        <time>2026-08-19T10:53:02Z</time>
      </trkpt>
      <trkpt lat="32.05307651828656" lon="118.80385168829429">
        <ele>12.60666196513921</ele>
        <time>2026-08-19T10:53:05Z</time>
      </trkpt>
      <trkpt lat="32.05295045535022" lon="118.80383166037497">
        <ele>12.712351967580616</ele>
        <time>2026-08-19T10:53:11Z</time>
      </trkpt>
      <trkpt lat="32.05264321271445" lon="118.80373149118876">
        <ele>12.49304120708257</ele>
        <time>2026-08-19T10:53:23Z</time>
      </trkpt>
      <trkpt lat="32.05251609909129" lon="118.80368240619472">
        <ele>12.627799202688038</ele>
        <time>2026-08-19T10:53:29Z</time>
      </trkpt>
      <trkpt lat="32.052451072413945" lon="118.80367539836305">
        <ele>12.461333443410695</ele>
        <time>2026-08-19T10:53:32Z</time>
      </trkpt>
      <trkpt lat="32.05231391658247" lon="118.80360326899488">
        <ele>11.792838265188038</ele>
        <time>2026-08-19T10:53:38Z</time>
      </trkpt>
      <trkpt lat="32.052167878800944" lon="118.80360027650198">
        <ele>12.429629494436085</ele>
        <time>2026-08-19T10:53:44Z</time>
      </trkpt>
      <trkpt lat="32.0520928986026" lon="118.80362132479114">
        <ele>12.231455971486866</ele>
        <time>2026-08-19T10:53:47Z</time>
      </trkpt>
      <trkpt lat="32.051972064810734" lon="118.8037325548384">
        <ele>12.878813912160695</ele>
        <time>2026-08-19T10:53:53Z</time>
      </trkpt>
      <trkpt lat="32.05187538998805" lon="118.80393195675245">
        <ele>12.535319496877491</ele>
        <time>2026-08-19T10:54:02Z</time>
      </trkpt>
      <trkpt lat="32.05184869990871" lon="118.8041133172499">
        <ele>12.744059731252491</ele>
        <time>2026-08-19T10:54:08Z</time>
      </trkpt>
      <trkpt lat="32.05190698378339" lon="118.80426861893173">
        <ele>12.086131264455616</ele>
        <time>2026-08-19T10:54:14Z</time>
      </trkpt>
      <trkpt lat="32.05200815153789" lon="118.80435177420948">
        <ele>5.41967694927007</ele>
        <time>2026-08-19T10:54:17Z</time>
      </trkpt>
      <trkpt lat="32.05225838064568" lon="118.80445094766145">
        <ele>10.392436196096241</ele>
        <time>2026-08-19T10:54:26Z</time>
      </trkpt>
      <trkpt lat="32.05258957710297" lon="118.8045210562252">
        <ele>12.514182259328663</ele>
        <time>2026-08-19T10:54:38Z</time>
      </trkpt>
      <trkpt lat="32.05267862148198" lon="118.80453507585203">
        <ele>12.545886208303273</ele>
        <time>2026-08-19T10:54:41Z</time>
      </trkpt>
      <trkpt lat="32.05282976384113" lon="118.80459718515391">
        <ele>8.563983132131398</ele>
        <time>2026-08-19T10:54:47Z</time>
      </trkpt>
      <trkpt lat="32.053070935075745" lon="118.80466429618745">
        <ele>10.506053139455616</ele>
        <time>2026-08-19T10:54:59Z</time>
      </trkpt>
      <trkpt lat="32.05324193106775" lon="118.80464023275715">
        <ele>12.598735024221241</ele>
        <time>2026-08-19T10:55:05Z</time>
      </trkpt>
      <trkpt lat="32.05329487096112" lon="118.80459914639395">
        <ele>5.868861366994679</ele>
        <time>2026-08-19T10:55:08Z</time>
      </trkpt>
      <trkpt lat="32.053367676878764" lon="118.80447890132409">
        <ele>12.305442024953663</ele>
        <time>2026-08-19T10:55:14Z</time>
      </trkpt>
      <trkpt lat="32.05340140080927" lon="118.80431657677711">
        <ele>12.577593971975148</ele>
        <time>2026-08-19T10:55:20Z</time>
      </trkpt>
      <trkpt lat="32.053392103301725" lon="118.80414724274428">
        <ele>12.588164498098195</ele>
        <time>2026-08-19T10:55:26Z</time>
      </trkpt>
      <trkpt lat="32.05332582491595" lon="118.80399595000881">
        <ele>2.2119552390649915</ele>
        <time>2026-08-19T10:55:32Z</time>
      </trkpt>
      <trkpt lat="32.05327170296953" lon="118.80393283041697">
        <ele>8.468859841115773</ele>
        <time>2026-08-19T10:55:35Z</time>
      </trkpt>
      <trkpt lat="32.05301946375531" lon="118.80382764613326">
        <ele>11.488978554494679</ele>
        <time>2026-08-19T10:55:47Z</time>
      </trkpt>
      <trkpt lat="32.05275125768685" lon="118.80374350494138">
        <ele>11.687148262746632</ele>
        <time>2026-08-19T10:55:59Z</time>
      </trkpt>
      <trkpt lat="32.05246406138887" lon="118.80366738139038">
        <ele>12.39792173076421</ele>
        <time>2026-08-19T10:56:11Z</time>
      </trkpt>
      <trkpt lat="32.05216588183374" lon="118.80360228062791">
        <ele>11.845687081106007</ele>
        <time>2026-08-19T10:56:23Z</time>
      </trkpt>
      <trkpt lat="32.052097915376265" lon="118.80363034207461">
        <ele>12.471903969533741</ele>
        <time>2026-08-19T10:56:26Z</time>
      </trkpt>
      <trkpt lat="32.05198207400735" lon="118.80373656181227">
        <ele>12.305442024953663</ele>
        <time>2026-08-19T10:56:32Z</time>
      </trkpt>
      <trkpt lat="32.05189042473381" lon="118.80394999095356">
        <ele>11.446700264699757</ele>
        <time>2026-08-19T10:56:41Z</time>
      </trkpt>
      <trkpt lat="32.05188572388678" lon="118.80412233166516">
        <ele>11.98044126201421</ele>
        <time>2026-08-19T10:56:47Z</time>
      </trkpt>
      <trkpt lat="32.05190689285153" lon="118.80421651589057">
        <ele>9.232478310354054</ele>
        <time>2026-08-19T10:56:50Z</time>
      </trkpt>
      <trkpt lat="32.051951026835106" lon="118.8042876525485">
        <ele>11.67658155132085</ele>
        <time>2026-08-19T10:56:53Z</time>
      </trkpt>
      <trkpt lat="32.05204414381758" lon="118.8043427530517">
        <ele>12.55645673442632</ele>
        <time>2026-08-19T10:56:56Z</time>
      </trkpt>
      <trkpt lat="32.052251326541935" lon="118.80442088876454">
        <ele>9.441214730031788</ele>
        <time>2026-08-19T10:57:05Z</time>
      </trkpt>
      <trkpt lat="32.05238048669095" lon="118.80449602578678">
        <ele>11.269671608693898</ele>
        <time>2026-08-19T10:57:11Z</time>
      </trkpt>
      <trkpt lat="32.05266764357048" lon="118.8045491046722">
        <ele>12.178610970266163</ele>
        <time>2026-08-19T10:57:23Z</time>
      </trkpt>
      <trkpt lat="32.05300791928293" lon="118.80466329998889">
        <ele>12.387351204641163</ele>
        <time>2026-08-19T10:57:41Z</time>
      </trkpt>
      <trkpt lat="32.05315198470851" lon="118.80468232453583">
        <ele>11.446700264699757</ele>
        <time>2026-08-19T10:57:47Z</time>
      </trkpt>
      <trkpt lat="32.0532789568537" lon="118.80465024923701">
        <ele>11.991011788137257</ele>
        <time>2026-08-19T10:57:54Z</time>
      </trkpt>
      <trkpt lat="32.053334902670684" lon="118.804612168554">
        <ele>10.225970436818898</ele>
        <time>2026-08-19T10:57:57Z</time>
      </trkpt>
      <trkpt lat="32.053414547230766" lon="118.80439873822486">
        <ele>8.9074775474146</ele>
        <time>2026-08-19T10:58:03Z</time>
      </trkpt>
      <trkpt lat="32.05342636788677" lon="118.80429453086198">
        <ele>11.895888497121632</ele>
        <time>2026-08-19T10:58:06Z</time>
      </trkpt>
      <trkpt lat="32.05339703802697" lon="118.80410916705452">
        <ele>12.83917920757085</ele>
        <time>2026-08-19T10:58:12Z</time>
      </trkpt>
      <trkpt lat="32.053361881805415" lon="118.80402400207869">
        <ele>11.594668556936085</ele>
        <time>2026-08-19T10:58:15Z</time>
      </trkpt>
      <trkpt lat="32.05331174327918" lon="118.80395086232089">
        <ele>8.949752022512257</ele>
        <time>2026-08-19T10:58:18Z</time>
      </trkpt>
      <trkpt lat="32.053237630867315" lon="118.80389576042101">
        <ele>10.569468666799366</ele>
        <time>2026-08-19T10:58:21Z</time>
      </trkpt>
      <trkpt lat="32.05310152385697" lon="118.80385168599635">
        <ele>12.366213967092335</ele>
        <time>2026-08-19T10:58:27Z</time>
      </trkpt>
      <trkpt lat="32.05295147300184" lon="118.80384168003268">
        <ele>9.27475278545171</ele>
        <time>2026-08-19T10:58:33Z</time>
      </trkpt>
      <trkpt lat="32.05276531654378" lon="118.80377556681246">
        <ele>11.877391030080616</ele>
        <time>2026-08-19T10:58:39Z</time>
      </trkpt>
      <trkpt lat="32.05263024638791" lon="118.80375253382493">
        <ele>11.008086373098195</ele>
        <time>2026-08-19T10:58:48Z</time>
      </trkpt>
      <trkpt lat="32.052451032385505" lon="118.80365235300494">
        <ele>12.117839028127491</ele>
        <time>2026-08-19T10:58:54Z</time>
      </trkpt>
      <trkpt lat="32.05229691279115" lon="118.80360327055752">
        <ele>7.266623665578663</ele>
        <time>2026-08-19T10:59:00Z</time>
      </trkpt>
      <trkpt lat="32.052137880806576" lon="118.80360528911491">
        <ele>11.56296079326421</ele>
        <time>2026-08-19T10:59:06Z</time>
      </trkpt>
      <trkpt lat="32.05200801190339" lon="118.80369748247682">
        <ele>8.981459786184132</ele>
        <time>2026-08-19T10:59:12Z</time>
      </trkpt>
      <trkpt lat="32.05191824265816" lon="118.8038417749813">
        <ele>11.959304024465382</ele>
        <time>2026-08-19T10:59:18Z</time>
      </trkpt>
      <trkpt lat="32.05187449619111" lon="118.80399307744176">
        <ele>11.008086373098195</ele>
        <time>2026-08-19T10:59:24Z</time>
      </trkpt>
      <trkpt lat="32.05188366055851" lon="118.80408626059345">
        <ele>10.9050361411646</ele>
        <time>2026-08-19T10:59:27Z</time>
      </trkpt>
      <trkpt lat="32.0519158284337" lon="118.8041784397918">
        <ele>12.064994026906788</ele>
        <time>2026-08-19T10:59:30Z</time>
      </trkpt>
      <trkpt lat="32.0520301109446" lon="118.80432572062668">
        <ele>12.033286263234913</ele>
        <time>2026-08-19T10:59:36Z</time>
      </trkpt>
      <trkpt lat="32.05216627956579" lon="118.80440486482742">
        <ele>11.615805794484913</ele>
        <time>2026-08-19T10:59:42Z</time>
      </trkpt>
      <trkpt lat="32.052432501791095" lon="118.80449802497918">
        <ele>10.611743141897023</ele>
        <time>2026-08-19T11:00:00Z</time>
      </trkpt>
      <trkpt lat="32.052766311150926" lon="118.80464860539078">
        <ele>12.199748207814991</ele>
        <time>2026-08-19T11:00:06Z</time>
      </trkpt>
      <trkpt lat="32.052911222572895" lon="118.80465641928313">
        <ele>11.927596260793507</ele>
        <time>2026-08-19T11:00:09Z</time>
      </trkpt>
      <trkpt lat="32.052921266412504" lon="118.80457474330824">
        <ele>11.301375557668507</ele>
        <time>2026-08-19T11:00:12Z</time>
      </trkpt>
      <trkpt lat="32.05294881842293" lon="118.80461320601574">
        <ele>11.62637632060796</ele>
        <time>2026-08-19T11:00:22Z</time>
      </trkpt>
      <trkpt lat="32.05313197674278" lon="118.80468032239666">
        <ele>12.054423500783741</ele>
        <time>2026-08-19T11:00:31Z</time>
      </trkpt>
      <trkpt lat="32.0532919071236" lon="118.80462018840635">
        <ele>11.46784131694585</ele>
        <time>2026-08-19T11:00:40Z</time>
      </trkpt>
      <trkpt lat="32.05335481243644" lon="118.804558059414">
        <ele>11.62637632060796</ele>
        <time>2026-08-19T11:00:43Z</time>
      </trkpt>
      <trkpt lat="32.053406569962824" lon="118.80441276673916">
        <ele>11.594668556936085</ele>
        <time>2026-08-19T11:00:49Z</time>
      </trkpt>
      <trkpt lat="32.05340731117849" lon="118.8042644731426">
        <ele>10.97637860942632</ele>
        <time>2026-08-19T11:00:55Z</time>
      </trkpt>
      <trkpt lat="32.05335714793223" lon="118.80417730537002">
        <ele>11.156050850637257</ele>
        <time>2026-08-19T11:00:58Z</time>
      </trkpt>
      <trkpt lat="32.053276765141476" lon="118.80396789914673">
        <ele>11.385928322561085</ele>
        <time>2026-08-19T11:01:04Z</time>
      </trkpt>
      <trkpt lat="32.0531655520617" lon="118.80385969591588">
        <ele>11.739993263967335</ele>
        <time>2026-08-19T11:01:10Z</time>
      </trkpt>
      <trkpt lat="32.053073475788004" lon="118.80382764116969">
        <ele>10.915606667287648</ele>
        <time>2026-08-19T11:01:13Z</time>
      </trkpt>
      <trkpt lat="32.05286235906884" lon="118.80378758158503">
        <ele>11.803408791311085</ele>
        <time>2026-08-19T11:01:22Z</time>
      </trkpt>
      <trkpt lat="32.052742253939186" lon="118.80374250379525">
        <ele>12.419058968313038</ele>
        <time>2026-08-19T11:01:28Z</time>
      </trkpt>
      <trkpt lat="32.0526432318702" lon="118.80374251289516">
        <ele>10.76763837505132</ele>
        <time>2026-08-19T11:01:34Z</time>
      </trkpt>
      <trkpt lat="32.052410976486" lon="118.8036253034465">
        <ele>11.1956855552271</ele>
        <time>2026-08-19T11:01:43Z</time>
      </trkpt>
      <trkpt lat="32.052139869076484" lon="118.8035982751337">
        <ele>11.407069374807179</ele>
        <time>2026-08-19T11:01:55Z</time>
      </trkpt>
      <trkpt lat="32.0519391393085" lon="118.80377965063133">
        <ele>11.782271553762257</ele>
        <time>2026-08-19T11:02:07Z</time>
      </trkpt>
      <trkpt lat="32.05189526541546" lon="118.80385780869779">
        <ele>12.064994026906788</ele>
        <time>2026-08-19T11:02:10Z</time>
      </trkpt>
      <trkpt lat="32.051870528458664" lon="118.80401211538499">
        <ele>12.34771650005132</ele>
        <time>2026-08-19T11:02:16Z</time>
      </trkpt>
      <trkpt lat="32.0518797033321" lon="118.80411131044184">
        <ele>11.510115792043507</ele>
        <time>2026-08-19T11:02:19Z</time>
      </trkpt>
      <trkpt lat="32.05200313992126" lon="118.80434576276936">
        <ele>11.269671608693898</ele>
        <time>2026-08-19T11:02:28Z</time>
      </trkpt>
      <trkpt lat="32.05206523952694" lon="118.80439485426868">
        <ele>10.434710671193898</ele>
        <time>2026-08-19T11:02:31Z</time>
      </trkpt>
      <trkpt lat="32.052175283324246" lon="118.80440586598449">
        <ele>11.605239083059132</ele>
        <time>2026-08-19T11:02:38Z</time>
      </trkpt>
      <trkpt lat="32.05242754974573" lon="118.80452608104366">
        <ele>7.54934995342046</ele>
        <time>2026-08-19T11:02:50Z</time>
      </trkpt>
      <trkpt lat="32.05271368012136" lon="118.80456413024383">
        <ele>11.605239083059132</ele>
        <time>2026-08-19T11:03:02Z</time>
      </trkpt>
      <trkpt lat="32.05300194426635" lon="118.80467833036663">
        <ele>10.590605904348195</ele>
        <time>2026-08-19T11:03:14Z</time>
      </trkpt>
      <trkpt lat="32.05320000066721" lon="118.80468532609048">
        <ele>2.4312621848657727</ele>
        <time>2026-08-19T11:03:23Z</time>
      </trkpt>
      <trkpt lat="32.053326902642546" lon="118.80461317127673">
        <ele>9.90097348857671</ele>
        <time>2026-08-19T11:03:29Z</time>
      </trkpt>
      <trkpt lat="32.05341369763707" lon="118.80448490900902">
        <ele>10.162558724172413</ele>
        <time>2026-08-19T11:03:32Z</time>
      </trkpt>
      <trkpt lat="32.05341619253587" lon="118.80419533559953">
        <ele>10.548327614553273</ele>
        <time>2026-08-19T11:03:47Z</time>
      </trkpt>
      <trkpt lat="32.053366956245924" lon="118.80406608471141">
        <ele>10.506053139455616</ele>
        <time>2026-08-19T11:03:53Z</time>
      </trkpt>
      <trkpt lat="32.05331781091805" lon="118.80398893690145">
        <ele>11.1137763755396</ele>
        <time>2026-08-19T11:03:56Z</time>
      </trkpt>
      <trkpt lat="32.05321164600081" lon="118.80390778652334">
        <ele>10.852191139943898</ele>
        <time>2026-08-19T11:04:02Z</time>
      </trkpt>
      <trkpt lat="32.05314758291841" lon="118.80387973708062">
        <ele>9.755644966848195</ele>
        <time>2026-08-19T11:04:05Z</time>
      </trkpt>
      <trkpt lat="32.053022530658644" lon="118.80386572091243">
        <ele>10.965808083303273</ele>
        <time>2026-08-19T11:04:11Z</time>
      </trkpt>
      <trkpt lat="32.05273825653062" lon="118.80374450810974">
        <ele>10.55889814067632</ele>
        <time>2026-08-19T11:04:23Z</time>
      </trkpt>
      <trkpt lat="32.05262216972661" lon="118.80370944971226">
        <ele>10.746501137502491</ele>
        <time>2026-08-19T11:04:29Z</time>
      </trkpt>
      <trkpt lat="32.05256416376006" lon="118.80371346293508">
        <ele>9.755644966848195</ele>
        <time>2026-08-19T11:04:32Z</time>
      </trkpt>
      <trkpt lat="32.05247509169017" lon="118.80368341193581">
        <ele>10.965808083303273</ele>
        <time>2026-08-19T11:04:38Z</time>
      </trkpt>
      <trkpt lat="32.05215002965388" lon="118.803689453644">
        <ele>28.79058759380132</ele>
        <time>2026-08-19T11:04:54Z</time>
      </trkpt>
      <trkpt lat="32.05205900587305" lon="118.80368745806348">
        <ele>9.755644966848195</ele>
        <time>2026-08-19T11:04:57Z</time>
      </trkpt>
      <trkpt lat="32.0519591855841" lon="118.8038036961738">
        <ele>9.745078255422413</ele>
        <time>2026-08-19T11:05:06Z</time>
      </trkpt>
      <trkpt lat="32.05188039982513" lon="118.80393696617563">
        <ele>10.926173378713429</ele>
        <time>2026-08-19T11:05:12Z</time>
      </trkpt>
      <trkpt lat="32.0518775178031" lon="118.80400510089729">
        <ele>8.14385907817632</ele>
        <time>2026-08-19T11:05:15Z</time>
      </trkpt>
      <trkpt lat="32.051908769202925" lon="118.80414537508669">
        <ele>10.35015790630132</ele>
        <time>2026-08-19T11:05:21Z</time>
      </trkpt>
      <trkpt lat="32.05197699940117" lon="118.80426861249838">
        <ele>9.388369728811085</ele>
        <time>2026-08-19T11:05:24Z</time>
      </trkpt>
      <trkpt lat="32.05222833016834" lon="118.80442590080068">
        <ele>11.3225166099146</ele>
        <time>2026-08-19T11:05:36Z</time>
      </trkpt>
      <trkpt lat="32.05246747280047" lon="118.80447698006707">
        <ele>10.392436196096241</ele>
        <time>2026-08-19T11:05:48Z</time>
      </trkpt>
      <trkpt lat="32.052669677325895" lon="118.80456814223452">
        <ele>12.157473732717335</ele>
        <time>2026-08-19T11:05:57Z</time>
      </trkpt>
      <trkpt lat="32.0529819310357" lon="118.80467332226213">
        <ele>10.611743141897023</ele>
        <time>2026-08-19T11:06:12Z</time>
      </trkpt>
      <trkpt lat="32.05311302340528" lon="118.80470938181806">
        <ele>9.649954964406788</ele>
        <time>2026-08-19T11:06:18Z</time>
      </trkpt>
      <trkpt lat="32.05323399771269" lon="118.8046793110342">
        <ele>10.276175667531788</ele>
        <time>2026-08-19T11:06:24Z</time>
      </trkpt>
      <trkpt lat="32.05333384282404" lon="118.80457810108003">
        <ele>10.025157143361866</ele>
        <time>2026-08-19T11:06:30Z</time>
      </trkpt>
      <trkpt lat="32.05337672794552" lon="118.80450695609396">
        <ele>10.056864907033741</ele>
        <time>2026-08-19T11:06:33Z</time>
      </trkpt>
      <trkpt lat="32.05340942533892" lon="118.80432960181942">
        <ele>7.19528501201421</ele>
        <time>2026-08-19T11:06:39Z</time>
      </trkpt>
      <trkpt lat="32.0534062812248" lon="118.80424743954373">
        <ele>7.602194954641163</ele>
        <time>2026-08-19T11:06:42Z</time>
      </trkpt>
      <trkpt lat="32.053349969921726" lon="118.80407610606207">
        <ele>9.409510781057179</ele>
        <time>2026-08-19T11:06:48Z</time>
      </trkpt>
      <trkpt lat="32.05321363772704" lon="118.80390277645901">
        <ele>6.901992012746632</ele>
        <time>2026-08-19T11:06:57Z</time>
      </trkpt>
      <trkpt lat="32.053084520069106" lon="118.80385168755895">
        <ele>10.809912850148976</ele>
        <time>2026-08-19T11:07:03Z</time>
      </trkpt>
      <trkpt lat="32.05301750513974" lon="118.80385169371742">
        <ele>10.25503842998296</ele>
        <time>2026-08-19T11:07:06Z</time>
      </trkpt>
      <trkpt lat="32.05269723520077" lon="118.80373749806476">
        <ele>9.83755796123296</ele>
        <time>2026-08-19T11:07:21Z</time>
      </trkpt>
      <trkpt lat="32.05238395132818" lon="118.8036142842434">
        <ele>2.933295418508351</ele>
        <time>2026-08-19T11:07:36Z</time>
      </trkpt>
      <trkpt lat="32.05232693861685" lon="118.80361428948282">
        <ele>5.0312606589868665</ele>
        <time>2026-08-19T11:07:39Z</time>
      </trkpt>
      <trkpt lat="32.05215109603559" lon="118.80372752851946">
        <ele>8.532275368459523</ele>
        <time>2026-08-19T11:07:51Z</time>
      </trkpt>
      <trkpt lat="32.052042050826245" lon="118.80371551486189">
        <ele>8.405444313772023</ele>
        <time>2026-08-19T11:07:54Z</time>
      </trkpt>
      <trkpt lat="32.05193323729033" lon="118.80383676372767">
        <ele>10.130850960500538</ele>
        <time>2026-08-19T11:08:00Z</time>
      </trkpt>
      <trkpt lat="32.05190732911317" lon="118.80389287674004">
        <ele>10.506053139455616</ele>
        <time>2026-08-19T11:08:03Z</time>
      </trkpt>
      <trkpt lat="32.051888640717586" lon="118.80407423638677">
        <ele>10.109709908254445</ele>
        <time>2026-08-19T11:08:09Z</time>
      </trkpt>
      <trkpt lat="32.05190181132825" lon="118.80417042523483">
        <ele>10.590605904348195</ele>
        <time>2026-08-19T11:08:12Z</time>
      </trkpt>
      <trkpt lat="32.051937985452874" lon="118.80426561013681">
        <ele>10.725360085256398</ele>
        <time>2026-08-19T11:08:15Z</time>
      </trkpt>
      <trkpt lat="32.051989103547626" lon="118.80432672637767">
        <ele>11.991011788137257</ele>
        <time>2026-08-19T11:08:18Z</time>
      </trkpt>
      <trkpt lat="32.05210125281023" lon="118.80439785691229">
        <ele>9.451785256154835</ele>
        <time>2026-08-19T11:08:24Z</time>
      </trkpt>
      <trkpt lat="32.05225031055862" lon="118.8044118709972">
        <ele>10.934100319631398</ele>
        <time>2026-08-19T11:08:30Z</time>
      </trkpt>
      <trkpt lat="32.052549617263544" lon="118.8045491155166">
        <ele>10.63288037944585</ele>
        <time>2026-08-19T11:08:45Z</time>
      </trkpt>
      <trkpt lat="32.05262768549622" lon="118.80457816596305">
        <ele>9.848124672658741</ele>
        <time>2026-08-19T11:08:48Z</time>
      </trkpt>
      <trkpt lat="32.05269379491372" lon="118.80463226721595">
        <ele>7.13186948467046</ele>
        <time>2026-08-19T11:08:51Z</time>
      </trkpt>
      <trkpt lat="32.05282280086511" lon="118.80461922952063">
        <ele>8.458289314992726</ele>
        <time>2026-08-19T11:08:57Z</time>
      </trkpt>
      <trkpt lat="32.05294590195739" lon="118.80466130171015">
        <ele>9.324954201467335</ele>
        <time>2026-08-19T11:09:03Z</time>
      </trkpt>
      <trkpt lat="32.05314898930474" lon="118.80468533077742">
        <ele>8.886340309865773</ele>
        <time>2026-08-19T11:09:12Z</time>
      </trkpt>
      <trkpt lat="32.05327893580178" lon="118.80463822538093">
        <ele>9.398940254934132</ele>
        <time>2026-08-19T11:09:18Z</time>
      </trkpt>
      <trkpt lat="32.0533597960196" lon="118.80454803908884">
        <ele>10.120280434377491</ele>
        <time>2026-08-19T11:09:25Z</time>
      </trkpt>
      <trkpt lat="32.053399624445845" lon="118.80444483088922">
        <ele>9.639388252981007</ele>
        <time>2026-08-19T11:09:28Z</time>
      </trkpt>
      <trkpt lat="32.05340218941761" lon="118.8041953368863">
        <ele>8.365809609182179</ele>
        <time>2026-08-19T11:09:37Z</time>
      </trkpt>
      <trkpt lat="32.05335791757466" lon="118.80404504398889">
        <ele>10.20483319927007</ele>
        <time>2026-08-19T11:09:43Z</time>
      </trkpt>
      <trkpt lat="32.05325267606265" lon="118.80391980646961">
        <ele>10.130850960500538</ele>
        <time>2026-08-19T11:09:49Z</time>
      </trkpt>
      <trkpt lat="32.05314758117492" lon="118.80387873510495">
        <ele>9.35666196513921</ele>
        <time>2026-08-19T11:09:55Z</time>
      </trkpt>
      <trkpt lat="32.053069546361506" lon="118.80386872251871">
        <ele>9.943247963674366</ele>
        <time>2026-08-19T11:09:58Z</time>
      </trkpt>
      <trkpt lat="32.052942411744255" lon="118.80380761371792">
        <ele>9.702799965627491</ele>
        <time>2026-08-19T11:10:04Z</time>
      </trkpt>
      <trkpt lat="32.05285637863863" lon="118.80379960582754">
        <ele>9.858695198781788</ele>
        <time>2026-08-19T11:10:07Z</time>
      </trkpt>
      <trkpt lat="32.05256213023608" lon="118.80369442563648">
        <ele>10.025157143361866</ele>
        <time>2026-08-19T11:10:22Z</time>
      </trkpt>
      <trkpt lat="32.05224288509291" lon="118.80359425778215">
        <ele>10.20483319927007</ele>
        <time>2026-08-19T11:10:37Z</time>
      </trkpt>
      <trkpt lat="32.05203901185589" lon="118.80369347173696">
        <ele>10.014590431936085</ele>
        <time>2026-08-19T11:10:49Z</time>
      </trkpt>
      <trkpt lat="32.05200709177513" lon="118.8037435733278">
        <ele>8.157069374807179</ele>
        <time>2026-08-19T11:10:52Z</time>
      </trkpt>
      <trkpt lat="32.051897194403395" lon="118.80381672754103">
        <ele>8.542842079885304</ele>
        <time>2026-08-19T11:10:55Z</time>
      </trkpt>
      <trkpt lat="32.05185648344928" lon="118.80398806920881">
        <ele>10.078005959279835</ele>
        <time>2026-08-19T11:11:01Z</time>
      </trkpt>
      <trkpt lat="32.05193297034563" lon="118.80425759474139">
        <ele>10.14141767192632</ele>
        <time>2026-08-19T11:11:10Z</time>
      </trkpt>
      <trkpt lat="32.051989098298044" lon="118.80432372042898">
        <ele>10.078005959279835</ele>
        <time>2026-08-19T11:11:13Z</time>
      </trkpt>
      <trkpt lat="32.05209523746519" lon="118.80438984159173">
        <ele>10.162558724172413</ele>
        <time>2026-08-19T11:11:19Z</time>
      </trkpt>
      <trkpt lat="32.05224336679068" lon="118.80444493713078">
        <ele>10.424143959768116</ele>
        <time>2026-08-19T11:11:25Z</time>
      </trkpt>
      <trkpt lat="32.0524043781756" lon="118.80443089454853">
        <ele>10.506053139455616</ele>
        <time>2026-08-19T11:11:34Z</time>
      </trkpt>
      <trkpt lat="32.05271365908382" lon="118.80455210640424">
        <ele>10.484915901906788</ele>
        <time>2026-08-19T11:11:46Z</time>
      </trkpt>
      <trkpt lat="32.05292686088037" lon="118.8046402617061">
        <ele>10.162558724172413</ele>
        <time>2026-08-19T11:11:55Z</time>
      </trkpt>
      <trkpt lat="32.05319494691262" lon="118.80465526689747">
        <ele>8.41601483989507</ele>
        <time>2026-08-19T11:12:07Z</time>
      </trkpt>
      <trkpt lat="32.0532928635009" lon="118.8045951386287">
        <ele>5.35626142192632</ele>
        <time>2026-08-19T11:12:13Z</time>
      </trkpt>
      <trkpt lat="32.05337766158668" lon="118.80446888055198">
        <ele>8.365809609182179</ele>
        <time>2026-08-19T11:12:19Z</time>
      </trkpt>
      <trkpt lat="32.05340631970093" lon="118.80426948314442">
        <ele>10.151988198049366</ele>
        <time>2026-08-19T11:12:25Z</time>
      </trkpt>
      <trkpt lat="32.05337807572208" lon="118.80413321631194">
        <ele>7.85320966411382</ele>
        <time>2026-08-19T11:12:31Z</time>
      </trkpt>
      <trkpt lat="32.053299831340794" lon="118.80400296624211">
        <ele>9.377803017385304</ele>
        <time>2026-08-19T11:12:41Z</time>
      </trkpt>
      <trkpt lat="32.05318159572407" lon="118.80388273988254">
        <ele>8.41601483989507</ele>
        <time>2026-08-19T11:12:44Z</time>
      </trkpt>
      <trkpt lat="32.05312252330677" lon="118.80384867814053">
        <ele>9.974955727346241</ele>
        <time>2026-08-19T11:12:50Z</time>
      </trkpt>
      <trkpt lat="32.05284341059092" lon="118.80381964651276">
        <ele>8.981459786184132</ele>
        <time>2026-08-19T11:13:05Z</time>
      </trkpt>
      <trkpt lat="32.05250014774951" lon="118.80371246684496">
        <ele>9.1162177817896</ele>
        <time>2026-08-19T11:13:20Z</time>
      </trkpt>
      <trkpt lat="32.05228998430115" lon="118.80364535400103">
        <ele>9.317031075246632</ele>
        <time>2026-08-19T11:13:29Z</time>
      </trkpt>
      <trkpt lat="32.052239971409605" lon="118.8036443566252">
        <ele>9.826987435109913</ele>
        <time>2026-08-19T11:13:32Z</time>
      </trkpt>
      <trkpt lat="32.05192111961457" lon="118.80377063452046">
        <ele>10.20483319927007</ele>
        <time>2026-08-19T11:13:44Z</time>
      </trkpt>
      <trkpt lat="32.0518814244702" lon="118.80395099375757">
        <ele>8.822924782522023</ele>
        <time>2026-08-19T11:13:50Z</time>
      </trkpt>
      <trkpt lat="32.05194365648168" lon="118.80407623528947">
        <ele>10.088572670705616</ele>
        <time>2026-08-19T11:13:53Z</time>
      </trkpt>
      <trkpt lat="32.05205233263739" lon="118.80421826511058">
        <ele>9.367232491262257</ele>
        <time>2026-08-19T11:13:56Z</time>
      </trkpt>
      <trkpt lat="32.05206104962621" lon="118.80428664045667">
        <ele>7.91662519145757</ele>
        <time>2026-08-19T11:14:05Z</time>
      </trkpt>
      <trkpt lat="32.05211822508878" lon="118.80437981963942">
        <ele>9.105647255666554</ele>
        <time>2026-08-19T11:14:14Z</time>
      </trkpt>
      <trkpt lat="32.052237326921905" lon="118.80442289402009">
        <ele>9.77414243388921</ele>
        <time>2026-08-19T11:14:20Z</time>
      </trkpt>
      <trkpt lat="32.05236138084645" lon="118.80443791239293">
        <ele>10.693652321584523</ele>
        <time>2026-08-19T11:14:26Z</time>
      </trkpt>
      <trkpt lat="32.052468509818404" lon="118.80449802167071">
        <ele>9.533694435842335</ele>
        <time>2026-08-19T11:14:32Z</time>
      </trkpt>
      <trkpt lat="32.05275572630401" lon="118.80458516810873">
        <ele>10.611743141897023</ele>
        <time>2026-08-19T11:14:44Z</time>
      </trkpt>
      <trkpt lat="32.0529429083072" lon="118.80466530993907">
        <ele>5.08410566020757</ele>
        <time>2026-08-19T11:14:53Z</time>
      </trkpt>
      <trkpt lat="32.053132994514556" lon="118.8046903421913">
        <ele>10.276175667531788</ele>
        <time>2026-08-19T11:15:02Z</time>
      </trkpt>
      <trkpt lat="32.0532559569933" lon="118.80465325731514">
        <ele>5.628413368947804</ele>
        <time>2026-08-19T11:15:08Z</time>
      </trkpt>
      <trkpt lat="32.053347802111745" lon="118.80455305012431">
        <ele>9.607680489309132</ele>
        <time>2026-08-19T11:15:14Z</time>
      </trkpt>
      <trkpt lat="32.05341654767623" lon="118.80439873804104">
        <ele>8.34467237163335</ele>
        <time>2026-08-19T11:15:20Z</time>
      </trkpt>
      <trkpt lat="32.05343042126682" lon="118.80432458997456">
        <ele>9.62881772685796</ele>
        <time>2026-08-19T11:15:23Z</time>
      </trkpt>
      <trkpt lat="32.053425192792425" lon="118.80419433279151">
        <ele>9.795279671438038</ele>
        <time>2026-08-19T11:15:29Z</time>
      </trkpt>
      <trkpt lat="32.05339704152058" lon="118.80411117101342">
        <ele>9.723941017873585</ele>
        <time>2026-08-19T11:15:32Z</time>
      </trkpt>
      <trkpt lat="32.05328975059045" lon="118.80395787818138">
        <ele>10.484915901906788</ele>
        <time>2026-08-19T11:15:39Z</time>
      </trkpt>
      <trkpt lat="32.05322966919471" lon="118.80391880660736">
        <ele>7.184714485891163</ele>
        <time>2026-08-19T11:15:42Z</time>
      </trkpt>
      <trkpt lat="32.053157646177745" lon="118.80391480532022">
        <ele>8.051379372365773</ele>
        <time>2026-08-19T11:15:45Z</time>
      </trkpt>
      <trkpt lat="32.05305449595424" lon="118.80384167056519">
        <ele>9.943247963674366</ele>
        <time>2026-08-19T11:15:51Z</time>
      </trkpt>
      <trkpt lat="32.05290238017916" lon="118.80379459172777">
        <ele>9.83755796123296</ele>
        <time>2026-08-19T11:15:57Z</time>
      </trkpt>
      <trkpt lat="32.05267630889893" lon="118.80378258881119">
        <ele>9.723941017873585</ele>
        <time>2026-08-19T11:16:09Z</time>
      </trkpt>
      <trkpt lat="32.052585152772785" lon="118.8037044432492">
        <ele>10.035727669484913</ele>
        <time>2026-08-19T11:16:12Z</time>
      </trkpt>
      <trkpt lat="32.0523139670336" lon="118.80363232616322">
        <ele>7.475363899953663</ele>
        <time>2026-08-19T11:16:24Z</time>
      </trkpt>
      <trkpt lat="32.05218890609895" lon="118.80361330019645">
        <ele>9.544264961965382</ele>
        <time>2026-08-19T11:16:30Z</time>
      </trkpt>
      <trkpt lat="32.05199907083445" lon="118.80373255235666">
        <ele>10.9869453208521</ele>
        <time>2026-08-19T11:16:39Z</time>
      </trkpt>
      <trkpt lat="32.051912338947396" lon="118.80389788615999">
        <ele>8.854632546193898</ele>
        <time>2026-08-19T11:16:48Z</time>
      </trkpt>
      <trkpt lat="32.0518934602963" lon="118.80397003021713">
        <ele>9.681662728078663</ele>
        <time>2026-08-19T11:16:51Z</time>
      </trkpt>
      <trkpt lat="32.05189358421333" lon="118.80404117063468">
        <ele>10.569468666799366</ele>
        <time>2026-08-19T11:16:54Z</time>
      </trkpt>
      <trkpt lat="32.05197503918706" lon="118.80429165827205">
        <ele>10.276175667531788</ele>
        <time>2026-08-19T11:17:03Z</time>
      </trkpt>
      <trkpt lat="32.05202619581265" lon="118.80437481817584">
        <ele>10.9050361411646</ele>
        <time>2026-08-19T11:17:06Z</time>
      </trkpt>
      <trkpt lat="32.05210930712761" lon="118.80442791570613">
        <ele>10.067435433156788</ele>
        <time>2026-08-19T11:17:09Z</time>
      </trkpt>
      <trkpt lat="32.05244250577323" lon="118.80449902604583">
        <ele>8.55341260600835</ele>
        <time>2026-08-19T11:17:24Z</time>
      </trkpt>
      <trkpt lat="32.05264370484438" lon="118.80458718237581">
        <ele>8.083087136037648</ele>
        <time>2026-08-19T11:17:33Z</time>
      </trkpt>
      <trkpt lat="32.05285378672767" lon="118.8046072028216">
        <ele>10.392436196096241</ele>
        <time>2026-08-19T11:17:42Z</time>
      </trkpt>
      <trkpt lat="32.05302494412722" lon="118.80467532228735">
        <ele>9.723941017873585</ele>
        <time>2026-08-19T11:17:48Z</time>
      </trkpt>
      <trkpt lat="32.05320896582251" lon="118.8046642835051">
        <ele>9.533694435842335</ele>
        <time>2026-08-19T11:17:57Z</time>
      </trkpt>
      <trkpt lat="32.053342813269744" lon="118.80456006449016">
        <ele>3.4749633567407727</ele>
        <time>2026-08-19T11:18:00Z</time>
      </trkpt>
      <trkpt lat="32.05341062514439" lon="118.80444382789342">
        <ele>9.943247963674366</ele>
        <time>2026-08-19T11:18:03Z</time>
      </trkpt>
      <trkpt lat="32.05343227652349" lon="118.80424142526431">
        <ele>9.504630257375538</ele>
        <time>2026-08-19T11:18:09Z</time>
      </trkpt>
      <trkpt lat="32.053408148805644" lon="118.80417128879958">
        <ele>9.766215492971241</ele>
        <time>2026-08-19T11:18:12Z</time>
      </trkpt>
      <trkpt lat="32.053276738971554" lon="118.80395286949168">
        <ele>7.7686568992212415</ele>
        <time>2026-08-19T11:18:24Z</time>
      </trkpt>
      <trkpt lat="32.05313051986014" lon="118.80384567147975">
        <ele>9.964385201223195</ele>
        <time>2026-08-19T11:18:31Z</time>
      </trkpt>
      <trkpt lat="32.05286542420755" lon="118.80382465436419">
        <ele>9.660525490529835</ele>
        <time>2026-08-19T11:18:46Z</time>
      </trkpt>
      <trkpt lat="32.05257722238074" lon="118.80374552488202">
        <ele>9.649954964406788</ele>
        <time>2026-08-19T11:19:01Z</time>
      </trkpt>
      <trkpt lat="32.05239709692704" lon="118.80369644474828">
        <ele>9.533694435842335</ele>
        <time>2026-08-19T11:19:10Z</time>
      </trkpt>
      <trkpt lat="32.05225292733216" lon="118.80361730219873">
        <ele>9.063372780568898</ele>
        <time>2026-08-19T11:19:16Z</time>
      </trkpt>
      <trkpt lat="32.05219489178118" lon="118.8036042819044">
        <ele>9.317031075246632</ele>
        <time>2026-08-19T11:19:19Z</time>
      </trkpt>
      <trkpt lat="32.05207593308827" lon="118.80364336972806">
        <ele>10.548327614553273</ele>
        <time>2026-08-19T11:19:25Z</time>
      </trkpt>
      <trkpt lat="32.05197303369159" lon="118.80371451923119">
        <ele>8.688166786916554</ele>
        <time>2026-08-19T11:19:31Z</time>
      </trkpt>
      <trkpt lat="32.05185838619483" lon="118.80393195831495">
        <ele>9.084510018117726</ele>
        <time>2026-08-19T11:19:40Z</time>
      </trkpt>
      <trkpt lat="32.05185852054495" lon="118.80400911055453">
        <ele>9.713370491750538</ele>
        <time>2026-08-19T11:19:43Z</time>
      </trkpt>
      <trkpt lat="32.05194788276857" lon="118.80420549033087">
        <ele>7.91662519145757</ele>
        <time>2026-08-19T11:19:49Z</time>
      </trkpt>
      <trkpt lat="32.05200399842871" lon="118.80426460208915">
        <ele>9.943247963674366</ele>
        <time>2026-08-19T11:19:52Z</time>
      </trkpt>
      <trkpt lat="32.052299354759946" lon="118.80443090419836">
        <ele>6.180651833303273</ele>
        <time>2026-08-19T11:20:07Z</time>
      </trkpt>
      <trkpt lat="32.05251352335667" lon="118.80450002150647">
        <ele>8.928614784963429</ele>
        <time>2026-08-19T11:20:16Z</time>
      </trkpt>
      <trkpt lat="32.05261663570701" lon="118.8045511133322">
        <ele>8.949752022512257</ele>
        <time>2026-08-19T11:20:22Z</time>
      </trkpt>
      <trkpt lat="32.05294188001221" lon="118.80464927821967">
        <ele>9.367232491262257</ele>
        <time>2026-08-19T11:20:35Z</time>
      </trkpt>
      <trkpt lat="32.053088942595714" lon="118.80466629850991">
        <ele>14.207877327688038</ele>
        <time>2026-08-19T11:20:41Z</time>
      </trkpt>
      <trkpt lat="32.05323292029158" lon="118.80463522364475">
        <ele>8.447722603566945</ele>
        <time>2026-08-19T11:20:47Z</time>
      </trkpt>
      <trkpt lat="32.053223793773384" lon="118.80456408337353">
        <ele>8.312964607961476</ele>
        <time>2026-08-19T11:20:50Z</time>
      </trkpt>
      <trkpt lat="32.0532536392205" lon="118.80447189790401">
        <ele>8.656459023244679</ele>
        <time>2026-08-19T11:20:53Z</time>
      </trkpt>
      <trkpt lat="32.05322483903333" lon="118.80475148815643">
        <ele>9.21133725810796</ele>
        <time>2026-08-19T11:20:59Z</time>
      </trkpt>
      <trkpt lat="32.05342408072655" lon="118.80413020614455">
        <ele>9.755644966848195</ele>
        <time>2026-08-19T11:21:08Z</time>
      </trkpt>
      <trkpt lat="32.053375893651875" lon="118.80402901068231">
        <ele>10.445281197316945</ele>
        <time>2026-08-19T11:21:11Z</time>
      </trkpt>
      <trkpt lat="32.053309765513696" lon="118.80396388820512">
        <ele>20.430434395559132</ele>
        <time>2026-08-19T11:21:14Z</time>
      </trkpt>
      <trkpt lat="32.05325370419251" lon="118.80393583800118">
        <ele>7.987963845022023</ele>
        <time>2026-08-19T11:21:17Z</time>
      </trkpt>
      <trkpt lat="32.05322059220833" lon="118.80387572246808">
        <ele>8.41601483989507</ele>
        <time>2026-08-19T11:21:20Z</time>
      </trkpt>
      <trkpt lat="32.05308542270137" lon="118.80379557688099">
        <ele>8.84406202007085</ele>
        <time>2026-08-19T11:21:23Z</time>
      </trkpt>
      <trkpt lat="32.053199803772" lon="118.80366270490607">
        <ele>9.00259702373296</ele>
        <time>2026-08-19T11:21:29Z</time>
      </trkpt>
      <trkpt lat="32.05293423028302" lon="118.80378631430682">
        <ele>9.232478310354054</ele>
        <time>2026-08-19T11:21:35Z</time>
      </trkpt>
      <trkpt lat="32.05284036810332" lon="118.80379559940094">
        <ele>6.088172127492726</ele>
        <time>2026-08-19T11:21:41Z</time>
      </trkpt>
      <trkpt lat="32.052567162687836" lon="118.80371246068643">
        <ele>8.76215284038335</ele>
        <time>2026-08-19T11:21:56Z</time>
      </trkpt>
      <trkpt lat="32.05225089557411" lon="118.80359926690166">
        <ele>7.517642189748585</ele>
        <time>2026-08-19T11:22:11Z</time>
      </trkpt>
      <trkpt lat="32.052170858597904" lon="118.80358825257511">
        <ele>9.253615547902882</ele>
        <time>2026-08-19T11:22:14Z</time>
      </trkpt>
      <trkpt lat="32.052103881920075" lon="118.8036103020959">
        <ele>8.238982369191945</ele>
        <time>2026-08-19T11:22:17Z</time>
      </trkpt>
      <trkpt lat="32.052038956157816" lon="118.8036614086231">
        <ele>9.430648018606007</ele>
        <time>2026-08-19T11:22:20Z</time>
      </trkpt>
      <trkpt lat="32.051928215261256" lon="118.80382474048912">
        <ele>9.525767494924366</ele>
        <time>2026-08-19T11:22:26Z</time>
      </trkpt>
      <trkpt lat="32.051885432340924" lon="118.80395500129733">
        <ele>10.056864907033741</ele>
        <time>2026-08-19T11:22:29Z</time>
      </trkpt>
      <trkpt lat="32.05190462682533" lon="118.80406421512872">
        <ele>10.329020668752491</ele>
        <time>2026-08-19T11:22:32Z</time>
      </trkpt>
      <trkpt lat="32.05202203217947" lon="118.80428163412981">
        <ele>9.27475278545171</ele>
        <time>2026-08-19T11:22:38Z</time>
      </trkpt>
      <trkpt lat="32.05207916037611" lon="118.80434775975115">
        <ele>9.56540219951421</ele>
        <time>2026-08-19T11:22:41Z</time>
      </trkpt>
      <trkpt lat="32.05221532026383" lon="118.80442189405748">
        <ele>7.4965011375024915</ele>
        <time>2026-08-19T11:22:50Z</time>
      </trkpt>
      <trkpt lat="32.052282356222676" lon="118.80443391171457">
        <ele>10.506053139455616</ele>
        <time>2026-08-19T11:22:53Z</time>
      </trkpt>
      <trkpt lat="32.052479550824856" lon="118.80452006434838">
        <ele>7.874346901662648</ele>
        <time>2026-08-19T11:23:05Z</time>
      </trkpt>
      <trkpt lat="32.05251962284613" lon="118.8045561321794">
        <ele>9.441214730031788</ele>
        <time>2026-08-19T11:23:08Z</time>
      </trkpt>
      <trkpt lat="32.05289684191495" lon="118.80463325054795">
        <ele>10.056864907033741</ele>
        <time>2026-08-19T11:23:24Z</time>
      </trkpt>
      <trkpt lat="32.05310198585253" lon="118.80468934305149">
        <ele>7.27719419170171</ele>
        <time>2026-08-19T11:23:30Z</time>
      </trkpt>
      <trkpt lat="32.0532538881347" lon="118.80461417997316">
        <ele>9.723941017873585</ele>
        <time>2026-08-19T11:23:36Z</time>
      </trkpt>
      <trkpt lat="32.05331679871255" lon="118.8045550569465">
        <ele>9.869265724904835</ele>
        <time>2026-08-19T11:23:39Z</time>
      </trkpt>
      <trkpt lat="32.05339054888883" lon="118.80440274836718">
        <ele>8.949752022512257</ele>
        <time>2026-08-19T11:23:45Z</time>
      </trkpt>
      <trkpt lat="32.05340742489345" lon="118.80432960200324">
        <ele>2.7853271262720227</ele>
        <time>2026-08-19T11:23:48Z</time>
      </trkpt>
      <trkpt lat="32.05339317867306" lon="118.80419032780955">
        <ele>8.42658155132085</ele>
        <time>2026-08-19T11:23:54Z</time>
      </trkpt>
      <trkpt lat="32.053311903836324" lon="118.80404304426021">
        <ele>7.1424361960962415</ele>
        <time>2026-08-19T11:24:03Z</time>
      </trkpt>
      <trkpt lat="32.053264837506624" lon="118.80401098528127">
        <ele>8.645892311818898</ele>
        <time>2026-08-19T11:24:06Z</time>
      </trkpt>
      <trkpt lat="32.05319161887554" lon="118.80389476267327">
        <ele>8.751582314260304</ele>
        <time>2026-08-19T11:24:09Z</time>
      </trkpt>
      <trkpt lat="32.0530675005939" lon="118.80384267134531">
        <ele>8.688166786916554</ele>
        <time>2026-08-19T11:24:21Z</time>
      </trkpt>
      <trkpt lat="32.05285945249835" lon="118.80384168848906">
        <ele>8.783290077932179</ele>
        <time>2026-08-19T11:24:27Z</time>
      </trkpt>
      <trkpt lat="32.05271025725539" lon="118.80374851857735">
        <ele>8.656459023244679</ele>
        <time>2026-08-19T11:24:36Z</time>
      </trkpt>
      <trkpt lat="32.052577206707326" lon="118.80373650712166">
        <ele>8.542842079885304</ele>
        <time>2026-08-19T11:24:42Z</time>
      </trkpt>
      <trkpt lat="32.052496099853926" lon="118.80368541395039">
        <ele>2.3282157676294446</ele>
        <time>2026-08-19T11:24:48Z</time>
      </trkpt>
    </trkseg>
  </trk>
</gpx>