<?xml version="1.0" encoding="UTF-8"?>
<gpx xmlns="http://www.topografix.com/GPX/1/1" xmlns:gpxtpx="http://www.garmin.com/xmlschemas/TrackPointExtension/v1" xmlns:xsi="http://www.w3.org/2001/XMLSchema-instance" xsi:schemaLocation="http://www.topografix.com/GPX/1/1 http://www.topografix.com/GPX/1/1/gpx.xsd" version="1.1" creator="gpx.py -- https://github.com/tkrajina/gpxpy">
  <trk>
    <name>gpx from keep</name>
    <type>Run</type>
    <trkseg>
      <trkpt lat="31.230060364346897" lon="121.40042991179125">
        <ele>23.682686331681907</ele>
        <time>2026-07-16T10:09:22Z</time>
      </trkpt>
      <trkpt lat="31.230402194231896" lon="121.40033186669643">
        <ele>25.29975939076394</ele>
        <time>2026-07-16T10:09:22Z</time>
      </trkpt>
      <trkpt lat="31.230670059054745" lon="121.40023482870645">
        <ele>25.775368216447532</ele>
        <time>2026-07-16T10:09:22Z</time>
      </trkpt>
      <trkpt lat="31.231004894176156" lon="121.40014578651582">
        <ele>24.607483389787376</ele>
        <time>2026-07-16T10:09:22Z</time>
      </trkpt>
      <trkpt lat="31.231128825393675" lon="121.40003676037168">
        <ele>25.31032610218972</ele>
        <time>2026-07-16T10:09:22Z</time>
      </trkpt>
      <trkpt lat="31.23120877434811" lon="121.3998947343582">
        <ele>20.057487967424095</ele>
        <time>2026-07-16T10:09:22Z</time>
      </trkpt>
      <trkpt lat="31.231225759626238" lon="121.39982172350085">
        <ele>24.470085623674095</ele>
        <time>2026-07-16T10:09:22Z</time>
      </trkpt>
      <trkpt lat="31.231219745009714" lon="121.39962370000406">
        <ele>24.081673148088157</ele>
        <time>2026-07-16T10:09:22Z</time>
      </trkpt>
      <trkpt lat="31.23120274530939" lon="121.39953069091426">
        <ele>25.0381779698655</ele>
        <time>2026-07-16T10:09:22Z</time>
      </trkpt>
      <trkpt lat="31.231092783681643" lon="121.39936468276206">
        <ele>24.816223624162376</ele>
        <time>2026-07-16T10:09:22Z</time>
      </trkpt>
      <trkpt lat="31.23102081341207" lon="121.39931368387862">
        <ele>18.532898428849876</ele>
        <time>2026-07-16T10:09:22Z</time>
      </trkpt>
      <trkpt lat="31.230730946381815" lon="121.39929370717664">
        <ele>24.049965384416282</ele>
        <time>2026-07-16T10:09:22Z</time>
      </trkpt>
      <trkpt lat="31.23045608082072" lon="121.3993917410887">
        <ele>24.21907091420144</ele>
        <time>2026-07-16T10:09:22Z</time>
      </trkpt>
      <trkpt lat="31.23012724134997" lon="121.39949678097696">
        <ele>24.660332205705345</ele>
        <time>2026-07-16T10:09:22Z</time>
      </trkpt>
      <trkpt lat="31.230000302400164" lon="121.39952379502401">
        <ele>24.240211966447532</ele>
        <time>2026-07-16T10:09:22Z</time>
      </trkpt>
      <trkpt lat="31.22987336830833" lon="121.39960981582551">
        <ele>23.8306584386155</ele>
        <time>2026-07-16T10:09:22Z</time>
      </trkpt>
      <trkpt lat="31.229763430609438" lon="121.39974084098125">
        <ele>22.50423479359597</ele>
        <time>2026-07-16T10:09:22Z</time>
      </trkpt>
      <trkpt lat="31.229724461183697" lon="121.39987686149392">
        <ele>10.775177481584251</ele>
        <time>2026-07-16T10:09:22Z</time>
      </trkpt>
      <trkpt lat="31.229743467263212" lon="121.40002888011256">
        <ele>23.997116568498313</ele>
        <time>2026-07-16T10:09:22Z</time>
      </trkpt>
      <trkpt lat="31.22980645307469" lon="121.40017289494772">
        <ele>19.764198782853782</ele>
        <time>2026-07-16T10:09:22Z</time>
      </trkpt>
      <trkpt lat="31.229892425276287" lon="121.40028290371232">
        <ele>24.081673148088157</ele>
        <time>2026-07-16T10:09:22Z</time>
      </trkpt>
      <trkpt lat="31.23002737399061" lon="121.40038190712262">
        <ele>16.915825369767845</ele>
        <time>2026-07-16T10:09:22Z</time>
      </trkpt>
      <trkpt lat="31.230172307413678" lon="121.40038789541724">
        <ele>22.853012564592063</ele>
        <time>2026-07-16T10:09:22Z</time>
      </trkpt>
      <trkpt lat="31.230474156740385" lon="121.40029585493384">
        <ele>24.744881155900657</ele>
        <time>2026-07-16T10:09:22Z</time>
      </trkpt>
      <trkpt lat="31.230770010728357" lon="121.40021681732836">
        <ele>23.912567618303</ele>
        <time>2026-07-16T10:09:22Z</time>
      </trkpt>
      <trkpt lat="31.231050869798313" lon="121.40011677836482">
        <ele>23.481873038224876</ele>
        <time>2026-07-16T10:09:22Z</time>
      </trkpt>
      <trkpt lat="31.231119831605373" lon="121.40005676392295">
        <ele>20.08919573109597</ele>
        <time>2026-07-16T10:09:22Z</time>
      </trkpt>
      <trkpt lat="31.2312347532586" lon="121.39979771969504">
        <ele>23.682686331681907</ele>
        <time>2026-07-16T10:09:22Z</time>
      </trkpt>
      <trkpt lat="31.231217746437295" lon="121.39962970087608">
        <ele>23.452812674455345</ele>
        <time>2026-07-16T10:09:22Z</time>
      </trkpt>
      <trkpt lat="31.231109780733124" lon="121.3994316882673">
        <ele>23.072327139787376</ele>
        <time>2026-07-16T10:09:22Z</time>
      </trkpt>
      <trkpt lat="31.231033810790287" lon="121.39936168759888">
        <ele>24.470085623674095</ele>
        <time>2026-07-16T10:09:22Z</time>
      </trkpt>
      <trkpt lat="31.230897869762234" lon="121.39930469370624">
        <ele>23.524155142717063</ele>
        <time>2026-07-16T10:09:22Z</time>
      </trkpt>
      <trkpt lat="31.230754935743" lon="121.39930070577711">
        <ele>24.071106436662376</ele>
        <time>2026-07-16T10:09:22Z</time>
      </trkpt>
      <trkpt lat="31.23053504130016" lon="121.39935173008483">
        <ele>24.208504202775657</ele>
        <time>2026-07-16T10:09:22Z</time>
      </trkpt>
      <trkpt lat="31.230492063035808" lon="121.39937673639659">
        <ele>23.598137381486595</ele>
        <time>2026-07-16T10:09:22Z</time>
      </trkpt>
      <trkpt lat="31.23034413378747" lon="121.39940575231411">
        <ele>23.880859854631126</ele>
        <time>2026-07-16T10:09:22Z</time>
      </trkpt>
      <trkpt lat="31.23019420756801" lon="121.39946177133665">
        <ele>23.42903185170144</ele>
        <time>2026-07-16T10:09:22Z</time>
      </trkpt>
      <trkpt lat="31.230100252252516" lon="121.39947578104399">
        <ele>23.135735037736595</ele>
        <time>2026-07-16T10:09:22Z</time>
      </trkpt>
      <trkpt lat="31.22984538247065" lon="121.3996238198872">
        <ele>23.545288565568626</ele>
        <time>2026-07-16T10:09:22Z</time>
      </trkpt>
      <trkpt lat="31.229787415175768" lon="121.39969183296122">
        <ele>21.48696184437722</ele>
        <time>2026-07-16T10:09:22Z</time>
      </trkpt>
      <trkpt lat="31.22972345873451" lon="121.39984585759503">
        <ele>24.29305315297097</ele>
        <time>2026-07-16T10:09:22Z</time>
      </trkpt>
      <trkpt lat="31.22970848331233" lon="121.40002688288938">
        <ele>23.135735037736595</ele>
        <time>2026-07-16T10:09:22Z</time>
      </trkpt>
      <trkpt lat="31.229798463999515" lon="121.40023890532638">
        <ele>23.841225150041282</ele>
        <time>2026-07-16T10:09:22Z</time>
      </trkpt>
      <trkpt lat="31.229859443880997" lon="121.40031191098282">
        <ele>23.912567618303</ele>
        <time>2026-07-16T10:09:22Z</time>
      </trkpt>
      <trkpt lat="31.229934414588094" lon="121.40035991181293">
        <ele>19.238380911760032</ele>
        <time>2026-07-16T10:09:22Z</time>
      </trkpt>
      <trkpt lat="31.230182305366277" lon="121.40040989799576">
        <ele>22.401184561662376</ele>
        <time>2026-07-16T10:09:22Z</time>
      </trkpt>
      <trkpt lat="31.23022529539022" lon="121.40049290749333">
        <ele>19.457695486955345</ele>
        <time>2026-07-16T10:09:22Z</time>
      </trkpt>
      <trkpt lat="31.230443175909695" lon="121.40033786404257">
        <ele>23.50301409047097</ele>
        <time>2026-07-16T10:09:22Z</time>
      </trkpt>
      <trkpt lat="31.230643076363283" lon="121.40027783748214">
        <ele>20.329643729142845</ele>
        <time>2026-07-16T10:09:22Z</time>
      </trkpt>
      <trkpt lat="31.230842974499502" lon="121.40019480773654">
        <ele>21.3706975011155</ele>
        <time>2026-07-16T10:09:22Z</time>
      </trkpt>
      <trkpt lat="31.231023879684617" lon="121.40009177718518">
        <ele>20.802612784318626</ele>
        <time>2026-07-16T10:09:22Z</time>
      </trkpt>
      <trkpt lat="31.23121576620276" lon="121.39984272704103">
        <ele>23.912567618303</ele>
        <time>2026-07-16T10:09:22Z</time>
      </trkpt>
      <trkpt lat="31.231221746099735" lon="121.3996477026316">
        <ele>23.735535147599876</ele>
        <time>2026-07-16T10:09:22Z</time>
      </trkpt>
      <trkpt lat="31.231166757449895" lon="121.39947268768947">
        <ele>20.876595023088157</ele>
        <time>2026-07-16T10:09:22Z</time>
      </trkpt>
      <trkpt lat="31.231088785534048" lon="121.39936468311082">
        <ele>21.790817740373313</ele>
        <time>2026-07-16T10:09:22Z</time>
      </trkpt>
      <trkpt lat="31.23095584331066" lon="121.39931068924658">
        <ele>23.251999380998313</ele>
        <time>2026-07-16T10:09:22Z</time>
      </trkpt>
      <trkpt lat="31.230878878287573" lon="121.3993006949657">
        <ele>20.057487967424095</ele>
        <time>2026-07-16T10:09:22Z</time>
      </trkpt>
      <trkpt lat="31.23059501441788" lon="121.39936472618207">
        <ele>23.42903185170144</ele>
        <time>2026-07-16T10:09:22Z</time>
      </trkpt>
      <trkpt lat="31.23044908443307" lon="121.39939674221942">
        <ele>22.8318791417405</ele>
        <time>2026-07-16T10:09:22Z</time>
      </trkpt>
      <trkpt lat="31.230323141767936" lon="121.39938175164774">
        <ele>23.315414908342063</ele>
        <time>2026-07-16T10:09:22Z</time>
      </trkpt>
      <trkpt lat="31.23004527647257" lon="121.3994587840048">
        <ele>20.707489493303</ele>
        <time>2026-07-16T10:09:22Z</time>
      </trkpt>
      <trkpt lat="31.229894351519732" lon="121.39952280415487">
        <ele>23.051186087541282</ele>
        <time>2026-07-16T10:09:22Z</time>
      </trkpt>
      <trkpt lat="31.229772416779742" lon="121.39962882683298">
        <ele>23.051186087541282</ele>
        <time>2026-07-16T10:09:22Z</time>
      </trkpt>
      <trkpt lat="31.22970446122499" lon="121.39977685056044">
        <ele>23.082893851213157</ele>
        <time>2026-07-16T10:09:22Z</time>
      </trkpt>
      <trkpt lat="31.229686477978998" lon="121.3998678636445">
        <ele>23.35768938343972</ele>
        <time>2026-07-16T10:09:22Z</time>
      </trkpt>
      <trkpt lat="31.229694490727024" lon="121.40003588534756">
        <ele>23.15687608998269</ele>
        <time>2026-07-16T10:09:22Z</time>
      </trkpt>
      <trkpt lat="31.229719490042662" lon="121.40014089792133">
        <ele>23.135735037736595</ele>
        <time>2026-07-16T10:09:22Z</time>
      </trkpt>
      <trkpt lat="31.229758477307872" lon="121.40019090175021">
        <ele>23.56642961781472</ele>
        <time>2026-07-16T10:09:22Z</time>
      </trkpt>
      <trkpt lat="31.22978747166477" lon="121.40026190971297">
        <ele>22.726189139299095</ele>
        <time>2026-07-16T10:09:22Z</time>
      </trkpt>
      <trkpt lat="31.229886435016684" lon="121.40034391352803">
        <ele>23.872932913713157</ele>
        <time>2026-07-16T10:09:22Z</time>
      </trkpt>
      <trkpt lat="31.23006535741208" lon="121.40039090521515">
        <ele>23.35768938343972</ele>
        <time>2026-07-16T10:09:22Z</time>
      </trkpt>
      <trkpt lat="31.230362211292512" lon="121.40031886819531">
        <ele>23.954842093400657</ele>
        <time>2026-07-16T10:09:22Z</time>
      </trkpt>
      <trkpt lat="31.23063507583049" lon="121.40023983249972">
        <ele>24.55464220326394</ele>
        <time>2026-07-16T10:09:22Z</time>
      </trkpt>
      <trkpt lat="31.230902940149395" lon="121.4001337936905">
        <ele>21.590004446916282</ele>
        <time>2026-07-16T10:09:22Z</time>
      </trkpt>
      <trkpt lat="31.230972906242023" lon="121.40011978559183">
        <ele>20.992851736955345</ele>
        <time>2026-07-16T10:09:22Z</time>
      </trkpt>
      <trkpt lat="31.231027877103678" lon="121.40008477585286">
        <ele>22.88472032826394</ele>
        <time>2026-07-16T10:09:22Z</time>
      </trkpt>
      <trkpt lat="31.23114580688711" lon="121.39992974444533">
        <ele>20.35078478138894</ele>
        <time>2026-07-16T10:09:22Z</time>
      </trkpt>
      <trkpt lat="31.23119077546251" lon="121.39981772604689">
        <ele>22.683907034806907</ele>
        <time>2026-07-16T10:09:22Z</time>
      </trkpt>
      <trkpt lat="31.23120276048457" lon="121.39971271202855">
        <ele>23.735535147599876</ele>
        <time>2026-07-16T10:09:22Z</time>
      </trkpt>
      <trkpt lat="31.231157766065998" lon="121.39952969472658">
        <ele>23.251999380998313</ele>
        <time>2026-07-16T10:09:22Z</time>
      </trkpt>
      <trkpt lat="31.231120776542127" lon="121.39944368858455">
        <ele>23.15687608998269</ele>
        <time>2026-07-16T10:09:22Z</time>
      </trkpt>
      <trkpt lat="31.23097283627466" lon="121.39932268896457">
        <ele>22.673340323381126</ele>
        <time>2026-07-16T10:09:22Z</time>
      </trkpt>
      <trkpt lat="31.23075593248023" lon="121.39925970166757">
        <ele>22.779030325822532</ele>
        <time>2026-07-16T10:09:22Z</time>
      </trkpt>
      <trkpt lat="31.23070195947779" lon="121.3992887092117">
        <ele>22.30606127064675</ele>
        <time>2026-07-16T10:09:22Z</time>
      </trkpt>
      <trkpt lat="31.23038511135234" lon="121.39935874387722">
        <ele>21.36013078968972</ele>
        <time>2026-07-16T10:09:22Z</time>
      </trkpt>
      <trkpt lat="31.230133235792188" lon="121.39946077654743">
        <ele>23.69326067250222</ele>
        <time>2026-07-16T10:09:22Z</time>
      </trkpt>
      <trkpt lat="31.229903352898464" lon="121.39959181114155">
        <ele>24.02882433217019</ele>
        <time>2026-07-16T10:09:22Z</time>
      </trkpt>
      <trkpt lat="31.229748439176944" lon="121.39975884449815">
        <ele>22.95870256703347</ele>
        <time>2026-07-16T10:09:22Z</time>
      </trkpt>
      <trkpt lat="31.22972347103955" lon="121.39997387437973">
        <ele>23.34712267201394</ele>
        <time>2026-07-16T10:09:22Z</time>
      </trkpt>
      <trkpt lat="31.229745478609043" lon="121.40014689651507">
        <ele>22.969276907853782</ele>
        <time>2026-07-16T10:09:22Z</time>
      </trkpt>
      <trkpt lat="31.229774472936874" lon="121.40021890446094">
        <ele>23.23085832875222</ele>
        <time>2026-07-16T10:09:22Z</time>
      </trkpt>
      <trkpt lat="31.22987542925142" lon="121.40024789995101">
        <ele>23.199150565080345</ele>
        <time>2026-07-16T10:09:22Z</time>
      </trkpt>
      <trkpt lat="31.229949402105046" lon="121.40031190313613">
        <ele>23.072327139787376</ele>
        <time>2026-07-16T10:09:22Z</time>
      </trkpt>
      <trkpt lat="31.229996381662264" lon="121.4003239008693">
        <ele>22.874153616838157</ele>
        <time>2026-07-16T10:09:22Z</time>
      </trkpt>
      <trkpt lat="31.23008134940095" lon="121.40038590303877">
        <ele>23.336548331193626</ele>
        <time>2026-07-16T10:09:22Z</time>
      </trkpt>
      <trkpt lat="31.230350219267066" lon="121.40033987245832">
        <ele>23.241432669572532</ele>
        <time>2026-07-16T10:09:22Z</time>
      </trkpt>
      <trkpt lat="31.230612088939044" lon="121.40026183778416">
        <ele>23.336548331193626</ele>
        <time>2026-07-16T10:09:22Z</time>
      </trkpt>
      <trkpt lat="31.230678055125914" lon="121.40023282771261">
        <ele>23.23085832875222</ele>
        <time>2026-07-16T10:09:22Z</time>
      </trkpt>
      <trkpt lat="31.230769011411322" lon="121.40021881771018">
        <ele>23.37618303578347</ele>
        <time>2026-07-16T10:09:22Z</time>
      </trkpt>
      <trkpt lat="31.230912937967794" lon="121.40015679611922">
        <ele>23.061752798967063</ele>
        <time>2026-07-16T10:09:22Z</time>
      </trkpt>
      <trkpt lat="31.231135816821233" lon="121.39998375253161">
        <ele>23.16744280140847</ele>
        <time>2026-07-16T10:09:22Z</time>
      </trkpt>
      <trkpt lat="31.23122575597231" lon="121.39978171848247">
        <ele>23.619270804338157</ele>
        <time>2026-07-16T10:09:22Z</time>
      </trkpt>
      <trkpt lat="31.2312247499495" lon="121.39970870962763">
        <ele>18.828835013322532</ele>
        <time>2026-07-16T10:09:22Z</time>
      </trkpt>
      <trkpt lat="31.23120375460273" lon="121.39964970443589">
        <ele>23.650978568010032</ele>
        <time>2026-07-16T10:09:22Z</time>
      </trkpt>
      <trkpt lat="31.231151774834288" lon="121.39960370362112">
        <ele>23.325981619767845</ele>
        <time>2026-07-16T10:09:22Z</time>
      </trkpt>
      <trkpt lat="31.231074798146903" lon="121.3994476930224">
        <ele>20.707489493303</ele>
        <time>2026-07-16T10:09:22Z</time>
      </trkpt>
      <trkpt lat="31.230915864019973" lon="121.39934169585014">
        <ele>22.126389029435813</ele>
        <time>2026-07-16T10:09:22Z</time>
      </trkpt>
      <trkpt lat="31.230828902147447" lon="121.39931070031957">
        <ele>24.28248644154519</ele>
        <time>2026-07-16T10:09:22Z</time>
      </trkpt>
      <trkpt lat="31.23068796762664" lon="121.39931271281266">
        <ele>21.55037737172097</ele>
        <time>2026-07-16T10:09:22Z</time>
      </trkpt>
      <trkpt lat="31.23062999733317" lon="121.39935272190385">
        <ele>23.188583853654563</ele>
        <time>2026-07-16T10:09:22Z</time>
      </trkpt>
      <trkpt lat="31.230511053359386" lon="121.39936473350585">
        <ele>23.69326067250222</ele>
        <time>2026-07-16T10:09:22Z</time>
      </trkpt>
      <trkpt lat="31.230443086848602" lon="121.39939174222214">
        <ele>23.5769963292405</ele>
        <time>2026-07-16T10:09:22Z</time>
      </trkpt>
      <trkpt lat="31.230216194569206" lon="121.3994247654725">
        <ele>22.987770560197532</ele>
        <time>2026-07-16T10:09:22Z</time>
      </trkpt>
      <trkpt lat="31.229970318233082" lon="121.39954780031562">
        <ele>22.810738089494407</ele>
        <time>2026-07-16T10:09:22Z</time>
      </trkpt>
      <trkpt lat="31.22990335021479" lon="121.39955880739366">
        <ele>24.208504202775657</ele>
        <time>2026-07-16T10:09:22Z</time>
      </trkpt>
      <trkpt lat="31.229745437906463" lon="121.39972884108728">
        <ele>23.460739615373313</ele>
        <time>2026-07-16T10:09:22Z</time>
      </trkpt>
      <trkpt lat="31.229715462635948" lon="121.39984785854816">
        <ele>22.916428091935813</ele>
        <time>2026-07-16T10:09:22Z</time>
      </trkpt>
      <trkpt lat="31.229715478849258" lon="121.40001488063554">
        <ele>23.325981619767845</ele>
        <time>2026-07-16T10:09:22Z</time>
      </trkpt>
      <trkpt lat="31.229758479707527" lon="121.40021290497265">
        <ele>22.969276907853782</ele>
        <time>2026-07-16T10:09:22Z</time>
      </trkpt>
      <trkpt lat="31.229783473410198" lon="121.4002609099121">
        <ele>22.5782170323655</ele>
        <time>2026-07-16T10:09:22Z</time>
      </trkpt>
      <trkpt lat="31.22990043002167" lon="121.40035691431312">
        <ele>20.686348441056907</ele>
        <time>2026-07-16T10:09:22Z</time>
      </trkpt>
      <trkpt lat="31.23009234277648" lon="121.40037290005421">
        <ele>22.789597037248313</ele>
        <time>2026-07-16T10:09:22Z</time>
      </trkpt>
      <trkpt lat="31.23032023042877" lon="121.40031587139951">
        <ele>22.810738089494407</ele>
        <time>2026-07-16T10:09:22Z</time>
      </trkpt>
      <trkpt lat="31.2304041910165" lon="121.40031186346636">
        <ele>23.608704092912376</ele>
        <time>2026-07-16T10:09:22Z</time>
      </trkpt>
      <trkpt lat="31.230724033696507" lon="121.40023182355388">
        <ele>23.76724291127175</ele>
        <time>2026-07-16T10:09:22Z</time>
      </trkpt>
      <trkpt lat="31.23094192431945" lon="121.40015479330262">
        <ele>22.926994803361595</ele>
        <time>2026-07-16T10:09:22Z</time>
      </trkpt>
      <trkpt lat="31.23109184385443" lon="121.40004976539356">
        <ele>23.35768938343972</ele>
        <time>2026-07-16T10:09:22Z</time>
      </trkpt>
      <trkpt lat="31.23114881100042" lon="121.39998575166828">
        <ele>21.663994315080345</ele>
        <time>2026-07-16T10:09:22Z</time>
      </trkpt>
      <trkpt lat="31.231164795965604" lon="121.39990773989346">
        <ele>23.251999380998313</ele>
        <time>2026-07-16T10:09:22Z</time>
      </trkpt>
      <trkpt lat="31.231195775742414" lon="121.39984572916792">
        <ele>22.926994803361595</ele>
        <time>2026-07-16T10:09:22Z</time>
      </trkpt>
      <trkpt lat="31.2311637669828" lon="121.39957569937351">
        <ele>20.982285025529563</ele>
        <time>2026-07-16T10:09:22Z</time>
      </trkpt>
      <trkpt lat="31.231145770989503" lon="121.39952169488505">
        <ele>22.76846361439675</ele>
        <time>2026-07-16T10:09:22Z</time>
      </trkpt>
      <trkpt lat="31.231054804048487" lon="121.39940269000941">
        <ele>19.22781420033425</ele>
        <time>2026-07-16T10:09:22Z</time>
      </trkpt>
      <trkpt lat="31.230952845609195" lon="121.39932369080871">
        <ele>22.5782170323655</ele>
        <time>2026-07-16T10:09:22Z</time>
      </trkpt>
      <trkpt lat="31.23081790544892" lon="121.39928469870405">
        <ele>20.88716173451394</ele>
        <time>2026-07-16T10:09:22Z</time>
      </trkpt>
      <trkpt lat="31.230615000214463" lon="121.39929471738932">
        <ele>22.853012564592063</ele>
        <time>2026-07-16T10:09:22Z</time>
      </trkpt>
      <trkpt lat="31.230284162356277" lon="121.3994157585948">
        <ele>22.705048087053</ele>
        <time>2026-07-16T10:09:22Z</time>
      </trkpt>
      <trkpt lat="31.229964318792156" lon="121.39951979771965">
        <ele>23.019478323869407</ele>
        <time>2026-07-16T10:09:22Z</time>
      </trkpt>
      <trkpt lat="31.229858378536306" lon="121.39964882167311">
        <ele>22.22151232045144</ele>
        <time>2026-07-16T10:09:22Z</time>
      </trkpt>
      <trkpt lat="31.229728447126778" lon="121.39974384439974">
        <ele>21.23329973500222</ele>
        <time>2026-07-16T10:09:22Z</time>
      </trkpt>
      <trkpt lat="31.22969348876297" lon="121.4000118821439">
        <ele>21.1619572667405</ele>
        <time>2026-07-16T10:09:22Z</time>
      </trkpt>
      <trkpt lat="31.22970049401923" lon="121.40009489304315">
        <ele>22.82130480092019</ele>
        <time>2026-07-16T10:09:31Z</time>
      </trkpt>
      <trkpt lat="31.229782474881507" lon="121.4002699113476">
        <ele>22.3694767979905</ele>
        <time>2026-07-16T10:09:31Z</time>
      </trkpt>
      <trkpt lat="31.229889433624106" lon="121.40034391326647">
        <ele>23.22029161732644</ele>
        <time>2026-07-16T10:09:31Z</time>
      </trkpt>
      <trkpt lat="31.230103339075573" lon="121.40038490096455">
        <ele>22.316635611467063</ele>
        <time>2026-07-16T10:09:31Z</time>
      </trkpt>
      <trkpt lat="31.230394195312137" lon="121.40030886388169">
        <ele>16.043877127580345</ele>
        <time>2026-07-16T10:09:32Z</time>
      </trkpt>
      <trkpt lat="31.230739028184086" lon="121.40024482417518">
        <ele>22.084114554338157</ele>
        <time>2026-07-16T10:09:32Z</time>
      </trkpt>
      <trkpt lat="31.231042870988894" lon="121.40009277566931">
        <ele>22.49366808217019</ele>
        <time>2026-07-16T10:09:32Z</time>
      </trkpt>
      <trkpt lat="31.231096840619713" lon="121.40004076371338">
        <ele>16.20240831654519</ele>
        <time>2026-07-16T10:09:32Z</time>
      </trkpt>
      <trkpt lat="31.231190782682177" lon="121.39989473592762">
        <ele>22.253220084123313</ele>
        <time>2026-07-16T10:09:32Z</time>
      </trkpt>
      <trkpt lat="31.231214762062915" lon="121.39979272081324">
        <ele>21.64285326283425</ele>
        <time>2026-07-16T10:09:32Z</time>
      </trkpt>
      <trkpt lat="31.2312027592652" lon="121.39969871034265">
        <ele>22.55708360951394</ele>
        <time>2026-07-16T10:09:32Z</time>
      </trkpt>
      <trkpt lat="31.231151770519514" lon="121.3995506975962">
        <ele>22.10524797718972</ele>
        <time>2026-07-16T10:09:32Z</time>
      </trkpt>
      <trkpt lat="31.2309818348755" lon="121.39936169213271">
        <ele>21.907082083635032</ele>
        <time>2026-07-16T10:09:32Z</time>
      </trkpt>
      <trkpt lat="31.23086588640586" lon="121.39933069909814">
        <ele>22.30606127064675</ele>
        <time>2026-07-16T10:09:32Z</time>
      </trkpt>
      <trkpt lat="31.230632993607777" lon="121.39931971830795">
        <ele>21.811958792619407</ele>
        <time>2026-07-16T10:09:32Z</time>
      </trkpt>
      <trkpt lat="31.230432091729813" lon="121.39938874286958">
        <ele>21.88594103138894</ele>
        <time>2026-07-16T10:09:32Z</time>
      </trkpt>
      <trkpt lat="31.230189208219645" lon="121.39943976941763">
        <ele>22.200371268205345</ele>
        <time>2026-07-16T10:09:33Z</time>
      </trkpt>
      <trkpt lat="31.23005227693135" lon="121.3995067886131">
        <ele>19.721916678361595</ele>
        <time>2026-07-16T10:09:33Z</time>
      </trkpt>
      <trkpt lat="31.229962320194403" lon="121.39952579855893">
        <ele>21.75910997670144</ele>
        <time>2026-07-16T10:09:33Z</time>
      </trkpt>
      <trkpt lat="31.22986037351678" lon="121.39959981580772">
        <ele>10.185951712541282</ele>
        <time>2026-07-16T10:09:33Z</time>
      </trkpt>
      <trkpt lat="31.22975943713625" lon="121.39979284775832">
        <ele>23.41053819935769</ele>
        <time>2026-07-16T10:09:33Z</time>
      </trkpt>
      <trkpt lat="31.229745457972825" lon="121.39994486858347">
        <ele>22.842445853166282</ele>
        <time>2026-07-16T10:09:33Z</time>
      </trkpt>
      <trkpt lat="31.229765464987977" lon="121.40010588892865">
        <ele>23.23085832875222</ele>
        <time>2026-07-16T10:09:33Z</time>
      </trkpt>
      <trkpt lat="31.229813454500782" lon="121.40021590061885">
        <ele>21.875374319963157</ele>
        <time>2026-07-16T10:09:33Z</time>
      </trkpt>
      <trkpt lat="31.2299434099468" lon="121.40035591040954">
        <ele>22.546509268693626</ele>
        <time>2026-07-16T10:09:33Z</time>
      </trkpt>
      <trkpt lat="31.230010381645833" lon="121.400379908293">
        <ele>20.23452043812722</ele>
        <time>2026-07-16T10:09:33Z</time>
      </trkpt>
      <trkpt lat="31.230152309847572" lon="121.40032888803339">
        <ele>22.525375845842063</ele>
        <time>2026-07-16T10:09:33Z</time>
      </trkpt>
      <trkpt lat="31.230271253042" lon="121.40031487551923">
        <ele>22.673340323381126</ele>
        <time>2026-07-16T10:09:33Z</time>
      </trkpt>
      <trkpt lat="31.23040519238171" lon="121.40032786582204">
        <ele>22.401184561662376</ele>
        <time>2026-07-16T10:09:33Z</time>
      </trkpt>
      <trkpt lat="31.23044416850702" lon="121.40027685468202">
        <ele>22.3694767979905</ele>
        <time>2026-07-16T10:09:33Z</time>
      </trkpt>
      <trkpt lat="31.230723028695138" lon="121.40018181630418">
        <ele>21.970497610978782</ele>
        <time>2026-07-16T10:09:33Z</time>
      </trkpt>
      <trkpt lat="31.23102387812665" lon="121.4000767750807">
        <ele>22.43289232533425</ele>
        <time>2026-07-16T10:09:34Z</time>
      </trkpt>
      <trkpt lat="31.23117979075613" lon="121.39992574095258">
        <ele>22.475166800431907</ele>
        <time>2026-07-16T10:09:34Z</time>
      </trkpt>
      <trkpt lat="31.23120576325263" lon="121.39975971750196">
        <ele>17.272530081681907</ele>
        <time>2026-07-16T10:09:34Z</time>
      </trkpt>
      <trkpt lat="31.23119275817981" lon="121.3996317032888">
        <ele>21.875374319963157</ele>
        <time>2026-07-16T10:09:34Z</time>
      </trkpt>
      <trkpt lat="31.23112377813125" lon="121.39948269252322">
        <ele>22.073547842912376</ele>
        <time>2026-07-16T10:09:34Z</time>
      </trkpt>
      <trkpt lat="31.231045806824557" lon="121.39938368881758">
        <ele>22.747322562150657</ele>
        <time>2026-07-16T10:09:34Z</time>
      </trkpt>
      <trkpt lat="31.230997827177237" lon="121.3993576903286">
        <ele>22.41175890248269</ele>
        <time>2026-07-16T10:09:34Z</time>
      </trkpt>
      <trkpt lat="31.230944851512476" lon="121.39935469464335">
        <ele>22.337769034318626</ele>
        <time>2026-07-16T10:09:34Z</time>
      </trkpt>
      <trkpt lat="31.23090586689155" lon="121.3993166942052">
        <ele>22.483093741349876</ele>
        <time>2026-07-16T10:09:34Z</time>
      </trkpt>
      <trkpt lat="31.23084289427712" lon="121.39929069711532">
        <ele>17.60017442982644</ele>
        <time>2026-07-16T10:09:34Z</time>
      </trkpt>
      <trkpt lat="31.230759932187837" lon="121.39928270356441">
        <ele>20.781471732072532</ele>
        <time>2026-07-16T10:09:34Z</time>
      </trkpt>
      <trkpt lat="31.23052004925881" lon="121.39936573282371">
        <ele>22.3694767979905</ele>
        <time>2026-07-16T10:09:34Z</time>
      </trkpt>
      <trkpt lat="31.23036412734938" lon="121.3994437545862">
        <ele>20.6255803136155</ele>
        <time>2026-07-16T10:09:34Z</time>
      </trkpt>
      <trkpt lat="31.23022819240728" lon="121.39946976923494">
        <ele>22.916428091935813</ele>
        <time>2026-07-16T10:09:34Z</time>
      </trkpt>
      <trkpt lat="31.23015522589046" lon="121.39946477506003">
        <ele>17.93574571888894</ele>
        <time>2026-07-16T10:09:34Z</time>
      </trkpt>
      <trkpt lat="31.23001829200648" lon="121.39949779058975">
        <ele>22.535942557267845</ele>
        <time>2026-07-16T10:09:34Z</time>
      </trkpt>
      <trkpt lat="31.229800407590716" lon="121.39967382968199">
        <ele>20.445900443010032</ele>
        <time>2026-07-16T10:09:35Z</time>
      </trkpt>
      <trkpt lat="31.22973344902674" lon="121.39979084977527">
        <ele>20.247734549455345</ele>
        <time>2026-07-16T10:09:35Z</time>
      </trkpt>
      <trkpt lat="31.229716474785352" lon="121.39997887566314">
        <ele>22.726189139299095</ele>
        <time>2026-07-16T10:09:35Z</time>
      </trkpt>
      <trkpt lat="31.229746478999232" lon="121.40015489757823">
        <ele>22.475166800431907</ele>
        <time>2026-07-16T10:09:35Z</time>
      </trkpt>
      <trkpt lat="31.22979546672412" lon="121.40025090737277">
        <ele>22.337769034318626</ele>
        <time>2026-07-16T10:09:35Z</time>
      </trkpt>
      <trkpt lat="31.230121327343838" lon="121.40035589489047">
        <ele>22.8318791417405</ele>
        <time>2026-07-16T10:09:35Z</time>
      </trkpt>
      <trkpt lat="31.23018829568016" lon="121.40035088827678">
        <ele>22.253220084123313</ele>
        <time>2026-07-16T10:09:35Z</time>
      </trkpt>
      <trkpt lat="31.230246270863788" lon="121.40036888600606">
        <ele>22.210945609025657</ele>
        <time>2026-07-16T10:09:35Z</time>
      </trkpt>
      <trkpt lat="31.23048815058914" lon="121.4002988541677">
        <ele>22.16866350453347</ele>
        <time>2026-07-16T10:09:35Z</time>
      </trkpt>
      <trkpt lat="31.230539122444632" lon="121.40025884370021">
        <ele>22.073547842912376</ele>
        <time>2026-07-16T10:09:35Z</time>
      </trkpt>
      <trkpt lat="31.230866959814843" lon="121.40016180085111">
        <ele>21.970497610978782</ele>
        <time>2026-07-16T10:09:35Z</time>
      </trkpt>
      <trkpt lat="31.2310528617115" lon="121.40004776851707">
        <ele>22.29549455922097</ele>
        <time>2026-07-16T10:09:36Z</time>
      </trkpt>
      <trkpt lat="31.231139810832843" lon="121.39994174655844">
        <ele>22.126389029435813</ele>
        <time>2026-07-16T10:09:36Z</time>
      </trkpt>
      <trkpt lat="31.23119976973688" lon="121.39980072312268">
        <ele>22.525375845842063</ele>
        <time>2026-07-16T10:09:36Z</time>
      </trkpt>
      <trkpt lat="31.231193759402103" lon="121.39965170554285">
        <ele>21.328423026017845</ele>
        <time>2026-07-16T10:09:36Z</time>
      </trkpt>
      <trkpt lat="31.231148768970122" lon="121.39951369373904">
        <ele>22.380051138810813</ele>
        <time>2026-07-16T10:09:36Z</time>
      </trkpt>
      <trkpt lat="31.23103480847321" lon="121.3993356848676">
        <ele>22.327202322892845</ele>
        <time>2026-07-16T10:09:36Z</time>
      </trkpt>
      <trkpt lat="31.230981831895548" lon="121.3993196878791">
        <ele>21.917648795060813</ele>
        <time>2026-07-16T10:09:36Z</time>
      </trkpt>
      <trkpt lat="31.230709962055364" lon="121.3993777174928">
        <ele>22.10524797718972</ele>
        <time>2026-07-16T10:09:36Z</time>
      </trkpt>
      <trkpt lat="31.23047507512469" lon="121.39943374384426">
        <ele>20.982285025529563</ele>
        <time>2026-07-16T10:09:36Z</time>
      </trkpt>
      <trkpt lat="31.230166221630533" lon="121.39947577528969">
        <ele>22.705048087053</ele>
        <time>2026-07-16T10:09:36Z</time>
      </trkpt>
      <trkpt lat="31.22987936273179" lon="121.39957581140972">
        <ele>22.926994803361595</ele>
        <time>2026-07-16T10:09:36Z</time>
      </trkpt>
      <trkpt lat="31.229767429018374" lon="121.39974384099952">
        <ele>22.28492784779519</ele>
        <time>2026-07-16T10:09:37Z</time>
      </trkpt>
      <trkpt lat="31.229745453526252" lon="121.39989886252249">
        <ele>22.673340323381126</ele>
        <time>2026-07-16T10:09:37Z</time>
      </trkpt>
      <trkpt lat="31.229789461831068" lon="121.40018089759113">
        <ele>22.0418400792405</ele>
        <time>2026-07-16T10:09:37Z</time>
      </trkpt>
      <trkpt lat="31.22986843675526" lon="121.40028590625721">
        <ele>22.525375845842063</ele>
        <time>2026-07-16T10:09:37Z</time>
      </trkpt>
      <trkpt lat="31.230089345571624" lon="121.40038490218515">
        <ele>21.55037737172097</ele>
        <time>2026-07-16T10:09:37Z</time>
      </trkpt>
      <trkpt lat="31.23046815636894" lon="121.4002678512379">
        <ele>23.199150565080345</ele>
        <time>2026-07-16T10:09:37Z</time>
      </trkpt>
      <trkpt lat="31.230558112856215" lon="121.40025184099864">
        <ele>23.16744280140847</ele>
        <time>2026-07-16T10:09:37Z</time>
      </trkpt>
      <trkpt lat="31.2308579622735" lon="121.40014579933258">
        <ele>22.09468126576394</ele>
        <time>2026-07-16T10:09:37Z</time>
      </trkpt>
      <trkpt lat="31.231050862331237" lon="121.40004476827656">
        <ele>17.35708666127175</ele>
        <time>2026-07-16T10:09:37Z</time>
      </trkpt>
      <trkpt lat="31.231120822478672" lon="121.39997075208866">
        <ele>22.033913138322532</ele>
        <time>2026-07-16T10:09:37Z</time>
      </trkpt>
      <trkpt lat="31.23119077694109" lon="121.3998337280744">
        <ele>22.789597037248313</ele>
        <time>2026-07-16T10:09:37Z</time>
      </trkpt>
      <trkpt lat="31.231205756407206" lon="121.39968170804777">
        <ele>22.715614798478782</ele>
        <time>2026-07-16T10:09:37Z</time>
      </trkpt>
      <trkpt lat="31.231190754806896" lon="121.3995796974742">
        <ele>23.199150565080345</ele>
        <time>2026-07-16T10:09:38Z</time>
      </trkpt>
      <trkpt lat="31.23111677824351" lon="121.39944168872006">
        <ele>22.210945609025657</ele>
        <time>2026-07-16T10:09:38Z</time>
      </trkpt>
      <trkpt lat="31.231042806909812" lon="121.39936568722409">
        <ele>22.073547842912376</ele>
        <time>2026-07-16T10:09:38Z</time>
      </trkpt>
      <trkpt lat="31.230978828894216" lon="121.39925568183676">
        <ele>20.604439261369407</ele>
        <time>2026-07-16T10:09:38Z</time>
      </trkpt>
      <trkpt lat="31.230876876887482" lon="121.39926669179826">
        <ele>22.779030325822532</ele>
        <time>2026-07-16T10:09:38Z</time>
      </trkpt>
      <trkpt lat="31.230609008216653" lon="121.399368725372">
        <ele>22.43289232533425</ele>
        <time>2026-07-16T10:09:38Z</time>
      </trkpt>
      <trkpt lat="31.230306154173526" lon="121.39944275953641">
        <ele>22.22151232045144</ele>
        <time>2026-07-16T10:09:38Z</time>
      </trkpt>
      <trkpt lat="31.230234189317724" lon="121.39946576828008">
        <ele>20.781471732072532</ele>
        <time>2026-07-16T10:09:38Z</time>
      </trkpt>
      <trkpt lat="31.230121241207456" lon="121.39945877737864">
        <ele>22.736755850724876</ele>
        <time>2026-07-16T10:09:38Z</time>
      </trkpt>
      <trkpt lat="31.22989235540141" lon="121.39955980846544">
        <ele>22.89529466908425</ele>
        <time>2026-07-16T10:09:38Z</time>
      </trkpt>
      <trkpt lat="31.22979241096253" lon="121.39966982990492">
        <ele>22.64163255970925</ele>
        <time>2026-07-16T10:09:38Z</time>
      </trkpt>
      <trkpt lat="31.229740446413565" lon="121.39979785004043">
        <ele>22.726189139299095</ele>
        <time>2026-07-16T10:09:38Z</time>
      </trkpt>
      <trkpt lat="31.22973845402142" lon="121.39986985936883">
        <ele>22.09468126576394</ele>
        <time>2026-07-16T10:09:38Z</time>
      </trkpt>
      <trkpt lat="31.22980043827701" lon="121.40000387172488">
        <ele>22.41175890248269</ele>
        <time>2026-07-16T10:09:38Z</time>
      </trkpt>
      <trkpt lat="31.229821442897087" lon="121.40014288931509">
        <ele>21.875374319963157</ele>
        <time>2026-07-16T10:09:39Z</time>
      </trkpt>
      <trkpt lat="31.22988642514707" lon="121.40025690033414">
        <ele>21.621712210588157</ele>
        <time>2026-07-16T10:09:39Z</time>
      </trkpt>
      <trkpt lat="31.230032368757666" lon="121.40035690280462">
        <ele>22.30606127064675</ele>
        <time>2026-07-16T10:09:39Z</time>
      </trkpt>
      <trkpt lat="31.230213283273727" lon="121.40034388501824">
        <ele>22.16866350453347</ele>
        <time>2026-07-16T10:09:39Z</time>
      </trkpt>
      <trkpt lat="31.230527129350357" lon="121.4002708465439">
        <ele>22.546509268693626</ele>
        <time>2026-07-16T10:09:39Z</time>
      </trkpt>
      <trkpt lat="31.230831978835898" lon="121.40018780767414">
        <ele>22.517448904924095</ele>
        <time>2026-07-16T10:09:39Z</time>
      </trkpt>
      <trkpt lat="31.230966910183795" lon="121.40013078768195">
        <ele>21.94935655873269</ele>
        <time>2026-07-16T10:09:39Z</time>
      </trkpt>
      <trkpt lat="31.23115880796762" lon="121.40000175296508">
        <ele>22.599358084611595</ele>
        <time>2026-07-16T10:09:39Z</time>
      </trkpt>
      <trkpt lat="31.231199782369234" lon="121.39993474039865">
        <ele>22.726189139299095</ele>
        <time>2026-07-16T10:09:39Z</time>
      </trkpt>
      <trkpt lat="31.23120876303073" lon="121.39977271884715">
        <ele>21.43411302845925</ele>
        <time>2026-07-16T10:09:39Z</time>
      </trkpt>
      <trkpt lat="31.23116076467688" lon="121.39952969446502">
        <ele>16.9580998448655</ele>
        <time>2026-07-16T10:09:39Z</time>
      </trkpt>
      <trkpt lat="31.231027812211494" lon="121.3993426861863">
        <ele>22.033913138322532</ele>
        <time>2026-07-16T10:09:39Z</time>
      </trkpt>
      <trkpt lat="31.230917859598932" lon="121.39929169067483">
        <ele>21.716835501603782</ele>
        <time>2026-07-16T10:09:40Z</time>
      </trkpt>
      <trkpt lat="31.230611001587256" lon="121.39928771704729">
        <ele>22.620491507463157</ele>
        <time>2026-07-16T10:09:40Z</time>
      </trkpt>
      <trkpt lat="31.230598015574753" lon="121.39939972954132">
        <ele>21.212166312150657</ele>
        <time>2026-07-16T10:09:40Z</time>
      </trkpt>
      <trkpt lat="31.23049905942815" lon="121.39937173527112">
        <ele>21.34956407826394</ele>
        <time>2026-07-16T10:09:40Z</time>
      </trkpt>
      <trkpt lat="31.230217197893886" lon="121.39947477073484">
        <ele>22.525375845842063</ele>
        <time>2026-07-16T10:09:40Z</time>
      </trkpt>
      <trkpt lat="31.230060272204966" lon="121.39949378649031">
        <ele>43.5975041417405</ele>
        <time>2026-07-16T10:09:40Z</time>
      </trkpt>
      <trkpt lat="31.229916344261174" lon="121.39955980637298">
        <ele>21.76968431752175</ele>
        <time>2026-07-16T10:09:40Z</time>
      </trkpt>
      <trkpt lat="31.229737437356448" lon="121.39967983588804">
        <ele>22.35891008656472</ele>
        <time>2026-07-16T10:09:40Z</time>
      </trkpt>
      <trkpt lat="31.229673000837067" lon="121.39982717064451">
        <ele>23.777809622697532</ele>
        <time>2026-07-16T10:09:40Z</time>
      </trkpt>
      <trkpt lat="31.22968849483929" lon="121.40004888766587">
        <ele>21.790817740373313</ele>
        <time>2026-07-16T10:09:40Z</time>
      </trkpt>
      <trkpt lat="31.22973148973598" lon="121.40018990395833">
        <ele>23.724968436174095</ele>
        <time>2026-07-16T10:09:40Z</time>
      </trkpt>
      <trkpt lat="31.229857446982564" lon="121.40033091405961">
        <ele>22.30606127064675</ele>
        <time>2026-07-16T10:09:40Z</time>
      </trkpt>
      <trkpt lat="31.22997040173419" lon="121.40039291381075">
        <ele>22.50423479359597</ele>
        <time>2026-07-16T10:09:40Z</time>
      </trkpt>
      <trkpt lat="31.23026725903326" lon="121.40035088138904">
        <ele>22.454033377580345</ele>
        <time>2026-07-16T10:09:41Z</time>
      </trkpt>
      <trkpt lat="31.23031923445195" lon="121.40034687623853">
        <ele>22.084114554338157</ele>
        <time>2026-07-16T10:09:41Z</time>
      </trkpt>
      <trkpt lat="31.230489148993943" lon="121.4002888525674">
        <ele>22.789597037248313</ele>
        <time>2026-07-16T10:09:41Z</time>
      </trkpt>
      <trkpt lat="31.230774003228294" lon="121.40016480939299">
        <ele>21.685127737931907</ele>
        <time>2026-07-16T10:09:41Z</time>
      </trkpt>
      <trkpt lat="31.23098589791146" lon="121.40009778134346">
        <ele>22.535942557267845</ele>
        <time>2026-07-16T10:09:41Z</time>
      </trkpt>
      <trkpt lat="31.23116380059945" lon="121.3999507456633">
        <ele>22.800171378068626</ele>
        <time>2026-07-16T10:09:41Z</time>
      </trkpt>
      <trkpt lat="31.231193777697374" lon="121.39985673075094">
        <ele>20.572731497697532</ele>
        <time>2026-07-16T10:09:41Z</time>
      </trkpt>
      <trkpt lat="31.2311857562279" lon="121.39956869666142">
        <ele>20.319077017717063</ele>
        <time>2026-07-16T10:09:41Z</time>
      </trkpt>
      <trkpt lat="31.23115776331727" lon="121.3994946908672">
        <ele>22.464600089006126</ele>
        <time>2026-07-16T10:09:41Z</time>
      </trkpt>
      <trkpt lat="31.231000824717118" lon="121.39934268854041">
        <ele>22.337769034318626</ele>
        <time>2026-07-16T10:09:41Z</time>
      </trkpt>
      <trkpt lat="31.23076492837701" lon="121.39926070097994">
        <ele>22.16866350453347</ele>
        <time>2026-07-16T10:09:41Z</time>
      </trkpt>
      <trkpt lat="31.230640987270707" lon="121.3992817138416">
        <ele>20.95057726185769</ele>
        <time>2026-07-16T10:09:42Z</time>
      </trkpt>
      <trkpt lat="31.230535044339547" lon="121.39939373440887">
        <ele>22.179237845353782</ele>
        <time>2026-07-16T10:09:42Z</time>
      </trkpt>
      <trkpt lat="31.230205205708717" lon="121.39950377494388">
        <ele>22.874153616838157</ele>
        <time>2026-07-16T10:09:42Z</time>
      </trkpt>
      <trkpt lat="31.229927342746294" lon="121.39960381042614">
        <ele>22.34834337513894</ele>
        <time>2026-07-16T10:09:42Z</time>
      </trkpt>
      <trkpt lat="31.22976743479106" lon="121.39980784894155">
        <ele>22.380051138810813</ele>
        <time>2026-07-16T10:09:42Z</time>
      </trkpt>
      <trkpt lat="31.229758450573506" lon="121.39993086559366">
        <ele>22.28492784779519</ele>
        <time>2026-07-16T10:09:42Z</time>
      </trkpt>
      <trkpt lat="31.229797454358973" lon="121.4001458918379">
        <ele>21.907082083635032</ele>
        <time>2026-07-16T10:09:42Z</time>
      </trkpt>
      <trkpt lat="31.22990942204187" lon="121.40032390845444">
        <ele>22.179237845353782</ele>
        <time>2026-07-16T10:09:42Z</time>
      </trkpt>
      <trkpt lat="31.230009379431323" lon="121.40035690480988">
        <ele>21.23329973500222</ele>
        <time>2026-07-16T10:09:42Z</time>
      </trkpt>
      <trkpt lat="31.230157312501277" lon="121.40037189423167">
        <ele>22.22151232045144</ele>
        <time>2026-07-16T10:09:42Z</time>
      </trkpt>
      <trkpt lat="31.23030323785735" lon="121.40031187227223">
        <ele>21.780251028947532</ele>
        <time>2026-07-16T10:09:43Z</time>
      </trkpt>
      <trkpt lat="31.23060209112701" lon="121.40023983537692">
        <ele>22.147530081681907</ele>
        <time>2026-07-16T10:09:43Z</time>
      </trkpt>
      <trkpt lat="31.230943919991994" lon="121.40012278854704">
        <ele>22.210945609025657</ele>
        <time>2026-07-16T10:09:43Z</time>
      </trkpt>
      <trkpt lat="31.231040870460156" lon="121.4000787738784">
        <ele>9.82924700062722</ele>
        <time>2026-07-16T10:09:43Z</time>
      </trkpt>
      <trkpt lat="31.231135817518194" lon="121.39999075347802">
        <ele>21.75910997670144</ele>
        <time>2026-07-16T10:09:43Z</time>
      </trkpt>
      <trkpt lat="31.231196770943374" lon="121.39979872313353">
        <ele>21.01399278920144</ele>
        <time>2026-07-16T10:09:43Z</time>
      </trkpt>
      <trkpt lat="31.231189756826797" lon="121.39959869973323">
        <ele>21.48696184437722</ele>
        <time>2026-07-16T10:09:43Z</time>
      </trkpt>
      <trkpt lat="31.23126671615613" lon="121.39953668600248">
        <ele>22.874153616838157</ele>
        <time>2026-07-16T10:09:43Z</time>
      </trkpt>
      <trkpt lat="31.23103080926985" lon="121.39932068370703">
        <ele>21.28614855092019</ele>
        <time>2026-07-16T10:09:43Z</time>
      </trkpt>
      <trkpt lat="31.230891871850524" lon="121.39929469323812">
        <ele>22.662773611955345</ele>
        <time>2026-07-16T10:09:43Z</time>
      </trkpt>
      <trkpt lat="31.23057702268996" lon="121.39936372764895">
        <ele>21.970497610978782</ele>
        <time>2026-07-16T10:09:43Z</time>
      </trkpt>
      <trkpt lat="31.230384116051805" lon="121.39941674998131">
        <ele>22.337769034318626</ele>
        <time>2026-07-16T10:09:44Z</time>
      </trkpt>
      <trkpt lat="31.230252178618464" lon="121.3994347633932">
        <ele>22.23207903187722</ele>
        <time>2026-07-16T10:09:44Z</time>
      </trkpt>
      <trkpt lat="31.23020120477924" lon="121.399467771373">
        <ele>22.316635611467063</ele>
        <time>2026-07-16T10:09:44Z</time>
      </trkpt>
      <trkpt lat="31.230075266102105" lon="121.39950478638796">
        <ele>20.686348441056907</ele>
        <time>2026-07-16T10:09:44Z</time>
      </trkpt>
      <trkpt lat="31.229936336192587" lon="121.39957480632656">
        <ele>22.64163255970925</ele>
        <time>2026-07-16T10:09:44Z</time>
      </trkpt>
      <trkpt lat="31.229866369582126" lon="121.39958581368174">
        <ele>21.63228655140847</ele>
        <time>2026-07-16T10:09:44Z</time>
      </trkpt>
      <trkpt lat="31.229758433374766" lon="121.39974584202912">
        <ele>22.084114554338157</ele>
        <time>2026-07-16T10:09:44Z</time>
      </trkpt>
      <trkpt lat="31.229737454297112" lon="121.39986785919807">
        <ele>22.242645743303</ele>
        <time>2026-07-16T10:09:44Z</time>
      </trkpt>
      <trkpt lat="31.229761463100445" lon="121.40006988422003">
        <ele>21.706268790178</ele>
        <time>2026-07-16T10:09:44Z</time>
      </trkpt>
      <trkpt lat="31.229834450403708" lon="121.40026690636407">
        <ele>21.95992327015847</ele>
        <time>2026-07-16T10:09:44Z</time>
      </trkpt>
      <trkpt lat="31.23003537027811" lon="121.40038190642514">
        <ele>22.020699026994407</ele>
        <time>2026-07-16T10:09:44Z</time>
      </trkpt>
      <trkpt lat="31.230099341870527" lon="121.40039290256378">
        <ele>21.412971976213157</ele>
        <time>2026-07-16T10:09:44Z</time>
      </trkpt>
      <trkpt lat="31.230369209076365" lon="121.40032786896077">
        <ele>25.733093741349876</ele>
        <time>2026-07-16T10:09:44Z</time>
      </trkpt>
      <trkpt lat="31.23064806792836" lon="121.40022282884985">
        <ele>22.263786795549095</ele>
        <time>2026-07-16T10:09:45Z</time>
      </trkpt>
      <trkpt lat="31.230770007781555" lon="121.40018981337141">
        <ele>17.967453482560813</ele>
        <time>2026-07-16T10:09:45Z</time>
      </trkpt>
      <trkpt lat="31.231084848121732" lon="121.40005976739138">
        <ele>21.590004446916282</ele>
        <time>2026-07-16T10:09:45Z</time>
      </trkpt>
      <trkpt lat="31.231167800517557" lon="121.39996874772217">
        <ele>21.191025259904563</ele>
        <time>2026-07-16T10:09:45Z</time>
      </trkpt>
      <trkpt lat="31.23120875596728" lon="121.39969270910014">
        <ele>22.34834337513894</ele>
        <time>2026-07-16T10:09:45Z</time>
      </trkpt>
      <trkpt lat="31.23118075701132" lon="121.39954969495544">
        <ele>20.477608206681907</ele>
        <time>2026-07-16T10:09:45Z</time>
      </trkpt>
      <trkpt lat="31.23110078370699" lon="121.39941568736197">
        <ele>22.30606127064675</ele>
        <time>2026-07-16T10:09:45Z</time>
      </trkpt>
      <trkpt lat="31.23101481773644" lon="121.39933568661138">
        <ele>21.685127737931907</ele>
        <time>2026-07-16T10:09:45Z</time>
      </trkpt>
      <trkpt lat="31.230791920834076" lon="121.3993327057517">
        <ele>21.497528555803</ele>
        <time>2026-07-16T10:09:45Z</time>
      </trkpt>
      <trkpt lat="31.230527045009037" lon="121.39935173078233">
        <ele>21.138176443986595</ele>
        <time>2026-07-16T10:09:45Z</time>
      </trkpt>
      <trkpt lat="31.230342136200385" lon="121.39942575459266">
        <ele>22.401184561662376</ele>
        <time>2026-07-16T10:09:46Z</time>
      </trkpt>
      <trkpt lat="31.230293158256107" lon="121.39941675791535">
        <ele>21.381271841935813</ele>
        <time>2026-07-16T10:09:46Z</time>
      </trkpt>
      <trkpt lat="31.22999330699897" lon="121.3995407975267">
        <ele>21.455254080705345</ele>
        <time>2026-07-16T10:09:46Z</time>
      </trkpt>
      <trkpt lat="31.22978241732432" lon="121.3996898331579">
        <ele>20.929436209611595</ele>
        <time>2026-07-16T10:09:46Z</time>
      </trkpt>
      <trkpt lat="31.22974944582408" lon="121.39983685418042">
        <ele>22.210945609025657</ele>
        <time>2026-07-16T10:09:46Z</time>
      </trkpt>
      <trkpt lat="31.22973847111091" lon="121.40004388261512">
        <ele>21.508095267228782</ele>
        <time>2026-07-16T10:09:46Z</time>
      </trkpt>
      <trkpt lat="31.229802462031735" lon="121.40023790482924">
        <ele>21.402405264787376</ele>
        <time>2026-07-16T10:09:46Z</time>
      </trkpt>
      <trkpt lat="31.22997039556648" lon="121.40033990558909">
        <ele>21.465820792131126</ele>
        <time>2026-07-16T10:09:46Z</time>
      </trkpt>
      <trkpt lat="31.23013332305378" lon="121.40036689554772">
        <ele>21.875374319963157</ele>
        <time>2026-07-16T10:09:46Z</time>
      </trkpt>
      <trkpt lat="31.230479152615867" lon="121.40027985208197">
        <ele>21.875374319963157</ele>
        <time>2026-07-16T10:09:46Z</time>
      </trkpt>
      <trkpt lat="31.23058409924955" lon="121.40023783664945">
        <ele>21.529236319474876</ele>
        <time>2026-07-16T10:09:47Z</time>
      </trkpt>
      <trkpt lat="31.230697044887922" lon="121.40021982413512">
        <ele>18.532898428849876</ele>
        <time>2026-07-16T10:09:47Z</time>
      </trkpt>
      <trkpt lat="31.230780999769806" lon="121.40016280849372">
        <ele>21.34956407826394</ele>
        <time>2026-07-16T10:09:47Z</time>
      </trkpt>
      <trkpt lat="31.230867956576713" lon="121.40013579702801">
        <ele>21.444679739885032</ele>
        <time>2026-07-16T10:09:47Z</time>
      </trkpt>
      <trkpt lat="31.231065851034344" lon="121.40000176107371">
        <ele>21.621712210588157</ele>
        <time>2026-07-16T10:09:47Z</time>
      </trkpt>
      <trkpt lat="31.231180783435413" lon="121.39985373149959">
        <ele>16.255257132463157</ele>
        <time>2026-07-16T10:09:47Z</time>
      </trkpt>
      <trkpt lat="31.231201767174575" lon="121.39978272069946">
        <ele>21.34956407826394</ele>
        <time>2026-07-16T10:09:47Z</time>
      </trkpt>
      <trkpt lat="31.231203760283993" lon="121.39971571230394">
        <ele>22.084114554338157</ele>
        <time>2026-07-16T10:09:47Z</time>
      </trkpt>
      <trkpt lat="31.231138772193002" lon="121.39949569263318">
        <ele>21.518669608049095</ele>
        <time>2026-07-16T10:09:47Z</time>
      </trkpt>
      <trkpt lat="31.23110078512605" lon="121.3994346893704">
        <ele>20.82374620717019</ele>
        <time>2026-07-16T10:09:47Z</time>
      </trkpt>
      <trkpt lat="31.230943850411865" lon="121.399332692499">
        <ele>27.56154680531472</ele>
        <time>2026-07-16T10:09:47Z</time>
      </trkpt>
      <trkpt lat="31.230880879385882" lon="121.39932969768958">
        <ele>21.737976553849876</ele>
        <time>2026-07-16T10:09:47Z</time>
      </trkpt>
      <trkpt lat="31.230800914427263" lon="121.39930070176644">
        <ele>22.8318791417405</ele>
        <time>2026-07-16T10:09:47Z</time>
      </trkpt>
      <trkpt lat="31.230495061065945" lon="121.39936873531141">
        <ele>21.716835501603782</ele>
        <time>2026-07-16T10:09:47Z</time>
      </trkpt>
      <trkpt lat="31.230247180787657" lon="121.39943276361682">
        <ele>21.412971976213157</ele>
        <time>2026-07-16T10:09:48Z</time>
      </trkpt>
      <trkpt lat="31.2299533261232" lon="121.39954780179777">
        <ele>22.09468126576394</ele>
        <time>2026-07-16T10:09:48Z</time>
      </trkpt>
      <trkpt lat="31.229795408461868" lon="121.3996568281069">
        <ele>18.366432669572532</ele>
        <time>2026-07-16T10:09:48Z</time>
      </trkpt>
      <trkpt lat="31.229728450622925" lon="121.39978284921382">
        <ele>21.465820792131126</ele>
        <time>2026-07-16T10:09:48Z</time>
      </trkpt>
      <trkpt lat="31.229725471003384" lon="121.39998287541792">
        <ele>22.033913138322532</ele>
        <time>2026-07-16T10:09:48Z</time>
      </trkpt>
      <trkpt lat="31.229756472119043" lon="121.4001338936939">
        <ele>20.781471732072532</ele>
        <time>2026-07-16T10:09:48Z</time>
      </trkpt>
      <trkpt lat="31.229870435263397" lon="121.40028090532904">
        <ele>20.35078478138894</ele>
        <time>2026-07-16T10:09:48Z</time>
      </trkpt>
      <trkpt lat="31.23001937294102" lon="121.40034090147076">
        <ele>21.737976553849876</ele>
        <time>2026-07-16T10:09:48Z</time>
      </trkpt>
      <trkpt lat="31.230229277587068" lon="121.4003588859383">
        <ele>21.02455950062722</ele>
        <time>2026-07-16T10:09:48Z</time>
      </trkpt>
      <trkpt lat="31.2304861465708" lon="121.40025484772367">
        <ele>21.518669608049095</ele>
        <time>2026-07-16T10:09:48Z</time>
      </trkpt>
      <trkpt lat="31.230657063866886" lon="121.40022382821276">
        <ele>22.15809679310769</ele>
        <time>2026-07-16T10:09:49Z</time>
      </trkpt>
      <trkpt lat="31.230889945430693" lon="121.40012679382494">
        <ele>21.056267264299095</ele>
        <time>2026-07-16T10:09:49Z</time>
      </trkpt>
      <trkpt lat="31.230960907204228" lon="121.40007578043374">
        <ele>21.621712210588157</ele>
        <time>2026-07-16T10:09:49Z</time>
      </trkpt>
      <trkpt lat="31.231055861244112" lon="121.40005676950307">
        <ele>20.657288077287376</ele>
        <time>2026-07-16T10:09:49Z</time>
      </trkpt>
      <trkpt lat="31.231167796312455" lon="121.39992574199886">
        <ele>21.69570207875222</ele>
        <time>2026-07-16T10:09:49Z</time>
      </trkpt>
      <trkpt lat="31.231209758824097" lon="121.39973071360089">
        <ele>21.1619572667405</ele>
        <time>2026-07-16T10:09:49Z</time>
      </trkpt>
      <trkpt lat="31.231196748008077" lon="121.39952969132618">
        <ele>21.653419974260032</ele>
        <time>2026-07-16T10:09:49Z</time>
      </trkpt>
      <trkpt lat="31.23112277211607" lon="121.39939668345431">
        <ele>19.846107962541282</ele>
        <time>2026-07-16T10:09:49Z</time>
      </trkpt>
      <trkpt lat="31.23102181385949" lon="121.39932668509404">
        <ele>20.131470206193626</ele>
        <time>2026-07-16T10:09:49Z</time>
      </trkpt>
      <trkpt lat="31.230824902892465" lon="121.39929469907976">
        <ele>20.929436209611595</ele>
        <time>2026-07-16T10:09:49Z</time>
      </trkpt>
      <trkpt lat="31.230637989691367" lon="121.39929671558183">
        <ele>20.813179495744407</ele>
        <time>2026-07-16T10:55:38Z</time>
      </trkpt>
      <trkpt lat="31.230565022090786" lon="121.39927571987972">
        <ele>21.571510794572532</ele>
        <time>2026-07-16T10:55:41Z</time>
      </trkpt>
      <trkpt lat="31.230479066835667" lon="121.39934573435717">
        <ele>19.909523489885032</ele>
        <time>2026-07-16T10:55:51Z</time>
      </trkpt>
      <trkpt lat="31.2301862095361" lon="121.39943876957275">
        <ele>21.455254080705345</ele>
        <time>2026-07-16T10:56:06Z</time>
      </trkpt>
      <trkpt lat="31.229908347652334" lon="121.39955580661984">
        <ele>21.864807608537376</ele>
        <time>2026-07-16T10:56:18Z</time>
      </trkpt>
      <trkpt lat="31.229786412046955" lon="121.39964982806792">
        <ele>21.69570207875222</ele>
        <time>2026-07-16T10:56:24Z</time>
      </trkpt>
      <trkpt lat="31.22972745036461" lon="121.39977484830699">
        <ele>21.1619572667405</ele>
        <time>2026-07-16T10:56:30Z</time>
      </trkpt>
      <trkpt lat="31.229734471036885" lon="121.40002488034811">
        <ele>21.790817740373313</ele>
        <time>2026-07-16T10:56:42Z</time>
      </trkpt>
      <trkpt lat="31.229842446018868" lon="121.40026090476817">
        <ele>21.3706975011155</ele>
        <time>2026-07-16T10:56:54Z</time>
      </trkpt>
      <trkpt lat="31.229886431119624" lon="121.40030990832442">
        <ele>21.1619572667405</ele>
        <time>2026-07-16T10:56:57Z</time>
      </trkpt>
      <trkpt lat="31.230002383841644" lon="121.40036690696907">
        <ele>20.781471732072532</ele>
        <time>2026-07-16T10:57:03Z</time>
      </trkpt>
      <trkpt lat="31.23005935797258" lon="121.4003719027759">
        <ele>21.29671526234597</ele>
        <time>2026-07-16T10:57:06Z</time>
      </trkpt>
      <trkpt lat="31.230360210738358" lon="121.40030586638997">
        <ele>18.133911612443626</ele>
        <time>2026-07-16T10:57:21Z</time>
      </trkpt>
      <trkpt lat="31.230680053867815" lon="121.40022982709417">
        <ele>21.412971976213157</ele>
        <time>2026-07-16T10:57:36Z</time>
      </trkpt>
      <trkpt lat="31.230950914751514" lon="121.40010378524208">
        <ele>21.476387503556907</ele>
        <time>2026-07-16T10:57:51Z</time>
      </trkpt>
      <trkpt lat="31.23113581622557" lon="121.39997775172245">
        <ele>21.43411302845925</ele>
        <time>2026-07-16T10:58:00Z</time>
      </trkpt>
      <trkpt lat="31.231177791972893" lon="121.39992874152311">
        <ele>21.275574210099876</ele>
        <time>2026-07-16T10:58:06Z</time>
      </trkpt>
      <trkpt lat="31.23121276463316" lon="121.39981072324589">
        <ele>20.89772844593972</ele>
        <time>2026-07-16T10:58:13Z</time>
      </trkpt>
      <trkpt lat="31.231183762514668" lon="121.3996337043067">
        <ele>21.338989737443626</ele>
        <time>2026-07-16T10:58:22Z</time>
      </trkpt>
      <trkpt lat="31.231126779236053" lon="121.39951469576758">
        <ele>21.109116080217063</ele>
        <time>2026-07-16T10:58:28Z</time>
      </trkpt>
      <trkpt lat="31.23100682517958" lon="121.3993876926325">
        <ele>21.706268790178</ele>
        <time>2026-07-16T10:58:34Z</time>
      </trkpt>
      <trkpt lat="31.230856890575645" lon="121.39933069988284">
        <ele>21.275574210099876</ele>
        <time>2026-07-16T10:58:43Z</time>
      </trkpt>
      <trkpt lat="31.23078592319154" lon="121.39932670567065">
        <ele>21.455254080705345</ele>
        <time>2026-07-16T10:58:46Z</time>
      </trkpt>
      <trkpt lat="31.230480069181365" lon="121.39938473826984">
        <ele>20.992851736955345</ele>
        <time>2026-07-16T10:59:01Z</time>
      </trkpt>
      <trkpt lat="31.230266171824407" lon="121.39943076174818">
        <ele>18.89224291127175</ele>
        <time>2026-07-16T10:59:13Z</time>
      </trkpt>
      <trkpt lat="31.23021719689822" lon="121.39946176933135">
        <ele>20.96114397328347</ele>
        <time>2026-07-16T10:59:16Z</time>
      </trkpt>
      <trkpt lat="31.230041280092376" lon="121.39948178683905">
        <ele>19.972939017228782</ele>
        <time>2026-07-16T10:59:25Z</time>
      </trkpt>
      <trkpt lat="31.229866367228876" lon="121.39955681039422">
        <ele>19.89894914906472</ele>
        <time>2026-07-16T10:59:34Z</time>
      </trkpt>
      <trkpt lat="31.229765424613674" lon="121.39968283380426">
        <ele>21.1619572667405</ele>
        <time>2026-07-16T10:59:40Z</time>
      </trkpt>
      <trkpt lat="31.229729453261463" lon="121.39981685338867">
        <ele>21.465820792131126</ele>
        <time>2026-07-16T10:59:46Z</time>
      </trkpt>
      <trkpt lat="31.229724469193993" lon="121.3999598724148">
        <ele>22.01277208607644</ele>
        <time>2026-07-16T10:59:52Z</time>
      </trkpt>
      <trkpt lat="31.22978046267848" lon="121.40014989389459">
        <ele>20.971718314103782</ele>
        <time>2026-07-16T11:00:01Z</time>
      </trkpt>
      <trkpt lat="31.22988443227583" lon="121.40031190880319">
        <ele>21.119682791642845</ele>
        <time>2026-07-16T11:00:11Z</time>
      </trkpt>
      <trkpt lat="31.230012376304817" lon="121.40034190223487">
        <ele>19.584518912248313</ele>
        <time>2026-07-16T11:00:20Z</time>
      </trkpt>
      <trkpt lat="31.230203288028147" lon="121.40034488604407">
        <ele>6.492058279924095</ele>
        <time>2026-07-16T11:00:32Z</time>
      </trkpt>
      <trkpt lat="31.230319230778463" lon="121.40031487133426">
        <ele>20.802612784318626</ele>
        <time>2026-07-16T11:00:35Z</time>
      </trkpt>
      <trkpt lat="31.230413191668188" lon="121.40035386912294">
        <ele>21.07740831654519</ele>
        <time>2026-07-16T11:00:41Z</time>
      </trkpt>
      <trkpt lat="31.230585097240944" lon="121.40022383449028">
        <ele>21.590004446916282</ele>
        <time>2026-07-16T11:00:50Z</time>
      </trkpt>
      <trkpt lat="31.230784998776457" lon="121.40017080930204">
        <ele>20.276794913224876</ele>
        <time>2026-07-16T11:01:02Z</time>
      </trkpt>
      <trkpt lat="31.2309569099903" lon="121.4000847820433">
        <ele>21.28614855092019</ele>
        <time>2026-07-16T11:01:11Z</time>
      </trkpt>
      <trkpt lat="31.231023878644866" lon="121.40008177578088">
        <ele>21.15139055531472</ele>
        <time>2026-07-16T11:01:14Z</time>
      </trkpt>
      <trkpt lat="31.231085847042753" lon="121.40005376647107">
        <ele>21.01399278920144</ele>
        <time>2026-07-16T11:01:21Z</time>
      </trkpt>
      <trkpt lat="31.231164798283398" lon="121.3999317430532">
        <ele>21.003426077775657</ele>
        <time>2026-07-16T11:01:27Z</time>
      </trkpt>
      <trkpt lat="31.23119077546251" lon="121.39981772604689">
        <ele>21.138176443986595</ele>
        <time>2026-07-16T11:01:33Z</time>
      </trkpt>
      <trkpt lat="31.231167766930948" lon="121.3995977015366">
        <ele>21.706268790178</ele>
        <time>2026-07-16T11:01:42Z</time>
      </trkpt>
      <trkpt lat="31.23105380319232" lon="121.39938468822362">
        <ele>21.61378526967019</ele>
        <time>2026-07-16T11:01:54Z</time>
      </trkpt>
      <trkpt lat="31.23074794321743" lon="121.39936071243255">
        <ele>20.96114397328347</ele>
        <time>2026-07-16T11:02:15Z</time>
      </trkpt>
      <trkpt lat="31.230454080003856" lon="121.39936773878338">
        <ele>21.780251028947532</ele>
        <time>2026-07-16T11:02:33Z</time>
      </trkpt>
      <trkpt lat="31.230391110669178" lon="121.3993877463405">
        <ele>20.992851736955345</ele>
        <time>2026-07-16T11:02:36Z</time>
      </trkpt>
      <trkpt lat="31.230273170692897" lon="121.39945876412627">
        <ele>21.29671526234597</ele>
        <time>2026-07-16T11:02:42Z</time>
      </trkpt>
      <trkpt lat="31.23021219868467" lon="121.39945476901524">
        <ele>17.158913138322532</ele>
        <time>2026-07-16T11:02:45Z</time>
      </trkpt>
      <trkpt lat="31.23016722193802" lon="121.39948577628867">
        <ele>20.004646780900657</ele>
        <time>2026-07-16T11:02:48Z</time>
      </trkpt>
      <trkpt lat="31.22994732802951" lon="121.39953680109063">
        <ele>24.406670096330345</ele>
        <time>2026-07-16T11:03:00Z</time>
      </trkpt>
      <trkpt lat="31.229861371658025" lon="121.39958281377554">
        <ele>20.541023734025657</ele>
        <time>2026-07-16T11:03:03Z</time>
      </trkpt>
      <trkpt lat="31.229711469984277" lon="121.39990586640192">
        <ele>16.707085135392845</ele>
        <time>2026-07-16T11:03:18Z</time>
      </trkpt>
      <trkpt lat="31.22980346002241" lon="121.40022390267008">
        <ele>21.402405264787376</ele>
        <time>2026-07-16T11:03:36Z</time>
      </trkpt>
      <trkpt lat="31.229843449491014" lon="121.4002959099484">
        <ele>21.066833975724876</ele>
        <time>2026-07-16T11:03:39Z</time>
      </trkpt>
      <trkpt lat="31.229937413660334" lon="121.40036391217093">
        <ele>21.402405264787376</ele>
        <time>2026-07-16T11:03:45Z</time>
      </trkpt>
      <trkpt lat="31.23009634162122" lon="121.40037890063921">
        <ele>20.88716173451394</ele>
        <time>2026-07-16T11:03:55Z</time>
      </trkpt>
      <trkpt lat="31.230327228899142" lon="121.40033087308217">
        <ele>21.30728197377175</ele>
        <time>2026-07-16T11:04:07Z</time>
      </trkpt>
      <trkpt lat="31.23061208505547" lon="121.40022683257934">
        <ele>20.718056204728782</ele>
        <time>2026-07-16T11:04:19Z</time>
      </trkpt>
      <trkpt lat="31.23087095402186" lon="121.40012479519656">
        <ele>21.29671526234597</ele>
        <time>2026-07-16T11:04:34Z</time>
      </trkpt>
      <trkpt lat="31.230978900527887" lon="121.40009178110869">
        <ele>20.131470206193626</ele>
        <time>2026-07-16T11:04:40Z</time>
      </trkpt>
      <trkpt lat="31.23114281189625" lon="121.39996674963356">
        <ele>20.636147025041282</ele>
        <time>2026-07-16T11:04:52Z</time>
      </trkpt>
      <trkpt lat="31.231180786930825" lon="121.39989073627858">
        <ele>20.88716173451394</ele>
        <time>2026-07-16T11:04:58Z</time>
      </trkpt>
      <trkpt lat="31.23120276109751" lon="121.39971971287534">
        <ele>20.739197256974876</ele>
        <time>2026-07-16T11:05:04Z</time>
      </trkpt>
      <trkpt lat="31.23116176637132" lon="121.39955669739896">
        <ele>21.066833975724876</ele>
        <time>2026-07-16T11:05:10Z</time>
      </trkpt>
      <trkpt lat="31.23106679945267" lon="121.3994156903264">
        <ele>21.455254080705345</ele>
        <time>2026-07-16T11:05:19Z</time>
      </trkpt>
      <trkpt lat="31.23102481618705" lon="121.39937869013157">
        <ele>21.30728197377175</ele>
        <time>2026-07-16T11:05:23Z</time>
      </trkpt>
      <trkpt lat="31.2308958735697" lon="121.39934569799966">
        <ele>20.266228201799095</ele>
        <time>2026-07-16T11:05:32Z</time>
      </trkpt>
      <trkpt lat="31.23060500778339" lon="121.39933672245978">
        <ele>21.191025259904563</ele>
        <time>2026-07-16T11:05:47Z</time>
      </trkpt>
      <trkpt lat="31.23051205419915" lon="121.39938273527277">
        <ele>19.499969962053</ele>
        <time>2026-07-16T11:05:50Z</time>
      </trkpt>
      <trkpt lat="31.230373119089624" lon="121.39938874801364">
        <ele>20.657288077287376</ele>
        <time>2026-07-16T11:05:59Z</time>
      </trkpt>
      <trkpt lat="31.230057273752603" lon="121.39949578697056">
        <ele>20.89772844593972</ele>
        <time>2026-07-16T11:06:17Z</time>
      </trkpt>
      <trkpt lat="31.22998630771681" lon="121.39950879458745">
        <ele>19.95179796498269</ele>
        <time>2026-07-16T11:06:20Z</time>
      </trkpt>
      <trkpt lat="31.229896352981292" lon="121.39955280732866">
        <ele>19.35200548451394</ele>
        <time>2026-07-16T11:06:23Z</time>
      </trkpt>
      <trkpt lat="31.229808402596323" lon="121.3996588272093">
        <ele>20.6255803136155</ele>
        <time>2026-07-16T11:06:35Z</time>
      </trkpt>
      <trkpt lat="31.229755437093278" lon="121.39977184549392">
        <ele>21.08797502797097</ele>
        <time>2026-07-16T11:06:42Z</time>
      </trkpt>
      <trkpt lat="31.229756471166297" lon="121.40012489240993">
        <ele>19.994072440080345</ele>
        <time>2026-07-16T11:06:57Z</time>
      </trkpt>
      <trkpt lat="31.229823453391212" lon="121.40024790448466">
        <ele>20.572731497697532</ele>
        <time>2026-07-16T11:07:03Z</time>
      </trkpt>
      <trkpt lat="31.229869436855612" lon="121.40029090692515">
        <ele>20.77090502064675</ele>
        <time>2026-07-16T11:07:06Z</time>
      </trkpt>
      <trkpt lat="31.229974393710016" lon="121.40033990524036">
        <ele>20.541023734025657</ele>
        <time>2026-07-16T11:07:12Z</time>
      </trkpt>
      <trkpt lat="31.23019429243427" lon="121.40034688713685">
        <ele>21.621712210588157</ele>
        <time>2026-07-16T11:07:24Z</time>
      </trkpt>
      <trkpt lat="31.230530126171043" lon="121.40025484388742">
        <ele>19.28066301625222</ele>
        <time>2026-07-16T11:07:42Z</time>
      </trkpt>
      <trkpt lat="31.23083197496031" lon="121.40015180246162">
        <ele>20.95057726185769</ele>
        <time>2026-07-16T11:07:57Z</time>
      </trkpt>
      <trkpt lat="31.230953915043166" lon="121.40011978724841">
        <ele>20.89772844593972</ele>
        <time>2026-07-16T11:08:03Z</time>
      </trkpt>
      <trkpt lat="31.23112681950266" lon="121.39996875129695">
        <ele>18.387573721818626</ele>
        <time>2026-07-16T11:08:15Z</time>
      </trkpt>
      <trkpt lat="31.23117079289948" lon="121.39990473897747">
        <ele>19.111557486467063</ele>
        <time>2026-07-16T11:08:21Z</time>
      </trkpt>
      <trkpt lat="31.23119676858674" lon="121.39977271989343">
        <ele>20.6255803136155</ele>
        <time>2026-07-16T11:08:27Z</time>
      </trkpt>
      <trkpt lat="31.23116076756068" lon="121.3995656985017">
        <ele>20.792038443498313</ele>
        <time>2026-07-16T11:08:36Z</time>
      </trkpt>
      <trkpt lat="31.231110780570294" lon="121.39943568860473">
        <ele>20.813179495744407</ele>
        <time>2026-07-16T11:08:42Z</time>
      </trkpt>
      <trkpt lat="31.231045805664582" lon="121.39936768716781">
        <ele>20.781471732072532</ele>
        <time>2026-07-16T11:08:48Z</time>
      </trkpt>
      <trkpt lat="31.23097883462357" lon="121.39933869005347">
        <ele>19.02700090687722</ele>
        <time>2026-07-16T11:08:54Z</time>
      </trkpt>
      <trkpt lat="31.23083390293706" lon="121.39935470432133">
        <ele>17.261963370256126</ele>
        <time>2026-07-16T11:09:03Z</time>
      </trkpt>
      <trkpt lat="31.23076893234225" lon="121.39934470897111">
        <ele>21.28614855092019</ele>
        <time>2026-07-16T11:09:06Z</time>
      </trkpt>
      <trkpt lat="31.230495061862705" lon="121.39937973644477">
        <ele>20.477608206681907</ele>
        <time>2026-07-16T11:09:21Z</time>
      </trkpt>
      <trkpt lat="31.23021519638425" lon="121.39944276747042">
        <ele>20.22395372670144</ele>
        <time>2026-07-16T11:09:37Z</time>
      </trkpt>
      <trkpt lat="31.22992234099317" lon="121.39955380517425">
        <ele>20.636147025041282</ele>
        <time>2026-07-16T11:09:52Z</time>
      </trkpt>
      <trkpt lat="31.22978441416455" lon="121.39966382989216">
        <ele>22.16866350453347</ele>
        <time>2026-07-16T11:10:01Z</time>
      </trkpt>
      <trkpt lat="31.229720462190812" lon="121.3998678606802">
        <ele>21.130249503068626</ele>
        <time>2026-07-16T11:10:10Z</time>
      </trkpt>
      <trkpt lat="31.229766465784692" lon="121.40011789054239">
        <ele>20.604439261369407</ele>
        <time>2026-07-16T11:10:22Z</time>
      </trkpt>
      <trkpt lat="31.22983944808252" lon="121.40026690592813">
        <ele>19.301796439103782</ele>
        <time>2026-07-16T11:10:28Z</time>
      </trkpt>
      <trkpt lat="31.22993940960917" lon="121.4003369078309">
        <ele>20.30850267689675</ele>
        <time>2026-07-16T11:10:34Z</time>
      </trkpt>
      <trkpt lat="31.230171306356134" lon="121.40037489347755">
        <ele>20.173752310685813</ele>
        <time>2026-07-16T11:10:46Z</time>
      </trkpt>
      <trkpt lat="31.23045316602486" lon="121.40029185615953">
        <ele>20.07862901967019</ele>
        <time>2026-07-16T11:11:01Z</time>
      </trkpt>
      <trkpt lat="31.230682053161587" lon="121.40023182721579">
        <ele>20.992851736955345</ele>
        <time>2026-07-16T11:11:13Z</time>
      </trkpt>
      <trkpt lat="31.230982900347904" lon="121.40010778301775">
        <ele>20.802612784318626</ele>
        <time>2026-07-16T11:11:31Z</time>
      </trkpt>
      <trkpt lat="31.231072851836263" lon="121.40004176594395">
        <ele>18.765419485978782</ele>
        <time>2026-07-16T11:11:37Z</time>
      </trkpt>
      <trkpt lat="31.231170792229193" lon="121.39989773806269">
        <ele>20.6255803136155</ele>
        <time>2026-07-16T11:11:47Z</time>
      </trkpt>
      <trkpt lat="31.23119377527396" lon="121.39983072743165">
        <ele>21.138176443986595</ele>
        <time>2026-07-16T11:11:50Z</time>
      </trkpt>
      <trkpt lat="31.231189761508467" lon="121.3996547062446">
        <ele>19.994072440080345</ele>
        <time>2026-07-16T11:11:59Z</time>
      </trkpt>
      <trkpt lat="31.23106479963846" lon="121.39940568945133">
        <ele>19.28066301625222</ele>
        <time>2026-07-16T11:12:11Z</time>
      </trkpt>
      <trkpt lat="31.231009822122072" lon="121.39936468999878">
        <ele>20.530457022599876</ele>
        <time>2026-07-16T11:12:17Z</time>
      </trkpt>
      <trkpt lat="31.230687971167583" lon="121.39936271786861">
        <ele>17.81948137562722</ele>
        <time>2026-07-16T11:12:35Z</time>
      </trkpt>
      <trkpt lat="31.2305350416579" lon="121.39935673059475">
        <ele>20.36135149281472</ele>
        <time>2026-07-16T11:12:44Z</time>
      </trkpt>
      <trkpt lat="31.230405103303788" lon="121.39937574387878">
        <ele>20.519890311174095</ele>
        <time>2026-07-16T11:12:50Z</time>
      </trkpt>
      <trkpt lat="31.23010925134628" lon="121.39951778485643">
        <ele>20.258301260881126</ele>
        <time>2026-07-16T11:13:05Z</time>
      </trkpt>
      <trkpt lat="31.229959323498722" lon="121.39954980149902">
        <ele>19.56338548939675</ele>
        <time>2026-07-16T11:13:14Z</time>
      </trkpt>
      <trkpt lat="31.22981339782808" lon="121.39962982337478">
        <ele>20.498749258928</ele>
        <time>2026-07-16T11:13:24Z</time>
      </trkpt>
      <trkpt lat="31.229765424872117" lon="121.39968583416213">
        <ele>20.636147025041282</ele>
        <time>2026-07-16T11:13:30Z</time>
      </trkpt>
      <trkpt lat="31.229702487929355" lon="121.40004488589197">
        <ele>19.56338548939675</ele>
        <time>2026-07-16T11:13:39Z</time>
      </trkpt>
      <trkpt lat="31.229758476548845" lon="121.40018390073023">
        <ele>20.477608206681907</ele>
        <time>2026-07-16T11:13:45Z</time>
      </trkpt>
      <trkpt lat="31.229904424362747" lon="121.40032390889037">
        <ele>19.270088675431907</ele>
        <time>2026-07-16T11:13:54Z</time>
      </trkpt>
      <trkpt lat="31.230039367253504" lon="121.40037190451962">
        <ele>19.732491019181907</ele>
        <time>2026-07-16T11:14:00Z</time>
      </trkpt>
      <trkpt lat="31.230169306235062" lon="121.40036589225389">
        <ele>20.728622916154563</ele>
        <time>2026-07-16T11:14:06Z</time>
      </trkpt>
      <trkpt lat="31.230224277940245" lon="121.40034188375141">
        <ele>20.876595023088157</ele>
        <time>2026-07-16T11:14:10Z</time>
      </trkpt>
      <trkpt lat="31.23027525636545" lon="121.40035988208248">
        <ele>20.467041495256126</ele>
        <time>2026-07-16T11:14:13Z</time>
      </trkpt>
      <trkpt lat="31.2303971916534" lon="121.40028886058862">
        <ele>19.521111014299095</ele>
        <time>2026-07-16T11:14:22Z</time>
      </trkpt>
      <trkpt lat="31.23066605772174" lon="121.40020582477922">
        <ele>20.247734549455345</ele>
        <time>2026-07-16T11:14:34Z</time>
      </trkpt>
      <trkpt lat="31.230963908415617" lon="121.40010078368489">
        <ele>19.573952200822532</ele>
        <time>2026-07-16T11:14:52Z</time>
      </trkpt>
      <trkpt lat="31.23102387740301" lon="121.40006977410266">
        <ele>16.382088187150657</ele>
        <time>2026-07-16T11:14:55Z</time>
      </trkpt>
      <trkpt lat="31.231157801621794" lon="121.39993274379584">
        <ele>20.15261125843972</ele>
        <time>2026-07-16T11:15:04Z</time>
      </trkpt>
      <trkpt lat="31.231262729845817" lon="121.39967970283972">
        <ele>20.583298209123313</ele>
        <time>2026-07-16T11:15:19Z</time>
      </trkpt>
      <trkpt lat="31.231225739255635" lon="121.3995876953347">
        <ele>20.110336783342063</ele>
        <time>2026-07-16T11:15:22Z</time>
      </trkpt>
      <trkpt lat="31.231139771263905" lon="121.39948969189052">
        <ele>20.36135149281472</ele>
        <time>2026-07-16T11:15:25Z</time>
      </trkpt>
      <trkpt lat="31.23110778068836" lon="121.39941868706751">
        <ele>20.20546007435769</ele>
        <time>2026-07-16T11:15:28Z</time>
      </trkpt>
      <trkpt lat="31.230931854846848" lon="121.39931669193828">
        <ele>20.382492545060813</ele>
        <time>2026-07-16T11:15:40Z</time>
      </trkpt>
      <trkpt lat="31.23077792584858" lon="121.39931170486592">
        <ele>19.972939017228782</ele>
        <time>2026-07-16T11:15:49Z</time>
      </trkpt>
      <trkpt lat="31.2306919669643" lon="121.39932971416823">
        <ele>20.20546007435769</ele>
        <time>2026-07-16T11:15:55Z</time>
      </trkpt>
      <trkpt lat="31.230609004173672" lon="121.39931171960075">
        <ele>19.005867484025657</ele>
        <time>2026-07-16T11:15:58Z</time>
      </trkpt>
      <trkpt lat="31.230334139686722" lon="121.39942275497317">
        <ele>20.1631779698655</ele>
        <time>2026-07-16T11:16:19Z</time>
      </trkpt>
      <trkpt lat="31.230278166108512" lon="121.39942876049004">
        <ele>18.670296194963157</ele>
        <time>2026-07-16T11:16:22Z</time>
      </trkpt>
      <trkpt lat="31.230103252641417" lon="121.39949878328845">
        <ele>20.08919573109597</ele>
        <time>2026-07-16T11:16:31Z</time>
      </trkpt>
      <trkpt lat="31.229966317785067" lon="121.39951879743462">
        <ele>20.184319022111595</ele>
        <time>2026-07-16T11:16:37Z</time>
      </trkpt>
      <trkpt lat="31.2298523759994" lon="121.39958481478824">
        <ele>19.983505728654563</ele>
        <time>2026-07-16T11:16:43Z</time>
      </trkpt>
      <trkpt lat="31.229774420434993" lon="121.3996828330196">
        <ele>20.184319022111595</ele>
        <time>2026-07-16T11:16:49Z</time>
      </trkpt>
      <trkpt lat="31.229749436932575" lon="121.39973884195744">
        <ele>19.478828909806907</ele>
        <time>2026-07-16T11:16:52Z</time>
      </trkpt>
      <trkpt lat="31.229728463148632" lon="121.39991686636309">
        <ele>20.509315970353782</ele>
        <time>2026-07-16T11:17:01Z</time>
      </trkpt>
      <trkpt lat="31.22975147044233" lon="121.40009588873758">
        <ele>20.403625967912376</ele>
        <time>2026-07-16T11:17:10Z</time>
      </trkpt>
      <trkpt lat="31.229893425940993" lon="121.4002929051351">
        <ele>20.057487967424095</ele>
        <time>2026-07-16T11:17:22Z</time>
      </trkpt>
      <trkpt lat="31.22994040845544" lon="121.40033090682321">
        <ele>20.541023734025657</ele>
        <time>2026-07-16T11:17:25Z</time>
      </trkpt>
      <trkpt lat="31.23015631041042" lon="121.40034989091245">
        <ele>20.572731497697532</ele>
        <time>2026-07-16T11:17:37Z</time>
      </trkpt>
      <trkpt lat="31.23047715354318" lon="121.40027985225633">
        <ele>19.248955252580345</ele>
        <time>2026-07-16T11:17:55Z</time>
      </trkpt>
      <trkpt lat="31.230691048990362" lon="121.4002318264311">
        <ele>20.247734549455345</ele>
        <time>2026-07-16T11:18:07Z</time>
      </trkpt>
      <trkpt lat="31.230950916222064" lon="121.40011778722577">
        <ele>20.20546007435769</ele>
        <time>2026-07-16T11:18:22Z</time>
      </trkpt>
      <trkpt lat="31.231129818904837" lon="121.39997675211092">
        <ele>19.206673148088157</ele>
        <time>2026-07-16T11:18:34Z</time>
      </trkpt>
      <trkpt lat="31.23118777972659" lon="121.39984873024898">
        <ele>19.972939017228782</ele>
        <time>2026-07-16T11:18:43Z</time>
      </trkpt>
      <trkpt lat="31.23117475646033" lon="121.39950769081096">
        <ele>20.48818254750222</ele>
        <time>2026-07-16T11:18:55Z</time>
      </trkpt>
      <trkpt lat="31.231051801024922" lon="121.3993416839924">
        <ele>20.08919573109597</ele>
        <time>2026-07-16T11:19:04Z</time>
      </trkpt>
      <trkpt lat="31.23083089983711" lon="121.3992906981616">
        <ele>20.30850267689675</ele>
        <time>2026-07-16T11:19:16Z</time>
      </trkpt>
      <trkpt lat="31.230781924343944" lon="121.3993167050166">
        <ele>20.046921255998313</ele>
        <time>2026-07-16T11:19:19Z</time>
      </trkpt>
      <trkpt lat="31.230720952821798" lon="121.39931971063538">
        <ele>20.21602678578347</ele>
        <time>2026-07-16T11:19:22Z</time>
      </trkpt>
      <trkpt lat="31.230623995424228" lon="121.39928571571696">
        <ele>20.004646780900657</ele>
        <time>2026-07-16T11:19:25Z</time>
      </trkpt>
      <trkpt lat="31.230355129500715" lon="121.39941675250975">
        <ele>20.300575735978782</ele>
        <time>2026-07-16T11:19:43Z</time>
      </trkpt>
      <trkpt lat="31.230308156686466" lon="121.39948776421319">
        <ele>20.23452043812722</ele>
        <time>2026-07-21T07:30:33Z</time>
      </trkpt>
      <trkpt lat="31.230260178409363" lon="121.39948076763656">
        <ele>20.665215018205345</ele>
        <time>2026-07-16T11:19:49Z</time>
      </trkpt>
      <trkpt lat="31.2299543284899" lon="121.39958280566727">
        <ele>20.971718314103782</ele>
        <time>2026-07-16T11:20:11Z</time>
      </trkpt>
      <trkpt lat="31.22988436655154" lon="121.39964981952375">
        <ele>16.53797960560769</ele>
        <time>2026-07-16T11:20:17Z</time>
      </trkpt>
      <trkpt lat="31.229774430992087" lon="121.39980184757756">
        <ele>20.657288077287376</ele>
        <time>2026-07-16T11:20:20Z</time>
      </trkpt>
      <trkpt lat="31.229723467797715" lon="121.39994086997008">
        <ele>21.138176443986595</ele>
        <time>2026-07-16T11:20:26Z</time>
      </trkpt>
      <trkpt lat="31.22972348146838" lon="121.40007688851111">
        <ele>20.42476702015847</ele>
        <time>2026-07-16T11:20:32Z</time>
      </trkpt>
      <trkpt lat="31.22973948043705" lon="121.40013789574806">
        <ele>20.61500597279519</ele>
        <time>2026-07-16T11:20:35Z</time>
      </trkpt>
      <trkpt lat="31.22981645630784" lon="121.4002449046485">
        <ele>20.89772844593972</ele>
        <time>2026-07-16T11:20:41Z</time>
      </trkpt>
      <trkpt lat="31.22981645630784" lon="121.4002449046485">
        <ele>9.98154571838677</ele>
        <time>2026-07-16T11:20:43Z</time>
      </trkpt>
    </trkseg>
  </trk>
</gpx>