<?xml version="1.0" encoding="UTF-8"?>
<gpx xmlns="http://www.topografix.com/GPX/1/1" xmlns:gpxtpx="http://www.garmin.com/xmlschemas/TrackPointExtension/v1" xmlns:xsi="http://www.w3.org/2001/XMLSchema-instance" xsi:schemaLocation="http://www.topografix.com/GPX/1/1 http://www.topografix.com/GPX/1/1/gpx.xsd" version="1.1" creator="gpx.py -- https://github.com/tkrajina/gpxpy">
  <trk>
    <name>gpx from keep</name>
    <type>Run</type>
    <trkseg>
      <trkpt lat="32.05190330032352" lon="118.80387684549595">
        <ele>6.851529981009662</ele>
        <time>2026-08-14T10:37:54Z</time>
      </trkpt>
      <trkpt lat="32.05191470066072" lon="118.80410529534875">
        <ele>8.92835798393935</ele>
        <time>2026-08-14T10:38:03Z</time>
      </trkpt>
      <trkpt lat="32.051987006879415" lon="118.80427161752536">
        <ele>7.501531506888568</ele>
        <time>2026-08-14T10:38:09Z</time>
      </trkpt>
      <trkpt lat="32.05216110376437" lon="118.80443042055572">
        <ele>7.406408215872943</ele>
        <time>2026-08-14T10:38:15Z</time>
      </trkpt>
      <trkpt lat="32.05213919826408" lon="118.80436178200414">
        <ele>6.568807507865131</ele>
        <time>2026-08-14T10:38:18Z</time>
      </trkpt>
      <trkpt lat="32.05246752010941" lon="118.8045040336769">
        <ele>6.568807507865131</ele>
        <time>2026-08-14T10:38:39Z</time>
      </trkpt>
      <trkpt lat="32.05261866069668" lon="118.8045651409612">
        <ele>7.406408215872943</ele>
        <time>2026-08-14T10:38:48Z</time>
      </trkpt>
      <trkpt lat="32.052885797367246" lon="118.80460920385563">
        <ele>7.091977979056537</ele>
        <time>2026-08-14T10:39:00Z</time>
      </trkpt>
      <trkpt lat="32.05301091468773" lon="118.80466029374836">
        <ele>5.842183972708881</ele>
        <time>2026-08-14T10:39:06Z</time>
      </trkpt>
      <trkpt lat="32.05316791633588" lon="118.80464124154584">
        <ele>7.229375745169818</ele>
        <time>2026-08-14T10:39:12Z</time>
      </trkpt>
      <trkpt lat="32.053321750745425" lon="118.80452700086853">
        <ele>8.288930798880756</ele>
        <time>2026-08-14T10:39:19Z</time>
      </trkpt>
      <trkpt lat="32.053381625691266" lon="118.80444783849815">
        <ele>8.151533032767475</ele>
        <time>2026-08-14T10:39:22Z</time>
      </trkpt>
      <trkpt lat="32.05343033903949" lon="118.80427749679534">
        <ele>6.870023633353412</ele>
        <time>2026-08-14T10:39:28Z</time>
      </trkpt>
      <trkpt lat="32.05342718799393" lon="118.80419132666532">
        <ele>7.731405164115131</ele>
        <time>2026-08-14T10:39:31Z</time>
      </trkpt>
      <trkpt lat="32.05339501836765" lon="118.80409814546557">
        <ele>7.533239270560443</ele>
        <time>2026-08-14T10:39:34Z</time>
      </trkpt>
      <trkpt lat="32.05332882034876" lon="118.80399294380038">
        <ele>8.098684216849506</ele>
        <time>2026-08-14T10:39:37Z</time>
      </trkpt>
      <trkpt lat="32.05319460385105" lon="118.80388574461486">
        <ele>3.7336482061073184</ele>
        <time>2026-08-14T10:39:43Z</time>
      </trkpt>
      <trkpt lat="32.053064489467914" lon="118.80383665977098">
        <ele>6.608442212454975</ele>
        <time>2026-08-14T10:39:49Z</time>
      </trkpt>
      <trkpt lat="32.0529904991231" lon="118.80385169619919">
        <ele>7.670637036673725</ele>
        <time>2026-08-14T10:39:52Z</time>
      </trkpt>
      <trkpt lat="32.05268123511695" lon="118.80373950348213">
        <ele>4.88831892143935</ele>
        <time>2026-08-14T10:40:04Z</time>
      </trkpt>
      <trkpt lat="32.052392981171316" lon="118.8036303149585">
        <ele>6.756406689994037</ele>
        <time>2026-08-14T10:40:16Z</time>
      </trkpt>
      <trkpt lat="32.052251880142926" lon="118.80359024907129">
        <ele>6.788114453665912</ele>
        <time>2026-08-14T10:40:22Z</time>
      </trkpt>
      <trkpt lat="32.05217890038922" lon="118.80361129717319">
        <ele>5.065351392142475</ele>
        <time>2026-08-14T10:40:25Z</time>
      </trkpt>
      <trkpt lat="32.05199102377904" lon="118.80370650179385">
        <ele>5.044217969290912</ele>
        <time>2026-08-14T10:40:31Z</time>
      </trkpt>
      <trkpt lat="32.05193315016454" lon="118.80378666500121">
        <ele>6.619008923880756</ele>
        <time>2026-08-14T10:40:34Z</time>
      </trkpt>
      <trkpt lat="32.051891320312215" lon="118.80388987228311">
        <ele>6.97572126518935</ele>
        <time>2026-08-14T10:40:37Z</time>
      </trkpt>
      <trkpt lat="32.051899662382034" lon="118.8040852571439">
        <ele>6.714132214896381</ele>
        <time>2026-08-14T10:40:43Z</time>
      </trkpt>
      <trkpt lat="32.05191678671423" lon="118.804154392172">
        <ele>8.204374219290912</ele>
        <time>2026-08-14T10:40:47Z</time>
      </trkpt>
      <trkpt lat="32.051997016106924" lon="118.80427562453455">
        <ele>6.357427502982318</ele>
        <time>2026-08-14T10:40:50Z</time>
      </trkpt>
      <trkpt lat="32.052136241358674" lon="118.80438683187197">
        <ele>7.271650220267475</ele>
        <time>2026-08-14T10:40:56Z</time>
      </trkpt>
      <trkpt lat="32.05242444569301" lon="118.80446696416634">
        <ele>6.587301160208881</ele>
        <time>2026-08-14T10:41:08Z</time>
      </trkpt>
      <trkpt lat="32.05250755531542" lon="118.80451905978911">
        <ele>7.155393506400287</ele>
        <time>2026-08-14T10:41:11Z</time>
      </trkpt>
      <trkpt lat="32.05278676653296" lon="118.80460420301682">
        <ele>3.7442149175330997</ele>
        <time>2026-08-14T10:41:20Z</time>
      </trkpt>
      <trkpt lat="32.05309596696682" lon="118.80467932371653">
        <ele>6.809255505912006</ele>
        <time>2026-08-14T10:41:32Z</time>
      </trkpt>
      <trkpt lat="32.053255892088096" lon="118.80461618376445">
        <ele>7.081411267630756</ele>
        <time>2026-08-14T10:41:38Z</time>
      </trkpt>
      <trkpt lat="32.05332080836918" lon="118.80456006651205">
        <ele>7.395841504447162</ele>
        <time>2026-08-14T10:41:41Z</time>
      </trkpt>
      <trkpt lat="32.05337069331575" lon="118.80448791891746">
        <ele>7.049703503958881</ele>
        <time>2026-08-14T10:41:44Z</time>
      </trkpt>
      <trkpt lat="32.05342341095865" lon="118.80431958070353">
        <ele>6.745839978568256</ele>
        <time>2026-08-14T10:41:50Z</time>
      </trkpt>
      <trkpt lat="32.053412081548" lon="118.80413221120708">
        <ele>6.650716687552631</ele>
        <time>2026-08-14T10:41:56Z</time>
      </trkpt>
      <trkpt lat="32.05337292091583" lon="118.80404504261018">
        <ele>6.714132214896381</ele>
        <time>2026-08-14T10:41:59Z</time>
      </trkpt>
      <trkpt lat="32.05326469792164" lon="118.80393082710731">
        <ele>6.933439160697162</ele>
        <time>2026-08-14T10:42:05Z</time>
      </trkpt>
      <trkpt lat="32.053080548812524" lon="118.80386872150763">
        <ele>5.443197156302631</ele>
        <time>2026-08-14T10:42:14Z</time>
      </trkpt>
      <trkpt lat="32.05292938445415" lon="118.80379358727171">
        <ele>7.4486826909706</ele>
        <time>2026-08-14T10:42:20Z</time>
      </trkpt>
      <trkpt lat="32.052795330198755" lon="118.80377957195086">
        <ele>7.070836926810443</ele>
        <time>2026-08-14T10:42:32Z</time>
      </trkpt>
      <trkpt lat="32.052473051213084" lon="118.80366036675845">
        <ele>7.155393506400287</ele>
        <time>2026-08-14T10:42:41Z</time>
      </trkpt>
      <trkpt lat="32.05226691131892" lon="118.80360627922843">
        <ele>6.870023633353412</ele>
        <time>2026-08-14T10:42:50Z</time>
      </trkpt>
      <trkpt lat="32.052128917071805" lon="118.80362733331064">
        <ele>6.410268689505756</ele>
        <time>2026-08-14T10:42:57Z</time>
      </trkpt>
      <trkpt lat="32.05200202101022" lon="118.80370349486446">
        <ele>6.619008923880756</ele>
        <time>2026-08-14T10:43:03Z</time>
      </trkpt>
      <trkpt lat="32.051902225145106" lon="118.80383376065224">
        <ele>6.294011975638568</ele>
        <time>2026-08-14T10:43:09Z</time>
      </trkpt>
      <trkpt lat="32.05187542313144" lon="118.80395099430903">
        <ele>4.383649731986225</ele>
        <time>2026-08-14T10:43:12Z</time>
      </trkpt>
      <trkpt lat="32.0519127596118" lon="118.80413936283944">
        <ele>6.484258557669818</ele>
        <time>2026-08-14T10:43:18Z</time>
      </trkpt>
      <trkpt lat="32.05194791948315" lon="118.80422653193466">
        <ele>6.492185498587787</ele>
        <time>2026-08-14T10:43:21Z</time>
      </trkpt>
      <trkpt lat="32.05199805831389" lon="118.8042996720176">
        <ele>6.745839978568256</ele>
        <time>2026-08-14T10:43:24Z</time>
      </trkpt>
      <trkpt lat="32.05206316905844" lon="118.80435477510481">
        <ele>6.441976453177631</ele>
        <time>2026-08-14T10:43:27Z</time>
      </trkpt>
      <trkpt lat="32.05234531423543" lon="118.80440184242428">
        <ele>5.947873975150287</ele>
        <time>2026-08-14T10:43:39Z</time>
      </trkpt>
      <trkpt lat="32.052627638159315" lon="118.80455111232128">
        <ele>6.650716687552631</ele>
        <time>2026-08-14T10:43:51Z</time>
      </trkpt>
      <trkpt lat="32.05292285823467" lon="118.80463926008578">
        <ele>6.315153027884662</ele>
        <time>2026-08-14T10:44:04Z</time>
      </trkpt>
      <trkpt lat="32.0530749482496" lon="118.8046713097385">
        <ele>6.420843030326068</ele>
        <time>2026-08-14T10:44:10Z</time>
      </trkpt>
      <trkpt lat="32.05317094332011" lon="118.80465627109129">
        <ele>6.568807507865131</ele>
        <time>2026-08-14T10:44:13Z</time>
      </trkpt>
      <trkpt lat="32.053328731273396" lon="118.80451497639255">
        <ele>6.692998792044818</ele>
        <time>2026-08-14T10:44:22Z</time>
      </trkpt>
      <trkpt lat="32.05338759725279" lon="118.80443080420591">
        <ele>6.798688794486225</ele>
        <time>2026-08-14T10:44:25Z</time>
      </trkpt>
      <trkpt lat="32.05342631016344" lon="118.80426146545052">
        <ele>6.904378796927631</ele>
        <time>2026-08-14T10:44:31Z</time>
      </trkpt>
      <trkpt lat="32.05342415761244" lon="118.80417429327039">
        <ele>6.505391980521381</ele>
        <time>2026-08-14T10:44:34Z</time>
      </trkpt>
      <trkpt lat="32.05340101621082" lon="118.80409614095562">
        <ele>7.469823743216693</ele>
        <time>2026-08-14T10:44:37Z</time>
      </trkpt>
      <trkpt lat="32.053306770079615" lon="118.80396689441213">
        <ele>6.64014997612685</ele>
        <time>2026-08-14T10:44:43Z</time>
      </trkpt>
      <trkpt lat="32.05317559438731" lon="118.80388274043405">
        <ele>7.197667981497943</ele>
        <time>2026-08-14T10:44:49Z</time>
      </trkpt>
      <trkpt lat="32.052865356253164" lon="118.80378557736101">
        <ele>7.081411267630756</ele>
        <time>2026-08-14T10:45:01Z</time>
      </trkpt>
      <trkpt lat="32.05255211408051" lon="118.80368641077538">
        <ele>6.074705029837787</ele>
        <time>2026-08-14T10:45:16Z</time>
      </trkpt>
      <trkpt lat="32.05226689392439" lon="118.80359625951796">
        <ele>5.937307263724506</ele>
        <time>2026-08-14T10:45:28Z</time>
      </trkpt>
      <trkpt lat="32.05219687135436" lon="118.80359225806863">
        <ele>6.09583845268935</ele>
        <time>2026-08-14T10:45:31Z</time>
      </trkpt>
      <trkpt lat="32.05201199190654" lon="118.80368545843866">
        <ele>6.555593396537006</ele>
        <time>2026-08-14T10:45:40Z</time>
      </trkpt>
      <trkpt lat="32.051944170041025" lon="118.80379668373214">
        <ele>6.283445264212787</ele>
        <time>2026-08-14T10:45:46Z</time>
      </trkpt>
      <trkpt lat="32.05190833805492" lon="118.80389788652764">
        <ele>4.909459973685443</ele>
        <time>2026-08-14T10:45:49Z</time>
      </trkpt>
      <trkpt lat="32.0518965918661" lon="118.80404517827225">
        <ele>5.821042920462787</ele>
        <time>2026-08-14T10:45:55Z</time>
      </trkpt>
      <trkpt lat="32.05191273515208" lon="118.80412533512256">
        <ele>4.238325024954975</ele>
        <time>2026-08-14T10:45:58Z</time>
      </trkpt>
      <trkpt lat="32.051988995082255" lon="118.80426460346773">
        <ele>6.336286450736225</ele>
        <time>2026-08-14T10:46:05Z</time>
      </trkpt>
      <trkpt lat="32.05216926622755" lon="118.80439684867883">
        <ele>5.717992688529193</ele>
        <time>2026-08-14T10:46:14Z</time>
      </trkpt>
      <trkpt lat="32.05249851300303" lon="118.80449601494234">
        <ele>6.251737500540912</ele>
        <time>2026-08-14T10:46:32Z</time>
      </trkpt>
      <trkpt lat="32.05276375263765" lon="118.80459919519393">
        <ele>7.060270215384662</ele>
        <time>2026-08-14T10:46:44Z</time>
      </trkpt>
      <trkpt lat="32.053100982119844" lon="118.80468733916598">
        <ele>6.661291028372943</ele>
        <time>2026-08-14T10:46:59Z</time>
      </trkpt>
      <trkpt lat="32.05323793368522" lon="118.80464223710068">
        <ele>6.336286450736225</ele>
        <time>2026-08-14T10:47:05Z</time>
      </trkpt>
      <trkpt lat="32.05336079098344" lon="118.80454503303754">
        <ele>6.346860791556537</ele>
        <time>2026-08-14T10:47:11Z</time>
      </trkpt>
      <trkpt lat="32.05342067817194" lon="118.80447288454104">
        <ele>7.060270215384662</ele>
        <time>2026-08-14T10:47:14Z</time>
      </trkpt>
      <trkpt lat="32.053439370782215" lon="118.80429452966716">
        <ele>5.749700452201068</ele>
        <time>2026-08-14T10:47:20Z</time>
      </trkpt>
      <trkpt lat="32.053386009376574" lon="118.80409413837592">
        <ele>4.499906445853412</ele>
        <time>2026-08-14T10:47:29Z</time>
      </trkpt>
      <trkpt lat="32.05326572779851" lon="118.80394786061856">
        <ele>6.357427502982318</ele>
        <time>2026-08-14T10:47:35Z</time>
      </trkpt>
      <trkpt lat="32.05301047394938" lon="118.80383466078463">
        <ele>4.793203259818256</ele>
        <time>2026-08-14T10:47:47Z</time>
      </trkpt>
      <trkpt lat="32.052808289549624" lon="118.80375452141065">
        <ele>3.4297846807166934</ele>
        <time>2026-08-14T10:47:56Z</time>
      </trkpt>
      <trkpt lat="32.052626242012884" lon="118.8037505302455">
        <ele>6.074705029837787</ele>
        <time>2026-08-14T10:48:05Z</time>
      </trkpt>
      <trkpt lat="32.0525361679641" lon="118.8037194773466">
        <ele>5.739133740775287</ele>
        <time>2026-08-14T10:48:11Z</time>
      </trkpt>
      <trkpt lat="32.052407989735926" lon="118.80363331949438">
        <ele>-2.0265065180137753</ele>
        <time>2026-08-14T10:48:14Z</time>
      </trkpt>
      <trkpt lat="32.05220989512685" lon="118.8036042805256">
        <ele>4.676938916556537</ele>
        <time>2026-08-14T10:48:23Z</time>
      </trkpt>
      <trkpt lat="32.052118902662684" lon="118.80362032042989">
        <ele>3.228971387259662</ele>
        <time>2026-08-14T10:48:26Z</time>
      </trkpt>
      <trkpt lat="32.051989016369006" lon="118.80370249408665">
        <ele>6.138120557181537</ele>
        <time>2026-08-14T10:48:33Z</time>
      </trkpt>
      <trkpt lat="32.05192221915074" lon="118.80382774696491">
        <ele>5.234456921927631</ele>
        <time>2026-08-14T10:48:39Z</time>
      </trkpt>
      <trkpt lat="32.05189735129502" lon="118.80390690532288">
        <ele>6.230596448294818</ele>
        <time>2026-08-14T10:48:42Z</time>
      </trkpt>
      <trkpt lat="32.05193074615638" lon="118.80412934138701">
        <ele>6.000722791068256</ele>
        <time>2026-08-14T10:48:51Z</time>
      </trkpt>
      <trkpt lat="32.051980972310446" lon="118.8042525804211">
        <ele>5.905599500052631</ele>
        <time>2026-08-14T10:48:54Z</time>
      </trkpt>
      <trkpt lat="32.052130229516195" lon="118.80438082052036">
        <ele>5.329580212943256</ele>
        <time>2026-08-14T10:49:03Z</time>
      </trkpt>
      <trkpt lat="32.05240248458794" lon="118.80449201582252">
        <ele>5.728567029349506</ele>
        <time>2026-08-14T10:49:15Z</time>
      </trkpt>
      <trkpt lat="32.05262966314898" lon="118.80456513995028">
        <ele>4.383649731986225</ele>
        <time>2026-08-14T10:49:24Z</time>
      </trkpt>
      <trkpt lat="32.05292384442391" lon="118.80463124409101">
        <ele>5.947873975150287</ele>
        <time>2026-08-14T10:49:37Z</time>
      </trkpt>
      <trkpt lat="32.053141947386166" lon="118.80466228568588">
        <ele>6.692998792044818</ele>
        <time>2026-08-14T10:49:46Z</time>
      </trkpt>
      <trkpt lat="32.053253881119176" lon="118.80461017202316">
        <ele>5.852750684134662</ele>
        <time>2026-08-14T10:49:49Z</time>
      </trkpt>
      <trkpt lat="32.05332480224769" lon="118.80455605819786">
        <ele>6.714132214896381</ele>
        <time>2026-08-14T10:49:52Z</time>
      </trkpt>
      <trkpt lat="32.05337967955167" lon="118.80447890022121">
        <ele>6.420843030326068</ele>
        <time>2026-08-14T10:49:55Z</time>
      </trkpt>
      <trkpt lat="32.053412534529386" lon="118.80439172452033">
        <ele>5.192182446829975</ele>
        <time>2026-08-14T10:49:58Z</time>
      </trkpt>
      <trkpt lat="32.0534232500389" lon="118.80422739835103">
        <ele>5.760274793021381</ele>
        <time>2026-08-14T10:50:04Z</time>
      </trkpt>
      <trkpt lat="32.053397025799775" lon="118.8041021531989">
        <ele>6.180395032279193</ele>
        <time>2026-08-14T10:50:07Z</time>
      </trkpt>
      <trkpt lat="32.053241675356205" lon="118.80392080945704">
        <ele>5.937307263724506</ele>
        <time>2026-08-14T10:50:16Z</time>
      </trkpt>
      <trkpt lat="32.05294739717701" lon="118.80379859548866">
        <ele>5.717992688529193</ele>
        <time>2026-08-14T10:50:28Z</time>
      </trkpt>
      <trkpt lat="32.0525851284008" lon="118.80369041563208">
        <ele>6.389135266654193</ele>
        <time>2026-08-14T10:50:43Z</time>
      </trkpt>
      <trkpt lat="32.0523229116318" lon="118.80359926028342">
        <ele>6.156614209525287</ele>
        <time>2026-08-14T10:50:55Z</time>
      </trkpt>
      <trkpt lat="32.052191870239135" lon="118.80359225852823">
        <ele>5.025716687552631</ele>
        <time>2026-08-14T10:51:01Z</time>
      </trkpt>
      <trkpt lat="32.05203694004926" lon="118.80365239105923">
        <ele>5.863317395560443</ele>
        <time>2026-08-14T10:51:07Z</time>
      </trkpt>
      <trkpt lat="32.05197901239708" lon="118.80370149303312">
        <ele>5.506612683646381</ele>
        <time>2026-08-14T10:51:10Z</time>
      </trkpt>
      <trkpt lat="32.05191319274562" lon="118.80381372014665">
        <ele>5.139341260306537</ele>
        <time>2026-08-14T10:51:16Z</time>
      </trkpt>
      <trkpt lat="32.05188237410814" lon="118.80392193634484">
        <ele>5.297872449271381</ele>
        <time>2026-08-14T10:51:19Z</time>
      </trkpt>
      <trkpt lat="32.05188352961394" lon="118.80401111221235">
        <ele>5.570028210990131</ele>
        <time>2026-08-14T10:51:22Z</time>
      </trkpt>
      <trkpt lat="32.051951897646774" lon="118.80421350581145">
        <ele>5.213323499076068</ele>
        <time>2026-08-14T10:51:28Z</time>
      </trkpt>
      <trkpt lat="32.0519990602865" lon="118.80430067390819">
        <ele>6.568807507865131</ele>
        <time>2026-08-14T10:51:31Z</time>
      </trkpt>
      <trkpt lat="32.05219930618807" lon="118.80441588362153">
        <ele>5.591169263236225</ele>
        <time>2026-08-14T10:51:40Z</time>
      </trkpt>
      <trkpt lat="32.05247450940397" lon="118.80449701913363">
        <ele>4.782628918997943</ele>
        <time>2026-08-14T10:51:53Z</time>
      </trkpt>
      <trkpt lat="32.052628669939054" lon="118.80456914798928">
        <ele>6.2411631597206</ele>
        <time>2026-08-14T10:51:59Z</time>
      </trkpt>
      <trkpt lat="32.05291985230338" lon="118.80463625439778">
        <ele>4.9517344487831</ele>
        <time>2026-08-14T10:52:11Z</time>
      </trkpt>
      <trkpt lat="32.05315191803404" lon="118.80464424898021">
        <ele>6.167180920951068</ele>
        <time>2026-08-14T10:52:20Z</time>
      </trkpt>
      <trkpt lat="32.05328780452443" lon="118.80456207351826">
        <ele>5.044217969290912</ele>
        <time>2026-08-14T10:52:26Z</time>
      </trkpt>
      <trkpt lat="32.0533815976677" lon="118.80443180674196">
        <ele>5.065351392142475</ele>
        <time>2026-08-14T10:52:32Z</time>
      </trkpt>
      <trkpt lat="32.05341235777096" lon="118.80429052421913">
        <ele>4.983442212454975</ele>
        <time>2026-08-14T10:52:38Z</time>
      </trkpt>
      <trkpt lat="32.053413218089574" lon="118.80421036558955">
        <ele>5.234456921927631</ele>
        <time>2026-08-14T10:52:41Z</time>
      </trkpt>
      <trkpt lat="32.05336892875441" lon="118.80405005286997">
        <ele>4.026937390677631</ele>
        <time>2026-08-14T10:52:47Z</time>
      </trkpt>
      <trkpt lat="32.05329273730221" lon="118.80394986209046">
        <ele>5.01514997612685</ele>
        <time>2026-08-14T10:52:53Z</time>
      </trkpt>
      <trkpt lat="32.0531435192706" lon="118.80384366633463">
        <ele>4.2066172612831</ele>
        <time>2026-08-14T10:52:59Z</time>
      </trkpt>
      <trkpt lat="32.05306344916276" lon="118.80381361444306">
        <ele>5.09705915581435</ele>
        <time>2026-08-14T10:53:05Z</time>
      </trkpt>
      <trkpt lat="32.05293341845102" lon="118.80381262441782">
        <ele>4.196042920462787</ele>
        <time>2026-08-14T10:53:11Z</time>
      </trkpt>
      <trkpt lat="32.05264618204127" lon="118.80371345539776">
        <ele>5.075925732962787</ele>
        <time>2026-08-14T10:53:26Z</time>
      </trkpt>
      <trkpt lat="32.052383968725344" lon="118.80362430395688">
        <ele>4.647878552787006</ele>
        <time>2026-08-14T10:53:38Z</time>
      </trkpt>
      <trkpt lat="32.052195897222774" lon="118.80360728772584">
        <ele>4.521047498099506</ele>
        <time>2026-08-14T10:53:47Z</time>
      </trkpt>
      <trkpt lat="32.05212689748839" lon="118.80361631180924">
        <ele>5.810476209037006</ele>
        <time>2026-08-14T10:53:50Z</time>
      </trkpt>
      <trkpt lat="32.05194211384871" lon="118.80376462074744">
        <ele>5.09705915581435</ele>
        <time>2026-08-14T10:53:56Z</time>
      </trkpt>
      <trkpt lat="32.05189950351438" lon="118.80399407712153">
        <ele>2.1905573857948184</ele>
        <time>2026-08-14T10:54:05Z</time>
      </trkpt>
      <trkpt lat="32.0519066709298" lon="118.8040892644167">
        <ele>4.552755261771381</ele>
        <time>2026-08-14T10:54:08Z</time>
      </trkpt>
      <trkpt lat="32.05197399873186" lon="118.8042686127741">
        <ele>3.250112439505756</ele>
        <time>2026-08-14T10:54:15Z</time>
      </trkpt>
      <trkpt lat="32.05202312513234" lon="118.80433473911678">
        <ele>4.058645154349506</ele>
        <time>2026-08-14T10:54:18Z</time>
      </trkpt>
      <trkpt lat="32.052170278707024" lon="118.80440386247564">
        <ele>4.132635022513568</ele>
        <time>2026-08-14T10:54:24Z</time>
      </trkpt>
      <trkpt lat="32.05247647655925" lon="118.80447798122528">
        <ele>4.383649731986225</ele>
        <time>2026-08-14T10:54:39Z</time>
      </trkpt>
      <trkpt lat="32.052802696453206" lon="118.80456211809114">
        <ele>5.4141367925331</ele>
        <time>2026-08-14T10:54:54Z</time>
      </trkpt>
      <trkpt lat="32.053012888816724" lon="118.8046452637425">
        <ele>2.800924207083881</ele>
        <time>2026-08-14T10:55:03Z</time>
      </trkpt>
      <trkpt lat="32.05314591669724" lon="118.80464424953162">
        <ele>3.7759226812049747</ele>
        <time>2026-08-14T10:55:09Z</time>
      </trkpt>
      <trkpt lat="32.053275843931665" lon="118.80458612230663">
        <ele>4.100927258841693</ele>
        <time>2026-08-14T10:55:15Z</time>
      </trkpt>
      <trkpt lat="32.053393570569476" lon="118.80441477190263">
        <ele>7.144826794974506</ele>
        <time>2026-08-14T10:55:24Z</time>
      </trkpt>
      <trkpt lat="32.05342344945723" lon="118.80434162432981">
        <ele>5.654584790579975</ele>
        <time>2026-08-14T10:55:27Z</time>
      </trkpt>
      <trkpt lat="32.05342632415556" lon="118.80426948130622">
        <ele>14.096647168509662</ele>
        <time>2026-08-14T10:55:31Z</time>
      </trkpt>
      <trkpt lat="32.0533600227985" lon="118.80410516253771">
        <ele>4.457631970755756</ele>
        <time>2026-08-14T10:55:40Z</time>
      </trkpt>
      <trkpt lat="32.05337691684149" lon="118.8040261388193">
        <ele>4.655805493704975</ele>
        <time>2026-08-14T10:55:43Z</time>
      </trkpt>
      <trkpt lat="32.0532176595452" lon="118.80391479980523">
        <ele>4.941167737357318</ele>
        <time>2026-08-14T10:55:49Z</time>
      </trkpt>
      <trkpt lat="32.053083561684716" lon="118.80387573506076">
        <ele>3.8604792607948184</ele>
        <time>2026-08-14T10:55:58Z</time>
      </trkpt>
      <trkpt lat="32.052937346169024" lon="118.80377054113296">
        <ele>6.661291028372943</ele>
        <time>2026-08-14T10:56:13Z</time>
      </trkpt>
      <trkpt lat="32.052755291670096" lon="118.80376254207168">
        <ele>3.9846629155799747</ele>
        <time>2026-08-14T10:56:19Z</time>
      </trkpt>
      <trkpt lat="32.052476098875864" lon="118.80368741973369">
        <ele>4.394216443412006</ele>
        <time>2026-08-14T10:56:31Z</time>
      </trkpt>
      <trkpt lat="32.05241311964507" lon="118.80370746497755">
        <ele>10.378965283744037</ele>
        <time>2026-08-14T10:56:34Z</time>
      </trkpt>
      <trkpt lat="32.052395005977026" lon="118.80364434237777">
        <ele>3.6702326787635684</ele>
        <time>2026-08-14T10:56:37Z</time>
      </trkpt>
      <trkpt lat="32.052346010711254" lon="118.80365336462835">
        <ele>3.7019404424354434</ele>
        <time>2026-08-14T10:56:40Z</time>
      </trkpt>
      <trkpt lat="32.0522539223362" lon="118.80361429619295">
        <ele>4.164335156790912</ele>
        <time>2026-08-14T10:56:43Z</time>
      </trkpt>
      <trkpt lat="32.052065021137686" lon="118.80369547329232">
        <ele>7.2399424565956</ele>
        <time>2026-08-14T10:56:55Z</time>
      </trkpt>
      <trkpt lat="32.05197717914585" lon="118.80379768267325">
        <ele>3.691373731009662</ele>
        <time>2026-08-14T10:57:01Z</time>
      </trkpt>
      <trkpt lat="32.051913508383215" lon="118.80399507781232">
        <ele>4.521047498099506</ele>
        <time>2026-08-14T10:57:10Z</time>
      </trkpt>
      <trkpt lat="32.051932764074124" lon="118.80413936100129">
        <ele>3.691373731009662</ele>
        <time>2026-08-14T10:57:16Z</time>
      </trkpt>
      <trkpt lat="32.051980989799475" lon="118.80426260023916">
        <ele>4.909459973685443</ele>
        <time>2026-08-14T10:57:20Z</time>
      </trkpt>
      <trkpt lat="32.052049127432646" lon="118.80433273276122">
        <ele>4.761495496146381</ele>
        <time>2026-08-14T10:57:23Z</time>
      </trkpt>
      <trkpt lat="32.05213824355553" lon="118.80438783367205">
        <ele>4.803769971244037</ele>
        <time>2026-08-14T10:57:26Z</time>
      </trkpt>
      <trkpt lat="32.05242843432233" lon="118.8044599499029">
        <ele>5.118200208060443</ele>
        <time>2026-08-14T10:57:38Z</time>
      </trkpt>
      <trkpt lat="32.05272666724087" lon="118.80455511116921">
        <ele>5.1604746831581</ele>
        <time>2026-08-14T10:57:53Z</time>
      </trkpt>
      <trkpt lat="32.05300788419389" lon="118.80464326022602">
        <ele>4.772062207572162</ele>
        <time>2026-08-14T10:58:05Z</time>
      </trkpt>
      <trkpt lat="32.05321090135722" lon="118.8046272097642">
        <ele>4.573888684622943</ele>
        <time>2026-08-14T10:58:14Z</time>
      </trkpt>
      <trkpt lat="32.05328584089884" lon="118.8045831154264">
        <ele>4.2885264409706</ele>
        <time>2026-08-14T10:58:17Z</time>
      </trkpt>
      <trkpt lat="32.05339367391009" lon="118.80447388900781">
        <ele>4.2885264409706</ele>
        <time>2026-08-14T10:58:23Z</time>
      </trkpt>
      <trkpt lat="32.05342054856715" lon="118.80439873767341">
        <ele>4.563321973197162</ele>
        <time>2026-08-14T10:58:26Z</time>
      </trkpt>
      <trkpt lat="32.05342825639802" lon="118.80423040383559">
        <ele>5.128766919486225</ele>
        <time>2026-08-14T10:58:32Z</time>
      </trkpt>
      <trkpt lat="32.05338696070075" lon="118.80406608287312">
        <ele>4.750921155326068</ele>
        <time>2026-08-14T10:58:38Z</time>
      </trkpt>
      <trkpt lat="32.053278714994754" lon="118.80393884163315">
        <ele>4.605596448294818</ele>
        <time>2026-08-14T10:58:44Z</time>
      </trkpt>
      <trkpt lat="32.05302844833408" lon="118.80381762555865">
        <ele>4.626737500540912</ele>
        <time>2026-08-14T10:58:56Z</time>
      </trkpt>
      <trkpt lat="32.052701223902716" lon="118.80373048388427">
        <ele>5.276739026419818</ele>
        <time>2026-08-14T10:59:12Z</time>
      </trkpt>
      <trkpt lat="32.05253110243573" lon="118.80368240481594">
        <ele>5.118200208060443</ele>
        <time>2026-08-14T10:59:21Z</time>
      </trkpt>
      <trkpt lat="32.05237393518151" lon="118.80360626939301">
        <ele>3.9740962041541934</ele>
        <time>2026-08-14T10:59:27Z</time>
      </trkpt>
      <trkpt lat="32.05223685244878" lon="118.80357622285966">
        <ele>5.234456921927631</ele>
        <time>2026-08-14T10:59:33Z</time>
      </trkpt>
      <trkpt lat="32.05215884548594" lon="118.80358224185349">
        <ele>5.308446790091693</ele>
        <time>2026-08-14T10:59:36Z</time>
      </trkpt>
      <trkpt lat="32.05201102649999" lon="118.80370549798273">
        <ele>4.909459973685443</ele>
        <time>2026-08-14T10:59:42Z</time>
      </trkpt>
      <trkpt lat="32.05190030488459" lon="118.80387985169855">
        <ele>4.793203259818256</ele>
        <time>2026-08-14T10:59:48Z</time>
      </trkpt>
      <trkpt lat="32.0519047089102" lon="118.80411130814414">
        <ele>5.01514997612685</ele>
        <time>2026-08-14T10:59:57Z</time>
      </trkpt>
      <trkpt lat="32.05194692975107" lon="118.80423254391467">
        <ele>6.011289502494037</ele>
        <time>2026-08-14T11:00:00Z</time>
      </trkpt>
      <trkpt lat="32.051998082808254" lon="118.80431369977394">
        <ele>4.048078442923725</ele>
        <time>2026-08-14T11:00:03Z</time>
      </trkpt>
      <trkpt lat="32.05225332873921" lon="118.80442189056518">
        <ele>4.563321973197162</ele>
        <time>2026-08-14T11:00:15Z</time>
      </trkpt>
      <trkpt lat="32.05246349819004" lon="118.80449201021649">
        <ele>5.400922681204975</ele>
        <time>2026-08-14T11:00:24Z</time>
      </trkpt>
      <trkpt lat="32.05259554163891" lon="118.80450001397048">
        <ele>4.983442212454975</ele>
        <time>2026-08-14T11:00:30Z</time>
      </trkpt>
      <trkpt lat="32.05287274536789" lon="118.80458114940812">
        <ele>4.698079968802631</ele>
        <time>2026-08-14T11:00:42Z</time>
      </trkpt>
      <trkpt lat="32.05308890750583" lon="118.80464625874605">
        <ele>4.037511731497943</ele>
        <time>2026-08-14T11:00:54Z</time>
      </trkpt>
      <trkpt lat="32.05318989317053" lon="118.8046252077187">
        <ele>5.054784680716693</ele>
        <time>2026-08-14T11:01:00Z</time>
      </trkpt>
      <trkpt lat="32.05328081348443" lon="118.8045680860821">
        <ele>5.025716687552631</ele>
        <time>2026-08-14T11:01:06Z</time>
      </trkpt>
      <trkpt lat="32.053307693300056" lon="118.80449594059225">
        <ele>5.8316172612831</ele>
        <time>2026-08-14T11:01:12Z</time>
      </trkpt>
      <trkpt lat="32.05337952892989" lon="118.80439272953728">
        <ele>6.220029736869037</ele>
        <time>2026-08-14T11:01:18Z</time>
      </trkpt>
      <trkpt lat="32.05339332205265" lon="118.80427249028543">
        <ele>5.538320447318256</ele>
        <time>2026-08-14T11:01:24Z</time>
      </trkpt>
      <trkpt lat="32.05335699069134" lon="118.8040871271875">
        <ele>5.474904919974506</ele>
        <time>2026-08-14T11:01:33Z</time>
      </trkpt>
      <trkpt lat="32.05319263479236" lon="118.80390378036535">
        <ele>5.4960459722206</ele>
        <time>2026-08-14T11:01:45Z</time>
      </trkpt>
      <trkpt lat="32.05292339531313" lon="118.80380060164339">
        <ele>5.400922681204975</ele>
        <time>2026-08-14T11:01:58Z</time>
      </trkpt>
      <trkpt lat="32.05271025203066" lon="118.8037455126569">
        <ele>4.330800916068256</ele>
        <time>2026-08-14T11:02:10Z</time>
      </trkpt>
      <trkpt lat="32.0524480143153" lon="118.80364233356252">
        <ele>5.379781628958881</ele>
        <time>2026-08-14T11:02:19Z</time>
      </trkpt>
      <trkpt lat="32.05228491359387" lon="118.80360527560275">
        <ele>6.545026685111225</ele>
        <time>2026-08-14T11:02:25Z</time>
      </trkpt>
      <trkpt lat="32.05206192648505" lon="118.80364136707148">
        <ele>6.146047498099506</ele>
        <time>2026-08-14T11:02:34Z</time>
      </trkpt>
      <trkpt lat="32.0519600743234" lon="118.80373956975434">
        <ele>6.777547742240131</ele>
        <time>2026-08-14T11:02:40Z</time>
      </trkpt>
      <trkpt lat="32.051919232423835" lon="118.80383576303952">
        <ele>5.654584790579975</ele>
        <time>2026-08-14T11:02:43Z</time>
      </trkpt>
      <trkpt lat="32.05189649411946" lon="118.80398906750985">
        <ele>5.149907971732318</ele>
        <time>2026-08-14T11:02:50Z</time>
      </trkpt>
      <trkpt lat="32.05189870407786" lon="118.80410930473676">
        <ele>5.707425977103412</ele>
        <time>2026-08-14T11:02:53Z</time>
      </trkpt>
      <trkpt lat="32.05196699017401" lon="118.80426460548964">
        <ele>3.5249079717323184</ele>
        <time>2026-08-14T11:03:02Z</time>
      </trkpt>
      <trkpt lat="32.05208121508454" lon="118.80437882105608">
        <ele>5.485479260794818</ele>
        <time>2026-08-14T11:03:05Z</time>
      </trkpt>
      <trkpt lat="32.05214427640953" lon="118.80440586883348">
        <ele>5.09705915581435</ele>
        <time>2026-08-14T11:03:08Z</time>
      </trkpt>
      <trkpt lat="32.05228434265806" lon="118.80442589565412">
        <ele>4.552755261771381</ele>
        <time>2026-08-14T11:03:14Z</time>
      </trkpt>
      <trkpt lat="32.05233840724559" lon="118.80445595023403">
        <ele>5.371854688040912</ele>
        <time>2026-08-14T11:03:17Z</time>
      </trkpt>
      <trkpt lat="32.05247346187471" lon="118.80446996561871">
        <ele>4.846044446341693</ele>
        <time>2026-08-14T11:03:23Z</time>
      </trkpt>
      <trkpt lat="32.05275972368863" lon="118.80458316376703">
        <ele>5.802549268119037</ele>
        <time>2026-08-14T11:03:35Z</time>
      </trkpt>
      <trkpt lat="32.052994897086364" lon="118.80465227931323">
        <ele>6.09583845268935</ele>
        <time>2026-08-14T11:03:44Z</time>
      </trkpt>
      <trkpt lat="32.05319793529996" lon="118.8046482527049">
        <ele>6.862104321829975</ele>
        <time>2026-08-14T11:03:53Z</time>
      </trkpt>
      <trkpt lat="32.05331783049311" lon="118.80457309261588">
        <ele>6.944013501517475</ele>
        <time>2026-08-14T11:04:00Z</time>
      </trkpt>
      <trkpt lat="32.05339466537324" lon="118.80446887898957">
        <ele>4.048078442923725</ele>
        <time>2026-08-14T11:04:06Z</time>
      </trkpt>
      <trkpt lat="32.05340447322859" lon="118.80435765780915">
        <ele>6.011289502494037</ele>
        <time>2026-08-14T11:04:09Z</time>
      </trkpt>
      <trkpt lat="32.05339411248405" lon="118.80415225246091">
        <ele>5.644010449759662</ele>
        <time>2026-08-14T11:04:12Z</time>
      </trkpt>
      <trkpt lat="32.05335391319195" lon="118.8040430403998">
        <ele>5.474904919974506</ele>
        <time>2026-08-14T11:04:15Z</time>
      </trkpt>
      <trkpt lat="32.053215655611645" lon="118.80391279603657">
        <ele>5.778768445365131</ele>
        <time>2026-08-14T11:04:21Z</time>
      </trkpt>
      <trkpt lat="32.0529274014317" lon="118.8038036071989">
        <ele>5.760274793021381</ele>
        <time>2026-08-14T11:04:33Z</time>
      </trkpt>
      <trkpt lat="32.05260815964145" lon="118.80370544310784">
        <ele>4.983442212454975</ele>
        <time>2026-08-14T11:04:48Z</time>
      </trkpt>
      <trkpt lat="32.05233890998179" lon="118.80359625289974">
        <ele>4.436490918509662</ele>
        <time>2026-08-14T11:05:00Z</time>
      </trkpt>
      <trkpt lat="32.05213890190483" lon="118.80361731267752">
        <ele>5.075925732962787</ele>
        <time>2026-08-14T11:05:09Z</time>
      </trkpt>
      <trkpt lat="32.05207092675275" lon="118.80364036427251">
        <ele>6.074705029837787</ele>
        <time>2026-08-14T11:05:12Z</time>
      </trkpt>
      <trkpt lat="32.05196908155582" lon="118.80374257484719">
        <ele>4.185476209037006</ele>
        <time>2026-08-14T11:05:18Z</time>
      </trkpt>
      <trkpt lat="32.05190942548414" lon="118.80394798525366">
        <ele>2.988523389212787</ele>
        <time>2026-08-14T11:05:27Z</time>
      </trkpt>
      <trkpt lat="32.05191886056539" lon="118.80419647516814">
        <ele>4.909459973685443</ele>
        <time>2026-08-14T11:05:37Z</time>
      </trkpt>
      <trkpt lat="32.05196500197117" lon="118.80427161954727">
        <ele>4.941167737357318</ele>
        <time>2026-08-14T11:05:40Z</time>
      </trkpt>
      <trkpt lat="32.0520391339518" lon="118.80433774359554">
        <ele>4.238325024954975</ele>
        <time>2026-08-14T11:05:43Z</time>
      </trkpt>
      <trkpt lat="32.05218928994896" lon="118.80440786866626">
        <ele>4.814336682669818</ele>
        <time>2026-08-14T11:05:49Z</time>
      </trkpt>
      <trkpt lat="32.05245748458709" lon="118.80448499686928">
        <ele>5.4141367925331</ele>
        <time>2026-08-14T11:06:01Z</time>
      </trkpt>
      <trkpt lat="32.05271570862036" lon="118.80458016184967">
        <ele>2.243406201712787</ele>
        <time>2026-08-14T11:06:13Z</time>
      </trkpt>
      <trkpt lat="32.05297593320812" lon="118.80467532679047">
        <ele>4.846044446341693</ele>
        <time>2026-08-14T11:06:25Z</time>
      </trkpt>
      <trkpt lat="32.053054961340884" lon="118.8046813314616">
        <ele>4.048078442923725</ele>
        <time>2026-08-14T11:06:28Z</time>
      </trkpt>
      <trkpt lat="32.05317295078378" lon="118.8046602788604">
        <ele>4.920026685111225</ele>
        <time>2026-08-14T11:06:34Z</time>
      </trkpt>
      <trkpt lat="32.05331481053898" lon="118.80456207103686">
        <ele>4.037511731497943</ele>
        <time>2026-08-14T11:06:40Z</time>
      </trkpt>
      <trkpt lat="32.05339159814373" lon="118.80443080383827">
        <ele>4.761495496146381</ele>
        <time>2026-08-14T11:06:46Z</time>
      </trkpt>
      <trkpt lat="32.05341647940204" lon="118.80435966067317">
        <ele>5.35072126518935</ele>
        <time>2026-08-14T11:06:49Z</time>
      </trkpt>
      <trkpt lat="32.053416267713864" lon="118.80423842079023">
        <ele>4.729787732474506</ele>
        <time>2026-08-14T11:06:55Z</time>
      </trkpt>
      <trkpt lat="32.05336996913774" lon="118.80407309828719">
        <ele>4.196042920462787</ele>
        <time>2026-08-14T11:07:01Z</time>
      </trkpt>
      <trkpt lat="32.05329075953653" lon="118.80396288797448">
        <ele>4.793203259818256</ele>
        <time>2026-08-14T11:07:07Z</time>
      </trkpt>
      <trkpt lat="32.05306152365988" lon="118.80385669954933">
        <ele>4.761495496146381</ele>
        <time>2026-08-14T11:07:19Z</time>
      </trkpt>
      <trkpt lat="32.05278932015133" lon="118.80377456263248">
        <ele>4.867185498587787</ele>
        <time>2026-08-14T11:07:31Z</time>
      </trkpt>
      <trkpt lat="32.052482077585715" lon="118.8036743935413">
        <ele>5.234456921927631</ele>
        <time>2026-08-14T11:07:46Z</time>
      </trkpt>
      <trkpt lat="32.05228092661833" lon="118.80361329173986">
        <ele>15.869611646048725</ele>
        <time>2026-08-14T11:07:55Z</time>
      </trkpt>
      <trkpt lat="32.05215391220958" lon="118.80362131918409">
        <ele>4.4153574956581</ele>
        <time>2026-08-14T11:07:58Z</time>
      </trkpt>
      <trkpt lat="32.05208694598277" lon="118.80364938054772">
        <ele>4.196042920462787</ele>
        <time>2026-08-14T11:08:01Z</time>
      </trkpt>
      <trkpt lat="32.05202493737219" lon="118.80365239216225">
        <ele>5.329580212943256</ele>
        <time>2026-08-14T11:08:07Z</time>
      </trkpt>
      <trkpt lat="32.05193727478641" lon="118.80385780483743">
        <ele>4.542180920951068</ele>
        <time>2026-08-14T11:08:16Z</time>
      </trkpt>
      <trkpt lat="32.05191860899623" lon="118.80405219009914">
        <ele>5.453771497122943</ele>
        <time>2026-08-14T11:08:25Z</time>
      </trkpt>
      <trkpt lat="32.05192377953904" lon="118.80414938162818">
        <ele>4.666372205130756</ele>
        <time>2026-08-14T11:08:32Z</time>
      </trkpt>
      <trkpt lat="32.05198400446102" lon="118.80427061581905">
        <ele>4.499906445853412</ele>
        <time>2026-08-14T11:08:38Z</time>
      </trkpt>
      <trkpt lat="32.05211119201827" lon="118.80436178457744">
        <ele>4.552755261771381</ele>
        <time>2026-08-14T11:08:47Z</time>
      </trkpt>
      <trkpt lat="32.05236941415877" lon="118.80445594738504">
        <ele>5.297872449271381</ele>
        <time>2026-08-14T11:08:59Z</time>
      </trkpt>
      <trkpt lat="32.05262867695229" lon="118.80457315593661">
        <ele>5.255597974173725</ele>
        <time>2026-08-14T11:09:11Z</time>
      </trkpt>
      <trkpt lat="32.052831834444945" lon="118.80463726447293">
        <ele>4.941167737357318</ele>
        <time>2026-08-14T11:09:20Z</time>
      </trkpt>
      <trkpt lat="32.0531429423453" lon="118.80465927962919">
        <ele>5.266164685599506</ele>
        <time>2026-08-14T11:09:32Z</time>
      </trkpt>
      <trkpt lat="32.053294855178386" lon="118.80459012850893">
        <ele>4.962308789603412</ele>
        <time>2026-08-14T11:09:38Z</time>
      </trkpt>
      <trkpt lat="32.05335376137889" lon="118.80452900189992">
        <ele>6.30457868706435</ele>
        <time>2026-08-14T11:09:41Z</time>
      </trkpt>
      <trkpt lat="32.053398638235905" lon="118.80445284686039">
        <ele>5.107633496634662</ele>
        <time>2026-08-14T11:09:44Z</time>
      </trkpt>
      <trkpt lat="32.053426488630826" lon="118.80436366768812">
        <ele>4.930601025931537</ele>
        <time>2026-08-14T11:09:47Z</time>
      </trkpt>
      <trkpt lat="32.053408131329576" lon="118.80416126899598">
        <ele>3.250112439505756</ele>
        <time>2026-08-14T11:09:53Z</time>
      </trkpt>
      <trkpt lat="32.05332084474527" lon="118.8040079742006">
        <ele>4.930601025931537</ele>
        <time>2026-08-14T11:09:59Z</time>
      </trkpt>
      <trkpt lat="32.05322664236705" lon="118.80390377724017">
        <ele>5.065351392142475</ele>
        <time>2026-08-14T11:10:02Z</time>
      </trkpt>
      <trkpt lat="32.0531495415242" lon="118.8038556894853">
        <ele>4.164335156790912</ele>
        <time>2026-08-14T11:10:05Z</time>
      </trkpt>
      <trkpt lat="32.052872363039754" lon="118.80378858264">
        <ele>4.793203259818256</ele>
        <time>2026-08-14T11:10:20Z</time>
      </trkpt>
      <trkpt lat="32.052765285190276" lon="118.80375753128403">
        <ele>4.698079968802631</ele>
        <time>2026-08-14T11:10:26Z</time>
      </trkpt>
      <trkpt lat="32.05271127663677" lon="118.80375954019495">
        <ele>4.47877302300185</ele>
        <time>2026-08-14T11:10:29Z</time>
      </trkpt>
      <trkpt lat="32.052445057152234" lon="118.80366738313684">
        <ele>5.065351392142475</ele>
        <time>2026-08-14T11:10:42Z</time>
      </trkpt>
      <trkpt lat="32.05238399656385" lon="118.80364033550194">
        <ele>6.650716687552631</ele>
        <time>2026-08-14T11:10:45Z</time>
      </trkpt>
      <trkpt lat="32.05230396132363" lon="118.80363032313933">
        <ele>5.453771497122943</ele>
        <time>2026-08-14T11:10:48Z</time>
      </trkpt>
      <trkpt lat="32.05205296450207" lon="118.80366441325245">
        <ele>4.647878552787006</ele>
        <time>2026-08-14T11:10:54Z</time>
      </trkpt>
      <trkpt lat="32.05199205708355" lon="118.80372553918794">
        <ele>5.09705915581435</ele>
        <time>2026-08-14T11:10:57Z</time>
      </trkpt>
      <trkpt lat="32.05190427090995" lon="118.8038598118212">
        <ele>4.909459973685443</ele>
        <time>2026-08-14T11:11:03Z</time>
      </trkpt>
      <trkpt lat="32.05189047184088" lon="118.8039770443332">
        <ele>4.814336682669818</ele>
        <time>2026-08-14T11:11:06Z</time>
      </trkpt>
      <trkpt lat="32.05192378827604" lon="118.80415439152864">
        <ele>3.9846629155799747</ele>
        <time>2026-08-14T11:11:12Z</time>
      </trkpt>
      <trkpt lat="32.05197602016779" lon="118.80428063637524">
        <ele>-6.103540514595807</ele>
        <time>2026-08-14T11:11:18Z</time>
      </trkpt>
      <trkpt lat="32.05204314009431" lon="118.80434074917729">
        <ele>4.814336682669818</ele>
        <time>2026-08-14T11:11:21Z</time>
      </trkpt>
      <trkpt lat="32.052194312077496" lon="118.80441989201859">
        <ele>4.994016553275287</ele>
        <time>2026-08-14T11:11:27Z</time>
      </trkpt>
      <trkpt lat="32.05245551568131" lon="118.80450303279397">
        <ele>4.856611157767475</ele>
        <time>2026-08-14T11:11:39Z</time>
      </trkpt>
      <trkpt lat="32.05272172749288" lon="118.80459018116886">
        <ele>4.404783154837787</ele>
        <time>2026-08-14T11:11:51Z</time>
      </trkpt>
      <trkpt lat="32.05297291850196" lon="118.80466731115875">
        <ele>4.0797862065956</ele>
        <time>2026-08-14T11:12:04Z</time>
      </trkpt>
      <trkpt lat="32.05302799568955" lon="118.80470437968461">
        <ele>4.962308789603412</ele>
        <time>2026-08-14T11:12:07Z</time>
      </trkpt>
      <trkpt lat="32.053238949697246" lon="118.8046512549012">
        <ele>4.552755261771381</ele>
        <time>2026-08-14T11:12:16Z</time>
      </trkpt>
      <trkpt lat="32.05331584582819" lon="118.80458211068228">
        <ele>3.4614924443885684</ele>
        <time>2026-08-14T11:12:19Z</time>
      </trkpt>
      <trkpt lat="32.053408530136885" lon="118.80438972092001">
        <ele>3.553975964896381</ele>
        <time>2026-08-14T11:12:28Z</time>
      </trkpt>
      <trkpt lat="32.053432391966865" lon="118.8043075560835">
        <ele>4.47877302300185</ele>
        <time>2026-08-14T11:12:31Z</time>
      </trkpt>
      <trkpt lat="32.05334995595162" lon="118.80406809023145">
        <ele>5.1604746831581</ele>
        <time>2026-08-14T11:12:40Z</time>
      </trkpt>
      <trkpt lat="32.05328777806078" lon="118.8039739099987">
        <ele>2.6635264409705997</ele>
        <time>2026-08-14T11:12:43Z</time>
      </trkpt>
      <trkpt lat="32.053208633125486" lon="118.80390077296653">
        <ele>4.499906445853412</ele>
        <time>2026-08-14T11:12:46Z</time>
      </trkpt>
      <trkpt lat="32.052896396265375" lon="118.80380461202277">
        <ele>4.185476209037006</ele>
        <time>2026-08-14T11:13:01Z</time>
      </trkpt>
      <trkpt lat="32.052710255513794" lon="118.80374751660385">
        <ele>4.88831892143935</ele>
        <time>2026-08-14T11:13:10Z</time>
      </trkpt>
      <trkpt lat="32.052452004767176" lon="118.80363632136473">
        <ele>4.238325024954975</ele>
        <time>2026-08-14T11:13:22Z</time>
      </trkpt>
      <trkpt lat="32.05229191863408" lon="118.80360727890157">
        <ele>4.729787732474506</ele>
        <time>2026-08-14T11:13:31Z</time>
      </trkpt>
      <trkpt lat="32.05206689976171" lon="118.80362533506667">
        <ele>4.88831892143935</ele>
        <time>2026-08-14T11:13:40Z</time>
      </trkpt>
      <trkpt lat="32.05193621007547" lon="118.80382073185497">
        <ele>5.128766919486225</ele>
        <time>2026-08-14T11:13:52Z</time>
      </trkpt>
      <trkpt lat="32.05189063767128" lon="118.8040722322453">
        <ele>3.6807993901893497</ele>
        <time>2026-08-14T11:14:02Z</time>
      </trkpt>
      <trkpt lat="32.05194491182008" lon="118.80422252428528">
        <ele>4.425924207083881</ele>
        <time>2026-08-14T11:14:08Z</time>
      </trkpt>
      <trkpt lat="32.05203118992598" lon="118.8043708097817">
        <ele>4.835477734915912</ele>
        <time>2026-08-14T11:14:14Z</time>
      </trkpt>
      <trkpt lat="32.05212232228695" lon="118.80443492840361">
        <ele>3.345235730521381</ele>
        <time>2026-08-14T11:14:23Z</time>
      </trkpt>
      <trkpt lat="32.05246251548981" lon="118.80450203016493">
        <ele>3.5354746831580997</ele>
        <time>2026-08-14T11:14:35Z</time>
      </trkpt>
      <trkpt lat="32.052706736424554" lon="118.80459719645775">
        <ele>4.542180920951068</ele>
        <time>2026-08-14T11:14:44Z</time>
      </trkpt>
      <trkpt lat="32.05303298802807" lon="118.80469936928056">
        <ele>3.627958203665912</ele>
        <time>2026-08-14T11:15:00Z</time>
      </trkpt>
      <trkpt lat="32.05317698150431" lon="118.80467731229548">
        <ele>4.499906445853412</ele>
        <time>2026-08-14T11:15:06Z</time>
      </trkpt>
      <trkpt lat="32.053328827683465" lon="118.80457008564437">
        <ele>3.147062207572162</ele>
        <time>2026-08-14T11:15:12Z</time>
      </trkpt>
      <trkpt lat="32.053399563150464" lon="118.80440976142958">
        <ele>4.531614209525287</ele>
        <time>2026-08-14T11:15:18Z</time>
      </trkpt>
      <trkpt lat="32.05341942056666" lon="118.80432559296847">
        <ele>4.761495496146381</ele>
        <time>2026-08-14T11:15:21Z</time>
      </trkpt>
      <trkpt lat="32.05341715255791" lon="118.80417228995282">
        <ele>4.793203259818256</ele>
        <time>2026-08-14T11:15:27Z</time>
      </trkpt>
      <trkpt lat="32.05336293440185" lon="118.80405406133546">
        <ele>5.118200208060443</ele>
        <time>2026-08-14T11:15:33Z</time>
      </trkpt>
      <trkpt lat="32.053289755824395" lon="118.80396088411234">
        <ele>4.920026685111225</ele>
        <time>2026-08-14T11:15:36Z</time>
      </trkpt>
      <trkpt lat="32.053101522113884" lon="118.80385068402116">
        <ele>4.330800916068256</ele>
        <time>2026-08-14T11:15:45Z</time>
      </trkpt>
      <trkpt lat="32.05283430927862" lon="118.80376253481013">
        <ele>4.613523389212787</ele>
        <time>2026-08-14T11:16:00Z</time>
      </trkpt>
      <trkpt lat="32.05252308498689" lon="118.80367338780036">
        <ele>4.330800916068256</ele>
        <time>2026-08-14T11:16:15Z</time>
      </trkpt>
      <trkpt lat="32.05232094249775" lon="118.80361729594821">
        <ele>3.8710459722205997</ele>
        <time>2026-08-14T11:16:27Z</time>
      </trkpt>
      <trkpt lat="32.05220999430193" lon="118.80366139290513">
        <ele>4.499906445853412</ele>
        <time>2026-08-14T11:16:33Z</time>
      </trkpt>
      <trkpt lat="32.05210399328346" lon="118.80367442828641">
        <ele>6.09583845268935</ele>
        <time>2026-08-14T11:16:39Z</time>
      </trkpt>
      <trkpt lat="32.051979156943226" lon="118.80378465682493">
        <ele>4.687505627982318</ele>
        <time>2026-08-14T11:16:49Z</time>
      </trkpt>
      <trkpt lat="32.051920337244844" lon="118.80389588147283">
        <ele>4.47877302300185</ele>
        <time>2026-08-14T11:16:55Z</time>
      </trkpt>
      <trkpt lat="32.05190464952649" lon="118.80407724085278">
        <ele>5.075925732962787</ele>
        <time>2026-08-14T11:17:04Z</time>
      </trkpt>
      <trkpt lat="32.05192079284907" lon="118.80415739774483">
        <ele>5.075925732962787</ele>
        <time>2026-08-14T11:17:07Z</time>
      </trkpt>
      <trkpt lat="32.052017101045074" lon="118.80432171388996">
        <ele>5.760274793021381</ele>
        <time>2026-08-14T11:17:13Z</time>
      </trkpt>
      <trkpt lat="32.05208219955265" lon="118.80436980311102">
        <ele>5.485479260794818</ele>
        <time>2026-08-14T11:17:16Z</time>
      </trkpt>
      <trkpt lat="32.05239042584866" lon="118.80445995339521">
        <ele>5.947873975150287</ele>
        <time>2026-08-14T11:17:28Z</time>
      </trkpt>
      <trkpt lat="32.05254752918501" lon="118.80449901639611">
        <ele>5.580594922415912</ele>
        <time>2026-08-14T11:17:34Z</time>
      </trkpt>
      <trkpt lat="32.05285078956669" lon="118.80460920707218">
        <ele>6.103765393607318</ele>
        <time>2026-08-14T11:17:46Z</time>
      </trkpt>
      <trkpt lat="32.0529799130434" lon="118.8046633025621">
        <ele>5.601735974662006</ele>
        <time>2026-08-14T11:17:52Z</time>
      </trkpt>
      <trkpt lat="32.053171973371306" lon="118.804673304801">
        <ele>5.591169263236225</ele>
        <time>2026-08-14T11:18:01Z</time>
      </trkpt>
      <trkpt lat="32.05323593674829" lon="118.80464424126048">
        <ele>5.266164685599506</ele>
        <time>2026-08-14T11:18:04Z</time>
      </trkpt>
      <trkpt lat="32.05337864429133" lon="118.80445886060862">
        <ele>-1.920816515572369</ele>
        <time>2026-08-14T11:18:13Z</time>
      </trkpt>
      <trkpt lat="32.0534263906305" lon="118.80430755663495">
        <ele>4.856611157767475</ele>
        <time>2026-08-14T11:18:19Z</time>
      </trkpt>
      <trkpt lat="32.05339809415439" lon="118.8041412303128">
        <ele>3.9423884404823184</ele>
        <time>2026-08-14T11:18:25Z</time>
      </trkpt>
      <trkpt lat="32.053289766292664" lon="118.8039668959747">
        <ele>2.811490918509662</ele>
        <time>2026-08-14T11:18:34Z</time>
      </trkpt>
      <trkpt lat="32.05314656177466" lon="118.8038677134656">
        <ele>4.217183972708881</ele>
        <time>2026-08-14T11:18:43Z</time>
      </trkpt>
      <trkpt lat="32.052825335143375" lon="118.8037785672193">
        <ele>1.6039790166541934</ele>
        <time>2026-08-14T11:18:55Z</time>
      </trkpt>
      <trkpt lat="32.05255614456627" lon="118.80370344394208">
        <ele>3.691373731009662</ele>
        <time>2026-08-14T11:19:07Z</time>
      </trkpt>
      <trkpt lat="32.05226889610984" lon="118.8035972613051">
        <ele>3.553975964896381</ele>
        <time>2026-08-14T11:19:19Z</time>
      </trkpt>
      <trkpt lat="32.05219987550217" lon="118.8035942617347">
        <ele>4.277959729544818</ele>
        <time>2026-08-14T11:19:22Z</time>
      </trkpt>
      <trkpt lat="32.05208495075716" lon="118.80365238664717">
        <ele>2.769216443412006</ele>
        <time>2026-08-14T11:19:28Z</time>
      </trkpt>
      <trkpt lat="32.05195614832759" lon="118.80378265499084">
        <ele>4.132635022513568</ele>
        <time>2026-08-14T11:19:31Z</time>
      </trkpt>
      <trkpt lat="32.05188631919659" lon="118.80388987274267">
        <ele>3.963529492728412</ele>
        <time>2026-08-14T11:19:34Z</time>
      </trkpt>
      <trkpt lat="32.051875503394875" lon="118.80399708526001">
        <ele>4.248891736380756</ele>
        <time>2026-08-14T11:19:37Z</time>
      </trkpt>
      <trkpt lat="32.05188569768368" lon="118.80410730197279">
        <ele>4.499906445853412</ele>
        <time>2026-08-14T11:19:40Z</time>
      </trkpt>
      <trkpt lat="32.05194795795276" lon="118.80424857552723">
        <ele>4.708646680228412</ele>
        <time>2026-08-14T11:19:47Z</time>
      </trkpt>
      <trkpt lat="32.05202412710543" lon="118.80433574100793">
        <ele>4.647878552787006</ele>
        <time>2026-08-14T11:19:50Z</time>
      </trkpt>
      <trkpt lat="32.05231736052561" lon="118.8044319045287">
        <ele>6.053563977591693</ele>
        <time>2026-08-14T11:20:02Z</time>
      </trkpt>
      <trkpt lat="32.0525745947911" lon="118.80453308143734">
        <ele>4.698079968802631</ele>
        <time>2026-08-14T11:20:14Z</time>
      </trkpt>
      <trkpt lat="32.05285579945045" lon="118.80461421655009">
        <ele>4.267385388724506</ele>
        <time>2026-08-14T11:20:29Z</time>
      </trkpt>
      <trkpt lat="32.05307495351377" lon="118.80467431570385">
        <ele>3.104787732474506</ele>
        <time>2026-08-14T11:20:38Z</time>
      </trkpt>
      <trkpt lat="32.05314495858229" lon="118.8046682973402">
        <ele>4.824911023490131</ele>
        <time>2026-08-14T11:20:41Z</time>
      </trkpt>
      <trkpt lat="32.05334174818982" lon="118.80452299108597">
        <ele>-0.3883000360801816</ele>
        <time>2026-08-14T11:20:50Z</time>
      </trkpt>
      <trkpt lat="32.053401507569546" lon="118.804377697757">
        <ele>4.227750684134662</ele>
        <time>2026-08-14T11:20:56Z</time>
      </trkpt>
      <trkpt lat="32.05340421084034" lon="118.80420736047361">
        <ele>3.6807993901893497</ele>
        <time>2026-08-14T11:21:02Z</time>
      </trkpt>
      <trkpt lat="32.05334792582269" lon="118.80405105677866">
        <ele>4.404783154837787</ele>
        <time>2026-08-14T11:21:08Z</time>
      </trkpt>
      <trkpt lat="32.053245711132035" lon="118.80394084861972">
        <ele>2.7797907842323184</ele>
        <time>2026-08-14T11:21:14Z</time>
      </trkpt>
      <trkpt lat="32.052935424124385" lon="118.80381563015776">
        <ele>3.786497022025287</ele>
        <time>2026-08-14T11:21:29Z</time>
      </trkpt>
      <trkpt lat="32.05266518627692" lon="118.8037134536513">
        <ele>3.7970637334510684</ele>
        <time>2026-08-14T11:21:41Z</time>
      </trkpt>
      <trkpt lat="32.052354944861115" lon="118.80361428690907">
        <ele>3.627958203665912</ele>
        <time>2026-08-14T11:21:56Z</time>
      </trkpt>
      <trkpt lat="32.05211089044002" lon="118.80361430933738">
        <ele>3.963529492728412</ele>
        <time>2026-08-14T11:22:06Z</time>
      </trkpt>
      <trkpt lat="32.05206391649125" lon="118.80363535505768">
        <ele>3.8076304448768497</ele>
        <time>2026-08-14T11:22:09Z</time>
      </trkpt>
      <trkpt lat="32.05194417875269" lon="118.80380169360375">
        <ele>4.301740552298725</ele>
        <time>2026-08-14T11:22:18Z</time>
      </trkpt>
      <trkpt lat="32.05189632840253" lon="118.80389387972694">
        <ele>3.9027537358924747</ele>
        <time>2026-08-14T11:22:21Z</time>
      </trkpt>
      <trkpt lat="32.0518804539061" lon="118.80396802745776">
        <ele>4.436490918509662</ele>
        <time>2026-08-14T11:22:24Z</time>
      </trkpt>
      <trkpt lat="32.051924863652125" lon="118.80419747659754">
        <ele>4.267385388724506</ele>
        <time>2026-08-14T11:22:33Z</time>
      </trkpt>
      <trkpt lat="32.051963994751766" lon="118.80426761171117">
        <ele>3.9529551519080997</ele>
        <time>2026-08-14T11:22:36Z</time>
      </trkpt>
      <trkpt lat="32.05207317128924" lon="118.80435477418577">
        <ele>4.227750684134662</ele>
        <time>2026-08-14T11:22:42Z</time>
      </trkpt>
      <trkpt lat="32.0522512722613" lon="118.80438982725482">
        <ele>4.542180920951068</ele>
        <time>2026-08-14T11:22:51Z</time>
      </trkpt>
      <trkpt lat="32.05251753651509" lon="118.80450703503918">
        <ele>4.373075391165912</ele>
        <time>2026-08-14T11:23:06Z</time>
      </trkpt>
      <trkpt lat="32.05282773007811" lon="118.80457814758277">
        <ele>4.698079968802631</ele>
        <time>2026-08-14T11:23:18Z</time>
      </trkpt>
      <trkpt lat="32.05302593382176" lon="118.80466931026479">
        <ele>4.259458447806537</ele>
        <time>2026-08-14T11:23:27Z</time>
      </trkpt>
      <trkpt lat="32.05309896412566" lon="118.80467731946375">
        <ele>4.983442212454975</ele>
        <time>2026-08-14T11:23:30Z</time>
      </trkpt>
      <trkpt lat="32.053191930454496" lon="118.80464624928018">
        <ele>1.897268201224506</ele>
        <time>2026-08-14T11:23:33Z</time>
      </trkpt>
      <trkpt lat="32.05326486778555" lon="118.80460115312565">
        <ele>4.309667493216693</ele>
        <time>2026-08-14T11:23:36Z</time>
      </trkpt>
      <trkpt lat="32.05332277550727" lon="118.8045410285843">
        <ele>4.14320173393935</ele>
        <time>2026-08-14T11:23:39Z</time>
      </trkpt>
      <trkpt lat="32.05338555302806" lon="118.80440575477931">
        <ele>4.122060681693256</ele>
        <time>2026-08-14T11:23:45Z</time>
      </trkpt>
      <trkpt lat="32.05340430001654" lon="118.80425846152693">
        <ele>4.383649731986225</ele>
        <time>2026-08-14T11:23:52Z</time>
      </trkpt>
      <trkpt lat="32.053351005073736" lon="118.8040961455513">
        <ele>3.995237256400287</ele>
        <time>2026-08-14T11:23:58Z</time>
      </trkpt>
      <trkpt lat="32.0532697792856" lon="118.80397691758493">
        <ele>3.3980769170448184</ele>
        <time>2026-08-14T11:24:04Z</time>
      </trkpt>
      <trkpt lat="32.0531976568335" lon="118.80391580361982">
        <ele>4.595029736869037</ele>
        <time>2026-08-14T11:24:07Z</time>
      </trkpt>
      <trkpt lat="32.05314162342975" lon="118.8039037850531">
        <ele>4.309667493216693</ele>
        <time>2026-08-14T11:24:10Z</time>
      </trkpt>
      <trkpt lat="32.05297744916787" lon="118.80382464406944">
        <ele>4.362508679740131</ele>
        <time>2026-08-14T11:24:16Z</time>
      </trkpt>
      <trkpt lat="32.05267227142647" lon="118.80376154772715">
        <ele>3.8895396245643497</ele>
        <time>2026-08-14T11:24:28Z</time>
      </trkpt>
      <trkpt lat="32.05260318464298" lon="118.80372047316109">
        <ele>2.4310053838416934</ele>
        <time>2026-08-14T11:24:31Z</time>
      </trkpt>
      <trkpt lat="32.05231497943632" lon="118.80363933987267">
        <ele>4.227750684134662</ele>
        <time>2026-08-14T11:24:46Z</time>
      </trkpt>
      <trkpt lat="32.052267944595584" lon="118.80362531659098">
        <ele>4.637304211966693</ele>
        <time>2026-08-14T11:24:49Z</time>
      </trkpt>
      <trkpt lat="32.05207399529403" lon="118.80367944090546">
        <ele>3.8076304448768497</ele>
        <time>2026-08-14T11:25:01Z</time>
      </trkpt>
      <trkpt lat="32.05199410106592" lon="118.80375058833692">
        <ele>3.313527966849506</ele>
        <time>2026-08-14T11:25:07Z</time>
      </trkpt>
      <trkpt lat="32.05193923340043" lon="118.80383375725143">
        <ele>3.7653559697791934</ele>
        <time>2026-08-14T11:25:13Z</time>
      </trkpt>
      <trkpt lat="32.051912440109824" lon="118.80395600079261">
        <ele>3.691373731009662</ele>
        <time>2026-08-14T11:25:19Z</time>
      </trkpt>
      <trkpt lat="32.05191666617508" lon="118.80408525558146">
        <ele>4.164335156790912</ele>
        <time>2026-08-14T11:25:25Z</time>
      </trkpt>
      <trkpt lat="32.05193887726428" lon="118.80420348719613">
        <ele>3.596250439994037</ele>
        <time>2026-08-14T11:25:31Z</time>
      </trkpt>
      <trkpt lat="32.05207216406517" lon="118.80435076634433">
        <ele>4.309667493216693</ele>
        <time>2026-08-14T11:25:40Z</time>
      </trkpt>
      <trkpt lat="32.0523133631363" lon="118.80443390886558">
        <ele>2.8722666753455997</ele>
        <time>2026-08-14T11:25:52Z</time>
      </trkpt>
      <trkpt lat="32.052447433303826" lon="118.80445694220164">
        <ele>4.468198682181537</ele>
        <time>2026-08-14T11:25:59Z</time>
      </trkpt>
      <trkpt lat="32.05257459829669" lon="118.80453508540982">
        <ele>3.0308054937049747</ele>
        <time>2026-08-14T11:26:05Z</time>
      </trkpt>
      <trkpt lat="32.05286882865802" lon="118.80462924517">
        <ele>4.048078442923725</ele>
        <time>2026-08-14T11:26:17Z</time>
      </trkpt>
      <trkpt lat="32.0530669587503" lon="118.8046783243931">
        <ele>3.7653559697791934</ele>
        <time>2026-08-14T11:26:26Z</time>
      </trkpt>
      <trkpt lat="32.053140968219296" lon="118.8046743096384">
        <ele>2.914541150443256</ele>
        <time>2026-08-14T11:26:29Z</time>
      </trkpt>
      <trkpt lat="32.05330783001887" lon="118.8045740955218">
        <ele>4.489339734427631</ele>
        <time>2026-08-14T11:26:38Z</time>
      </trkpt>
      <trkpt lat="32.05336370051745" lon="118.80449292948865">
        <ele>2.769216443412006</ele>
        <time>2026-08-14T11:26:41Z</time>
      </trkpt>
      <trkpt lat="32.0534134594809" lon="118.8043486391316">
        <ele>3.818204785697162</ele>
        <time>2026-08-14T11:26:47Z</time>
      </trkpt>
      <trkpt lat="32.05338705676214" lon="118.80412119172802">
        <ele>2.264547253958881</ele>
        <time>2026-08-14T11:26:56Z</time>
      </trkpt>
      <trkpt lat="32.05331081633915" lon="118.80399294545487">
        <ele>2.7586497319862247</ele>
        <time>2026-08-14T11:27:02Z</time>
      </trkpt>
      <trkpt lat="32.05318161316022" lon="118.80389275964063">
        <ele>3.5037669194862247</ele>
        <time>2026-08-14T11:27:08Z</time>
      </trkpt>
      <trkpt lat="32.05307952592751" lon="118.80385569591952">
        <ele>2.9251154912635684</ele>
        <time>2026-08-14T11:27:11Z</time>
      </trkpt>
      <trkpt lat="32.05300650617476" lon="118.80385369867898">
        <ele>4.005803967826068</ele>
        <time>2026-08-14T11:27:17Z</time>
      </trkpt>
      <trkpt lat="32.05291840291079" lon="118.80380561197502">
        <ele>4.122060681693256</ele>
        <time>2026-08-14T11:27:23Z</time>
      </trkpt>
      <trkpt lat="32.05260517986535" lon="118.80371746705823">
        <ele>3.387510205619037</ele>
        <time>2026-08-14T11:27:38Z</time>
      </trkpt>
      <trkpt lat="32.052277957264934" lon="118.80363132750077">
        <ele>5.35072126518935</ele>
        <time>2026-08-14T11:27:53Z</time>
      </trkpt>
      <trkpt lat="32.05220092965211" lon="118.80362532274955">
        <ele>3.281820203177631</ele>
        <time>2026-08-14T11:27:56Z</time>
      </trkpt>
      <trkpt lat="32.052008031053695" lon="118.80370850417688">
        <ele>3.7442149175330997</ele>
        <time>2026-08-14T11:28:06Z</time>
      </trkpt>
      <trkpt lat="32.051945131937096" lon="118.80377464021004">
        <ele>3.627958203665912</ele>
        <time>2026-08-14T11:28:09Z</time>
      </trkpt>
      <trkpt lat="32.0518793559984" lon="118.80391191685797">
        <ele>3.8710459722205997</ele>
        <time>2026-08-14T11:28:15Z</time>
      </trkpt>
      <trkpt lat="32.05186747368867" lon="118.80398105435623">
        <ele>4.026937390677631</ele>
        <time>2026-08-14T11:28:18Z</time>
      </trkpt>
      <trkpt lat="32.05187265635765" lon="118.80408525962542">
        <ele>2.264547253958881</ele>
        <time>2026-08-14T11:28:21Z</time>
      </trkpt>
      <trkpt lat="32.051946926254" lon="118.80423053995189">
        <ele>1.897268201224506</ele>
        <time>2026-08-14T11:28:27Z</time>
      </trkpt>
      <trkpt lat="32.052022103910346" lon="118.80432271541328">
        <ele>3.197263623587787</ele>
        <time>2026-08-14T11:28:30Z</time>
      </trkpt>
      <trkpt lat="32.05234136938065" lon="118.80443390629229">
        <ele>3.931821729056537</ele>
        <time>2026-08-14T11:28:45Z</time>
      </trkpt>
      <trkpt lat="32.052662666999254" lon="118.80456313294408">
        <ele>3.6068171514198184</ele>
        <time>2026-08-14T11:29:00Z</time>
      </trkpt>
      <trkpt lat="32.05295793095163" lon="118.8046763304332">
        <ele>4.510473157279193</ele>
        <time>2026-08-14T11:29:16Z</time>
      </trkpt>
      <trkpt lat="32.05315695950124" lon="118.80466729424901">
        <ele>3.4297846807166934</ele>
        <time>2026-08-14T11:29:25Z</time>
      </trkpt>
      <trkpt lat="32.05328785361904" lon="118.80459012915226">
        <ele>1.9501170171424747</ele>
        <time>2026-08-14T11:29:31Z</time>
      </trkpt>
      <trkpt lat="32.05332677815118" lon="118.80454203020305">
        <ele>3.5249079717323184</ele>
        <time>2026-08-14T11:29:34Z</time>
      </trkpt>
      <trkpt lat="32.05339126914014" lon="118.80424243101425">
        <ele>3.281820203177631</ele>
        <time>2026-08-14T11:29:46Z</time>
      </trkpt>
      <trkpt lat="32.05337398923863" lon="118.80408411968781">
        <ele>3.4297846807166934</ele>
        <time>2026-08-14T11:29:52Z</time>
      </trkpt>
      <trkpt lat="32.053318743093975" lon="118.80394985970064">
        <ele>3.083646680228412</ele>
        <time>2026-08-14T11:29:58Z</time>
      </trkpt>
      <trkpt lat="32.05323562344695" lon="118.80389175270122">
        <ele>2.977956677787006</ele>
        <time>2026-08-14T11:30:02Z</time>
      </trkpt>
      <trkpt lat="32.05292940536224" lon="118.80380561096393">
        <ele>3.881612683646381</ele>
        <time>2026-08-14T11:30:14Z</time>
      </trkpt>
      <trkpt lat="32.05259218567302" lon="118.8037224781183">
        <ele>4.0797862065956</ele>
        <time>2026-08-14T11:30:32Z</time>
      </trkpt>
      <trkpt lat="32.052294957576585" lon="118.80362932199507">
        <ele>3.553975964896381</ele>
        <time>2026-08-14T11:30:50Z</time>
      </trkpt>
      <trkpt lat="32.052182916938406" lon="118.80362031454708">
        <ele>3.5354746831580997</ele>
        <time>2026-08-14T11:30:56Z</time>
      </trkpt>
      <trkpt lat="32.05200998797901" lon="118.80368345467765">
        <ele>3.472066785208881</ele>
        <time>2026-08-14T11:31:05Z</time>
      </trkpt>
      <trkpt lat="32.051934190461004" lon="118.80380971031833">
        <ele>3.617391492240131</ele>
        <time>2026-08-14T11:31:11Z</time>
      </trkpt>
      <trkpt lat="32.05186656596851" lon="118.80403415926858">
        <ele>3.4297846807166934</ele>
        <time>2026-08-14T11:31:21Z</time>
      </trkpt>
      <trkpt lat="32.05187269303627" lon="118.80410630118823">
        <ele>3.5434016240760684</ele>
        <time>2026-08-14T11:31:24Z</time>
      </trkpt>
      <trkpt lat="32.05196501946289" lon="118.80428163936838">
        <ele>1.3423899663612247</ele>
        <time>2026-08-14T11:31:30Z</time>
      </trkpt>
      <trkpt lat="32.0522173172075" lon="118.80441988990482">
        <ele>3.5354746831580997</ele>
        <time>2026-08-14T11:31:42Z</time>
      </trkpt>
      <trkpt lat="32.05236841218408" lon="118.80445494549195">
        <ele>3.450925732962787</ele>
        <time>2026-08-14T11:31:51Z</time>
      </trkpt>
      <trkpt lat="32.05256264470535" lon="118.80456314213421">
        <ele>3.585683728568256</ele>
        <time>2026-08-14T11:32:00Z</time>
      </trkpt>
      <trkpt lat="32.052859831914574" lon="118.80463225196047">
        <ele>3.9423884404823184</ele>
        <time>2026-08-14T11:32:15Z</time>
      </trkpt>
      <trkpt lat="32.053105967440146" lon="118.80467832080897">
        <ele>2.137716199271381</ele>
        <time>2026-08-14T11:32:27Z</time>
      </trkpt>
      <trkpt lat="32.05329685036325" lon="118.80458712236376">
        <ele>3.020231152884662</ele>
        <time>2026-08-14T11:32:36Z</time>
      </trkpt>
      <trkpt lat="32.053411557068195" lon="118.8044047504055">
        <ele>3.5434016240760684</ele>
        <time>2026-08-14T11:32:45Z</time>
      </trkpt>
      <trkpt lat="32.05340313021591" lon="118.80416126945553">
        <ele>3.0942210210487247</ele>
        <time>2026-08-14T11:32:54Z</time>
      </trkpt>
      <trkpt lat="32.053342879318784" lon="118.80402500580313">
        <ele>2.3596629155799747</ele>
        <time>2026-08-14T11:33:00Z</time>
      </trkpt>
      <trkpt lat="32.05322565086369" lon="118.80390878721265">
        <ele>2.5076350225135684</ele>
        <time>2026-08-14T11:33:06Z</time>
      </trkpt>
      <trkpt lat="32.05292741537136" lon="118.80381162299476">
        <ele>2.977956677787006</ele>
        <time>2026-08-14T11:33:21Z</time>
      </trkpt>
      <trkpt lat="32.052644209454705" lon="118.80372948715043">
        <ele>3.8393382085487247</ele>
        <time>2026-08-14T11:33:36Z</time>
      </trkpt>
      <trkpt lat="32.05226492652919" lon="118.8036152971531">
        <ele>3.7125071538612247</ele>
        <time>2026-08-14T11:33:54Z</time>
      </trkpt>
      <trkpt lat="32.052217905608856" lon="118.80360928964593">
        <ele>21.891355420462787</ele>
        <time>2026-08-14T11:33:57Z</time>
      </trkpt>
      <trkpt lat="32.05203095263279" lon="118.8036604073864">
        <ele>2.7903574956580997</ele>
        <time>2026-08-14T11:34:03Z</time>
      </trkpt>
    </trkseg>
  </trk>
</gpx>