<?xml version="1.0" encoding="UTF-8"?>
<gpx xmlns="http://www.topografix.com/GPX/1/1" xmlns:gpxtpx="http://www.garmin.com/xmlschemas/TrackPointExtension/v1" xmlns:xsi="http://www.w3.org/2001/XMLSchema-instance" xsi:schemaLocation="http://www.topografix.com/GPX/1/1 http://www.topografix.com/GPX/1/1/gpx.xsd" version="1.1" creator="gpx.py -- https://github.com/tkrajina/gpxpy">
  <trk>
    <name>gpx from keep</name>
    <type>Run</type>
    <trkseg>
      <trkpt lat="31.22970746728684" lon="121.399857860527">
        <ele>20.84121034387499</ele>
        <time>2026-07-08T09:28:25Z</time>
      </trkpt>
      <trkpt lat="31.229711474249218" lon="121.39994987221327">
        <ele>21.007676103152335</ele>
        <time>2026-07-08T09:28:28Z</time>
      </trkpt>
      <trkpt lat="31.22978047246731" lon="121.40023990704415">
        <ele>14.46540925744921</ele>
        <time>2026-07-08T09:28:40Z</time>
      </trkpt>
      <trkpt lat="31.22982046118959" lon="121.40030491331854">
        <ele>23.81905458215624</ele>
        <time>2026-07-08T09:28:43Z</time>
      </trkpt>
      <trkpt lat="31.229912424335637" lon="121.40035591311229">
        <ele>21.689385392703116</ele>
        <time>2026-07-08T09:28:46Z</time>
      </trkpt>
      <trkpt lat="31.230105338499357" lon="121.40038790125871">
        <ele>-20.573786756955087</ele>
        <time>2026-07-08T09:28:52Z</time>
      </trkpt>
      <trkpt lat="31.230187298699864" lon="121.40037289177151">
        <ele>24.95259187463671</ele>
        <time>2026-07-08T09:28:55Z</time>
      </trkpt>
      <trkpt lat="31.230505138430946" lon="121.40026084696363">
        <ele>13.656868913210928</ele>
        <time>2026-07-08T09:29:07Z</time>
      </trkpt>
      <trkpt lat="31.23082797820656" lon="121.4001648046848">
        <ele>-13.027453443966806</ele>
        <time>2026-07-08T09:29:19Z</time>
      </trkpt>
      <trkpt lat="31.230973905989774" lon="121.40012178578908">
        <ele>25.07942292932421</ele>
        <time>2026-07-08T09:29:25Z</time>
      </trkpt>
      <trkpt lat="31.231166801079357" lon="121.39996974794363">
        <ele>23.451783158816397</ele>
        <time>2026-07-08T09:29:34Z</time>
      </trkpt>
      <trkpt lat="31.231212773933127" lon="121.3999097359705">
        <ele>13.215607621707022</ele>
        <time>2026-07-08T09:29:37Z</time>
      </trkpt>
      <trkpt lat="31.231259736825915" lon="121.39974371082835">
        <ele>12.304024674929678</ele>
        <time>2026-07-08T09:29:43Z</time>
      </trkpt>
      <trkpt lat="31.231250732504623" lon="121.39964569986844">
        <ele>23.850762345828116</ele>
        <time>2026-07-08T09:29:46Z</time>
      </trkpt>
      <trkpt lat="31.23116075976818" lon="121.39946668756437">
        <ele>20.650971391238272</ele>
        <time>2026-07-08T09:29:52Z</time>
      </trkpt>
      <trkpt lat="31.231099782034928" lon="121.39938668442018">
        <ele>25.676575639285147</ele>
        <time>2026-07-08T09:29:55Z</time>
      </trkpt>
      <trkpt lat="31.23102181343829" lon="121.39932068449173">
        <ele>23.306450822390616</ele>
        <time>2026-07-08T09:29:58Z</time>
      </trkpt>
      <trkpt lat="31.230925854526028" lon="121.39927168801364">
        <ele>11.42414949182421</ele>
        <time>2026-07-08T09:30:01Z</time>
      </trkpt>
      <trkpt lat="31.230850888258885" lon="121.3992566930938">
        <ele>23.52576539758593</ele>
        <time>2026-07-08T09:30:04Z</time>
      </trkpt>
      <trkpt lat="31.230521047220638" lon="121.3993437304923">
        <ele>22.540192582644522</ele>
        <time>2026-07-08T09:30:16Z</time>
      </trkpt>
      <trkpt lat="31.230220193312377" lon="121.39943276597086">
        <ele>23.221901872195303</ele>
        <time>2026-07-08T09:30:28Z</time>
      </trkpt>
      <trkpt lat="31.229993303452897" lon="121.39949579255047">
        <ele>23.903611161746085</ele>
        <time>2026-07-08T09:30:37Z</time>
      </trkpt>
      <trkpt lat="31.229839383760762" lon="121.39960581832871">
        <ele>9.516427018679678</ele>
        <time>2026-07-08T09:30:43Z</time>
      </trkpt>
      <trkpt lat="31.22979141228408" lon="121.39967983118004">
        <ele>20.23085115198046</ele>
        <time>2026-07-08T09:30:46Z</time>
      </trkpt>
      <trkpt lat="31.22974045224531" lon="121.39986085803532">
        <ele>23.59974763635546</ele>
        <time>2026-07-08T09:30:52Z</time>
      </trkpt>
      <trkpt lat="31.2297464667847" lon="121.40003788108956">
        <ele>21.64710328821093</ele>
        <time>2026-07-08T09:30:58Z</time>
      </trkpt>
      <trkpt lat="31.229772464266297" lon="121.40012989172776">
        <ele>23.19019410852343</ele>
        <time>2026-07-08T09:31:01Z</time>
      </trkpt>
      <trkpt lat="31.229818451850612" lon="121.40021289974153">
        <ele>25.214173295535147</ele>
        <time>2026-07-08T09:31:04Z</time>
      </trkpt>
      <trkpt lat="31.22990042348457" lon="121.4002999055849">
        <ele>22.58247468713671</ele>
        <time>2026-07-08T09:31:07Z</time>
      </trkpt>
      <trkpt lat="31.230008380940756" lon="121.40036590629084">
        <ele>10.774147965945303</ele>
        <time>2026-07-08T09:31:10Z</time>
      </trkpt>
      <trkpt lat="31.23010933676073" lon="121.40038890106625">
        <ele>27.954216935671866</ele>
        <time>2026-07-08T09:31:13Z</time>
      </trkpt>
      <trkpt lat="31.230335225878388" lon="121.40033687330516">
        <ele>24.228608109988272</ele>
        <time>2026-07-08T09:31:22Z</time>
      </trkpt>
      <trkpt lat="31.230639072430147" lon="121.4002258300775">
        <ele>24.09121034387499</ele>
        <time>2026-07-08T09:31:34Z</time>
      </trkpt>
      <trkpt lat="31.23093092622537" lon="121.40012478996525">
        <ele>22.278611161746085</ele>
        <time>2026-07-08T09:31:46Z</time>
      </trkpt>
      <trkpt lat="31.231010887378645" lon="121.40010778057645">
        <ele>8.773949601687491</ele>
        <time>2026-07-08T09:31:49Z</time>
      </trkpt>
      <trkpt lat="31.23107885059226" lon="121.40005676749772">
        <ele>24.27088258508593</ele>
        <time>2026-07-08T09:31:52Z</time>
      </trkpt>
      <trkpt lat="31.23117979114385" lon="121.39992974148088">
        <ele>24.019867875613272</ele>
        <time>2026-07-08T09:31:58Z</time>
      </trkpt>
      <trkpt lat="31.231234751263553" lon="121.39977571695225">
        <ele>18.238572099246085</ele>
        <time>2026-07-08T09:32:04Z</time>
      </trkpt>
      <trkpt lat="31.231222742290935" lon="121.39960769789133">
        <ele>23.116211869753897</ele>
        <time>2026-07-08T09:32:10Z</time>
      </trkpt>
      <trkpt lat="31.231187751700105" lon="121.39952369144471">
        <ele>23.94588563684374</ele>
        <time>2026-07-08T09:32:13Z</time>
      </trkpt>
      <trkpt lat="31.231049802520573" lon="121.39934968497909">
        <ele>23.494057633914053</ele>
        <time>2026-07-08T09:32:19Z</time>
      </trkpt>
      <trkpt lat="31.23097983198486" lon="121.39930768685515">
        <ele>12.65016267541796</ele>
        <time>2026-07-08T09:32:22Z</time>
      </trkpt>
      <trkpt lat="31.230842892843302" lon="121.3992696950551">
        <ele>23.147919633425772</ele>
        <time>2026-07-08T09:32:28Z</time>
      </trkpt>
      <trkpt lat="31.23056402757058" lon="121.39934772714939">
        <ele>24.564179399050772</ele>
        <time>2026-07-08T09:32:40Z</time>
      </trkpt>
      <trkpt lat="31.230343133148835" lon="121.39939075083694">
        <ele>24.846901872195303</ele>
        <time>2026-07-08T09:32:49Z</time>
      </trkpt>
      <trkpt lat="31.230055272902835" lon="121.39947278464254">
        <ele>25.81397340539843</ele>
        <time>2026-07-08T09:33:01Z</time>
      </trkpt>
      <trkpt lat="31.229921339066074" lon="121.3995238019117">
        <ele>14.642441728152335</ele>
        <time>2026-07-08T09:33:07Z</time>
      </trkpt>
      <trkpt lat="31.229791410829357" lon="121.39966282916367">
        <ele>20.378815629519522</ele>
        <time>2026-07-08T09:33:13Z</time>
      </trkpt>
      <trkpt lat="31.22972445706104" lon="121.39983285585127">
        <ele>17.12617585901171</ele>
        <time>2026-07-08T09:33:19Z</time>
      </trkpt>
      <trkpt lat="31.229740473471207" lon="121.40007588688907">
        <ele>23.20076081994921</ele>
        <time>2026-07-08T09:33:28Z</time>
      </trkpt>
      <trkpt lat="31.22981745330273" lon="121.40022190115431">
        <ele>23.285317399539053</ele>
        <time>2026-07-08T09:33:34Z</time>
      </trkpt>
      <trkpt lat="31.229951403694496" lon="121.40033390632418">
        <ele>22.770073869265616</ele>
        <time>2026-07-08T09:33:40Z</time>
      </trkpt>
      <trkpt lat="31.230071352520838" lon="121.4003729018851">
        <ele>23.80848787073046</ele>
        <time>2026-07-08T09:33:47Z</time>
      </trkpt>
      <trkpt lat="31.23043017793617" lon="121.4003028598313">
        <ele>12.042443254031241</ele>
        <time>2026-07-08T09:33:59Z</time>
      </trkpt>
      <trkpt lat="31.230707042792172" lon="121.40024282666784">
        <ele>23.81905458215624</ele>
        <time>2026-07-08T09:34:08Z</time>
      </trkpt>
      <trkpt lat="31.2308279764933" lon="121.40014880237906">
        <ele>24.88917634729296</ele>
        <time>2026-07-08T09:34:11Z</time>
      </trkpt>
      <trkpt lat="31.23103687314314" lon="121.40008677534891">
        <ele>23.776780107058585</ele>
        <time>2026-07-08T09:34:17Z</time>
      </trkpt>
      <trkpt lat="31.231107834508553" lon="121.40003076137678">
        <ele>25.22474763635546</ele>
        <time>2026-07-08T09:34:20Z</time>
      </trkpt>
      <trkpt lat="31.231219768207758" lon="121.39988373196852">
        <ele>23.52576539758593</ele>
        <time>2026-07-08T09:34:26Z</time>
      </trkpt>
      <trkpt lat="31.23125074731557" lon="121.39981372031072">
        <ele>13.971299150027335</ele>
        <time>2026-07-08T09:34:29Z</time>
      </trkpt>
      <trkpt lat="31.231247740526747" lon="121.3997227093155">
        <ele>17.20015809778124</ele>
        <time>2026-07-08T09:34:32Z</time>
      </trkpt>
      <trkpt lat="31.231222742788294" lon="121.39961369858393">
        <ele>23.388367631472647</ele>
        <time>2026-07-08T09:34:35Z</time>
      </trkpt>
      <trkpt lat="31.231142766581414" lon="121.39944668698665">
        <ele>1.1589135909453034</ele>
        <time>2026-07-08T09:34:41Z</time>
      </trkpt>
      <trkpt lat="31.231062796428517" lon="121.3993486837439">
        <ele>15.009713151492178</ele>
        <time>2026-07-08T09:34:44Z</time>
      </trkpt>
      <trkpt lat="31.230920856638793" lon="121.39926868815684">
        <ele>24.82576081994921</ele>
        <time>2026-07-08T09:34:50Z</time>
      </trkpt>
      <trkpt lat="31.23084988899151" lon="121.3992606935689">
        <ele>22.215195634402335</ele>
        <time>2026-07-08T09:34:53Z</time>
      </trkpt>
      <trkpt lat="31.230547035309126" lon="121.3993457284284">
        <ele>12.798134782351553</ele>
        <time>2026-07-08T09:35:08Z</time>
      </trkpt>
      <trkpt lat="31.230239184723875" lon="121.39943576463286">
        <ele>24.175759294070303</ele>
        <time>2026-07-08T09:35:20Z</time>
      </trkpt>
      <trkpt lat="31.229979312146245" lon="121.39952379685491">
        <ele>9.455651261843741</ele>
        <time>2026-07-08T09:35:32Z</time>
      </trkpt>
      <trkpt lat="31.229890357463052" lon="121.39957381022357">
        <ele>23.54689882043749</ele>
        <time>2026-07-08T09:35:35Z</time>
      </trkpt>
      <trkpt lat="31.22977842013445" lon="121.39970083482518">
        <ele>21.562554338015616</ele>
        <time>2026-07-08T09:35:41Z</time>
      </trkpt>
      <trkpt lat="31.229727461692963" lon="121.39989686383082">
        <ele>23.20076081994921</ele>
        <time>2026-07-08T09:35:50Z</time>
      </trkpt>
      <trkpt lat="31.229732475227554" lon="121.40005688493888">
        <ele>23.494057633914053</ele>
        <time>2026-07-08T09:35:56Z</time>
      </trkpt>
      <trkpt lat="31.22990742573067" lon="121.40034791231332">
        <ele>24.292023637332022</ele>
        <time>2026-07-08T09:36:08Z</time>
      </trkpt>
      <trkpt lat="31.229946420246524" lon="121.40045492570852">
        <ele>26.08612916711718</ele>
        <time>2026-07-08T09:36:11Z</time>
      </trkpt>
      <trkpt lat="31.230016385600784" lon="121.40043691673799">
        <ele>14.872315385378897</ele>
        <time>2026-07-08T09:36:14Z</time>
      </trkpt>
      <trkpt lat="31.230072355458613" lon="121.4004019063286">
        <ele>21.343247392214835</ele>
        <time>2026-07-08T09:36:17Z</time>
      </trkpt>
      <trkpt lat="31.230350220536902" lon="121.40035087415255">
        <ele>27.35706422571093</ele>
        <time>2026-07-08T09:36:29Z</time>
      </trkpt>
      <trkpt lat="31.230472162693374" lon="121.4003398618215">
        <ele>12.388581254519522</ele>
        <time>2026-07-08T09:36:35Z</time>
      </trkpt>
      <trkpt lat="31.230524130293016" lon="121.40026684620547">
        <ele>26.17067811731249</ele>
        <time>2026-07-08T09:36:38Z</time>
      </trkpt>
      <trkpt lat="31.23060609497926" lon="121.40029084266867">
        <ele>22.44507692102343</ele>
        <time>2026-07-08T09:36:41Z</time>
      </trkpt>
      <trkpt lat="31.230872960273995" lon="121.40019180468279">
        <ele>18.447312333621085</ele>
        <time>2026-07-08T09:36:53Z</time>
      </trkpt>
      <trkpt lat="31.231011889234132" lon="121.40012978361572">
        <ele>19.308693864382803</ele>
        <time>2026-07-08T09:36:59Z</time>
      </trkpt>
      <trkpt lat="31.231190787608618" lon="121.39994574264342">
        <ele>22.80178163293749</ele>
        <time>2026-07-08T09:37:11Z</time>
      </trkpt>
      <trkpt lat="31.23121276918192" lon="121.3998597294796">
        <ele>13.897316911257803</ele>
        <time>2026-07-08T09:37:14Z</time>
      </trkpt>
      <trkpt lat="31.231209751149212" lon="121.39964170297456">
        <ele>23.829621293582022</ele>
        <time>2026-07-08T09:37:20Z</time>
      </trkpt>
      <trkpt lat="31.23116375960909" lon="121.39948268903564">
        <ele>24.712143876589835</ele>
        <time>2026-07-08T09:37:26Z</time>
      </trkpt>
      <trkpt lat="31.231123772907647" lon="121.3994136851463">
        <ele>25.510109880007803</ele>
        <time>2026-07-08T09:37:29Z</time>
      </trkpt>
      <trkpt lat="31.231022814243495" lon="121.39933868621713">
        <ele>23.243042924441397</ele>
        <time>2026-07-08T09:37:35Z</time>
      </trkpt>
      <trkpt lat="31.230949846020415" lon="121.39930968967002">
        <ele>15.90016267541796</ele>
        <time>2026-07-08T09:37:38Z</time>
      </trkpt>
      <trkpt lat="31.2307649344807" lon="121.39934870972623">
        <ele>24.437348344363272</ele>
        <time>2026-07-08T09:37:47Z</time>
      </trkpt>
      <trkpt lat="31.23063399476649" lon="121.39934272053867">
        <ele>22.85462281946093</ele>
        <time>2026-07-08T09:37:50Z</time>
      </trkpt>
      <trkpt lat="31.230455078892657" lon="121.3993587377741">
        <ele>11.046303727664053</ele>
        <time>2026-07-08T09:37:59Z</time>
      </trkpt>
      <trkpt lat="31.230232189863642" lon="121.39946076791595">
        <ele>13.405854203738272</ele>
        <time>2026-07-08T09:38:08Z</time>
      </trkpt>
      <trkpt lat="31.23000329857876" lon="121.39949279135065">
        <ele>12.420289018191397</ele>
        <time>2026-07-08T09:38:17Z</time>
      </trkpt>
      <trkpt lat="31.229938331491997" lon="121.39952780087344">
        <ele>24.73328492883593</ele>
        <time>2026-07-08T09:38:20Z</time>
      </trkpt>
      <trkpt lat="31.229799407969324" lon="121.39967282965046">
        <ele>16.36255738977343</ele>
        <time>2026-07-08T09:38:26Z</time>
      </trkpt>
      <trkpt lat="31.229723456692668" lon="121.39982385479681">
        <ele>23.893036820925772</ele>
        <time>2026-07-08T09:38:29Z</time>
      </trkpt>
      <trkpt lat="31.22970947586434" lon="121.39995687332154">
        <ele>23.306450822390616</ele>
        <time>2026-07-08T09:38:32Z</time>
      </trkpt>
      <trkpt lat="31.2297274809607" lon="121.40008988998555">
        <ele>22.79121492151171</ele>
        <time>2026-07-08T09:38:35Z</time>
      </trkpt>
      <trkpt lat="31.229779469957236" lon="121.40021290314175">
        <ele>22.833489396609366</ele>
        <time>2026-07-08T09:38:38Z</time>
      </trkpt>
      <trkpt lat="31.229953403571827" lon="121.400340907225">
        <ele>25.17189882043749</ele>
        <time>2026-07-08T09:38:44Z</time>
      </trkpt>
      <trkpt lat="31.23012532828244" lon="121.40037989826662">
        <ele>26.453400590457022</ele>
        <time>2026-07-08T09:38:50Z</time>
      </trkpt>
      <trkpt lat="31.23028225451477" lon="121.40037188333336">
        <ele>17.641419389285147</ele>
        <time>2026-07-08T09:38:56Z</time>
      </trkpt>
      <trkpt lat="31.230554120898706" lon="121.40030684962761">
        <ele>-4.482340834103525</ele>
        <time>2026-07-08T09:39:08Z</time>
      </trkpt>
      <trkpt lat="31.230650069765353" lon="121.40024783238137">
        <ele>25.835114457644522</ele>
        <time>2026-07-08T09:39:11Z</time>
      </trkpt>
      <trkpt lat="31.230848971719553" lon="121.40019480721341">
        <ele>13.363579728640616</ele>
        <time>2026-07-08T09:39:17Z</time>
      </trkpt>
      <trkpt lat="31.231094844623943" lon="121.40007076805179">
        <ele>17.20015809778124</ele>
        <time>2026-07-08T09:39:26Z</time>
      </trkpt>
      <trkpt lat="31.231163807261428" lon="121.40001775471127">
        <ele>26.548523881472647</ele>
        <time>2026-07-08T09:39:29Z</time>
      </trkpt>
      <trkpt lat="31.231221771891857" lon="121.39993173808338">
        <ele>26.202385880984366</ele>
        <time>2026-07-08T09:39:32Z</time>
      </trkpt>
      <trkpt lat="31.231240752958545" lon="121.39982472257277">
        <ele>25.393853166140616</ele>
        <time>2026-07-08T09:39:35Z</time>
      </trkpt>
      <trkpt lat="31.2312257418983" lon="121.39961969901687">
        <ele>23.977593400515616</ele>
        <time>2026-07-08T09:39:41Z</time>
      </trkpt>
      <trkpt lat="31.23120574415865" lon="121.39953369098664">
        <ele>24.038361527957022</ele>
        <time>2026-07-08T09:39:44Z</time>
      </trkpt>
      <trkpt lat="31.231080791126168" lon="121.39939068649194">
        <ele>25.047715165652335</ele>
        <time>2026-07-08T09:39:53Z</time>
      </trkpt>
      <trkpt lat="31.230885874699172" lon="121.39929569386014">
        <ele>20.870278337039053</ele>
        <time>2026-07-08T09:40:02Z</time>
      </trkpt>
      <trkpt lat="31.230632993258215" lon="121.39931471780773">
        <ele>18.867432572878897</ele>
        <time>2026-07-08T09:40:14Z</time>
      </trkpt>
      <trkpt lat="31.230575021831704" lon="121.39933872527764">
        <ele>21.625969865359366</ele>
        <time>2026-07-08T09:40:17Z</time>
      </trkpt>
      <trkpt lat="31.230466072295304" lon="121.39933773467996">
        <ele>23.766213395632803</ele>
        <time>2026-07-08T09:40:23Z</time>
      </trkpt>
      <trkpt lat="31.23036811916435" lon="121.3993577452572">
        <ele>17.482880570925772</ele>
        <time>2026-07-08T09:40:29Z</time>
      </trkpt>
      <trkpt lat="31.2301392338499" lon="121.39947177721072">
        <ele>24.07271669153124</ele>
        <time>2026-07-08T09:40:35Z</time>
      </trkpt>
      <trkpt lat="31.229943328538923" lon="121.39951979955055">
        <ele>18.793450334109366</ele>
        <time>2026-07-08T09:40:44Z</time>
      </trkpt>
      <trkpt lat="31.22974943264628" lon="121.399689836035">
        <ele>20.997109391726553</ele>
        <time>2026-07-08T09:40:53Z</time>
      </trkpt>
      <trkpt lat="31.229692469341494" lon="121.39980485510334">
        <ele>24.66986940149218</ele>
        <time>2026-07-08T09:40:56Z</time>
      </trkpt>
      <trkpt lat="31.229744474005887" lon="121.40009888977083">
        <ele>12.829834916628897</ele>
        <time>2026-07-08T09:41:02Z</time>
      </trkpt>
      <trkpt lat="31.22978546575094" lon="121.4001999007114">
        <ele>26.064988114871085</ele>
        <time>2026-07-08T09:41:05Z</time>
      </trkpt>
      <trkpt lat="31.229838450005953" lon="121.40027990796837">
        <ele>26.284295060671866</ele>
        <time>2026-07-08T09:41:08Z</time>
      </trkpt>
      <trkpt lat="31.229939411108738" lon="121.40034990983179">
        <ele>23.324952104128897</ele>
        <time>2026-07-08T09:41:11Z</time>
      </trkpt>
      <trkpt lat="31.23003636841253" lon="121.40036990447045">
        <ele>23.314377763308585</ele>
        <time>2026-07-08T09:41:14Z</time>
      </trkpt>
      <trkpt lat="31.230356216945573" lon="121.40034387255055">
        <ele>-6.564452192746103</ele>
        <time>2026-07-08T09:41:33Z</time>
      </trkpt>
      <trkpt lat="31.230467165472838" lon="121.40034386287277">
        <ele>0.08086869958788157</ele>
        <time>2026-07-08T09:41:39Z</time>
      </trkpt>
      <trkpt lat="31.230696050900452" lon="121.4002698316591">
        <ele>24.54303834680468</ele>
        <time>2026-07-08T09:41:51Z</time>
      </trkpt>
      <trkpt lat="31.23089994657296" lon="121.40018080072643">
        <ele>16.486748673953116</ele>
        <time>2026-07-08T09:42:00Z</time>
      </trkpt>
      <trkpt lat="31.231014884270266" lon="121.40009577853307">
        <ele>25.467835404910147</ele>
        <time>2026-07-08T09:42:06Z</time>
      </trkpt>
      <trkpt lat="31.23107285574353" lon="121.40007977122838">
        <ele>24.532471635378897</ele>
        <time>2026-07-08T09:42:09Z</time>
      </trkpt>
      <trkpt lat="31.231139819183316" lon="121.40002575789995">
        <ele>24.366005876101553</ele>
        <time>2026-07-08T09:42:15Z</time>
      </trkpt>
      <trkpt lat="31.23121776837531" lon="121.39987573110646">
        <ele>24.804627397097647</ele>
        <time>2026-07-08T09:42:24Z</time>
      </trkpt>
      <trkpt lat="31.231227744680005" lon="121.3996637039932">
        <ele>13.363579728640616</ele>
        <time>2026-07-08T09:42:27Z</time>
      </trkpt>
      <trkpt lat="31.231215741933212" lon="121.39956369348022">
        <ele>24.260315873660147</ele>
        <time>2026-07-08T09:42:30Z</time>
      </trkpt>
      <trkpt lat="31.23115476012035" lon="121.39943468466214">
        <ele>-11.312617323361337</ele>
        <time>2026-07-08T09:42:36Z</time>
      </trkpt>
      <trkpt lat="31.231110777160108" lon="121.3993896837724">
        <ele>21.332673051394522</ele>
        <time>2026-07-08T09:42:39Z</time>
      </trkpt>
      <trkpt lat="31.231011819551135" lon="121.39934168747997">
        <ele>21.826783158816397</ele>
        <time>2026-07-08T09:42:45Z</time>
      </trkpt>
      <trkpt lat="31.230948847884108" lon="121.39932969176073">
        <ele>25.62372682336718</ele>
        <time>2026-07-08T09:42:48Z</time>
      </trkpt>
      <trkpt lat="31.230859890462035" lon="121.3993487014433">
        <ele>23.80848787073046</ele>
        <time>2026-07-08T09:42:54Z</time>
      </trkpt>
      <trkpt lat="31.23065198265164" lon="121.39928871357111">
        <ele>27.618645646609366</ele>
        <time>2026-07-08T09:43:03Z</time>
      </trkpt>
      <trkpt lat="31.230348132228016" lon="121.39940975238451">
        <ele>23.631455400027335</ele>
        <time>2026-07-08T09:43:09Z</time>
      </trkpt>
      <trkpt lat="31.230275165569065" lon="121.39940275801621">
        <ele>11.936753251589835</ele>
        <time>2026-07-08T09:43:12Z</time>
      </trkpt>
      <trkpt lat="31.22999230415061" lon="121.39949879296611">
        <ele>23.87190339807421</ele>
        <time>2026-07-08T09:43:24Z</time>
      </trkpt>
      <trkpt lat="31.229852376736886" lon="121.399593815817">
        <ele>22.624749162234366</ele>
        <time>2026-07-08T09:43:30Z</time>
      </trkpt>
      <trkpt lat="31.229763429725164" lon="121.3997308397613">
        <ele>25.539177873171866</ele>
        <time>2026-07-08T09:43:33Z</time>
      </trkpt>
      <trkpt lat="31.229700476826576" lon="121.39992386972604">
        <ele>7.286347367800772</ele>
        <time>2026-07-08T09:43:39Z</time>
      </trkpt>
      <trkpt lat="31.229719483532904" lon="121.40007888913976">
        <ele>25.41498658899218</ele>
        <time>2026-07-08T09:43:45Z</time>
      </trkpt>
      <trkpt lat="31.229819453145037" lon="121.40022890201392">
        <ele>14.494469621218741</ele>
        <time>2026-07-08T09:43:51Z</time>
      </trkpt>
      <trkpt lat="31.229894427406105" lon="121.40030990762693">
        <ele>23.73450563196093</ele>
        <time>2026-07-08T09:43:54Z</time>
      </trkpt>
      <trkpt lat="31.230025373750365" lon="121.40037190574022">
        <ele>20.49507234338671</ele>
        <time>2026-07-08T09:44:00Z</time>
      </trkpt>
      <trkpt lat="31.230162312875443" lon="121.40039489738419">
        <ele>25.835114457644522</ele>
        <time>2026-07-08T09:44:06Z</time>
      </trkpt>
      <trkpt lat="31.230442169771802" lon="121.40027985530789">
        <ele>26.337143876589835</ele>
        <time>2026-07-08T09:44:12Z</time>
      </trkpt>
      <trkpt lat="31.230757016313948" lon="121.40021281787318">
        <ele>2.268670060671866</ele>
        <time>2026-07-08T09:44:21Z</time>
      </trkpt>
      <trkpt lat="31.230925932803487" lon="121.40016479614032">
        <ele>26.548523881472647</ele>
        <time>2026-07-08T09:44:27Z</time>
      </trkpt>
      <trkpt lat="31.231083850856695" lon="121.40008177054952">
        <ele>25.404419877566397</ele>
        <time>2026-07-08T09:44:36Z</time>
      </trkpt>
      <trkpt lat="31.23114281698539" lon="121.40001775654225">
        <ele>23.420075395144522</ele>
        <time>2026-07-08T09:44:39Z</time>
      </trkpt>
      <trkpt lat="31.231180792532157" lon="121.39994874391462">
        <ele>23.75563905481249</ele>
        <time>2026-07-08T09:44:45Z</time>
      </trkpt>
      <trkpt lat="31.231214764074522" lon="121.39981472357567">
        <ele>20.51357362512499</ele>
        <time>2026-07-08T09:44:51Z</time>
      </trkpt>
      <trkpt lat="31.23121974677231" lon="121.3996447024541">
        <ele>20.870278337039053</ele>
        <time>2026-07-08T09:45:00Z</time>
      </trkpt>
      <trkpt lat="31.231145769731878" lon="121.39950569311951">
        <ele>21.869057633914053</ele>
        <time>2026-07-08T09:45:12Z</time>
      </trkpt>
      <trkpt lat="31.23087988006077" lon="121.39933269807909">
        <ele>25.309296586550772</ele>
        <time>2026-07-08T09:45:27Z</time>
      </trkpt>
      <trkpt lat="31.230820905576046" lon="121.39930670061868">
        <ele>2.7706994796171784</ele>
        <time>2026-07-08T09:45:30Z</time>
      </trkpt>
      <trkpt lat="31.230699962414224" lon="121.3993177122661">
        <ele>22.624749162234366</ele>
        <time>2026-07-08T09:45:36Z</time>
      </trkpt>
      <trkpt lat="31.230496060746773" lon="121.39937073542981">
        <ele>20.75666139367968</ele>
        <time>2026-07-08T09:45:45Z</time>
      </trkpt>
      <trkpt lat="31.230348130683712" lon="121.39938875019331">
        <ele>23.568039872683585</ele>
        <time>2026-07-08T09:45:51Z</time>
      </trkpt>
      <trkpt lat="31.230120241595287" lon="121.39945777735839">
        <ele>24.048935868777335</ele>
        <time>2026-07-08T09:46:03Z</time>
      </trkpt>
      <trkpt lat="31.230052272995938" lon="121.39945578307234">
        <ele>19.644265153445303</ele>
        <time>2026-07-08T09:46:09Z</time>
      </trkpt>
      <trkpt lat="31.229800404031085" lon="121.39963182474116">
        <ele>21.187348344363272</ele>
        <time>2026-07-08T09:46:24Z</time>
      </trkpt>
      <trkpt lat="31.229759426712274" lon="121.39967483337534">
        <ele>24.61702058557421</ele>
        <time>2026-07-08T09:46:27Z</time>
      </trkpt>
      <trkpt lat="31.22969547220344" lon="121.3998508606757">
        <ele>24.595887162722647</ele>
        <time>2026-07-08T09:46:30Z</time>
      </trkpt>
      <trkpt lat="31.229704482250188" lon="121.39999787927918">
        <ele>20.997109391726553</ele>
        <time>2026-07-08T09:46:36Z</time>
      </trkpt>
      <trkpt lat="31.229730483027446" lon="121.400122894392">
        <ele>23.988160111941397</ele>
        <time>2026-07-08T09:46:42Z</time>
      </trkpt>
      <trkpt lat="31.22980346245426" lon="121.40024590593067">
        <ele>22.653809526003897</ele>
        <time>2026-07-08T09:46:48Z</time>
      </trkpt>
      <trkpt lat="31.229902426553135" lon="121.4003349107497">
        <ele>18.436745622195303</ele>
        <time>2026-07-08T09:46:54Z</time>
      </trkpt>
      <trkpt lat="31.230084351308932" lon="121.40041390717006">
        <ele>20.682679154910147</ele>
        <time>2026-07-08T09:47:03Z</time>
      </trkpt>
      <trkpt lat="31.230200296897475" lon="121.40040889626901">
        <ele>22.770073869265616</ele>
        <time>2026-07-08T09:47:09Z</time>
      </trkpt>
      <trkpt lat="31.23029824200538" lon="121.40032787515104">
        <ele>23.652588822878897</ele>
        <time>2026-07-08T09:47:18Z</time>
      </trkpt>
      <trkpt lat="31.230479150597443" lon="121.4002618493801">
        <ele>16.51845643762499</ele>
        <time>2026-07-08T09:47:27Z</time>
      </trkpt>
      <trkpt lat="31.230673062009004" lon="121.40027383426505">
        <ele>23.377793290652335</ele>
        <time>2026-07-08T09:47:33Z</time>
      </trkpt>
      <trkpt lat="31.230880958530157" lon="121.40020980662088">
        <ele>8.668259599246085</ele>
        <time>2026-07-08T09:47:42Z</time>
      </trkpt>
      <trkpt lat="31.231126826523422" lon="121.40003876082177">
        <ele>24.260315873660147</ele>
        <time>2026-07-08T09:47:57Z</time>
      </trkpt>
      <trkpt lat="31.231231768332915" lon="121.39994273866981">
        <ele>9.455651261843741</ele>
        <time>2026-07-08T09:48:03Z</time>
      </trkpt>
      <trkpt lat="31.23126074932112" lon="121.39988472852352">
        <ele>25.96986482385546</ele>
        <time>2026-07-08T09:48:06Z</time>
      </trkpt>
      <trkpt lat="31.23120974390524" lon="121.3995536928763">
        <ele>25.100556352175772</ele>
        <time>2026-07-08T09:48:15Z</time>
      </trkpt>
      <trkpt lat="31.231145764588568" lon="121.39943868587208">
        <ele>14.988579728640616</ele>
        <time>2026-07-08T09:48:21Z</time>
      </trkpt>
      <trkpt lat="31.23109678349722" lon="121.39938768478545">
        <ele>24.14405915979296</ele>
        <time>2026-07-08T09:48:24Z</time>
      </trkpt>
      <trkpt lat="31.23095284497919" lon="121.39931468990737">
        <ele>25.49690339807421</ele>
        <time>2026-07-08T09:48:33Z</time>
      </trkpt>
      <trkpt lat="31.230849890896465" lon="121.39928869630779">
        <ele>25.81397340539843</ele>
        <time>2026-07-08T09:48:36Z</time>
      </trkpt>
      <trkpt lat="31.23068496735665" lon="121.39928871069391">
        <ele>22.51905915979296</ele>
        <time>2026-07-08T09:48:45Z</time>
      </trkpt>
      <trkpt lat="31.230643988579192" lon="121.39932071744909">
        <ele>18.34426210168749</ele>
        <time>2026-07-08T09:48:48Z</time>
      </trkpt>
    </trkseg>
  </trk>
</gpx>