<?xml version="1.0" encoding="UTF-8"?>
<gpx xmlns="http://www.topografix.com/GPX/1/1" xmlns:gpxtpx="http://www.garmin.com/xmlschemas/TrackPointExtension/v1" xmlns:xsi="http://www.w3.org/2001/XMLSchema-instance" xsi:schemaLocation="http://www.topografix.com/GPX/1/1 http://www.topografix.com/GPX/1/1/gpx.xsd" version="1.1" creator="gpx.py -- https://github.com/tkrajina/gpxpy">
  <trk>
    <name>gpx from keep</name>
    <type>Run</type>
    <trkseg>
      <trkpt lat="31.225693273183108" lon="121.39896411680868">
        <ele>19.821615590713918</ele>
        <time>2026-09-15T09:34:45Z</time>
      </trkpt>
      <trkpt lat="31.225431397914438" lon="121.39900214278362">
        <ele>19.64722479786724</ele>
        <time>2026-09-15T09:34:57Z</time>
      </trkpt>
      <trkpt lat="31.22517551543479" lon="121.39895916155632">
        <ele>19.948444738052785</ele>
        <time>2026-09-15T09:35:06Z</time>
      </trkpt>
      <trkpt lat="31.22494662310628" lon="121.3989661820884">
        <ele>19.85332144703716</ele>
        <time>2026-09-15T09:35:15Z</time>
      </trkpt>
      <trkpt lat="31.224812688571674" lon="121.39901419774793">
        <ele>19.906168355606496</ele>
        <time>2026-09-15T09:35:21Z</time>
      </trkpt>
      <trkpt lat="31.224726733429108" lon="121.39909221196731">
        <ele>20.2496627708897</ele>
        <time>2026-09-15T09:35:24Z</time>
      </trkpt>
      <trkpt lat="31.224672767639433" lon="121.39923322963574">
        <ele>18.595600499771535</ele>
        <time>2026-09-15T09:35:30Z</time>
      </trkpt>
      <trkpt lat="31.224649793599074" lon="121.39944725330261">
        <ele>19.335436238907278</ele>
        <time>2026-09-15T09:35:36Z</time>
      </trkpt>
      <trkpt lat="31.22465979526172" lon="121.39952926136749">
        <ele>16.613895787857473</ele>
        <time>2026-09-15T09:35:39Z</time>
      </trkpt>
      <trkpt lat="31.224720782521786" lon="121.39971927811233">
        <ele>18.77527655567974</ele>
        <time>2026-09-15T09:35:45Z</time>
      </trkpt>
      <trkpt lat="31.224773763649072" lon="121.39978628172395">
        <ele>17.935032262466848</ele>
        <time>2026-09-15T09:35:48Z</time>
      </trkpt>
      <trkpt lat="31.225082619565118" lon="121.39979425578721">
        <ele>19.00251044239849</ele>
        <time>2026-09-15T09:36:00Z</time>
      </trkpt>
      <trkpt lat="31.22544645350733" lon="121.39984223011943">
        <ele>19.198036565445364</ele>
        <time>2026-09-15T09:36:12Z</time>
      </trkpt>
      <trkpt lat="31.225613378241768" lon="121.39987321954133">
        <ele>19.52039565052837</ele>
        <time>2026-09-15T09:36:18Z</time>
      </trkpt>
      <trkpt lat="31.225815282586808" lon="121.39986120038614">
        <ele>20.02771223988384</ele>
        <time>2026-09-15T09:36:27Z</time>
      </trkpt>
      <trkpt lat="31.22598319518373" lon="121.39976517364173">
        <ele>18.58502997364849</ele>
        <time>2026-09-15T09:36:33Z</time>
      </trkpt>
      <trkpt lat="31.226050158459536" lon="121.39970416036431">
        <ele>16.08543814625591</ele>
        <time>2026-09-15T09:36:36Z</time>
      </trkpt>
      <trkpt lat="31.226146098072306" lon="121.39951713041431">
        <ele>17.808201207779348</ele>
        <time>2026-09-15T09:36:42Z</time>
      </trkpt>
      <trkpt lat="31.2261450921569" lon="121.39943412151031">
        <ele>17.98787726368755</ele>
        <time>2026-09-15T09:36:45Z</time>
      </trkpt>
      <trkpt lat="31.226094109213353" lon="121.3993411163108">
        <ele>16.978527440689504</ele>
        <time>2026-09-15T09:36:48Z</time>
      </trkpt>
      <trkpt lat="31.226066113782405" lon="121.39921610650151">
        <ele>17.71308173146099</ele>
        <time>2026-09-15T09:36:51Z</time>
      </trkpt>
      <trkpt lat="31.225987142118875" lon="121.39907810081466">
        <ele>19.6683639427647</ele>
        <time>2026-09-15T09:36:58Z</time>
      </trkpt>
      <trkpt lat="31.22592716698567" lon="121.39902310131178">
        <ele>18.58502997364849</ele>
        <time>2026-09-15T09:37:01Z</time>
      </trkpt>
      <trkpt lat="31.225689275327014" lon="121.39896911756568">
        <ele>18.236252202652395</ele>
        <time>2026-09-15T09:37:07Z</time>
      </trkpt>
      <trkpt lat="31.225517356267435" lon="121.39897713321523">
        <ele>19.00251044239849</ele>
        <time>2026-09-15T09:37:13Z</time>
      </trkpt>
      <trkpt lat="31.225354430848835" lon="121.39894514482013">
        <ele>16.30210532154888</ele>
        <time>2026-09-15T09:37:19Z</time>
      </trkpt>
      <trkpt lat="31.225223493114033" lon="121.3989621576162">
        <ele>19.60494841542095</ele>
        <time>2026-09-15T09:37:25Z</time>
      </trkpt>
      <trkpt lat="31.224981606109314" lon="121.39895517814264">
        <ele>19.31429900135845</ele>
        <time>2026-09-15T09:37:34Z</time>
      </trkpt>
      <trkpt lat="31.224905643086462" lon="121.39898018681039">
        <ele>19.842752828262746</ele>
        <time>2026-09-15T09:37:37Z</time>
      </trkpt>
      <trkpt lat="31.22474172579955" lon="121.39908220978008">
        <ele>21.274866475723684</ele>
        <time>2026-09-15T09:37:43Z</time>
      </trkpt>
      <trkpt lat="31.22463978484832" lon="121.39925923501606">
        <ele>20.122833623550832</ele>
        <time>2026-09-15T09:37:46Z</time>
      </trkpt>
      <trkpt lat="31.224630798781224" lon="121.3993972496827">
        <ele>19.52039565052837</ele>
        <time>2026-09-15T09:37:49Z</time>
      </trkpt>
      <trkpt lat="31.2246467993893" lon="121.39950425973876">
        <ele>19.393566503189504</ele>
        <time>2026-09-15T09:37:52Z</time>
      </trkpt>
      <trkpt lat="31.22471378079266" lon="121.39966127178691">
        <ele>19.488687886856496</ele>
        <time>2026-09-15T09:37:58Z</time>
      </trkpt>
      <trkpt lat="31.2247857536353" lon="121.39973727463466">
        <ele>16.87812079396099</ele>
        <time>2026-09-15T09:38:01Z</time>
      </trkpt>
      <trkpt lat="31.2249426868097" lon="121.39981227025017">
        <ele>19.821615590713918</ele>
        <time>2026-09-15T09:38:07Z</time>
      </trkpt>
      <trkpt lat="31.22509961462776" lon="121.39982725846016">
        <ele>19.324867620132864</ele>
        <time>2026-09-15T09:38:13Z</time>
      </trkpt>
      <trkpt lat="31.225158585422975" lon="121.39981025116961">
        <ele>18.812267675064504</ele>
        <time>2026-09-15T09:38:16Z</time>
      </trkpt>
      <trkpt lat="31.22545545022721" lon="121.3998522306131">
        <ele>19.166332616470754</ele>
        <time>2026-09-15T09:38:28Z</time>
      </trkpt>
      <trkpt lat="31.22560038160444" lon="121.39984421695026">
        <ele>19.219177617691457</ele>
        <time>2026-09-15T09:38:34Z</time>
      </trkpt>
      <trkpt lat="31.225826277440493" lon="121.39986119942725">
        <ele>19.62608756031841</ele>
        <time>2026-09-15T09:38:43Z</time>
      </trkpt>
      <trkpt lat="31.22590124095039" lon="121.3998461909669">
        <ele>20.017143621109426</ele>
        <time>2026-09-15T09:38:46Z</time>
      </trkpt>
      <trkpt lat="31.225986196765323" lon="121.39979817748481">
        <ele>19.07649268116802</ele>
        <time>2026-09-15T09:38:49Z</time>
      </trkpt>
      <trkpt lat="31.226079140772637" lon="121.39965615212166">
        <ele>19.832184209488332</ele>
        <time>2026-09-15T09:38:55Z</time>
      </trkpt>
      <trkpt lat="31.226132102974407" lon="121.39949612932573">
        <ele>19.124054326675832</ele>
        <time>2026-09-15T09:39:01Z</time>
      </trkpt>
      <trkpt lat="31.226125099055047" lon="121.39940111977933">
        <ele>12.655769719742239</ele>
        <time>2026-09-15T09:39:04Z</time>
      </trkpt>
      <trkpt lat="31.22604612042598" lon="121.39917410431266">
        <ele>18.99193991627544</ele>
        <time>2026-09-15T09:39:13Z</time>
      </trkpt>
      <trkpt lat="31.225952156961032" lon="121.39905210160843">
        <ele>18.896820439957082</ele>
        <time>2026-09-15T09:39:19Z</time>
      </trkpt>
      <trkpt lat="31.225825212129894" lon="121.39897710636627">
        <ele>18.98137320484966</ele>
        <time>2026-09-15T09:39:25Z</time>
      </trkpt>
      <trkpt lat="31.225499363067268" lon="121.3989471323415">
        <ele>19.42527426686138</ele>
        <time>2026-09-15T09:39:37Z</time>
      </trkpt>
      <trkpt lat="31.22516951648468" lon="121.39892615942594">
        <ele>16.904545201919973</ele>
        <time>2026-09-15T09:39:50Z</time>
      </trkpt>
      <trkpt lat="31.224949621320754" lon="121.39895918125673">
        <ele>18.484623326919973</ele>
        <time>2026-09-15T09:39:59Z</time>
      </trkpt>
      <trkpt lat="31.224767711903553" lon="121.39905320499214">
        <ele>18.389503850601614</ele>
        <time>2026-09-15T09:40:05Z</time>
      </trkpt>
      <trkpt lat="31.224689756095522" lon="121.39917822297417">
        <ele>20.22852553334087</ele>
        <time>2026-09-15T09:40:11Z</time>
      </trkpt>
      <trkpt lat="31.224661774398186" lon="121.3992572329045">
        <ele>19.52039565052837</ele>
        <time>2026-09-15T09:40:14Z</time>
      </trkpt>
      <trkpt lat="31.224632804244962" lon="121.39948225855574">
        <ele>17.99316061940044</ele>
        <time>2026-09-15T09:40:23Z</time>
      </trkpt>
      <trkpt lat="31.224691789666704" lon="121.39964427170523">
        <ele>18.70129050221294</ele>
        <time>2026-09-15T09:40:29Z</time>
      </trkpt>
      <trkpt lat="31.224767764657713" lon="121.3997662797651">
        <ele>19.509827031753957</ele>
        <time>2026-09-15T09:40:35Z</time>
      </trkpt>
      <trkpt lat="31.224824741564213" lon="121.39980627978119">
        <ele>18.574463262222707</ele>
        <time>2026-09-15T09:40:38Z</time>
      </trkpt>
      <trkpt lat="31.224913702894995" lon="121.39983927619875">
        <ele>19.20860709156841</ele>
        <time>2026-09-15T09:40:41Z</time>
      </trkpt>
      <trkpt lat="31.2251206042357" lon="121.39982125586991">
        <ele>18.77527655567974</ele>
        <time>2026-09-15T09:40:50Z</time>
      </trkpt>
      <trkpt lat="31.225418466616734" lon="121.39984223256023">
        <ele>17.549259557388723</ele>
        <time>2026-09-15T09:41:02Z</time>
      </trkpt>
      <trkpt lat="31.225608380015746" lon="121.39986721920303">
        <ele>15.218773259781301</ele>
        <time>2026-09-15T09:41:08Z</time>
      </trkpt>
      <trkpt lat="31.225859259110546" lon="121.39983019259057">
        <ele>19.11877097096294</ele>
        <time>2026-09-15T09:41:20Z</time>
      </trkpt>
      <trkpt lat="31.225962207444088" lon="121.39979217882642">
        <ele>19.885029210709035</ele>
        <time>2026-09-15T09:41:23Z</time>
      </trkpt>
      <trkpt lat="31.226085133200165" lon="121.39959914496953">
        <ele>19.187469854019582</ele>
        <time>2026-09-15T09:41:32Z</time>
      </trkpt>
      <trkpt lat="31.22612310319624" lon="121.39944412449226">
        <ele>19.768768682144582</ele>
        <time>2026-09-15T09:41:38Z</time>
      </trkpt>
      <trkpt lat="31.226111099994213" lon="121.39932311301436">
        <ele>19.636656179092824</ele>
        <time>2026-09-15T09:41:41Z</time>
      </trkpt>
      <trkpt lat="31.226017129646" lon="121.39910410049215">
        <ele>18.796413793228567</ele>
        <time>2026-09-15T09:41:50Z</time>
      </trkpt>
      <trkpt lat="31.225977145209942" lon="121.39905109934301">
        <ele>18.595600499771535</ele>
        <time>2026-09-15T09:41:53Z</time>
      </trkpt>
      <trkpt lat="31.225754244747936" lon="121.39896611165435">
        <ele>17.94559897389263</ele>
        <time>2026-09-15T09:42:02Z</time>
      </trkpt>
      <trkpt lat="31.225547340812497" lon="121.39895112848028">
        <ele>18.595600499771535</ele>
        <time>2026-09-15T09:42:11Z</time>
      </trkpt>
      <trkpt lat="31.225242483728863" lon="121.39895315522924">
        <ele>18.606171025894582</ele>
        <time>2026-09-15T09:42:24Z</time>
      </trkpt>
      <trkpt lat="31.224930632479197" lon="121.399000186289">
        <ele>19.64722479786724</ele>
        <time>2026-09-15T09:42:36Z</time>
      </trkpt>
      <trkpt lat="31.22485366890323" lon="121.39900619350247">
        <ele>18.928528203628957</ele>
        <time>2026-09-15T09:42:39Z</time>
      </trkpt>
      <trkpt lat="31.224785703349195" lon="121.39905120325082">
        <ele>16.9256824394688</ele>
        <time>2026-09-15T09:42:42Z</time>
      </trkpt>
      <trkpt lat="31.2246957529642" lon="121.39917322198814">
        <ele>18.183403386734426</ele>
        <time>2026-09-15T09:42:48Z</time>
      </trkpt>
      <trkpt lat="31.2246517841841" lon="121.39933124108836">
        <ele>19.367144002579153</ele>
        <time>2026-09-15T09:42:54Z</time>
      </trkpt>
      <trkpt lat="31.224675790077193" lon="121.3995582632177">
        <ele>18.806980504654348</ele>
        <time>2026-09-15T09:43:00Z</time>
      </trkpt>
      <trkpt lat="31.22472378067747" lon="121.39971427724596">
        <ele>18.928528203628957</ele>
        <time>2026-09-15T09:43:06Z</time>
      </trkpt>
      <trkpt lat="31.224755770912605" lon="121.3997732816774">
        <ele>18.98137320484966</ele>
        <time>2026-09-15T09:43:09Z</time>
      </trkpt>
      <trkpt lat="31.224866726322656" lon="121.39985428221263">
        <ele>17.65494955983013</ele>
        <time>2026-09-15T09:43:15Z</time>
      </trkpt>
      <trkpt lat="31.225018653877147" lon="121.39984126730086">
        <ele>18.970802678726614</ele>
        <time>2026-09-15T09:43:21Z</time>
      </trkpt>
      <trkpt lat="31.22521556506203" lon="121.399878254882">
        <ele>18.87567938771099</ele>
        <time>2026-09-15T09:43:27Z</time>
      </trkpt>
      <trkpt lat="31.225520422529964" lon="121.39988122868347">
        <ele>18.63787497486919</ele>
        <time>2026-09-15T09:43:39Z</time>
      </trkpt>
      <trkpt lat="31.22559238968349" lon="121.3998902235757">
        <ele>18.62730826344341</ele>
        <time>2026-09-15T09:43:42Z</time>
      </trkpt>
      <trkpt lat="31.225731321889466" lon="121.39986120770861">
        <ele>18.669582738541067</ele>
        <time>2026-09-15T09:43:48Z</time>
      </trkpt>
      <trkpt lat="31.225811285778086" lon="121.39987520253977">
        <ele>21.53380812611431</ele>
        <time>2026-09-15T09:43:51Z</time>
      </trkpt>
      <trkpt lat="31.2258782529261" lon="121.39985919463729">
        <ele>18.58502997364849</ele>
        <time>2026-09-15T09:43:54Z</time>
      </trkpt>
      <trkpt lat="31.226006184426836" lon="121.39976517163674">
        <ele>18.516331090591848</ele>
        <time>2026-09-15T09:44:00Z</time>
      </trkpt>
      <trkpt lat="31.22611711321541" lon="121.39953713516292">
        <ele>16.603325261734426</ele>
        <time>2026-09-15T09:44:09Z</time>
      </trkpt>
      <trkpt lat="31.226127096076198" lon="121.39937311670175">
        <ele>18.62730826344341</ele>
        <time>2026-09-15T09:44:15Z</time>
      </trkpt>
      <trkpt lat="31.22602912313174" lon="121.39908909811906">
        <ele>17.956169500015676</ele>
        <time>2026-09-15T09:44:27Z</time>
      </trkpt>
      <trkpt lat="31.225970147444492" lon="121.39903309841216">
        <ele>19.07649268116802</ele>
        <time>2026-09-15T09:44:30Z</time>
      </trkpt>
      <trkpt lat="31.22589717955395" lon="121.39899710174456">
        <ele>20.577305211685598</ele>
        <time>2026-09-15T09:44:33Z</time>
      </trkpt>
      <trkpt lat="31.225689273764427" lon="121.3989401152157">
        <ele>9.812683477066457</ele>
        <time>2026-09-15T09:44:42Z</time>
      </trkpt>
      <trkpt lat="31.225689273764427" lon="121.3989401152157">
        <ele>16.980183300562203</ele>
        <time>2026-09-15T09:44:48Z</time>
      </trkpt>
    </trkseg>
  </trk>
</gpx>