<?xml version="1.0" encoding="UTF-8"?>
<gpx xmlns="http://www.topografix.com/GPX/1/1" xmlns:gpxtpx="http://www.garmin.com/xmlschemas/TrackPointExtension/v1" xmlns:xsi="http://www.w3.org/2001/XMLSchema-instance" xsi:schemaLocation="http://www.topografix.com/GPX/1/1 http://www.topografix.com/GPX/1/1/gpx.xsd" version="1.1" creator="gpx.py -- https://github.com/tkrajina/gpxpy">
  <trk>
    <name>gpx from keep</name>
    <type>Run</type>
    <trkseg>
      <trkpt lat="31.230173305311535" lon="121.40037389314762">
        <ele>16.433474145829678</ele>
        <time>2026-06-12T11:01:50Z</time>
      </trkpt>
      <trkpt lat="31.230430174998755" lon="121.40027685590265">
        <ele>22.39972933381796</ele>
        <time>2026-06-12T11:02:02Z</time>
      </trkpt>
      <trkpt lat="31.23059809176553" lon="121.40022883409566">
        <ele>23.871475778520107</ele>
        <time>2026-06-12T11:02:08Z</time>
      </trkpt>
      <trkpt lat="31.230708035214388" lon="121.40017781703075">
        <ele>20.333471857011318</ele>
        <time>2026-06-12T11:02:11Z</time>
      </trkpt>
      <trkpt lat="31.2309549146854" lon="121.40012078730341">
        <ele>14.546890817582607</ele>
        <time>2026-06-12T11:02:17Z</time>
      </trkpt>
      <trkpt lat="31.23109683869092" lon="121.40002176110062">
        <ele>17.873514734208584</ele>
        <time>2026-06-12T11:02:23Z</time>
      </trkpt>
      <trkpt lat="31.231182789076747" lon="121.39992274029534">
        <ele>20.114163003861904</ele>
        <time>2026-06-12T11:02:26Z</time>
      </trkpt>
      <trkpt lat="31.231243751016244" lon="121.39981872155215">
        <ele>20.708674035966396</ele>
        <time>2026-06-12T11:02:29Z</time>
      </trkpt>
      <trkpt lat="31.231253735653347" lon="121.39969870589596">
        <ele>4.720274530351162</ele>
        <time>2026-06-12T11:02:32Z</time>
      </trkpt>
      <trkpt lat="31.2312057426564" lon="121.39951468887959">
        <ele>21.90033968538046</ele>
        <time>2026-06-12T11:02:38Z</time>
      </trkpt>
      <trkpt lat="31.231131769351546" lon="121.39941568465909">
        <ele>12.77656801789999</ele>
        <time>2026-06-12T11:02:41Z</time>
      </trkpt>
      <trkpt lat="31.23104380430487" lon="121.39933568408289">
        <ele>20.65847071260214</ele>
        <time>2026-06-12T11:02:44Z</time>
      </trkpt>
      <trkpt lat="31.23080191306825" lon="121.39928770039432">
        <ele>20.909487329423428</ele>
        <time>2026-06-12T11:02:53Z</time>
      </trkpt>
      <trkpt lat="31.23049505920396" lon="121.39934273265777">
        <ele>19.37432535737753</ele>
        <time>2026-06-12T11:03:05Z</time>
      </trkpt>
      <trkpt lat="31.230216195393208" lon="121.39943576663815">
        <ele>20.127373300492764</ele>
        <time>2026-06-12T11:03:17Z</time>
      </trkpt>
      <trkpt lat="31.22999930239078" lon="121.39951779444691">
        <ele>18.29099329560995</ele>
        <time>2026-06-12T11:03:26Z</time>
      </trkpt>
      <trkpt lat="31.229843383649722" lon="121.39962682041016">
        <ele>7.793239198625088</ele>
        <time>2026-06-12T11:03:32Z</time>
      </trkpt>
      <trkpt lat="31.22977342703341" lon="121.39975284158027">
        <ele>7.991409860551357</ele>
        <time>2026-06-12T11:03:39Z</time>
      </trkpt>
      <trkpt lat="31.229738459859863" lon="121.39993086733736">
        <ele>17.915791116654873</ele>
        <time>2026-06-12T11:03:45Z</time>
      </trkpt>
      <trkpt lat="31.229756466145634" lon="121.40007688563401">
        <ele>8.274133287370205</ele>
        <time>2026-06-12T11:03:51Z</time>
      </trkpt>
      <trkpt lat="31.22978246132318" lon="121.40014589314566">
        <ele>19.834082208573818</ele>
        <time>2026-06-12T11:03:54Z</time>
      </trkpt>
      <trkpt lat="31.229829446524825" lon="121.40021089848848">
        <ele>20.38631685823202</ele>
        <time>2026-06-12T11:03:57Z</time>
      </trkpt>
      <trkpt lat="31.229951401518836" lon="121.40031490341877">
        <ele>20.188147149980068</ele>
        <time>2026-06-12T11:04:03Z</time>
      </trkpt>
      <trkpt lat="31.230162308321372" lon="121.40035589131583">
        <ele>10.472505174577236</ele>
        <time>2026-06-12T11:04:12Z</time>
      </trkpt>
      <trkpt lat="31.230443169984113" lon="121.40028585612511">
        <ele>19.688755594193935</ele>
        <time>2026-06-12T11:04:24Z</time>
      </trkpt>
      <trkpt lat="31.230519133395898" lon="121.40027384769196">
        <ele>21.49078806489706</ele>
        <time>2026-06-12T11:04:27Z</time>
      </trkpt>
      <trkpt lat="31.230839973723082" lon="121.40017480508648">
        <ele>22.013956628739834</ele>
        <time>2026-06-12T11:04:36Z</time>
      </trkpt>
      <trkpt lat="31.230927931554884" lon="121.4001617955326">
        <ele>23.192411981523037</ele>
        <time>2026-06-12T11:04:39Z</time>
      </trkpt>
      <trkpt lat="31.231091842935207" lon="121.40004076414932">
        <ele>19.958267770707607</ele>
        <time>2026-06-12T11:04:48Z</time>
      </trkpt>
      <trkpt lat="31.23117379324395" lon="121.39992274108003">
        <ele>20.301764093339443</ele>
        <time>2026-06-12T11:04:54Z</time>
      </trkpt>
      <trkpt lat="31.23121904177584" lon="121.39978402220719">
        <ele>19.915991388261318</ele>
        <time>2026-06-12T11:04:57Z</time>
      </trkpt>
      <trkpt lat="31.2312097534405" lon="121.39966870615436">
        <ele>19.989975534379482</ele>
        <time>2026-06-12T11:05:00Z</time>
      </trkpt>
      <trkpt lat="31.231135773815794" lon="121.3994986932232">
        <ele>20.209284387528896</ele>
        <time>2026-06-12T11:05:06Z</time>
      </trkpt>
      <trkpt lat="31.23108779062166" lon="121.3994276897617">
        <ele>17.19444902986288</ele>
        <time>2026-06-12T11:05:09Z</time>
      </trkpt>
      <trkpt lat="31.230967840002666" lon="121.39934269141766">
        <ele>17.675343118607998</ele>
        <time>2026-06-12T11:05:15Z</time>
      </trkpt>
      <trkpt lat="31.23071795337502" lon="121.39930770969862">
        <ele>12.816202722489834</ele>
        <time>2026-06-12T11:05:25Z</time>
      </trkpt>
      <trkpt lat="31.230410101130268" lon="121.39937774364915">
        <ele>20.32290133088827</ele>
        <time>2026-06-12T11:05:37Z</time>
      </trkpt>
      <trkpt lat="31.23015222789521" lon="121.39947277618546">
        <ele>18.269856058061123</ele>
        <time>2026-06-12T11:05:49Z</time>
      </trkpt>
      <trkpt lat="31.2300132958936" lon="121.39951779322631">
        <ele>15.276159845292568</ele>
        <time>2026-06-12T11:05:55Z</time>
      </trkpt>
      <trkpt lat="31.22990435137133" lon="121.39957880957111">
        <ele>20.584486566483974</ele>
        <time>2026-06-12T11:06:01Z</time>
      </trkpt>
      <trkpt lat="31.22984538347547" lon="121.39963582128438">
        <ele>3.80604799836874</ele>
        <time>2026-06-12T11:06:04Z</time>
      </trkpt>
      <trkpt lat="31.229780424946448" lon="121.39976584257192">
        <ele>20.114163003861904</ele>
        <time>2026-06-12T11:06:10Z</time>
      </trkpt>
      <trkpt lat="31.22976245293096" lon="121.39997387097951">
        <ele>8.472303949296474</ele>
        <time>2026-06-12T11:06:19Z</time>
      </trkpt>
      <trkpt lat="31.229794454052" lon="121.40012988980969">
        <ele>20.272699914872646</ele>
        <time>2026-06-12T11:06:25Z</time>
      </trkpt>
      <trkpt lat="31.22982144740747" lon="121.4001848953831">
        <ele>17.07026346772909</ele>
        <time>2026-06-12T11:06:31Z</time>
      </trkpt>
      <trkpt lat="31.229938404375616" lon="121.40028690030515">
        <ele>19.04139956086874</ele>
        <time>2026-06-12T11:06:37Z</time>
      </trkpt>
      <trkpt lat="31.230066349980387" lon="121.40033089583781">
        <ele>17.268433175981045</ele>
        <time>2026-06-12T11:06:46Z</time>
      </trkpt>
      <trkpt lat="31.230348219849226" lon="121.40033687217174">
        <ele>19.33204897493124</ele>
        <time>2026-06-12T11:06:53Z</time>
      </trkpt>
      <trkpt lat="31.230561115726577" lon="121.40028984644097">
        <ele>20.07452829927206</ele>
        <time>2026-06-12T11:07:02Z</time>
      </trkpt>
      <trkpt lat="31.230866960890065" lon="121.40017180229745">
        <ele>-54.456088460981846</ele>
        <time>2026-06-12T11:07:14Z</time>
      </trkpt>
      <trkpt lat="31.231002892030027" lon="121.4001167825499">
        <ele>19.43774088472128</ele>
        <time>2026-06-12T11:07:20Z</time>
      </trkpt>
      <trkpt lat="31.23117079589398" lon="121.39993574305963">
        <ele>20.063959680497646</ele>
        <time>2026-06-12T11:07:32Z</time>
      </trkpt>
      <trkpt lat="31.23121876425561" lon="121.39983672601474">
        <ele>7.74303587526083</ele>
        <time>2026-06-12T11:07:35Z</time>
      </trkpt>
      <trkpt lat="31.231241738028015" lon="121.39966170253622">
        <ele>20.991396509110928</ele>
        <time>2026-06-12T11:07:41Z</time>
      </trkpt>
      <trkpt lat="31.231177752895185" lon="121.39947968748906">
        <ele>10.554415307939053</ele>
        <time>2026-06-12T11:07:47Z</time>
      </trkpt>
      <trkpt lat="31.23109778237865" lon="121.39937868376673">
        <ele>18.87493570894003</ele>
        <time>2026-06-12T11:07:53Z</time>
      </trkpt>
      <trkpt lat="31.23103280883509" lon="121.39932768423554">
        <ele>19.302984796464443</ele>
        <time>2026-06-12T11:07:56Z</time>
      </trkpt>
      <trkpt lat="31.230655981901755" lon="121.39930471480588">
        <ele>15.891808114945889</ele>
        <time>2026-06-12T11:08:14Z</time>
      </trkpt>
      <trkpt lat="31.23036712099845" lon="121.39937674729502">
        <ele>17.976563058793545</ele>
        <time>2026-06-12T11:08:26Z</time>
      </trkpt>
      <trkpt lat="31.230053273447524" lon="121.3994677842766">
        <ele>7.201369844377041</ele>
        <time>2026-06-12T11:08:41Z</time>
      </trkpt>
      <trkpt lat="31.22989635138358" lon="121.39953280509131">
        <ele>18.99912317842245</ele>
        <time>2026-06-12T11:08:47Z</time>
      </trkpt>
      <trkpt lat="31.22984138126949" lon="121.39958681597554">
        <ele>-17.263442434370518</ele>
        <time>2026-06-12T11:08:54Z</time>
      </trkpt>
      <trkpt lat="31.22974844853074" lon="121.39986085733784">
        <ele>15.78876169770956</ele>
        <time>2026-06-12T11:09:03Z</time>
      </trkpt>
      <trkpt lat="31.229743465143464" lon="121.40000787723912">
        <ele>4.170683465898037</ele>
        <time>2026-06-12T11:09:09Z</time>
      </trkpt>
      <trkpt lat="31.229792457748488" lon="121.40015589371176">
        <ele>4.355642877519131</ele>
        <time>2026-06-12T11:09:15Z</time>
      </trkpt>
      <trkpt lat="31.229971397415156" lon="121.40035990858706">
        <ele>18.351767145097256</ele>
        <time>2026-06-12T11:09:21Z</time>
      </trkpt>
      <trkpt lat="31.230070352984864" lon="121.40037290197229">
        <ele>7.233079515397549</ele>
        <time>2026-06-12T11:09:24Z</time>
      </trkpt>
      <trkpt lat="31.230343219761583" lon="121.40031586939422">
        <ele>18.061117731034756</ele>
        <time>2026-06-12T11:09:33Z</time>
      </trkpt>
      <trkpt lat="31.230492147828958" lon="121.40029085260805">
        <ele>18.687336526811123</ele>
        <time>2026-06-12T11:09:39Z</time>
      </trkpt>
      <trkpt lat="31.23070203875226" lon="121.40018481857166">
        <ele>16.70563181489706</ele>
        <time>2026-06-12T11:09:48Z</time>
      </trkpt>
      <trkpt lat="31.23100188821295" lon="121.40007577685898">
        <ele>16.59993990510702</ele>
        <time>2026-06-12T11:10:03Z</time>
      </trkpt>
      <trkpt lat="31.231193784952882" lon="121.39993274065701">
        <ele>10.712954126298428</ele>
        <time>2026-06-12T11:10:15Z</time>
      </trkpt>
      <trkpt lat="31.23122176351803" lon="121.39984372664553">
        <ele>16.111118875443935</ele>
        <time>2026-06-12T11:10:18Z</time>
      </trkpt>
      <trkpt lat="31.231215738973397" lon="121.39952668933626">
        <ele>17.958069406449795</ele>
        <time>2026-06-12T11:10:36Z</time>
      </trkpt>
      <trkpt lat="31.231142764778838" lon="121.39942268443774">
        <ele>17.58022364228964</ele>
        <time>2026-06-12T11:10:42Z</time>
      </trkpt>
      <trkpt lat="31.23103880549458" lon="121.39931968290931">
        <ele>18.008272729814053</ele>
        <time>2026-06-12T11:10:45Z</time>
      </trkpt>
      <trkpt lat="31.230919861036668" lon="121.39932569388682">
        <ele>19.324123941361904</ele>
        <time>2026-06-12T11:10:51Z</time>
      </trkpt>
      <trkpt lat="31.230865887397318" lon="121.39934470051381">
        <ele>18.874937616288662</ele>
        <time>2026-06-12T11:10:55Z</time>
      </trkpt>
      <trkpt lat="31.230720953524237" lon="121.39932971163977">
        <ele>13.661732278764248</ele>
        <time>2026-06-12T11:11:01Z</time>
      </trkpt>
      <trkpt lat="31.230532044708575" lon="121.39937973321882">
        <ele>14.150551401078701</ele>
        <time>2026-06-12T11:11:10Z</time>
      </trkpt>
      <trkpt lat="31.230203199632985" lon="121.39941176523651">
        <ele>20.114164911210537</ele>
        <time>2026-06-12T11:11:28Z</time>
      </trkpt>
      <trkpt lat="31.230124237176668" lon="121.39942377338801">
        <ele>20.02168520539999</ele>
        <time>2026-06-12T11:11:31Z</time>
      </trkpt>
      <trkpt lat="31.229910345522057" lon="121.39954080476312">
        <ele>21.34546335786581</ele>
        <time>2026-06-12T11:11:40Z</time>
      </trkpt>
      <trkpt lat="31.229787416390817" lon="121.39970583464196">
        <ele>11.471286378800869</ele>
        <time>2026-06-12T11:11:46Z</time>
      </trkpt>
      <trkpt lat="31.22974045074758" lon="121.39984485598514">
        <ele>15.955225549638271</ele>
        <time>2026-06-12T11:11:52Z</time>
      </trkpt>
      <trkpt lat="31.229749467642172" lon="121.40005988387352">
        <ele>11.117221437394619</ele>
        <time>2026-06-12T11:12:01Z</time>
      </trkpt>
      <trkpt lat="31.229822452746532" lon="121.40023790308554">
        <ele>5.254015527665615</ele>
        <time>2026-06-12T11:12:07Z</time>
      </trkpt>
      <trkpt lat="31.22990042679245" lon="121.40032891000422">
        <ele>20.365179620683193</ele>
        <time>2026-06-12T11:12:10Z</time>
      </trkpt>
      <trkpt lat="31.230104332118362" lon="121.40032889221833">
        <ele>20.552782617509365</ele>
        <time>2026-06-12T11:12:16Z</time>
      </trkpt>
      <trkpt lat="31.230402187645748" lon="121.40027385789287">
        <ele>18.843229852616787</ele>
        <time>2026-06-12T11:12:25Z</time>
      </trkpt>
      <trkpt lat="31.230706037657775" lon="121.40019181924325">
        <ele>17.58022364228964</ele>
        <time>2026-06-12T11:12:37Z</time>
      </trkpt>
      <trkpt lat="31.230999892054356" lon="121.40010378096981">
        <ele>17.73876055330038</ele>
        <time>2026-06-12T11:12:49Z</time>
      </trkpt>
      <trkpt lat="31.231203775615644" lon="121.39988373336355">
        <ele>14.525755487382412</ele>
        <time>2026-06-12T11:13:01Z</time>
      </trkpt>
      <trkpt lat="31.23123174402578" lon="121.39967770530461">
        <ele>15.08855875581503</ele>
        <time>2026-06-12T11:13:10Z</time>
      </trkpt>
      <trkpt lat="31.231202745547648" lon="121.39953369124821">
        <ele>16.401770196855068</ele>
        <time>2026-06-12T11:13:16Z</time>
      </trkpt>
      <trkpt lat="31.231054800848824" lon="121.399358685461">
        <ele>13.336731515824795</ele>
        <time>2026-06-12T11:13:28Z</time>
      </trkpt>
      <trkpt lat="31.230758932378045" lon="121.39927870325907">
        <ele>17.43489893525839</ele>
        <time>2026-06-12T11:13:43Z</time>
      </trkpt>
      <trkpt lat="31.230686967118448" lon="121.39929871150765">
        <ele>15.120266519486904</ele>
        <time>2026-06-12T11:13:46Z</time>
      </trkpt>
      <trkpt lat="31.230587012849707" lon="121.39928971933692">
        <ele>15.392420373857021</ele>
        <time>2026-06-12T11:13:52Z</time>
      </trkpt>
      <trkpt lat="31.23039810418148" lon="121.39934274111496">
        <ele>17.456036172807217</ele>
        <time>2026-06-12T11:14:02Z</time>
      </trkpt>
      <trkpt lat="31.230291160754064" lon="121.39943776031176">
        <ele>18.153597436845303</ele>
        <time>2026-06-12T11:14:05Z</time>
      </trkpt>
      <trkpt lat="31.230033285670054" lon="121.39950579015968">
        <ele>11.952180467545986</ele>
        <time>2026-06-12T11:14:17Z</time>
      </trkpt>
      <trkpt lat="31.2299053508257" lon="121.39957780937019">
        <ele>-10.065887846052647</ele>
        <time>2026-06-12T11:14:23Z</time>
      </trkpt>
      <trkpt lat="31.229826395863068" lon="121.39967782789054">
        <ele>17.915793977677822</ele>
        <time>2026-06-12T11:14:29Z</time>
      </trkpt>
      <trkpt lat="31.229797415445244" lon="121.39974783887403">
        <ele>14.515187822282314</ele>
        <time>2026-06-12T11:14:32Z</time>
      </trkpt>
      <trkpt lat="31.22974744171022" lon="121.39978184743286">
        <ele>15.495469652116299</ele>
        <time>2026-06-12T11:14:35Z</time>
      </trkpt>
      <trkpt lat="31.229729462298877" lon="121.39991286575032">
        <ele>12.327384553849697</ele>
        <time>2026-06-12T11:14:44Z</time>
      </trkpt>
      <trkpt lat="31.229806449435486" lon="121.4001388900498">
        <ele>14.203399263322353</ele>
        <time>2026-06-12T11:14:53Z</time>
      </trkpt>
      <trkpt lat="31.22988142691103" lon="121.4002519000239">
        <ele>17.82067259401083</ele>
        <time>2026-06-12T11:14:59Z</time>
      </trkpt>
      <trkpt lat="31.22993340839403" lon="121.40030190301115">
        <ele>15.506040178239346</ele>
        <time>2026-06-12T11:15:02Z</time>
      </trkpt>
      <trkpt lat="31.230464174220405" lon="121.40040687293708">
        <ele>16.026567064225674</ele>
        <time>2026-06-12T11:15:17Z</time>
      </trkpt>
      <trkpt lat="31.230423187262787" lon="121.40035586856011">
        <ele>15.569453798234463</ele>
        <time>2026-06-12T11:15:20Z</time>
      </trkpt>
      <trkpt lat="31.230457165076093" lon="121.40029985702212">
        <ele>10.387955270707607</ele>
        <time>2026-06-12T11:15:26Z</time>
      </trkpt>
      <trkpt lat="31.230716035314334" lon="121.4002128214479">
        <ele>16.539168916642666</ele>
        <time>2026-06-12T11:15:45Z</time>
      </trkpt>
      <trkpt lat="31.23076800633115" lon="121.40016781034996">
        <ele>16.1216903552413</ele>
        <time>2026-06-12T11:15:51Z</time>
      </trkpt>
      <trkpt lat="31.23088395086799" lon="121.4001517979278">
        <ele>15.693641267716885</ele>
        <time>2026-06-12T11:15:57Z</time>
      </trkpt>
      <trkpt lat="31.231123827099275" lon="121.40003075998175">
        <ele>15.714778505265713</ele>
        <time>2026-06-12T11:16:06Z</time>
      </trkpt>
      <trkpt lat="31.231228755581146" lon="121.39979271959258">
        <ele>16.2035995349288</ele>
        <time>2026-06-12T11:16:18Z</time>
      </trkpt>
      <trkpt lat="31.231211744433097" lon="121.39957169473442">
        <ele>15.79933127015829</ele>
        <time>2026-06-12T11:16:30Z</time>
      </trkpt>
      <trkpt lat="31.231142764778838" lon="121.39942268443774">
        <ele>15.255023561418056</ele>
        <time>2026-06-12T11:16:36Z</time>
      </trkpt>
      <trkpt lat="31.23099082668141" lon="121.39930468559766">
        <ele>18.43632086366415</ele>
        <time>2026-06-12T11:16:48Z</time>
      </trkpt>
      <trkpt lat="31.23071995237867" lon="121.39930670942472">
        <ele>16.90380247682333</ele>
        <time>2026-06-12T11:16:57Z</time>
      </trkpt>
      <trkpt lat="31.230580017686364" lon="121.39931272222897">
        <ele>19.63591345399618</ele>
        <time>2026-06-12T11:17:03Z</time>
      </trkpt>
      <trkpt lat="31.230287157450864" lon="121.39936775334365">
        <ele>15.392421327531338</ele>
        <time>2026-06-12T11:17:16Z</time>
      </trkpt>
      <trkpt lat="31.23021319221043" lon="121.39937376041257">
        <ele>18.4997363910079</ele>
        <time>2026-06-12T11:17:19Z</time>
      </trkpt>
      <trkpt lat="31.22997531087628" lon="121.39948379281077">
        <ele>19.08367880433798</ele>
        <time>2026-06-12T11:17:28Z</time>
      </trkpt>
      <trkpt lat="31.229811400102033" lon="121.39964582541877">
        <ele>9.389175973832607</ele>
        <time>2026-06-12T11:17:40Z</time>
      </trkpt>
      <trkpt lat="31.229750444803162" lon="121.3998308533304">
        <ele>7.8566566333174706</ele>
        <time>2026-06-12T11:17:46Z</time>
      </trkpt>
      <trkpt lat="31.229734461814264" lon="121.39993186781835">
        <ele>19.84465368837118</ele>
        <time>2026-06-12T11:17:49Z</time>
      </trkpt>
      <trkpt lat="31.22974346615043" lon="121.40001787860453">
        <ele>17.738761506974697</ele>
        <time>2026-06-12T11:17:52Z</time>
      </trkpt>
      <trkpt lat="31.2298304463892" lon="121.40021389884238">
        <ele>18.676768861711025</ele>
        <time>2026-06-12T11:18:01Z</time>
      </trkpt>
      <trkpt lat="31.229936406434582" lon="121.4002969019916">
        <ele>19.876361452043056</ele>
        <time>2026-06-12T11:18:04Z</time>
      </trkpt>
      <trkpt lat="31.230087340925515" lon="121.4003368949274">
        <ele>20.156442247331142</ele>
        <time>2026-06-12T11:18:10Z</time>
      </trkpt>
      <trkpt lat="31.230368205440993" lon="121.40029186357043">
        <ele>17.382054887712002</ele>
        <time>2026-06-12T11:18:22Z</time>
      </trkpt>
      <trkpt lat="31.23050913579567" lon="121.40025384556914">
        <ele>16.319860063493252</ele>
        <time>2026-06-12T11:18:28Z</time>
      </trkpt>
      <trkpt lat="31.230584101025965" lon="121.40025383903007">
        <ele>17.976565919816494</ele>
        <time>2026-06-12T11:18:32Z</time>
      </trkpt>
      <trkpt lat="31.2308519694609" lon="121.40018680578466">
        <ele>11.920473657548428</ele>
        <time>2026-06-12T11:18:44Z</time>
      </trkpt>
      <trkpt lat="31.230973903888103" lon="121.4001017829542">
        <ele>21.0336776599288</ele>
        <time>2026-06-12T11:18:50Z</time>
      </trkpt>
      <trkpt lat="31.23109084370432" lon="121.40004376465079">
        <ele>17.728192888200283</ele>
        <time>2026-06-12T11:18:53Z</time>
      </trkpt>
      <trkpt lat="31.23117679301856" lon="121.39993474240401">
        <ele>18.113963685929775</ele>
        <time>2026-06-12T11:18:56Z</time>
      </trkpt>
      <trkpt lat="31.23123575352641" lon="121.39980572061152">
        <ele>17.82067259401083</ele>
        <time>2026-06-12T11:18:59Z</time>
      </trkpt>
      <trkpt lat="31.231237740648027" lon="121.3996707039501">
        <ele>16.518029771745205</ele>
        <time>2026-06-12T11:19:02Z</time>
      </trkpt>
      <trkpt lat="31.23120274682509" lon="121.39954969303726">
        <ele>17.94485815614462</ele>
        <time>2026-06-12T11:19:05Z</time>
      </trkpt>
      <trkpt lat="31.23109778237865" lon="121.39937868376673">
        <ele>17.622500978410244</ele>
        <time>2026-06-12T11:19:11Z</time>
      </trkpt>
      <trkpt lat="31.231006818372503" lon="121.39929168291499">
        <ele>5.2540164813399315</ele>
        <time>2026-06-12T11:19:14Z</time>
      </trkpt>
      <trkpt lat="31.23086688131764" lon="121.39926369237818">
        <ele>18.560508333146572</ele>
        <time>2026-06-12T11:19:20Z</time>
      </trkpt>
      <trkpt lat="31.230770925866658" lon="121.39926470084556">
        <ele>19.67818983644247</ele>
        <time>2026-06-12T11:19:23Z</time>
      </trkpt>
      <trkpt lat="31.23046807365682" lon="121.39936973776824">
        <ele>20.605628572404385</ele>
        <time>2026-06-12T11:19:35Z</time>
      </trkpt>
      <trkpt lat="31.230189208521317" lon="121.39944376984391">
        <ele>13.159699998795986</ele>
        <time>2026-06-12T11:19:47Z</time>
      </trkpt>
      <trkpt lat="31.229988307259696" lon="121.39951479507454">
        <ele>15.038356386125088</ele>
        <time>2026-06-12T11:19:59Z</time>
      </trkpt>
      <trkpt lat="31.229856375538553" lon="121.39960181638628">
        <ele>21.086522661149502</ele>
        <time>2026-06-12T11:20:08Z</time>
      </trkpt>
      <trkpt lat="31.22975343542991" lon="121.39974284209772">
        <ele>17.11254271119833</ele>
        <time>2026-06-12T11:20:14Z</time>
      </trkpt>
      <trkpt lat="31.229730459061457" lon="121.39988386187788">
        <ele>9.930842004716396</ele>
        <time>2026-06-12T11:20:20Z</time>
      </trkpt>
      <trkpt lat="31.229739471259805" lon="121.4000498833579">
        <ele>16.65278586000204</ele>
        <time>2026-06-12T11:20:26Z</time>
      </trkpt>
      <trkpt lat="31.229805454727323" lon="121.40018389663253">
        <ele>17.915793977677822</ele>
        <time>2026-06-12T11:20:32Z</time>
      </trkpt>
      <trkpt lat="31.229857438274713" lon="121.40025390241466">
        <ele>18.719045244157314</ele>
        <time>2026-06-12T11:20:35Z</time>
      </trkpt>
      <trkpt lat="31.229934409067194" lon="121.40031190444391">
        <ele>15.16254385560751</ele>
        <time>2026-06-12T11:20:38Z</time>
      </trkpt>
      <trkpt lat="31.230022371548802" lon="121.40034090120919">
        <ele>-6.334995664656162</ele>
        <time>2026-06-12T11:20:41Z</time>
      </trkpt>
      <trkpt lat="31.23018729498946" lon="121.40034088682349">
        <ele>17.728192888200283</ele>
        <time>2026-06-12T11:20:47Z</time>
      </trkpt>
      <trkpt lat="31.23038219546473" lon="121.40026085768766">
        <ele>18.113963685929775</ele>
        <time>2026-06-12T11:20:56Z</time>
      </trkpt>
      <trkpt lat="31.230630078037347" lon="121.40023883278721">
        <ele>7.3466983661055565</ele>
        <time>2026-06-12T11:21:06Z</time>
      </trkpt>
      <trkpt lat="31.23089594584341" lon="121.40015679760144">
        <ele>17.884086214005947</ele>
        <time>2026-06-12T11:21:18Z</time>
      </trkpt>
      <trkpt lat="31.231049866291862" lon="121.4000787730937">
        <ele>15.746486268937588</ele>
        <time>2026-06-12T11:21:27Z</time>
      </trkpt>
      <trkpt lat="31.23116380069742" lon="121.39995174579661">
        <ele>13.598317705094814</ele>
        <time>2026-06-12T11:21:36Z</time>
      </trkpt>
      <trkpt lat="31.231234747956577" lon="121.3997387123967">
        <ele>16.05827482789755</ele>
        <time>2026-06-12T11:21:45Z</time>
      </trkpt>
      <trkpt lat="31.23117175958351" lon="121.39952969350593">
        <ele>3.399140916764736</ele>
        <time>2026-06-12T11:21:54Z</time>
      </trkpt>
      <trkpt lat="31.23099582499149" lon="121.39931368605835">
        <ele>16.132258974015713</ele>
        <time>2026-06-12T11:22:07Z</time>
      </trkpt>
      <trkpt lat="31.230887872130236" lon="121.39927169132683">
        <ele>17.580224595963955</ele>
        <time>2026-06-12T11:22:13Z</time>
      </trkpt>
      <trkpt lat="31.23071995106713" lon="121.39928770754378">
        <ele>17.477176271378994</ele>
        <time>2026-06-12T11:22:22Z</time>
      </trkpt>
      <trkpt lat="31.23041709832058" lon="121.39938374365909">
        <ele>11.952181421220303</ele>
        <time>2026-06-12T11:22:40Z</time>
      </trkpt>
      <trkpt lat="31.230111247920007" lon="121.39948578117111">
        <ele>21.012538515031338</ele>
        <time>2026-06-12T11:22:52Z</time>
      </trkpt>
      <trkpt lat="31.229973315962237" lon="121.3995367988238">
        <ele>7.3149906024336815</ele>
        <time>2026-06-12T11:22:58Z</time>
      </trkpt>
      <trkpt lat="31.229883362675313" lon="121.39959781357284">
        <ele>20.063962541520596</ele>
        <time>2026-06-12T11:23:04Z</time>
      </trkpt>
      <trkpt lat="31.229752438846656" lon="121.39977584625143">
        <ele>19.947702012956142</ele>
        <time>2026-06-12T11:23:13Z</time>
      </trkpt>
      <trkpt lat="31.22973745279442" lon="121.399851857142">
        <ele>16.528600297868252</ele>
        <time>2026-06-12T11:23:19Z</time>
      </trkpt>
      <trkpt lat="31.22974646274797" lon="121.39999787561742">
        <ele>16.4123397693038</ele>
        <time>2026-06-12T11:23:25Z</time>
      </trkpt>
      <trkpt lat="31.22982644508622" lon="121.40018489494719">
        <ele>19.39546736329794</ele>
        <time>2026-06-12T11:23:32Z</time>
      </trkpt>
      <trkpt lat="31.22986943248147" lon="121.40025190107012">
        <ele>6.627999864518642</ele>
        <time>2026-06-12T11:23:35Z</time>
      </trkpt>
      <trkpt lat="31.229989385713438" lon="121.40033090255112">
        <ele>15.838965974748135</ele>
        <time>2026-06-12T11:23:41Z</time>
      </trkpt>
      <trkpt lat="31.23014631435692" lon="121.40034389085972">
        <ele>17.123111329972744</ele>
        <time>2026-06-12T11:23:50Z</time>
      </trkpt>
      <trkpt lat="31.23039019388494" lon="121.40027985984162">
        <ele>14.401568971574306</ele>
        <time>2026-06-12T11:24:02Z</time>
      </trkpt>
      <trkpt lat="31.230476158658014" lon="121.40032085856134">
        <ele>17.456037126481533</ele>
        <time>2026-06-12T11:24:05Z</time>
      </trkpt>
      <trkpt lat="31.23056311154172" lon="121.40026084190676">
        <ele>17.017419420182705</ele>
        <time>2026-06-12T11:24:08Z</time>
      </trkpt>
      <trkpt lat="31.23084896933748" lon="121.40017280401177">
        <ele>16.4123397693038</ele>
        <time>2026-06-12T11:24:20Z</time>
      </trkpt>
      <trkpt lat="31.23102088034582" lon="121.40008477646319">
        <ele>-7.249224103987217</ele>
        <time>2026-06-12T11:24:29Z</time>
      </trkpt>
      <trkpt lat="31.23120278078584" lon="121.3999327398723">
        <ele>18.47859724611044</ele>
        <time>2026-06-12T11:24:38Z</time>
      </trkpt>
      <trkpt lat="31.23122874844686" lon="121.3997127097616">
        <ele>15.72534903138876</ele>
        <time>2026-06-12T11:24:48Z</time>
      </trkpt>
      <trkpt lat="31.23120874509336" lon="121.3995626939776">
        <ele>15.838965974748135</ele>
        <time>2026-06-12T11:24:54Z</time>
      </trkpt>
      <trkpt lat="31.23110678018799" lon="121.39940568578936">
        <ele>10.221492372453213</ele>
        <time>2026-06-12T11:25:00Z</time>
      </trkpt>
      <trkpt lat="31.230993827746506" lon="121.39933968884684">
        <ele>16.309291444718838</ele>
        <time>2026-06-12T11:25:06Z</time>
      </trkpt>
      <trkpt lat="31.230787920243728" lon="121.39929770260257">
        <ele>18.10339506715536</ele>
        <time>2026-06-12T11:25:15Z</time>
      </trkpt>
      <trkpt lat="31.230449083336627" lon="121.39938174066214">
        <ele>18.705833040177822</ele>
        <time>2026-06-12T11:25:30Z</time>
      </trkpt>
      <trkpt lat="31.23008425998466" lon="121.39947978287282">
        <ele>18.071687303483486</ele>
        <time>2026-06-12T11:25:48Z</time>
      </trkpt>
      <trkpt lat="31.22987836384817" lon="121.39958381240737">
        <ele>18.7903858050704</ele>
        <time>2026-06-12T11:25:57Z</time>
      </trkpt>
      <trkpt lat="31.229837386937536" lon="121.39963282163187">
        <ele>18.121890626847744</ele>
        <time>2026-06-12T11:26:00Z</time>
      </trkpt>
      <trkpt lat="31.22974744628877" lon="121.39983185371895">
        <ele>11.796287141740322</ele>
        <time>2026-06-12T11:26:09Z</time>
      </trkpt>
      <trkpt lat="31.229752469873663" lon="121.40009488850953">
        <ele>17.017419420182705</ele>
        <time>2026-06-12T11:26:21Z</time>
      </trkpt>
      <trkpt lat="31.229776465820066" lon="121.400161895972">
        <ele>17.07026632875204</ele>
        <time>2026-06-12T11:26:24Z</time>
      </trkpt>
      <trkpt lat="31.229943401942077" lon="121.40028589971831">
        <ele>16.298722825944424</ele>
        <time>2026-06-12T11:26:36Z</time>
      </trkpt>
      <trkpt lat="31.23027525061675" lon="121.40030987440905">
        <ele>18.195874772965908</ele>
        <time>2026-06-12T11:26:49Z</time>
      </trkpt>
      <trkpt lat="31.23054112029249" lon="121.40024784188483">
        <ele>16.819249711930752</ele>
        <time>2026-06-12T11:27:01Z</time>
      </trkpt>
      <trkpt lat="31.230835974499858" lon="121.40016480398731">
        <ele>14.05807264894247</ele>
        <time>2026-06-12T11:27:16Z</time>
      </trkpt>
      <trkpt lat="31.230871952188725" lon="121.40011179326227">
        <ele>16.36213644593954</ele>
        <time>2026-06-12T11:27:19Z</time>
      </trkpt>
      <trkpt lat="31.231049857245154" lon="121.39998976084095">
        <ele>15.569453798234463</ele>
        <time>2026-06-12T11:27:31Z</time>
      </trkpt>
      <trkpt lat="31.231225756153325" lon="121.3997837187314">
        <ele>9.283485017716885</ele>
        <time>2026-06-12T11:27:41Z</time>
      </trkpt>
      <trkpt lat="31.23122474830011" lon="121.39968970734613">
        <ele>16.15339621156454</ele>
        <time>2026-06-12T11:27:44Z</time>
      </trkpt>
      <trkpt lat="31.23118575246814" lon="121.39952169139747">
        <ele>-2.400650419294834</ele>
        <time>2026-06-12T11:27:50Z</time>
      </trkpt>
      <trkpt lat="31.231132769558673" lon="121.3994246855209">
        <ele>17.310712419450283</ele>
        <time>2026-06-12T11:27:53Z</time>
      </trkpt>
      <trkpt lat="31.231077790484306" lon="121.39936268386494">
        <ele>19.051971040666103</ele>
        <time>2026-06-12T11:27:56Z</time>
      </trkpt>
      <trkpt lat="31.23095884199064" lon="121.39931168908474">
        <ele>19.197295747697353</ele>
        <time>2026-06-12T11:28:02Z</time>
      </trkpt>
      <trkpt lat="31.230778926154233" lon="121.39932270587923">
        <ele>15.714778505265713</ele>
        <time>2026-06-12T11:28:11Z</time>
      </trkpt>
      <trkpt lat="31.230443084170226" lon="121.39935473841187">
        <ele>16.642217241227627</ele>
        <time>2026-06-12T11:28:29Z</time>
      </trkpt>
      <trkpt lat="31.23032214230452" lon="121.39938275183837">
        <ele>12.8796192035079</ele>
        <time>2026-06-12T11:28:35Z</time>
      </trkpt>
      <trkpt lat="31.23027516653081" lon="121.39941575937948">
        <ele>16.26701506227255</ele>
        <time>2026-06-12T11:28:38Z</time>
      </trkpt>
      <trkpt lat="31.23001029509735" lon="121.39948979041284">
        <ele>15.141406618058681</ele>
        <time>2026-06-12T11:28:51Z</time>
      </trkpt>
      <trkpt lat="31.229955322575503" lon="121.39951479795167">
        <ele>-0.13093701750040054</ele>
        <time>2026-06-12T11:28:54Z</time>
      </trkpt>
      <trkpt lat="31.229808404391473" lon="121.39967982969789">
        <ele>16.153397165238857</ele>
        <time>2026-06-12T11:29:03Z</time>
      </trkpt>
      <trkpt lat="31.229742446307263" lon="121.39980685099543">
        <ele>17.37148531526327</ele>
        <time>2026-06-12T11:29:09Z</time>
      </trkpt>
      <trkpt lat="31.22973046532882" lon="121.39994887042354">
        <ele>16.91437204927206</ele>
        <time>2026-06-12T11:29:15Z</time>
      </trkpt>
      <trkpt lat="31.2297604645992" lon="121.40007988570521">
        <ele>16.652786813676357</ele>
        <time>2026-06-12T11:29:21Z</time>
      </trkpt>
      <trkpt lat="31.22991441800872" lon="121.4003089057311">
        <ele>16.153397165238857</ele>
        <time>2026-06-12T11:29:33Z</time>
      </trkpt>
      <trkpt lat="31.229964396972044" lon="121.40032790427122">
        <ele>15.965796075761318</ele>
        <time>2026-06-12T11:29:39Z</time>
      </trkpt>
      <trkpt lat="31.230023366964822" lon="121.40030489561987">
        <ele>12.525555215775967</ele>
        <time>2026-06-12T11:29:45Z</time>
      </trkpt>
      <trkpt lat="31.23032022963094" lon="121.40030887033352">
        <ele>16.967218957841396</ele>
        <time>2026-06-12T11:29:52Z</time>
      </trkpt>
      <trkpt lat="31.230608090793197" lon="121.4002618381329">
        <ele>15.371285043656826</ele>
        <time>2026-06-12T11:30:07Z</time>
      </trkpt>
      <trkpt lat="31.23082198510111" lon="121.40020281073802">
        <ele>15.828398309648037</ele>
        <time>2026-06-12T11:30:19Z</time>
      </trkpt>
      <trkpt lat="31.230885948237376" lon="121.40013579545861">
        <ele>16.111120782792568</ele>
        <time>2026-06-12T11:30:22Z</time>
      </trkpt>
      <trkpt lat="31.23101888137606" lon="121.40008577677791">
        <ele>13.28653009980917</ele>
        <time>2026-06-12T11:30:31Z</time>
      </trkpt>
      <trkpt lat="31.23110483297315" lon="121.40000175767332">
        <ele>13.233685098588467</ele>
        <time>2026-06-12T11:30:37Z</time>
      </trkpt>
      <trkpt lat="31.231209764286945" lon="121.39979172112423">
        <ele>15.725349985063076</ele>
        <time>2026-06-12T11:30:46Z</time>
      </trkpt>
      <trkpt lat="31.23121975044233" lon="121.39968770754302">
        <ele>16.319861017167568</ele>
        <time>2026-06-12T11:30:52Z</time>
      </trkpt>
      <trkpt lat="31.23113177512357" lon="121.39949169280632">
        <ele>15.350145898759365</ele>
        <time>2026-06-12T11:31:02Z</time>
      </trkpt>
      <trkpt lat="31.23101582057363" lon="121.39938169122631">
        <ele>18.06111963838339</ele>
        <time>2026-06-12T11:31:08Z</time>
      </trkpt>
      <trkpt lat="31.23088387750384" lon="121.39932269672441">
        <ele>18.33063181489706</ele>
        <time>2026-06-12T11:31:14Z</time>
      </trkpt>
      <trkpt lat="31.230691967387887" lon="121.39933571477337">
        <ele>17.112543664872646</ele>
        <time>2026-06-12T11:31:23Z</time>
      </trkpt>
      <trkpt lat="31.230577019007374" lon="121.39931172239075">
        <ele>9.732672296464443</ele>
        <time>2026-06-12T11:31:26Z</time>
      </trkpt>
      <trkpt lat="31.23028316215349" lon="121.39940675773724">
        <ele>13.43185480684042</ele>
        <time>2026-06-12T11:31:44Z</time>
      </trkpt>
      <trkpt lat="31.229975313765753" lon="121.39952079687129">
        <ele>13.838766656816006</ele>
        <time>2026-06-12T11:31:57Z</time>
      </trkpt>
      <trkpt lat="31.229920341359968" lon="121.39954680456279">
        <ele>19.469450555741787</ele>
        <time>2026-06-12T11:32:00Z</time>
      </trkpt>
      <trkpt lat="31.22982339648487" lon="121.39966882708367">
        <ele>19.781239114701748</ele>
        <time>2026-06-12T11:32:06Z</time>
      </trkpt>
      <trkpt lat="31.229736451581775" lon="121.39983385493215">
        <ele>-2.9396738186478615</ele>
        <time>2026-06-12T11:32:12Z</time>
      </trkpt>
      <trkpt lat="31.229753469096558" lon="121.40009188800002">
        <ele>16.621080957353115</ele>
        <time>2026-06-12T11:32:21Z</time>
      </trkpt>
      <trkpt lat="31.22977846553609" lon="121.4001678966648">
        <ele>17.675346933305264</ele>
        <time>2026-06-12T11:32:24Z</time>
      </trkpt>
      <trkpt lat="31.22987743077828" lon="121.40026990306502">
        <ele>18.729614816606045</ele>
        <time>2026-06-12T11:32:30Z</time>
      </trkpt>
      <trkpt lat="31.230056358084607" lon="121.40036090133108">
        <ele>17.64364107698202</ele>
        <time>2026-06-12T11:32:36Z</time>
      </trkpt>
      <trkpt lat="31.23019929115606" lon="121.40035588808993">
        <ele>18.383476816117764</ele>
        <time>2026-06-12T11:32:42Z</time>
      </trkpt>
      <trkpt lat="31.230335221198107" lon="121.40029586705285">
        <ele>14.454414926469326</ele>
        <time>2026-06-12T11:32:48Z</time>
      </trkpt>
      <trkpt lat="31.230471155202032" lon="121.40026985127633">
        <ele>6.324139200150967</ele>
        <time>2026-06-12T11:32:54Z</time>
      </trkpt>
      <trkpt lat="31.23062507487463" lon="121.40018882586786">
        <ele>16.100552164018154</ele>
        <time>2026-06-12T11:33:00Z</time>
      </trkpt>
      <trkpt lat="31.2308279764933" lon="121.40014880237906">
        <ele>16.72677095979452</ele>
        <time>2026-06-12T11:33:09Z</time>
      </trkpt>
      <trkpt lat="31.231107830185316" lon="121.39998775551341">
        <ele>18.11396463960409</ele>
        <time>2026-06-12T11:33:21Z</time>
      </trkpt>
      <trkpt lat="31.23120177474502" lon="121.39986473108188">
        <ele>15.912951074540615</ele>
        <time>2026-06-12T11:33:27Z</time>
      </trkpt>
      <trkpt lat="31.23122175424116" lon="121.39974171389684">
        <ele>16.51803072541952</ele>
        <time>2026-06-12T11:33:33Z</time>
      </trkpt>
      <trkpt lat="31.23121574887765" lon="121.39964770315474">
        <ele>14.81904848664999</ele>
        <time>2026-06-12T11:33:39Z</time>
      </trkpt>
      <trkpt lat="31.231161765808874" lon="121.39954969661204">
        <ele>16.015999399125576</ele>
        <time>2026-06-12T11:33:46Z</time>
      </trkpt>
      <trkpt lat="31.23109778986286" lon="121.39947869435568">
        <ele>16.76904734224081</ele>
        <time>2026-06-12T11:33:49Z</time>
      </trkpt>
      <trkpt lat="31.23087788084625" lon="121.39933069805187">
        <ele>16.330429635941982</ele>
        <time>2026-06-12T11:34:01Z</time>
      </trkpt>
      <trkpt lat="31.2308229048579" lon="121.39930970074302">
        <ele>18.592217050492764</ele>
        <time>2026-06-12T11:34:04Z</time>
      </trkpt>
      <trkpt lat="31.23063899181135" lon="121.39933371919243">
        <ele>18.977987848222256</ele>
        <time>2026-06-12T11:34:16Z</time>
      </trkpt>
      <trkpt lat="31.23058401681244" lon="121.39932672328267">
        <ele>16.224739633500576</ele>
        <time>2026-06-12T11:34:19Z</time>
      </trkpt>
      <trkpt lat="31.230271169880385" lon="121.39943576184288">
        <ele>17.64364107698202</ele>
        <time>2026-06-12T11:34:34Z</time>
      </trkpt>
      <trkpt lat="31.230174217765292" lon="121.39947377437558">
        <ele>19.250143609941006</ele>
        <time>2026-06-12T11:34:40Z</time>
      </trkpt>
      <trkpt lat="31.229925338081607" lon="121.39953480278571">
        <ele>17.12311228364706</ele>
        <time>2026-06-12T11:34:46Z</time>
      </trkpt>
      <trkpt lat="31.22981639719072" lon="121.39963882416323">
        <ele>16.99892481416464</ele>
        <time>2026-06-12T11:34:52Z</time>
      </trkpt>
      <trkpt lat="31.229781419002414" lon="121.39970383492434">
        <ele>17.654209695756435</ele>
        <time>2026-06-12T11:34:55Z</time>
      </trkpt>
      <trkpt lat="31.229745456803812" lon="121.39993286699163">
        <ele>17.757258020341396</ele>
        <time>2026-06-12T11:35:04Z</time>
      </trkpt>
      <trkpt lat="31.229783460539316" lon="121.40014289262812">
        <ele>15.371285043656826</ele>
        <time>2026-06-12T11:35:13Z</time>
      </trkpt>
      <trkpt lat="31.229842445349515" lon="121.40025490387167">
        <ele>14.985512338578701</ele>
        <time>2026-06-12T11:35:22Z</time>
      </trkpt>
      <trkpt lat="31.22996639673258" lon="121.4003339050164">
        <ele>15.757055841386318</ele>
        <time>2026-06-12T11:35:31Z</time>
      </trkpt>
      <trkpt lat="31.230132322472002" lon="121.40035789424067">
        <ele>17.64364107698202</ele>
        <time>2026-06-12T11:35:43Z</time>
      </trkpt>
      <trkpt lat="31.230321233871067" lon="121.40034987652668">
        <ele>15.225960336625576</ele>
        <time>2026-06-12T11:35:53Z</time>
      </trkpt>
      <trkpt lat="31.230447170621698" lon="121.4003078591087">
        <ele>15.651365838944912</ele>
        <time>2026-06-12T11:35:59Z</time>
      </trkpt>
      <trkpt lat="31.230452160890675" lon="121.40024184875209">
        <ele>15.558886133134365</ele>
        <time>2026-06-12T11:36:02Z</time>
      </trkpt>
      <trkpt lat="31.230584101806716" lon="121.40026084007582">
        <ele>15.495470605790615</ele>
        <time>2026-06-12T11:36:05Z</time>
      </trkpt>
      <trkpt lat="31.230891948554586" lon="121.40016479910474">
        <ele>17.987135492265224</ele>
        <time>2026-06-12T11:36:20Z</time>
      </trkpt>
      <trkpt lat="31.23105386506183" lon="121.40008477358595">
        <ele>12.713157258927822</ele>
        <time>2026-06-12T11:36:26Z</time>
      </trkpt>
      <trkpt lat="31.23113981616511" lon="121.39999575380685">
        <ele>16.539169870316982</ele>
        <time>2026-06-12T11:36:32Z</time>
      </trkpt>
      <trkpt lat="31.231212777422574" lon="121.39994574072524">
        <ele>15.683073602616787</ele>
        <time>2026-06-12T11:36:35Z</time>
      </trkpt>
      <trkpt lat="31.231209760241036" lon="121.39974671555534">
        <ele>16.861527048051357</ele>
        <time>2026-06-12T11:36:41Z</time>
      </trkpt>
      <trkpt lat="31.23119276097005" lon="121.39966470716308">
        <ele>15.151976190507412</ele>
        <time>2026-06-12T11:36:44Z</time>
      </trkpt>
      <trkpt lat="31.23109778795035" lon="121.39945369165929">
        <ele>17.487745843827724</ele>
        <time>2026-06-12T11:36:53Z</time>
      </trkpt>
      <trkpt lat="31.231039809457815" lon="121.39938168913376">
        <ele>18.425753198564053</ele>
        <time>2026-06-12T11:36:56Z</time>
      </trkpt>
      <trkpt lat="31.230964840191024" lon="121.39932568996332">
        <ele>16.808682046830654</ele>
        <time>2026-06-12T11:36:59Z</time>
      </trkpt>
      <trkpt lat="31.23079291635039" lon="121.39927469990296">
        <ele>17.070267282426357</ele>
        <time>2026-06-12T11:37:05Z</time>
      </trkpt>
      <trkpt lat="31.230566025508903" lon="121.39933172535542">
        <ele>16.79811342805624</ele>
        <time>2026-06-12T11:37:18Z</time>
      </trkpt>
      <trkpt lat="31.230439087900766" lon="121.39938074143062">
        <ele>16.351568780839443</ele>
        <time>2026-06-12T11:37:24Z</time>
      </trkpt>
      <trkpt lat="31.230314146452585" lon="121.39938875315768">
        <ele>14.01579912751913</ele>
        <time>2026-06-12T11:37:30Z</time>
      </trkpt>
      <trkpt lat="31.230235186504245" lon="121.39943476487538">
        <ele>15.276163659989834</ele>
        <time>2026-06-12T11:37:33Z</time>
      </trkpt>
      <trkpt lat="31.22995132553742" lon="121.39952879985113">
        <ele>14.840187631547451</ele>
        <time>2026-06-12T11:37:51Z</time>
      </trkpt>
      <trkpt lat="31.22983438484683" lon="121.39959081704295">
        <ele>18.436321817338467</ele>
        <time>2026-06-12T11:37:57Z</time>
      </trkpt>
      <trkpt lat="31.22975743277582" lon="121.39973384064986">
        <ele>4.128408990800381</ele>
        <time>2026-06-12T11:38:03Z</time>
      </trkpt>
      <trkpt lat="31.229735462713784" lon="121.39994586958832">
        <ele>18.071688257157803</ele>
        <time>2026-06-12T11:38:09Z</time>
      </trkpt>
      <trkpt lat="31.229740468048547" lon="121.40002287955076">
        <ele>14.51518877595663</ele>
        <time>2026-06-12T11:38:12Z</time>
      </trkpt>
      <trkpt lat="31.22982445082378" lon="121.400228901578">
        <ele>16.94343813508749</ele>
        <time>2026-06-12T11:38:21Z</time>
      </trkpt>
      <trkpt lat="31.22994540797716" lon="121.40034690884616">
        <ele>2.5879636630415916</ele>
        <time>2026-06-12T11:38:27Z</time>
      </trkpt>
      <trkpt lat="31.230192298252508" lon="121.4003888938298">
        <ele>16.570877633988857</ele>
        <time>2026-06-12T11:38:39Z</time>
      </trkpt>
      <trkpt lat="31.23043417528758" lon="121.40029585842134">
        <ele>17.654209695756435</ele>
        <time>2026-06-12T11:38:48Z</time>
      </trkpt>
      <trkpt lat="31.230631081139425" lon="121.40027083747638">
        <ele>16.79811342805624</ele>
        <time>2026-06-12T11:38:55Z</time>
      </trkpt>
      <trkpt lat="31.230892949815917" lon="121.40018080133676">
        <ele>13.109497629106045</ele>
        <time>2026-06-12T11:39:07Z</time>
      </trkpt>
      <trkpt lat="31.23095092057866" lon="121.40015879309436">
        <ele>16.808682046830654</ele>
        <time>2026-06-12T11:39:10Z</time>
      </trkpt>
      <trkpt lat="31.23099589558844" lon="121.40011978358648">
        <ele>15.52717836946249</ele>
        <time>2026-06-12T11:39:13Z</time>
      </trkpt>
      <trkpt lat="31.231049870999676" lon="121.40012377944734">
        <ele>17.14425142854452</ele>
        <time>2026-06-12T11:39:16Z</time>
      </trkpt>
      <trkpt lat="31.23109684598033" lon="121.40009277096108">
        <ele>15.474333368241787</ele>
        <time>2026-06-12T11:39:19Z</time>
      </trkpt>
      <trkpt lat="31.23121876574765" lon="121.39985272805822">
        <ele>16.309292398393154</ele>
        <time>2026-06-12T11:39:31Z</time>
      </trkpt>
      <trkpt lat="31.231234746809054" lon="121.39972571081314">
        <ele>18.69790705293417</ele>
        <time>2026-06-12T11:39:37Z</time>
      </trkpt>
      <trkpt lat="31.23122874235249" lon="121.39964170131796">
        <ele>15.392422281205654</ele>
        <time>2026-06-12T11:39:40Z</time>
      </trkpt>
      <trkpt lat="31.231161761542896" lon="121.39949569062782">
        <ele>15.099131189286709</ele>
        <time>2026-06-12T11:39:46Z</time>
      </trkpt>
      <trkpt lat="31.231016815964527" lon="121.39932368522861">
        <ele>11.920474611222744</ele>
        <time>2026-06-12T11:39:56Z</time>
      </trkpt>
      <trkpt lat="31.230891870753492" lon="121.39927869166297">
        <ele>15.548317514359951</ele>
        <time>2026-06-12T11:40:02Z</time>
      </trkpt>
      <trkpt lat="31.23075293550008" lon="121.39928370427299">
        <ele>21.982254587113857</ele>
        <time>2026-06-12T11:40:08Z</time>
      </trkpt>
      <trkpt lat="31.23054303809249" lon="121.39935873010158">
        <ele>14.797911249101162</ele>
        <time>2026-06-12T11:40:20Z</time>
      </trkpt>
      <trkpt lat="31.230345132440963" lon="121.3993937509745">
        <ele>14.525757394731045</ele>
        <time>2026-06-12T11:40:32Z</time>
      </trkpt>
      <trkpt lat="31.230227192106813" lon="121.39945976824436">
        <ele>14.63937433809042</ele>
        <time>2026-06-12T11:40:41Z</time>
      </trkpt>
      <trkpt lat="31.229968318442147" lon="121.39953879948293">
        <ele>15.265593133866787</ele>
        <time>2026-06-12T11:40:56Z</time>
      </trkpt>
      <trkpt lat="31.22976243429378" lon="121.3997768455037">
        <ele>15.558886133134365</ele>
        <time>2026-06-12T11:41:11Z</time>
      </trkpt>
      <trkpt lat="31.22972246982783" lon="121.39995687218813">
        <ele>16.539169870316982</ele>
        <time>2026-06-12T11:41:21Z</time>
      </trkpt>
      <trkpt lat="31.22973847398626" lon="121.40007188650448">
        <ele>17.006851755082607</ele>
        <time>2026-06-12T11:41:24Z</time>
      </trkpt>
      <trkpt lat="31.22980545931407" lon="121.40022590279106">
        <ele>18.832663141191006</ele>
        <time>2026-06-12T11:41:30Z</time>
      </trkpt>
      <trkpt lat="31.22984944557541" lon="121.40028590791374">
        <ele>17.76782663911581</ele>
        <time>2026-06-12T11:41:33Z</time>
      </trkpt>
      <trkpt lat="31.230067352400138" lon="121.40035589959851">
        <ele>14.734495721757412</ele>
        <time>2026-06-12T11:41:39Z</time>
      </trkpt>
      <trkpt lat="31.23035221891605" lon="121.40034487305326">
        <ele>15.934088312089443</ele>
        <time>2026-06-12T11:41:51Z</time>
      </trkpt>
      <trkpt lat="31.230616086973193" lon="121.4002608372858">
        <ele>16.48632486909628</ele>
        <time>2026-06-12T11:42:03Z</time>
      </trkpt>
      <trkpt lat="31.23084597398105" lon="121.4002028086455">
        <ele>15.099131189286709</ele>
        <time>2026-06-12T11:42:12Z</time>
      </trkpt>
      <trkpt lat="31.231013887567705" lon="121.4001227824438">
        <ele>16.475754342973232</ele>
        <time>2026-06-12T11:42:21Z</time>
      </trkpt>
      <trkpt lat="31.2311228266507" lon="121.40002175883369">
        <ele>10.681248269975185</ele>
        <time>2026-06-12T11:42:27Z</time>
      </trkpt>
      <trkpt lat="31.231164801118112" lon="121.39996074691159">
        <ele>16.95664843171835</ele>
        <time>2026-06-12T11:42:30Z</time>
      </trkpt>
      <trkpt lat="31.231221760558043" lon="121.39981172258716">
        <ele>17.466608606278896</ele>
        <time>2026-06-12T11:42:36Z</time>
      </trkpt>
      <trkpt lat="31.231166771058803" lon="121.39964170672373">
        <ele>14.620878778398037</ele>
        <time>2026-06-12T11:42:45Z</time>
      </trkpt>
      <trkpt lat="31.231135772574447" lon="121.39948269147695">
        <ele>17.205023370683193</ele>
        <time>2026-06-12T11:42:51Z</time>
      </trkpt>
      <trkpt lat="31.23108279012681" lon="121.3993896862137">
        <ele>12.076368890702724</ele>
        <time>2026-06-12T11:42:54Z</time>
      </trkpt>
      <trkpt lat="31.230880874359713" lon="121.39925669047814">
        <ele>16.893234811723232</ele>
        <time>2026-06-12T11:43:06Z</time>
      </trkpt>
      <trkpt lat="31.230819902487834" lon="121.399254695603">
        <ele>13.474131189286709</ele>
        <time>2026-06-12T11:43:09Z</time>
      </trkpt>
      <trkpt lat="31.230439087031307" lon="121.3993687401939">
        <ele>17.112543664872646</ele>
        <time>2026-06-12T11:43:28Z</time>
      </trkpt>
      <trkpt lat="31.23017921437431" lon="121.39945977242931">
        <ele>-4.564671911299229</ele>
        <time>2026-06-12T11:43:40Z</time>
      </trkpt>
      <trkpt lat="31.2299233397275" lon="121.39954380396524">
        <ele>16.599941812455654</ele>
        <time>2026-06-12T11:43:49Z</time>
      </trkpt>
      <trkpt lat="31.22986237283577" lon="121.39960281597816">
        <ele>16.44404848664999</ele>
        <time>2026-06-12T11:43:52Z</time>
      </trkpt>
      <trkpt lat="31.229732459658166" lon="121.39989986378647">
        <ele>16.433477960526943</ele>
        <time>2026-06-12T11:44:01Z</time>
      </trkpt>
      <trkpt lat="31.229747470635264" lon="121.40007988683861">
        <ele>9.97047670930624</ele>
        <time>2026-06-12T11:44:07Z</time>
      </trkpt>
      <trkpt lat="31.229813453843406" lon="121.40020989973654">
        <ele>16.037138544023037</ele>
        <time>2026-06-12T11:44:13Z</time>
      </trkpt>
      <trkpt lat="31.229858438926524" lon="121.4002639038222">
        <ele>17.12311228364706</ele>
        <time>2026-06-12T11:44:16Z</time>
      </trkpt>
      <trkpt lat="31.229967396383408" lon="121.40033490508264">
        <ele>14.525757394731045</ele>
        <time>2026-06-12T11:44:22Z</time>
      </trkpt>
      <trkpt lat="31.230072350543978" lon="121.4003598997813">
        <ele>17.530022226274014</ele>
        <time>2026-06-12T11:44:28Z</time>
      </trkpt>
      <trkpt lat="31.230183298578748" lon="121.40035588948491">
        <ele>17.070267282426357</ele>
        <time>2026-06-12T11:44:34Z</time>
      </trkpt>
      <trkpt lat="31.23033822379745" lon="121.4003308721231">
        <ele>14.890390954911709</ele>
        <time>2026-06-12T11:44:43Z</time>
      </trkpt>
      <trkpt lat="31.23037620139196" lon="121.40028886241954">
        <ele>11.56641062349081</ele>
        <time>2026-06-12T11:44:46Z</time>
      </trkpt>
      <trkpt lat="31.23044616578691" lon="121.40026085210768">
        <ele>13.754213891923428</ele>
        <time>2026-06-12T11:44:49Z</time>
      </trkpt>
      <trkpt lat="31.230676059498105" lon="121.40026383250351">
        <ele>10.02332266420126</ele>
        <time>2026-06-12T11:44:56Z</time>
      </trkpt>
      <trkpt lat="31.230925931945436" lon="121.40015679498578">
        <ele>15.265593133866787</ele>
        <time>2026-06-12T11:45:08Z</time>
      </trkpt>
      <trkpt lat="31.23105686733561" lon="121.40011977826794">
        <ele>14.745066247880459</ele>
        <time>2026-06-12T11:45:14Z</time>
      </trkpt>
      <trkpt lat="31.23117479836523" lon="121.39997974859156">
        <ele>14.13998468965292</ele>
        <time>2026-06-12T11:45:23Z</time>
      </trkpt>
      <trkpt lat="31.231208773395654" lon="121.39988473305739">
        <ele>15.077992044389248</ele>
        <time>2026-06-12T11:45:26Z</time>
      </trkpt>
      <trkpt lat="31.231221758186447" lon="121.3997857193293">
        <ele>12.25340136140585</ele>
        <time>2026-06-12T11:45:32Z</time>
      </trkpt>
      <trkpt lat="31.231214750869363" lon="121.39966570536322">
        <ele>14.692221246659756</ele>
        <time>2026-06-12T11:45:38Z</time>
      </trkpt>
      <trkpt lat="31.23111378229943" lon="121.39947669274373">
        <ele>16.351568780839443</ele>
        <time>2026-06-12T11:45:51Z</time>
      </trkpt>
      <trkpt lat="31.230868884663952" lon="121.39932569833347">
        <ele>9.439379297196865</ele>
        <time>2026-06-12T11:46:03Z</time>
      </trkpt>
      <trkpt lat="31.230666979755465" lon="121.3993467180674">
        <ele>16.37270601838827</ele>
        <time>2026-06-12T11:46:09Z</time>
      </trkpt>
      <trkpt lat="31.23040510594241" lon="121.39941174762473">
        <ele>16.27758463472128</ele>
        <time>2026-06-12T11:46:21Z</time>
      </trkpt>
      <trkpt lat="31.230194206807198" lon="121.39945177026307">
        <ele>8.731250368058681</ele>
        <time>2026-06-12T11:46:30Z</time>
      </trkpt>
      <trkpt lat="31.22994832989296" lon="121.39956580426053">
        <ele>16.153397165238857</ele>
        <time>2026-06-12T11:46:42Z</time>
      </trkpt>
      <trkpt lat="31.229808408040338" lon="121.39972183474451">
        <ele>15.828398309648037</ele>
        <time>2026-06-12T11:46:51Z</time>
      </trkpt>
      <trkpt lat="31.229747449465425" lon="121.39986585806847">
        <ele>13.619457803666592</ele>
        <time>2026-06-12T11:46:57Z</time>
      </trkpt>
      <trkpt lat="31.229730471280227" lon="121.40000887850884">
        <ele>14.380432687699795</ele>
        <time>2026-06-12T11:47:03Z</time>
      </trkpt>
      <trkpt lat="31.22979845917094" lon="121.4001948988468">
        <ele>14.922098718583584</ele>
        <time>2026-06-12T11:47:12Z</time>
      </trkpt>
      <trkpt lat="31.229915425971683" lon="121.40038191688741">
        <ele>14.663155160844326</ele>
        <time>2026-06-12T11:47:24Z</time>
      </trkpt>
      <trkpt lat="31.229903439844655" lon="121.40045192897837">
        <ele>14.30644854158163</ele>
        <time>2026-06-12T11:47:30Z</time>
      </trkpt>
      <trkpt lat="31.229943416270416" lon="121.40040991883319">
        <ele>-2.5776819363236427</ele>
        <time>2026-06-12T11:48:00Z</time>
      </trkpt>
      <trkpt lat="31.22975547482039" lon="121.40015489679357">
        <ele>13.920675836503506</ele>
        <time>2026-06-12T11:48:24Z</time>
      </trkpt>
      <trkpt lat="31.229761464653777" lon="121.400084886319">
        <ele>15.339577279984951</ele>
        <time>2026-06-12T11:48:27Z</time>
      </trkpt>
      <trkpt lat="31.22968446916366" lon="121.39976185044785">
        <ele>16.819250665605068</ele>
        <time>2026-06-12T11:48:46Z</time>
      </trkpt>
      <trkpt lat="31.229630485079557" lon="121.39965684249243">
        <ele>4.981863580644131</ele>
        <time>2026-06-12T11:48:58Z</time>
      </trkpt>
      <trkpt lat="31.229596497841683" lon="121.39962084124818">
        <ele>16.684494577348232</ele>
        <time>2026-06-12T11:49:07Z</time>
      </trkpt>
      <trkpt lat="31.229540523021406" lon="121.39961084497354">
        <ele>17.45603808015585</ele>
        <time>2026-06-12T11:49:10Z</time>
      </trkpt>
      <trkpt lat="31.22950754280615" lon="121.39966385404236">
        <ele>14.068644128739834</ele>
        <time>2026-06-12T11:49:19Z</time>
      </trkpt>
      <trkpt lat="31.229425576528403" lon="121.3996118551152">
        <ele>-2.588250555098057</ele>
        <time>2026-06-12T11:49:31Z</time>
      </trkpt>
      <trkpt lat="31.229327622313445" lon="121.39961486400594">
        <ele>10.522713266313076</ele>
        <time>2026-06-12T11:49:34Z</time>
      </trkpt>
      <trkpt lat="31.229101734318817" lon="121.39969689336866">
        <ele>17.69648703187704</ele>
        <time>2026-06-12T11:49:40Z</time>
      </trkpt>
      <trkpt lat="31.228828864155737" lon="121.39972992115635">
        <ele>18.02941282838583</ele>
        <time>2026-06-12T11:49:46Z</time>
      </trkpt>
      <trkpt lat="31.22869392260606" lon="121.39967992690755">
        <ele>13.85990484803915</ele>
        <time>2026-06-12T11:49:49Z</time>
      </trkpt>
      <trkpt lat="31.22855798580504" lon="121.39967893864521">
        <ele>12.858483873307705</ele>
        <time>2026-06-12T11:49:52Z</time>
      </trkpt>
      <trkpt lat="31.228429049319633" lon="121.39971895469367">
        <ele>8.710113130509853</ele>
        <time>2026-06-12T11:49:55Z</time>
      </trkpt>
      <trkpt lat="31.228272141125995" lon="121.3999219940464">
        <ele>15.630227647721767</ele>
        <time>2026-06-12T11:50:01Z</time>
      </trkpt>
      <trkpt lat="31.22803325752831" lon="121.39997402180492">
        <ele>19.406037889420986</ele>
        <time>2026-06-12T11:50:07Z</time>
      </trkpt>
      <trkpt lat="31.227782383266554" lon="121.40006105558646">
        <ele>6.522309862077236</ele>
        <time>2026-06-12T11:50:13Z</time>
      </trkpt>
      <trkpt lat="31.227658442409023" lon="121.40007406820884">
        <ele>15.244456849992275</ele>
        <time>2026-06-12T11:50:16Z</time>
      </trkpt>
      <trkpt lat="31.227560483797202" lon="121.40003207092934">
        <ele>20.230426393449306</ele>
        <time>2026-06-12T11:50:19Z</time>
      </trkpt>
      <trkpt lat="31.227519493469384" lon="121.39993706167455">
        <ele>3.636947236955166</ele>
        <time>2026-06-12T11:50:22Z</time>
      </trkpt>
      <trkpt lat="31.227528475534253" lon="121.39979104209769">
        <ele>3.5550366267561913</ele>
        <time>2026-06-12T11:50:25Z</time>
      </trkpt>
      <trkpt lat="31.227519467105683" lon="121.39964702544361">
        <ele>14.829620443284512</ele>
        <time>2026-06-12T11:50:28Z</time>
      </trkpt>
      <trkpt lat="31.227477476792817" lon="121.39952601529302">
        <ele>10.200355611741543</ele>
        <time>2026-06-12T11:50:31Z</time>
      </trkpt>
      <trkpt lat="31.227157628871648" lon="121.39956104710603">
        <ele>18.47859963029623</ele>
        <time>2026-06-12T11:50:37Z</time>
      </trkpt>
      <trkpt lat="31.22683078920903" lon="121.39965408633098">
        <ele>14.015800558030605</ele>
        <time>2026-06-12T11:50:46Z</time>
      </trkpt>
      <trkpt lat="31.226703850565922" lon="121.39967810024196">
        <ele>18.822095952928066</ele>
        <time>2026-06-12T11:50:49Z</time>
      </trkpt>
      <trkpt lat="31.226443971516463" lon="121.39967212219467">
        <ele>19.72839554399252</ele>
        <time>2026-06-12T11:50:55Z</time>
      </trkpt>
      <trkpt lat="31.226315033611495" lon="121.39969313594304">
        <ele>10.189786992967129</ele>
        <time>2026-06-12T11:50:58Z</time>
      </trkpt>
      <trkpt lat="31.226244077777164" lon="121.39981615725706">
        <ele>7.502594076097012</ele>
        <time>2026-06-12T11:51:01Z</time>
      </trkpt>
      <trkpt lat="31.226224103302634" lon="121.39998518107708">
        <ele>9.981047712266445</ele>
        <time>2026-06-12T11:51:04Z</time>
      </trkpt>
      <trkpt lat="31.226248108138133" lon="121.40014120069497">
        <ele>12.493849836289883</ele>
        <time>2026-06-12T11:51:07Z</time>
      </trkpt>
      <trkpt lat="31.22623615126609" lon="121.40047125188187">
        <ele>15.463766179978848</ele>
        <time>2026-06-12T11:51:13Z</time>
      </trkpt>
      <trkpt lat="31.22620620211764" lon="121.40076030311464">
        <ele>14.652587972581387</ele>
        <time>2026-06-12T11:51:19Z</time>
      </trkpt>
      <trkpt lat="31.22615922975201" lon="121.4008023146433">
        <ele>13.952385030686855</ele>
        <time>2026-06-12T11:51:22Z</time>
      </trkpt>
      <trkpt lat="31.2261022545079" lon="121.40078831712465">
        <ele>17.321283422410488</ele>
        <time>2026-06-12T11:51:31Z</time>
      </trkpt>
      <trkpt lat="31.226060266652297" lon="121.40073231093913">
        <ele>25.467414937913418</ele>
        <time>2026-06-12T11:51:34Z</time>
      </trkpt>
      <trkpt lat="31.225750406523805" lon="121.4006933312025">
        <ele>15.109701238572598</ele>
        <time>2026-06-12T11:51:43Z</time>
      </trkpt>
      <trkpt lat="31.225661445952955" lon="121.40067633603917">
        <ele>14.610311590135098</ele>
        <time>2026-06-12T11:51:46Z</time>
      </trkpt>
      <trkpt lat="31.225639448649424" lon="121.40061732793532">
        <ele>6.199953161180019</ele>
        <time>2026-06-12T11:51:49Z</time>
      </trkpt>
      <trkpt lat="31.225681414503114" lon="121.40050130510491">
        <ele>4.992434583604336</ele>
        <time>2026-06-12T11:51:52Z</time>
      </trkpt>
      <trkpt lat="31.225742350816155" lon="121.40019725290972">
        <ele>10.086738668382168</ele>
        <time>2026-06-12T11:52:01Z</time>
      </trkpt>
      <trkpt lat="31.225747335112537" lon="121.40007123446871">
        <ele>13.60888870805502</ele>
        <time>2026-06-12T11:52:04Z</time>
      </trkpt>
      <trkpt lat="31.22569134642158" lon="121.39992221913509">
        <ele>15.392423711717129</ele>
        <time>2026-06-12T11:52:07Z</time>
      </trkpt>
      <trkpt lat="31.22564236761994" lon="121.39990422104336">
        <ele>13.545475088059902</ele>
        <time>2026-06-12T11:52:13Z</time>
      </trkpt>
      <trkpt lat="31.225662372218235" lon="121.40004523826683">
        <ele>16.22474106401205</ele>
        <time>2026-06-12T11:52:31Z</time>
      </trkpt>
      <trkpt lat="31.225732340792543" lon="121.40005823396609">
        <ele>21.543638311326504</ele>
        <time>2026-06-12T11:52:43Z</time>
      </trkpt>
      <trkpt lat="31.225766328713636" lon="121.40009523617766">
        <ele>6.147108159959316</ele>
        <time>2026-06-12T11:52:46Z</time>
      </trkpt>
      <trkpt lat="31.225814303867715" lon="121.4000722287678">
        <ele>28.75440414994955</ele>
        <time>2026-06-12T11:53:28Z</time>
      </trkpt>
      <trkpt lat="31.225829303765384" lon="121.40013823679087">
        <ele>25.393430791795254</ele>
        <time>2026-06-12T11:53:37Z</time>
      </trkpt>
      <trkpt lat="31.225784326738566" lon="121.40015624329808">
        <ele>26.260097585618496</ele>
        <time>2026-06-12T11:53:53Z</time>
      </trkpt>
      <trkpt lat="31.22583031804415" lon="121.40027325650233">
        <ele>24.172700963914394</ele>
        <time>2026-06-12T11:54:08Z</time>
      </trkpt>
      <trkpt lat="31.22587430496377" lon="121.40033926269484">
        <ele>27.063348852097988</ele>
        <time>2026-06-12T11:54:11Z</time>
      </trkpt>
      <trkpt lat="31.22586630266526" lon="121.40028625532125">
        <ele>21.242418371140957</ele>
        <time>2026-06-12T11:54:14Z</time>
      </trkpt>
      <trkpt lat="31.22591827901817" lon="121.40029225169457">
        <ele>27.53367241472006</ele>
        <time>2026-06-12T11:54:23Z</time>
      </trkpt>
      <trkpt lat="31.225883330976735" lon="121.40025684678">
        <ele>15.994863592088223</ele>
        <time>2026-06-12T11:54:35Z</time>
      </trkpt>
      <trkpt lat="31.22555406819157" lon="121.40025974411797">
        <ele>28.389770589768887</ele>
        <time>2026-06-12T11:54:41Z</time>
      </trkpt>
      <trkpt lat="31.22549388731332" lon="121.40028311477661">
        <ele>28.693630300462246</ele>
        <time>2026-06-12T11:54:44Z</time>
      </trkpt>
      <trkpt lat="31.225561029492617" lon="121.4002808703736">
        <ele>24.788351140916348</ele>
        <time>2026-06-12T11:54:50Z</time>
      </trkpt>
      <trkpt lat="31.225565445268014" lon="121.40022419221344">
        <ele>24.872903905808926</ele>
        <time>2026-06-12T11:54:56Z</time>
      </trkpt>
      <trkpt lat="31.22540349427543" lon="121.40005326195164">
        <ele>24.214977346360683</ele>
        <time>2026-06-12T12:12:55Z</time>
      </trkpt>
    </trkseg>
  </trk>
</gpx>