<?xml version="1.0" encoding="UTF-8"?>
<gpx xmlns="http://www.topografix.com/GPX/1/1" xmlns:gpxtpx="http://www.garmin.com/xmlschemas/TrackPointExtension/v1" xmlns:xsi="http://www.w3.org/2001/XMLSchema-instance" xsi:schemaLocation="http://www.topografix.com/GPX/1/1 http://www.topografix.com/GPX/1/1/gpx.xsd" version="1.1" creator="gpx.py -- https://github.com/tkrajina/gpxpy">
  <trk>
    <name>gpx from keep</name>
    <type>Run</type>
    <trkseg>
      <trkpt lat="32.051880340526445" lon="118.80390289898112">
        <ele>17.07873233407736</ele>
        <time>2026-07-28T10:33:25Z</time>
      </trkpt>
      <trkpt lat="32.05189365405761" lon="118.80408124977943">
        <ele>18.666737399995327</ele>
        <time>2026-07-28T10:33:34Z</time>
      </trkpt>
      <trkpt lat="32.05192388790311" lon="118.80421150442268">
        <ele>19.33787616342306</ele>
        <time>2026-07-28T10:33:37Z</time>
      </trkpt>
      <trkpt lat="32.052023172387315" lon="118.80436179266493">
        <ele>16.756375156342983</ele>
        <time>2026-07-28T10:33:40Z</time>
      </trkpt>
      <trkpt lat="32.05213731162212" lon="118.80442691114833">
        <ele>18.15677722543478</ele>
        <time>2026-07-28T10:33:43Z</time>
      </trkpt>
      <trkpt lat="32.05245452246787" lon="118.80450704082901">
        <ele>9.217964969575405</ele>
        <time>2026-07-28T10:33:52Z</time>
      </trkpt>
      <trkpt lat="32.052759739470496" lon="118.80459218165095">
        <ele>10.898453556001186</ele>
        <time>2026-07-28T10:34:02Z</time>
      </trkpt>
      <trkpt lat="32.053090960588364" lon="118.80467631821044">
        <ele>18.896614871919155</ele>
        <time>2026-07-28T10:34:11Z</time>
      </trkpt>
      <trkpt lat="32.05320694607713" lon="118.80465326181832">
        <ele>17.91633304208517</ele>
        <time>2026-07-28T10:34:14Z</time>
      </trkpt>
      <trkpt lat="32.05327388908232" lon="118.80461217416007">
        <ele>16.338894687592983</ele>
        <time>2026-07-28T10:34:17Z</time>
      </trkpt>
      <trkpt lat="32.05336264072744" lon="118.80445886207912">
        <ele>18.87811740487814</ele>
        <time>2026-07-28T10:34:23Z</time>
      </trkpt>
      <trkpt lat="32.05340438922966" lon="118.8043095626223">
        <ele>18.687874637544155</ele>
        <time>2026-07-28T10:34:29Z</time>
      </trkpt>
      <trkpt lat="32.0534092276883" lon="118.80421637784393">
        <ele>17.64417728036642</ele>
        <time>2026-07-28T10:34:32Z</time>
      </trkpt>
      <trkpt lat="32.053390071406525" lon="118.80412920728983">
        <ele>18.008812747895718</ele>
        <time>2026-07-28T10:34:35Z</time>
      </trkpt>
      <trkpt lat="32.05328880271293" lon="118.80398793758953">
        <ele>17.623040042817593</ele>
        <time>2026-07-28T10:34:41Z</time>
      </trkpt>
      <trkpt lat="32.0531386210175" lon="118.80390278335278">
        <ele>18.0193794593215</ele>
        <time>2026-07-28T10:34:47Z</time>
      </trkpt>
      <trkpt lat="32.053053568948066" lon="118.80388375362365">
        <ele>17.121006809175014</ele>
        <time>2026-07-28T10:34:50Z</time>
      </trkpt>
      <trkpt lat="32.05269625761779" lon="118.80375052381123">
        <ele>17.654747806489468</ele>
        <time>2026-07-28T10:35:05Z</time>
      </trkpt>
      <trkpt lat="32.05262616017244" lon="118.80370343750776">
        <ele>17.948040805757046</ele>
        <time>2026-07-28T10:35:08Z</time>
      </trkpt>
      <trkpt lat="32.052314937680315" lon="118.80361529255713">
        <ele>17.258404575288296</ele>
        <time>2026-07-28T10:35:20Z</time>
      </trkpt>
      <trkpt lat="32.05221589994412" lon="118.80360628391632">
        <ele>17.393162570893764</ele>
        <time>2026-07-28T10:35:23Z</time>
      </trkpt>
      <trkpt lat="32.052040930500674" lon="118.8036463788605">
        <ele>17.800072513520718</ele>
        <time>2026-07-28T10:35:29Z</time>
      </trkpt>
      <trkpt lat="32.0519800143611" lon="118.8037024949139">
        <ele>16.71409686654806</ele>
        <time>2026-07-28T10:35:32Z</time>
      </trkpt>
      <trkpt lat="32.051898259112214" lon="118.80385380052104">
        <ele>17.728730045259</ele>
        <time>2026-07-28T10:35:38Z</time>
      </trkpt>
      <trkpt lat="32.05187057908142" lon="118.80404117274858">
        <ele>18.65616687387228</ele>
        <time>2026-07-28T10:35:44Z</time>
      </trkpt>
      <trkpt lat="32.05189782791313" lon="118.80418044540721">
        <ele>17.821209751069546</ele>
        <time>2026-07-28T10:35:47Z</time>
      </trkpt>
      <trkpt lat="32.05195602270272" lon="118.80428464614216">
        <ele>18.312672458589077</ele>
        <time>2026-07-28T10:35:50Z</time>
      </trkpt>
      <trkpt lat="32.0520932580293" lon="118.80440186558388">
        <ele>18.479134403169155</ele>
        <time>2026-07-28T10:35:56Z</time>
      </trkpt>
      <trkpt lat="32.05236644151874" lon="118.80447197942274">
        <ele>18.354950748384</ele>
        <time>2026-07-28T10:36:05Z</time>
      </trkpt>
      <trkpt lat="32.052690729350566" lon="118.8045951939537">
        <ele>17.85291751474142</ele>
        <time>2026-07-28T10:36:17Z</time>
      </trkpt>
      <trkpt lat="32.05298890452168" lon="118.80465728980548">
        <ele>18.333809696137905</ele>
        <time>2026-07-28T10:36:26Z</time>
      </trkpt>
      <trkpt lat="32.05316897972196" lon="118.80467731303068">
        <ele>18.27039798349142</ele>
        <time>2026-07-28T10:36:32Z</time>
      </trkpt>
      <trkpt lat="32.05328888014699" lon="118.80460515886942">
        <ele>17.842346988618374</ele>
        <time>2026-07-28T10:36:35Z</time>
      </trkpt>
      <trkpt lat="32.05335174691207" lon="118.80452098619479">
        <ele>13.58036120980978</ele>
        <time>2026-07-28T10:36:38Z</time>
      </trkpt>
      <trkpt lat="32.05340738814823" lon="118.80430856036388">
        <ele>18.0193794593215</ele>
        <time>2026-07-28T10:36:44Z</time>
      </trkpt>
      <trkpt lat="32.053388111147626" lon="118.80415225301239">
        <ele>18.217549167573452</ele>
        <time>2026-07-28T10:36:50Z</time>
      </trkpt>
      <trkpt lat="32.05334193845435" lon="118.80405907315856">
        <ele>18.439503513276577</ele>
        <time>2026-07-28T10:36:53Z</time>
      </trkpt>
      <trkpt lat="32.05320966997132" lon="118.80392181437473">
        <ele>16.88055881112814</ele>
        <time>2026-07-28T10:36:59Z</time>
      </trkpt>
      <trkpt lat="32.05300447784096" lon="118.803837667261">
        <ele>17.488282047212124</ele>
        <time>2026-07-28T10:37:08Z</time>
      </trkpt>
      <trkpt lat="32.05268323730427" lon="118.80374050527166">
        <ele>17.559624515473843</ele>
        <time>2026-07-28T10:37:17Z</time>
      </trkpt>
      <trkpt lat="32.052580073492685" lon="118.80381265688034">
        <ele>17.057591281831264</ele>
        <time>2026-07-28T10:37:20Z</time>
      </trkpt>
      <trkpt lat="32.052512674931414" lon="118.80397773492147">
        <ele>17.42487033456564</ele>
        <time>2026-07-28T10:37:26Z</time>
      </trkpt>
      <trkpt lat="32.05232301097606" lon="118.80364882587138">
        <ele>17.414299808442593</ele>
        <time>2026-07-28T10:37:32Z</time>
      </trkpt>
      <trkpt lat="32.05223789441409" lon="118.80360027006762">
        <ele>18.15677722543478</ele>
        <time>2026-07-28T10:37:35Z</time>
      </trkpt>
      <trkpt lat="32.05215788352825" lon="118.80360428530541">
        <ele>17.601902805268764</ele>
        <time>2026-07-28T10:37:38Z</time>
      </trkpt>
      <trkpt lat="32.05201597539282" lon="118.80367543834743">
        <ele>17.728730045259</ele>
        <time>2026-07-28T10:37:44Z</time>
      </trkpt>
      <trkpt lat="32.051954076467716" lon="118.80374157425256">
        <ele>17.675885044038296</ele>
        <time>2026-07-28T10:37:47Z</time>
      </trkpt>
      <trkpt lat="32.05187749511537" lon="118.80399207518853">
        <ele>18.27039798349142</ele>
        <time>2026-07-28T10:37:56Z</time>
      </trkpt>
      <trkpt lat="32.05187464108643" lon="118.80407624163118">
        <ele>17.414299808442593</ele>
        <time>2026-07-28T10:37:59Z</time>
      </trkpt>
      <trkpt lat="32.05195097436164" lon="118.80425759308709">
        <ele>17.66531451791525</ele>
        <time>2026-07-28T10:38:05Z</time>
      </trkpt>
      <trkpt lat="32.05209725541973" lon="118.80439986124804">
        <ele>18.06165774911642</ele>
        <time>2026-07-28T10:38:11Z</time>
      </trkpt>
      <trkpt lat="32.05238244859062" lon="118.80447398192285">
        <ele>16.14072497934103</ele>
        <time>2026-07-28T10:38:23Z</time>
      </trkpt>
      <trkpt lat="32.05264766014896" lon="118.80456113034923">
        <ele>18.135639987885952</ele>
        <time>2026-07-28T10:38:32Z</time>
      </trkpt>
      <trkpt lat="32.05295890660903" lon="118.80466230250373">
        <ele>2.028338275849819</ele>
        <time>2026-07-28T10:38:44Z</time>
      </trkpt>
      <trkpt lat="32.05304196721852" lon="118.80468634259944">
        <ele>18.772427402436733</ele>
        <time>2026-07-28T10:38:47Z</time>
      </trkpt>
      <trkpt lat="32.05312798989062" lon="118.80468833867337">
        <ele>18.354950748384</ele>
        <time>2026-07-28T10:38:50Z</time>
      </trkpt>
      <trkpt lat="32.05325490940539" lon="118.80462620373278">
        <ele>17.749867282807827</ele>
        <time>2026-07-28T10:38:56Z</time>
      </trkpt>
      <trkpt lat="32.0533457858893" lon="118.80454403242967">
        <ele>17.517350040376186</ele>
        <time>2026-07-28T10:38:59Z</time>
      </trkpt>
      <trkpt lat="32.05342751336056" lon="118.8043776953674">
        <ele>16.537064395844936</ele>
        <time>2026-07-28T10:39:05Z</time>
      </trkpt>
      <trkpt lat="32.05343436616977" lon="118.80429252616187">
        <ele>16.233204685151577</ele>
        <time>2026-07-28T10:39:08Z</time>
      </trkpt>
      <trkpt lat="32.0533981011435" lon="118.80414523823272">
        <ele>17.87405475229025</ele>
        <time>2026-07-28T10:39:15Z</time>
      </trkpt>
      <trkpt lat="32.053342895029665" lon="118.80403402360633">
        <ele>18.333809696137905</ele>
        <time>2026-07-28T10:39:18Z</time>
      </trkpt>
      <trkpt lat="32.053278756863335" lon="118.80396288907747">
        <ele>17.43543704599142</ele>
        <time>2026-07-28T10:39:21Z</time>
      </trkpt>
      <trkpt lat="32.053022499281646" lon="118.80384768535713">
        <ele>16.03503116220236</ele>
        <time>2026-07-28T10:39:30Z</time>
      </trkpt>
      <trkpt lat="32.05275727644026" lon="118.8037535241249">
        <ele>17.414299808442593</ele>
        <time>2026-07-28T10:39:39Z</time>
      </trkpt>
      <trkpt lat="32.052610172274505" lon="118.80371245673392">
        <ele>16.66125186532736</ele>
        <time>2026-07-28T10:39:45Z</time>
      </trkpt>
      <trkpt lat="32.05234695177546" lon="118.80361929750096">
        <ele>17.099869571626186</ele>
        <time>2026-07-28T10:39:57Z</time>
      </trkpt>
      <trkpt lat="32.05227688745796" lon="118.80359124874417">
        <ele>16.275479160249233</ele>
        <time>2026-07-28T10:40:00Z</time>
      </trkpt>
      <trkpt lat="32.05219487960506" lon="118.80359726810715">
        <ele>16.402310214936733</ele>
        <time>2026-07-28T10:40:03Z</time>
      </trkpt>
      <trkpt lat="32.052013983649495" lon="118.80368044839284">
        <ele>17.948040805757046</ele>
        <time>2026-07-28T10:40:09Z</time>
      </trkpt>
      <trkpt lat="32.051943101879345" lon="118.80375760683968">
        <ele>17.279541812837124</ele>
        <time>2026-07-28T10:40:12Z</time>
      </trkpt>
      <trkpt lat="32.051863345452595" lon="118.80390791042399">
        <ele>17.85291751474142</ele>
        <time>2026-07-28T10:40:18Z</time>
      </trkpt>
      <trkpt lat="32.051850447212175" lon="118.80396803021507">
        <ele>17.926899753510952</ele>
        <time>2026-07-28T10:40:21Z</time>
      </trkpt>
      <trkpt lat="32.05191181181179" lon="118.80416942233538">
        <ele>17.184422336518764</ele>
        <time>2026-07-28T10:40:27Z</time>
      </trkpt>
      <trkpt lat="32.0520391462024" lon="118.80434475747761">
        <ele>17.07873233407736</ele>
        <time>2026-07-28T10:40:33Z</time>
      </trkpt>
      <trkpt lat="32.05236141062306" lon="118.80445494613528">
        <ele>17.477715335786343</ele>
        <time>2026-07-28T10:40:45Z</time>
      </trkpt>
      <trkpt lat="32.05267267273493" lon="118.80456513599853">
        <ele>17.77893527597189</ele>
        <time>2026-07-28T10:40:57Z</time>
      </trkpt>
      <trkpt lat="32.05297589109792" lon="118.80465127907122">
        <ele>17.736656986176968</ele>
        <time>2026-07-28T10:41:09Z</time>
      </trkpt>
      <trkpt lat="32.053050942901855" lon="118.8046713119441">
        <ele>17.736656986176968</ele>
        <time>2026-07-28T10:41:12Z</time>
      </trkpt>
      <trkpt lat="32.05326988819125" lon="118.80461217452768">
        <ele>17.099869571626186</ele>
        <time>2026-07-28T10:41:21Z</time>
      </trkpt>
      <trkpt lat="32.05336870338339" lon="118.80449393101473">
        <ele>12.433613620698452</ele>
        <time>2026-07-28T10:41:27Z</time>
      </trkpt>
      <trkpt lat="32.05340637392896" lon="118.80430054459505">
        <ele>14.02954562753439</ele>
        <time>2026-07-28T10:41:33Z</time>
      </trkpt>
      <trkpt lat="32.0534081977462" lon="118.80419934425828">
        <ele>15.65982898324728</ele>
        <time>2026-07-28T10:41:36Z</time>
      </trkpt>
      <trkpt lat="32.05338300346869" lon="118.80409113271416">
        <ele>16.045601688325405</ele>
        <time>2026-07-28T10:41:39Z</time>
      </trkpt>
      <trkpt lat="32.05326368548957" lon="118.80392381336401">
        <ele>16.996819339692593</ele>
        <time>2026-07-28T10:41:45Z</time>
      </trkpt>
      <trkpt lat="32.052972427142244" lon="118.80381262083301">
        <ele>16.79864963144064</ele>
        <time>2026-07-28T10:41:57Z</time>
      </trkpt>
      <trkpt lat="32.05276329171151" lon="118.80376153936261">
        <ele>16.72466739267111</ele>
        <time>2026-07-28T10:42:06Z</time>
      </trkpt>
      <trkpt lat="32.052465042468135" lon="118.80365635960581">
        <ele>14.761456333100796</ele>
        <time>2026-07-28T10:42:18Z</time>
      </trkpt>
      <trkpt lat="32.05223986877025" lon="118.80358524032023">
        <ele>17.121006809175014</ele>
        <time>2026-07-28T10:42:27Z</time>
      </trkpt>
      <trkpt lat="32.052153861763124" lon="118.80359226202117">
        <ele>16.72466739267111</ele>
        <time>2026-07-28T10:42:30Z</time>
      </trkpt>
      <trkpt lat="32.052009970573216" lon="118.80367343495442">
        <ele>17.329747043550014</ele>
        <time>2026-07-28T10:42:36Z</time>
      </trkpt>
      <trkpt lat="32.051918192118684" lon="118.80381271771252">
        <ele>17.319176517426968</ele>
        <time>2026-07-28T10:42:42Z</time>
      </trkpt>
      <trkpt lat="32.05187744974721" lon="118.80396602377932">
        <ele>16.682389102876186</ele>
        <time>2026-07-28T10:42:48Z</time>
      </trkpt>
      <trkpt lat="32.05189360341822" lon="118.80405219239688">
        <ele>18.199055515229702</ele>
        <time>2026-07-28T10:42:51Z</time>
      </trkpt>
      <trkpt lat="32.05198498894292" lon="118.80426159788966">
        <ele>17.697022281587124</ele>
        <time>2026-07-28T10:42:57Z</time>
      </trkpt>
      <trkpt lat="32.052049150183386" lon="118.80434575854179">
        <ele>17.382592044770718</ele>
        <time>2026-07-28T10:43:00Z</time>
      </trkpt>
      <trkpt lat="32.05236139485846" lon="118.80444592827111">
        <ele>17.64417728036642</ele>
        <time>2026-07-28T10:43:12Z</time>
      </trkpt>
      <trkpt lat="32.052622608997936" lon="118.80453508099853">
        <ele>17.184422336518764</ele>
        <time>2026-07-28T10:43:24Z</time>
      </trkpt>
      <trkpt lat="32.05285380426648" lon="118.80461722269652">
        <ele>18.0193794593215</ele>
        <time>2026-07-28T10:43:33Z</time>
      </trkpt>
      <trkpt lat="32.053182907398124" lon="118.80463422625199">
        <ele>17.382592044770718</ele>
        <time>2026-07-28T10:43:45Z</time>
      </trkpt>
      <trkpt lat="32.053260842343654" lon="118.80458712567227">
        <ele>13.915928684175014</ele>
        <time>2026-07-28T10:43:48Z</time>
      </trkpt>
      <trkpt lat="32.05332174373476" lon="118.80452299292406">
        <ele>11.638287387788296</ele>
        <time>2026-07-28T10:43:51Z</time>
      </trkpt>
      <trkpt lat="32.05336161072716" lon="118.80444182842723">
        <ele>17.34031756967306</ele>
        <time>2026-07-28T10:43:54Z</time>
      </trkpt>
      <trkpt lat="32.053406141369585" lon="118.80416728106177">
        <ele>9.490120731294155</ele>
        <time>2026-07-28T10:44:03Z</time>
      </trkpt>
      <trkpt lat="32.05337699689271" lon="118.8040881273283">
        <ele>13.905358158051968</ele>
        <time>2026-07-28T10:44:06Z</time>
      </trkpt>
      <trkpt lat="32.05325474453818" lon="118.8039588833754">
        <ele>17.163285098969936</ele>
        <time>2026-07-28T10:44:12Z</time>
      </trkpt>
      <trkpt lat="32.05299351199364" lon="118.80385870975033">
        <ele>17.194989047944546</ele>
        <time>2026-07-28T10:44:24Z</time>
      </trkpt>
      <trkpt lat="32.05278135495289" lon="118.80379560482409">
        <ele>16.766941867768764</ele>
        <time>2026-07-28T10:44:33Z</time>
      </trkpt>
      <trkpt lat="32.052723251445435" lon="118.80374350751511">
        <ele>17.028527103364468</ele>
        <time>2026-07-28T10:44:36Z</time>
      </trkpt>
      <trkpt lat="32.05243903319013" lon="118.8036543580518">
        <ele>15.910847507417202</ele>
        <time>2026-07-28T10:44:48Z</time>
      </trkpt>
      <trkpt lat="32.05222285106534" lon="118.80357722611718">
        <ele>14.750885806977749</ele>
        <time>2026-07-28T10:44:57Z</time>
      </trkpt>
      <trkpt lat="32.05212883357668" lon="118.80357923869897">
        <ele>13.958206973969936</ele>
        <time>2026-07-28T10:45:00Z</time>
      </trkpt>
      <trkpt lat="32.05205187553889" lon="118.80361331278934">
        <ele>16.30718692392111</ele>
        <time>2026-07-28T10:45:03Z</time>
      </trkpt>
      <trkpt lat="32.0519899521877" lon="118.80366542101535">
        <ele>17.173851810395718</ele>
        <time>2026-07-28T10:45:06Z</time>
      </trkpt>
      <trkpt lat="32.05193008156229" lon="118.80374758829905">
        <ele>17.686455570161343</ele>
        <time>2026-07-28T10:45:09Z</time>
      </trkpt>
      <trkpt lat="32.0518614967807" lon="118.80399508259164">
        <ele>17.091942630708218</ele>
        <time>2026-07-28T10:45:15Z</time>
      </trkpt>
      <trkpt lat="32.05189779995003" lon="118.80416441372039">
        <ele>17.00738986581564</ele>
        <time>2026-07-28T10:45:21Z</time>
      </trkpt>
      <trkpt lat="32.051947977190146" lon="118.80425959732645">
        <ele>16.86999209970236</ele>
        <time>2026-07-28T10:45:24Z</time>
      </trkpt>
      <trkpt lat="32.0520020889498" lon="118.80431670535454">
        <ele>16.28604968637228</ele>
        <time>2026-07-28T10:45:28Z</time>
      </trkpt>
      <trkpt lat="32.05228232294882" lon="118.80441487400924">
        <ele>16.66125186532736</ele>
        <time>2026-07-28T10:45:40Z</time>
      </trkpt>
      <trkpt lat="32.05260859010211" lon="118.80452606440946">
        <ele>17.121006809175014</ele>
        <time>2026-07-28T10:45:52Z</time>
      </trkpt>
      <trkpt lat="32.05292586241179" lon="118.80464126378594">
        <ele>17.538487277925014</ele>
        <time>2026-07-28T10:46:04Z</time>
      </trkpt>
      <trkpt lat="32.05309693911439" lon="118.80466329180972">
        <ele>17.028527103364468</ele>
        <time>2026-07-28T10:46:10Z</time>
      </trkpt>
      <trkpt lat="32.053223858651755" lon="118.80460115689367">
        <ele>17.028527103364468</ele>
        <time>2026-07-28T10:46:16Z</time>
      </trkpt>
      <trkpt lat="32.05335761859385" lon="118.80444683871902">
        <ele>16.85942157357931</ele>
        <time>2026-07-28T10:46:25Z</time>
      </trkpt>
      <trkpt lat="32.05339444124788" lon="118.80434062501197">
        <ele>16.349461399018764</ele>
        <time>2026-07-28T10:46:28Z</time>
      </trkpt>
      <trkpt lat="32.0534011594806" lon="118.80417830330644">
        <ele>15.178936801850796</ele>
        <time>2026-07-28T10:46:34Z</time>
      </trkpt>
      <trkpt lat="32.053377002132244" lon="118.80409113326564">
        <ele>16.756375156342983</ele>
        <time>2026-07-28T10:46:37Z</time>
      </trkpt>
      <trkpt lat="32.053338874936635" lon="118.8040230022147">
        <ele>17.049664340913296</ele>
        <time>2026-07-28T10:46:40Z</time>
      </trkpt>
      <trkpt lat="32.05321564689195" lon="118.80390778615568">
        <ele>17.258404575288296</ele>
        <time>2026-07-28T10:46:46Z</time>
      </trkpt>
      <trkpt lat="32.05289137075868" lon="118.80379058484192">
        <ele>15.702107273042202</ele>
        <time>2026-07-28T10:47:01Z</time>
      </trkpt>
      <trkpt lat="32.05274829010977" lon="118.8037625427151">
        <ele>15.762879215180874</ele>
        <time>2026-07-28T10:47:08Z</time>
      </trkpt>
      <trkpt lat="32.05247904036909" lon="118.8036533524031">
        <ele>15.482796512544155</ele>
        <time>2026-07-28T10:47:20Z</time>
      </trkpt>
      <trkpt lat="32.05221788125631" lon="118.80359526205108">
        <ele>17.01795657724142</ele>
        <time>2026-07-28T10:47:32Z</time>
      </trkpt>
      <trkpt lat="32.05207692809121" lon="118.803640363721">
        <ele>14.645195804536343</ele>
        <time>2026-07-28T10:47:38Z</time>
      </trkpt>
      <trkpt lat="32.05198404311025" lon="118.80371852611194">
        <ele>14.185440860688686</ele>
        <time>2026-07-28T10:47:41Z</time>
      </trkpt>
      <trkpt lat="32.051934145161255" lon="118.80378365898702">
        <ele>16.86999209970236</ele>
        <time>2026-07-28T10:47:44Z</time>
      </trkpt>
      <trkpt lat="32.05189754495576" lon="118.80401812477062">
        <ele>17.205559574067593</ele>
        <time>2026-07-28T10:47:53Z</time>
      </trkpt>
      <trkpt lat="32.05194991118723" lon="118.80422152184453">
        <ele>16.484219394624233</ele>
        <time>2026-07-28T10:47:59Z</time>
      </trkpt>
      <trkpt lat="32.05199006877594" lon="118.80430668663061">
        <ele>16.901699863374233</ele>
        <time>2026-07-28T10:48:02Z</time>
      </trkpt>
      <trkpt lat="32.05204019193376" lon="118.80437080895457">
        <ele>17.268975101411343</ele>
        <time>2026-07-28T10:48:05Z</time>
      </trkpt>
      <trkpt lat="32.05212125902248" lon="118.80439885705829">
        <ele>17.21613010019064</ele>
        <time>2026-07-28T10:48:08Z</time>
      </trkpt>
      <trkpt lat="32.052371383076476" lon="118.8044379114739">
        <ele>15.284626804292202</ele>
        <time>2026-07-28T10:48:17Z</time>
      </trkpt>
      <trkpt lat="32.05263661036623" lon="118.80453407772566">
        <ele>17.329747043550014</ele>
        <time>2026-07-28T10:48:26Z</time>
      </trkpt>
      <trkpt lat="32.05290983954973" lon="118.80463024338984">
        <ele>15.408814273774624</ele>
        <time>2026-07-28T10:48:35Z</time>
      </trkpt>
      <trkpt lat="32.05306896972498" lon="118.80468433614082">
        <ele>14.79316409677267</ele>
        <time>2026-07-28T10:48:41Z</time>
      </trkpt>
      <trkpt lat="32.05314997373402" lon="118.80467631278829">
        <ele>15.157795749604702</ele>
        <time>2026-07-28T10:48:45Z</time>
      </trkpt>
      <trkpt lat="32.05328289108723" lon="118.80461217333294">
        <ele>17.173851810395718</ele>
        <time>2026-07-28T10:48:51Z</time>
      </trkpt>
      <trkpt lat="32.05335674101548" lon="118.80451697779117">
        <ele>16.66125186532736</ele>
        <time>2026-07-28T10:48:54Z</time>
      </trkpt>
      <trkpt lat="32.05339657824228" lon="118.80441877956449">
        <ele>16.01389392465353</ele>
        <time>2026-07-28T10:48:57Z</time>
      </trkpt>
      <trkpt lat="32.05341835036067" lon="118.80428551375603">
        <ele>16.003323398530483</ele>
        <time>2026-07-28T10:49:00Z</time>
      </trkpt>
      <trkpt lat="32.05338804300962" lon="118.8041131757996">
        <ele>16.14072497934103</ele>
        <time>2026-07-28T10:49:06Z</time>
      </trkpt>
      <trkpt lat="32.05330379034943" lon="118.80397891841437">
        <ele>16.71409686654806</ele>
        <time>2026-07-28T10:49:12Z</time>
      </trkpt>
      <trkpt lat="32.053146546085316" lon="118.80385869568698">
        <ele>13.038693271577358</ele>
        <time>2026-07-28T10:49:18Z</time>
      </trkpt>
      <trkpt lat="32.052862334679936" lon="118.80377355394852">
        <ele>16.901699863374233</ele>
        <time>2026-07-28T10:49:30Z</time>
      </trkpt>
      <trkpt lat="32.052541095962326" lon="118.80367739403495">
        <ele>8.591746173799038</ele>
        <time>2026-07-28T10:49:45Z</time>
      </trkpt>
      <trkpt lat="32.052298894103785" lon="118.80359224869281">
        <ele>16.338894687592983</ele>
        <time>2026-07-28T10:49:57Z</time>
      </trkpt>
      <trkpt lat="32.052132914484424" lon="118.80362532900004">
        <ele>15.45108874887228</ele>
        <time>2026-07-28T10:50:03Z</time>
      </trkpt>
      <trkpt lat="32.05200600797551" lon="118.80369547871541">
        <ele>13.82080539315939</ele>
        <time>2026-07-28T10:50:09Z</time>
      </trkpt>
      <trkpt lat="32.05194710973883" lon="118.80376161436668">
        <ele>16.618973575532436</ele>
        <time>2026-07-28T10:50:12Z</time>
      </trkpt>
      <trkpt lat="32.05189534910489" lon="118.8039059035306">
        <ele>16.94397433847189</ele>
        <time>2026-07-28T10:50:18Z</time>
      </trkpt>
      <trkpt lat="32.051888604048585" lon="118.80405319483489">
        <ele>12.50495608896017</ele>
        <time>2026-07-28T10:50:24Z</time>
      </trkpt>
      <trkpt lat="32.051906775746026" lon="118.80414938319059">
        <ele>16.682389102876186</ele>
        <time>2026-07-28T10:50:27Z</time>
      </trkpt>
      <trkpt lat="32.051942935852935" lon="118.80423655220802">
        <ele>17.01795657724142</ele>
        <time>2026-07-28T10:50:30Z</time>
      </trkpt>
      <trkpt lat="32.05200309267239" lon="118.80431870922817">
        <ele>7.809634052217007</ele>
        <time>2026-07-28T10:50:33Z</time>
      </trkpt>
      <trkpt lat="32.052071198849305" lon="118.80437080610557">
        <ele>16.338894687592983</ele>
        <time>2026-07-28T10:50:37Z</time>
      </trkpt>
      <trkpt lat="32.05234236610091" lon="118.80443190223113">
        <ele>12.922432743012905</ele>
        <time>2026-07-28T10:50:49Z</time>
      </trkpt>
      <trkpt lat="32.05262761011262" lon="118.80453508053903">
        <ele>16.809220157563686</ele>
        <time>2026-07-28T10:50:58Z</time>
      </trkpt>
      <trkpt lat="32.052758679633165" lon="118.80455811418818">
        <ele>16.182999454438686</ele>
        <time>2026-07-28T10:51:01Z</time>
      </trkpt>
      <trkpt lat="32.052940849966625" lon="118.8046322445165">
        <ele>16.56877215951681</ele>
        <time>2026-07-28T10:51:07Z</time>
      </trkpt>
      <trkpt lat="32.0530729056951" lon="118.8046472622045">
        <ele>16.38116916269064</ele>
        <time>2026-07-28T10:51:13Z</time>
      </trkpt>
      <trkpt lat="32.05323286591802" lon="118.8046041620286">
        <ele>15.628121219575405</ele>
        <time>2026-07-28T10:51:19Z</time>
      </trkpt>
      <trkpt lat="32.053295804553365" lon="118.80456107079632">
        <ele>16.703526340425014</ele>
        <time>2026-07-28T10:51:22Z</time>
      </trkpt>
      <trkpt lat="32.05339359858921" lon="118.80443080365447">
        <ele>15.554138980805874</ele>
        <time>2026-07-28T10:51:28Z</time>
      </trkpt>
      <trkpt lat="32.05342032806646" lon="118.80427248780386">
        <ele>15.712673984467983</ele>
        <time>2026-07-28T10:51:34Z</time>
      </trkpt>
      <trkpt lat="32.05339704676111" lon="118.80411417695188">
        <ele>16.212063632905483</ele>
        <time>2026-07-28T10:51:40Z</time>
      </trkpt>
      <trkpt lat="32.053354847082865" lon="118.8040049651422">
        <ele>11.52467044442892</ele>
        <time>2026-07-28T10:51:43Z</time>
      </trkpt>
      <trkpt lat="32.05327668838557" lon="118.80392381216909">
        <ele>14.824871860444546</ele>
        <time>2026-07-28T10:51:46Z</time>
      </trkpt>
      <trkpt lat="32.05321061439009" lon="118.80388975104744">
        <ele>13.477310977876186</ele>
        <time>2026-07-28T10:51:49Z</time>
      </trkpt>
      <trkpt lat="32.05305450292615" lon="118.80384567846549">
        <ele>16.66125186532736</ele>
        <time>2026-07-28T10:51:55Z</time>
      </trkpt>
      <trkpt lat="32.05298042021254" lon="118.80380761022505">
        <ele>16.349461399018764</ele>
        <time>2026-07-28T10:51:58Z</time>
      </trkpt>
      <trkpt lat="32.05282033751305" lon="118.80378057162693">
        <ele>15.971619449555874</ele>
        <time>2026-07-28T10:52:04Z</time>
      </trkpt>
      <trkpt lat="32.05254812711472" lon="118.80369442692334">
        <ele>16.09844668954611</ele>
        <time>2026-07-28T10:52:17Z</time>
      </trkpt>
      <trkpt lat="32.052344942631045" lon="118.80361428782827">
        <ele>14.23828586190939</ele>
        <time>2026-07-28T10:52:29Z</time>
      </trkpt>
      <trkpt lat="32.05220589597418" lon="118.8036052828644">
        <ele>16.36003192514181</ele>
        <time>2026-07-28T10:52:35Z</time>
      </trkpt>
      <trkpt lat="32.052074007478545" lon="118.80368645471225">
        <ele>15.910847507417202</ele>
        <time>2026-07-28T10:52:41Z</time>
      </trkpt>
      <trkpt lat="32.05199004096656" lon="118.80371652161449">
        <ele>11.825890384614468</ele>
        <time>2026-07-28T10:52:44Z</time>
      </trkpt>
      <trkpt lat="32.05195620059697" lon="118.80381271421977">
        <ele>16.28604968637228</ele>
        <time>2026-07-28T10:52:47Z</time>
      </trkpt>
      <trkpt lat="32.05187742532223" lon="118.80395199610203">
        <ele>15.606983982026577</ele>
        <time>2026-07-28T10:52:53Z</time>
      </trkpt>
      <trkpt lat="32.05189365231122" lon="118.8040802478005">
        <ele>15.366535983979702</ele>
        <time>2026-07-28T10:52:59Z</time>
      </trkpt>
      <trkpt lat="32.051981061519314" lon="118.80430368151004">
        <ele>16.07730945199728</ele>
        <time>2026-07-28T10:53:05Z</time>
      </trkpt>
      <trkpt lat="32.052046186270374" lon="118.80436680046878">
        <ele>16.43137439340353</ele>
        <time>2026-07-28T10:53:08Z</time>
      </trkpt>
      <trkpt lat="32.052315375842404" lon="118.80444092257466">
        <ele>17.049664340913296</ele>
        <time>2026-07-28T10:53:20Z</time>
      </trkpt>
      <trkpt lat="32.05260660893656" lon="118.80453708644153">
        <ele>16.349461399018764</ele>
        <time>2026-07-28T10:53:32Z</time>
      </trkpt>
      <trkpt lat="32.052912850743354" lon="118.80463625504107">
        <ele>14.65576633065939</ele>
        <time>2026-07-28T10:53:47Z</time>
      </trkpt>
      <trkpt lat="32.053134931790375" lon="118.80465427042338">
        <ele>15.345398746430874</ele>
        <time>2026-07-28T10:53:59Z</time>
      </trkpt>
      <trkpt lat="32.05324987496659" lon="118.80460716642843">
        <ele>14.740319095551968</ele>
        <time>2026-07-28T10:54:05Z</time>
      </trkpt>
      <trkpt lat="32.05333971970392" lon="118.80450695949445">
        <ele>15.638691745698452</ele>
        <time>2026-07-28T10:54:11Z</time>
      </trkpt>
      <trkpt lat="32.053407358406666" lon="118.80429152666105">
        <ele>16.84092792123556</ele>
        <time>2026-07-28T10:54:20Z</time>
      </trkpt>
      <trkpt lat="32.05339408103304" lon="118.80413421682115">
        <ele>15.921414218842983</ele>
        <time>2026-07-28T10:54:26Z</time>
      </trkpt>
      <trkpt lat="32.053358937002905" lon="118.80405606566023">
        <ele>16.58990939706564</ele>
        <time>2026-07-28T10:54:29Z</time>
      </trkpt>
      <trkpt lat="32.05326469094481" lon="118.80392681920138">
        <ele>14.66633304208517</ele>
        <time>2026-07-28T10:54:35Z</time>
      </trkpt>
      <trkpt lat="32.05312853335904" lon="118.80385368746505">
        <ele>13.102108798921108</ele>
        <time>2026-07-28T10:54:41Z</time>
      </trkpt>
      <trkpt lat="32.0528463555028" lon="118.80378758305571">
        <ele>15.482796512544155</ele>
        <time>2026-07-28T10:54:53Z</time>
      </trkpt>
      <trkpt lat="32.05271031996239" lon="118.80378458963415">
        <ele>15.921414218842983</ele>
        <time>2026-07-28T10:54:59Z</time>
      </trkpt>
      <trkpt lat="32.05259016433352" lon="118.80371045462651">
        <ele>15.95047839730978</ele>
        <time>2026-07-28T10:55:05Z</time>
      </trkpt>
      <trkpt lat="32.05231095592537" lon="118.8036263146099">
        <ele>15.606983982026577</ele>
        <time>2026-07-28T10:55:17Z</time>
      </trkpt>
      <trkpt lat="32.05210593108032" lon="118.803638357112">
        <ele>14.917351566255093</ele>
        <time>2026-07-28T10:55:26Z</time>
      </trkpt>
      <trkpt lat="32.052026000251935" lon="118.80368846306922">
        <ele>16.09844668954611</ele>
        <time>2026-07-28T10:55:29Z</time>
      </trkpt>
      <trkpt lat="32.051893390515836" lon="118.80392995114507">
        <ele>16.671822391450405</ele>
        <time>2026-07-28T10:55:41Z</time>
      </trkpt>
      <trkpt lat="32.05190870456228" lon="118.80410830183828">
        <ele>15.86856921762228</ele>
        <time>2026-07-28T10:55:47Z</time>
      </trkpt>
      <trkpt lat="32.051997016106924" lon="118.80427562453455">
        <ele>15.971619449555874</ele>
        <time>2026-07-28T10:55:53Z</time>
      </trkpt>
      <trkpt lat="32.05205312832498" lon="118.80433273239362">
        <ele>16.391739688813686</ele>
        <time>2026-07-28T10:55:56Z</time>
      </trkpt>
      <trkpt lat="32.05234237310647" lon="118.8044359101697">
        <ele>16.45251163095236</ele>
        <time>2026-07-28T10:56:09Z</time>
      </trkpt>
      <trkpt lat="32.05248146541041" lon="118.8044709668687">
        <ele>13.456173740327358</ele>
        <time>2026-07-28T10:56:15Z</time>
      </trkpt>
      <trkpt lat="32.052822764034616" lon="118.80459818778449">
        <ele>16.36003192514181</ele>
        <time>2026-07-28T10:56:27Z</time>
      </trkpt>
      <trkpt lat="32.053037913686126" lon="118.80465628331415">
        <ele>17.948040805757046</ele>
        <time>2026-07-28T10:56:36Z</time>
      </trkpt>
      <trkpt lat="32.053180913969406" lon="118.80463823438733">
        <ele>16.473648868501186</ele>
        <time>2026-07-28T10:56:42Z</time>
      </trkpt>
      <trkpt lat="32.05336569745853" lon="118.80449092533365">
        <ele>16.57934268563986</ele>
        <time>2026-07-28T10:56:51Z</time>
      </trkpt>
      <trkpt lat="32.05340945158933" lon="118.80434463156617">
        <ele>15.178936801850796</ele>
        <time>2026-07-28T10:56:57Z</time>
      </trkpt>
      <trkpt lat="32.05340514988513" lon="118.80417229105576">
        <ele>13.141743503510952</ele>
        <time>2026-07-28T10:57:03Z</time>
      </trkpt>
      <trkpt lat="32.05337998358945" lon="118.80408011122037">
        <ele>16.71409686654806</ele>
        <time>2026-07-28T10:57:06Z</time>
      </trkpt>
      <trkpt lat="32.05328375623248" lon="118.80396188664085">
        <ele>15.95047839730978</ele>
        <time>2026-07-28T10:57:12Z</time>
      </trkpt>
      <trkpt lat="32.053014483555145" lon="118.80383967029182">
        <ele>15.511860691010952</ele>
        <time>2026-07-28T10:57:24Z</time>
      </trkpt>
      <trkpt lat="32.05276730479599" lon="118.80376855281138">
        <ele>15.649262271821499</ele>
        <time>2026-07-28T10:57:36Z</time>
      </trkpt>
      <trkpt lat="32.05263418110718" lon="118.8037144584737">
        <ele>15.836861453950405</ele>
        <time>2026-07-28T10:57:42Z</time>
      </trkpt>
      <trkpt lat="32.05249912141206" lon="118.80369743734524">
        <ele>16.37060245126486</ele>
        <time>2026-07-28T10:57:48Z</time>
      </trkpt>
      <trkpt lat="32.05222691283499" lon="118.80361229473228">
        <ele>13.633206211030483</ele>
        <time>2026-07-28T10:58:00Z</time>
      </trkpt>
      <trkpt lat="32.052152920685444" lon="118.80362632913311">
        <ele>16.463082157075405</ele>
        <time>2026-07-28T10:58:03Z</time>
      </trkpt>
      <trkpt lat="32.05201406721552" lon="118.80372854308517">
        <ele>16.066738925874233</ele>
        <time>2026-07-28T10:58:09Z</time>
      </trkpt>
      <trkpt lat="32.051958171422264" lon="118.80379568047105">
        <ele>12.172028385102749</ele>
        <time>2026-07-28T10:58:12Z</time>
      </trkpt>
      <trkpt lat="32.051897419317754" lon="118.80394598240309">
        <ele>17.258404575288296</ele>
        <time>2026-07-28T10:58:18Z</time>
      </trkpt>
      <trkpt lat="32.05188653551954" lon="118.8040141178701">
        <ele>16.618973575532436</ele>
        <time>2026-07-28T10:58:21Z</time>
      </trkpt>
      <trkpt lat="32.05193384293672" lon="118.80418445002091">
        <ele>16.003323398530483</ele>
        <time>2026-07-28T10:58:27Z</time>
      </trkpt>
      <trkpt lat="32.05197597469263" lon="118.80425458484412">
        <ele>16.50535663217306</ele>
        <time>2026-07-28T10:58:30Z</time>
      </trkpt>
      <trkpt lat="32.0520300794493" lon="118.80430768493704">
        <ele>15.971619449555874</ele>
        <time>2026-07-28T10:58:33Z</time>
      </trkpt>
      <trkpt lat="32.05218320107712" lon="118.80435777002656">
        <ele>13.894791446626186</ele>
        <time>2026-07-28T10:58:39Z</time>
      </trkpt>
      <trkpt lat="32.05248647878898" lon="118.80447798030626">
        <ele>13.215725742280483</ele>
        <time>2026-07-28T10:58:52Z</time>
      </trkpt>
      <trkpt lat="32.05276370003292" lon="118.80456913558258">
        <ele>14.896214328706264</ele>
        <time>2026-07-28T10:59:04Z</time>
      </trkpt>
      <trkpt lat="32.0530279307581" lon="118.80466730610422">
        <ele>15.773445926606655</ele>
        <time>2026-07-28T10:59:16Z</time>
      </trkpt>
      <trkpt lat="32.05309396125681" lon="118.80467631793474">
        <ele>16.275479160249233</ele>
        <time>2026-07-28T10:59:19Z</time>
      </trkpt>
      <trkpt lat="32.0532009289509" lon="118.80464424447703">
        <ele>15.794586978852749</ele>
        <time>2026-07-28T10:59:22Z</time>
      </trkpt>
      <trkpt lat="32.05336161247866" lon="118.80444283041203">
        <ele>3.6454094275832176</ele>
        <time>2026-07-28T10:59:31Z</time>
      </trkpt>
      <trkpt lat="32.05340940084141" lon="118.80431557405907">
        <ele>16.98625262826681</ele>
        <time>2026-07-28T10:59:37Z</time>
      </trkpt>
      <trkpt lat="32.053413169144626" lon="118.80418231012585">
        <ele>5.930977664887905</ele>
        <time>2026-07-28T10:59:40Z</time>
      </trkpt>
      <trkpt lat="32.053383994958935" lon="118.80408612272676">
        <ele>10.76105197519064</ele>
        <time>2026-07-28T10:59:43Z</time>
      </trkpt>
      <trkpt lat="32.05329174056849" lon="118.80395186613607">
        <ele>15.691536746919155</ele>
        <time>2026-07-28T10:59:49Z</time>
      </trkpt>
      <trkpt lat="32.05306148531372" lon="118.80383465609683">
        <ele>15.472229801118374</ele>
        <time>2026-07-28T10:59:58Z</time>
      </trkpt>
      <trkpt lat="32.05284536050649" lon="118.80379058907015">
        <ele>15.136658512055874</ele>
        <time>2026-07-28T11:00:07Z</time>
      </trkpt>
      <trkpt lat="32.05254412796371" lon="118.80369542926364">
        <ele>16.328324161469936</ele>
        <time>2026-07-28T11:00:22Z</time>
      </trkpt>
      <trkpt lat="32.05222888197039" lon="118.80359425906903">
        <ele>15.295197330415249</ele>
        <time>2026-07-28T11:00:34Z</time>
      </trkpt>
      <trkpt lat="32.05215589351939" lon="118.80361029731611">
        <ele>16.618973575532436</ele>
        <time>2026-07-28T11:00:37Z</time>
      </trkpt>
      <trkpt lat="32.05201003324091" lon="118.80370950596588">
        <ele>15.295197330415249</ele>
        <time>2026-07-28T11:00:43Z</time>
      </trkpt>
      <trkpt lat="32.0519064195814" lon="118.80394497959917">
        <ele>16.30718692392111</ele>
        <time>2026-07-28T11:00:52Z</time>
      </trkpt>
      <trkpt lat="32.05190067308412" lon="118.80409126892634">
        <ele>16.09844668954611</ele>
        <time>2026-07-28T11:00:58Z</time>
      </trkpt>
      <trkpt lat="32.05196696743818" lon="118.80425157972607">
        <ele>16.119583927094936</ele>
        <time>2026-07-28T11:01:04Z</time>
      </trkpt>
      <trkpt lat="32.05209221578775" lon="118.8043778180614">
        <ele>16.16186221688986</ele>
        <time>2026-07-28T11:01:10Z</time>
      </trkpt>
      <trkpt lat="32.05214727357674" lon="118.80440386458942">
        <ele>16.965111576020718</ele>
        <time>2026-07-28T11:01:13Z</time>
      </trkpt>
      <trkpt lat="32.05242144152037" lon="118.80446496047173">
        <ele>16.57934268563986</ele>
        <time>2026-07-28T11:01:25Z</time>
      </trkpt>
      <trkpt lat="32.052730708457176" lon="118.80457815649723">
        <ele>15.826294742524624</ele>
        <time>2026-07-28T11:01:40Z</time>
      </trkpt>
      <trkpt lat="32.05303190533128" lon="118.8046522759129">
        <ele>17.07873233407736</ele>
        <time>2026-07-28T11:01:55Z</time>
      </trkpt>
      <trkpt lat="32.053154922211114" lon="118.80464625268054">
        <ele>14.949059329926968</ele>
        <time>2026-07-28T11:02:01Z</time>
      </trkpt>
      <trkpt lat="32.05330585061457" lon="118.80458611954954">
        <ele>15.35596927255392</ele>
        <time>2026-07-28T11:02:08Z</time>
      </trkpt>
      <trkpt lat="32.053364748055166" lon="118.80451998301398">
        <ele>15.900276981294155</ele>
        <time>2026-07-28T11:02:11Z</time>
      </trkpt>
      <trkpt lat="32.05341949757438" lon="118.80436968023304">
        <ele>15.712673984467983</ele>
        <time>2026-07-28T11:02:17Z</time>
      </trkpt>
      <trkpt lat="32.05341919145605" lon="118.80419433334298">
        <ele>15.72324451059103</ele>
        <time>2026-07-28T11:02:23Z</time>
      </trkpt>
      <trkpt lat="32.05335789313381" lon="118.80403101629307">
        <ele>16.703526340425014</ele>
        <time>2026-07-28T11:02:29Z</time>
      </trkpt>
      <trkpt lat="32.053302751741754" lon="118.80395687500952">
        <ele>15.546212039887905</ele>
        <time>2026-07-28T11:02:32Z</time>
      </trkpt>
      <trkpt lat="32.053199584042986" lon="118.80387372044716">
        <ele>16.56877215951681</ele>
        <time>2026-07-28T11:02:35Z</time>
      </trkpt>
      <trkpt lat="32.05290741091414" lon="118.80381162483312">
        <ele>15.982186160981655</ele>
        <time>2026-07-28T11:02:47Z</time>
      </trkpt>
      <trkpt lat="32.05276430935302" lon="118.80377155900871">
        <ele>15.189503513276577</ele>
        <time>2026-07-28T11:02:53Z</time>
      </trkpt>
      <trkpt lat="32.05265419427151" lon="118.80371946650023">
        <ele>15.982186160981655</ele>
        <time>2026-07-28T11:02:59Z</time>
      </trkpt>
      <trkpt lat="32.052366032574234" lon="118.80366338250997">
        <ele>15.889706455171108</ele>
        <time>2026-07-28T11:03:14Z</time>
      </trkpt>
      <trkpt lat="32.052216968019806" lon="118.8036453607111">
        <ele>15.461659274995327</ele>
        <time>2026-07-28T11:03:20Z</time>
      </trkpt>
      <trkpt lat="32.05205898324504" lon="118.80367443242271">
        <ele>16.50535663217306</ele>
        <time>2026-07-28T11:03:26Z</time>
      </trkpt>
      <trkpt lat="32.05199703034066" lon="118.80370950716079">
        <ele>14.145806156098843</ele>
        <time>2026-07-28T11:03:29Z</time>
      </trkpt>
      <trkpt lat="32.05190434239378" lon="118.80390089282321">
        <ele>16.45251163095236</ele>
        <time>2026-07-28T11:03:35Z</time>
      </trkpt>
      <trkpt lat="32.051891479043725" lon="118.80398105215038">
        <ele>16.29661639779806</ele>
        <time>2026-07-28T11:03:38Z</time>
      </trkpt>
      <trkpt lat="32.051924847920255" lon="118.8041884587707">
        <ele>15.503933750092983</ele>
        <time>2026-07-28T11:03:44Z</time>
      </trkpt>
      <trkpt lat="32.05200408414683" lon="118.80431369922252">
        <ele>16.391739688813686</ele>
        <time>2026-07-28T11:03:50Z</time>
      </trkpt>
      <trkpt lat="32.05208720241853" lon="118.80437080463511">
        <ele>14.917351566255093</ele>
        <time>2026-07-28T11:03:53Z</time>
      </trkpt>
      <trkpt lat="32.052355414540145" lon="118.80445795264171">
        <ele>15.429951511323452</ele>
        <time>2026-07-28T11:04:05Z</time>
      </trkpt>
      <trkpt lat="32.05262262477376" lon="118.80454409887555">
        <ele>14.594994388520718</ele>
        <time>2026-07-28T11:04:17Z</time>
      </trkpt>
      <trkpt lat="32.052772728339804" lon="118.80458416455934">
        <ele>16.43137439340353</ele>
        <time>2026-07-28T11:04:23Z</time>
      </trkpt>
      <trkpt lat="32.053069947135505" lon="118.80467131019799">
        <ele>13.958206973969936</ele>
        <time>2026-07-28T11:04:39Z</time>
      </trkpt>
      <trkpt lat="32.05319393967202" lon="118.80465125903677">
        <ele>16.547634921967983</ele>
        <time>2026-07-28T11:04:45Z</time>
      </trkpt>
      <trkpt lat="32.053282899856804" lon="118.80461718327065">
        <ele>16.07730945199728</ele>
        <time>2026-07-28T11:04:48Z</time>
      </trkpt>
      <trkpt lat="32.05333782442842" lon="118.8045670788568">
        <ele>14.52100833505392</ele>
        <time>2026-07-28T11:04:51Z</time>
      </trkpt>
      <trkpt lat="32.05340859317368" lon="118.80442579235297">
        <ele>15.408814273774624</ele>
        <time>2026-07-28T11:04:57Z</time>
      </trkpt>
      <trkpt lat="32.0534202109077" lon="118.804205355041">
        <ele>15.231781803071499</ele>
        <time>2026-07-28T11:05:06Z</time>
      </trkpt>
      <trkpt lat="32.05332180133891" lon="118.80398292466926">
        <ele>15.252919040620327</ele>
        <time>2026-07-28T11:05:15Z</time>
      </trkpt>
      <trkpt lat="32.053274694916695" lon="118.80392782025866">
        <ele>15.115521274507046</ele>
        <time>2026-07-28T11:05:18Z</time>
      </trkpt>
      <trkpt lat="32.05300649920238" lon="118.80384969077812">
        <ele>14.291130863130093</ele>
        <time>2026-07-28T11:05:30Z</time>
      </trkpt>
      <trkpt lat="32.05275223875385" lon="118.80373248314285">
        <ele>14.626702152192593</ele>
        <time>2026-07-28T11:05:42Z</time>
      </trkpt>
      <trkpt lat="32.05244303756256" lon="118.80365636162803">
        <ele>15.012471042573452</ele>
        <time>2026-07-28T11:05:57Z</time>
      </trkpt>
      <trkpt lat="32.05215696333753" lon="118.80365037608532">
        <ele>16.77751239389181</ele>
        <time>2026-07-28T11:06:09Z</time>
      </trkpt>
      <trkpt lat="32.052032046854265" lon="118.80371451380812">
        <ele>15.617554508149624</ele>
        <time>2026-07-28T11:06:15Z</time>
      </trkpt>
      <trkpt lat="32.05193525690908" lon="118.80384778526921">
        <ele>15.691536746919155</ele>
        <time>2026-07-28T11:06:21Z</time>
      </trkpt>
      <trkpt lat="32.051909380132464" lon="118.80392193386321">
        <ele>14.87507327646017</ele>
        <time>2026-07-28T11:06:24Z</time>
      </trkpt>
      <trkpt lat="32.05190965588117" lon="118.80408024632996">
        <ele>14.489300571382046</ele>
        <time>2026-07-28T11:06:30Z</time>
      </trkpt>
      <trkpt lat="32.05197795590223" lon="118.80424356286197">
        <ele>14.782593570649624</ele>
        <time>2026-07-28T11:06:36Z</time>
      </trkpt>
      <trkpt lat="32.05209316524934" lon="118.80434876044777">
        <ele>16.066738925874233</ele>
        <time>2026-07-28T11:06:42Z</time>
      </trkpt>
      <trkpt lat="32.05240340772754" lon="118.8044479283809">
        <ele>14.135239444673061</ele>
        <time>2026-07-28T11:06:57Z</time>
      </trkpt>
      <trkpt lat="32.05261760788325" lon="118.80453508145804">
        <ele>14.114098392426968</ele>
        <time>2026-07-28T11:07:06Z</time>
      </trkpt>
      <trkpt lat="32.05288979124347" lon="118.80460519553837">
        <ele>15.284626804292202</ele>
        <time>2026-07-28T11:07:18Z</time>
      </trkpt>
      <trkpt lat="32.05301890769784" lon="118.80465528307208">
        <ele>14.93848880380392</ele>
        <time>2026-07-28T11:07:24Z</time>
      </trkpt>
      <trkpt lat="32.05308893031362" lon="118.80465928459185">
        <ele>14.542149387300014</ele>
        <time>2026-07-28T11:07:27Z</time>
      </trkpt>
      <trkpt lat="32.05314990881698" lon="118.80463923922419">
        <ele>15.702107273042202</ele>
        <time>2026-07-28T11:07:30Z</time>
      </trkpt>
      <trkpt lat="32.05322092638939" lon="118.8046402346871">
        <ele>15.408814273774624</ele>
        <time>2026-07-28T11:07:33Z</time>
      </trkpt>
      <trkpt lat="32.05335165929912" lon="118.804470886912">
        <ele>14.343975864350796</ele>
        <time>2026-07-28T11:07:42Z</time>
      </trkpt>
      <trkpt lat="32.053397394669176" lon="118.80431357119646">
        <ele>15.429951511323452</ele>
        <time>2026-07-28T11:07:48Z</time>
      </trkpt>
      <trkpt lat="32.05339326608827" lon="118.80424042686725">
        <ele>14.31226810067892</ele>
        <time>2026-07-28T11:07:51Z</time>
      </trkpt>
      <trkpt lat="32.05333497356585" lon="118.80408011535648">
        <ele>13.112679325044155</ele>
        <time>2026-07-28T11:07:57Z</time>
      </trkpt>
      <trkpt lat="32.05324574427786" lon="118.80395988617963">
        <ele>14.58442386239767</ele>
        <time>2026-07-28T11:08:03Z</time>
      </trkpt>
      <trkpt lat="32.05298052478603" lon="118.80386772872384">
        <ele>14.616131626069546</ele>
        <time>2026-07-28T11:08:15Z</time>
      </trkpt>
      <trkpt lat="32.05270228856508" lon="118.80376755681222">
        <ele>14.124668918550014</ele>
        <time>2026-07-28T11:08:27Z</time>
      </trkpt>
      <trkpt lat="32.05241305175708" lon="118.8036683880504">
        <ele>14.44702609628439</ele>
        <time>2026-07-28T11:08:42Z</time>
      </trkpt>
      <trkpt lat="32.05236400776463" lon="118.80364935508628">
        <ele>14.018978916108608</ele>
        <time>2026-07-28T11:08:45Z</time>
      </trkpt>
      <trkpt lat="32.05225699260272" lon="118.80365437478105">
        <ele>15.157795749604702</ele>
        <time>2026-07-28T11:08:51Z</time>
      </trkpt>
      <trkpt lat="32.05221102237214" lon="118.80367742436806">
        <ele>14.417961917817593</ele>
        <time>2026-07-28T11:08:54Z</time>
      </trkpt>
      <trkpt lat="32.052085008191696" lon="118.80368545172871">
        <ele>15.295197330415249</ele>
        <time>2026-07-28T11:09:00Z</time>
      </trkpt>
      <trkpt lat="32.05200011111283" lon="118.80375559765325">
        <ele>15.231781803071499</ele>
        <time>2026-07-28T11:09:06Z</time>
      </trkpt>
      <trkpt lat="32.051909435951295" lon="118.80395399711458">
        <ele>15.115521274507046</ele>
        <time>2026-07-28T11:09:18Z</time>
      </trkpt>
      <trkpt lat="32.05191772753274" lon="118.80412032476492">
        <ele>14.645195804536343</ele>
        <time>2026-07-28T11:09:24Z</time>
      </trkpt>
      <trkpt lat="32.05198399046878" lon="118.80426259996344">
        <ele>15.126091800630093</ele>
        <time>2026-07-28T11:09:30Z</time>
      </trkpt>
      <trkpt lat="32.0520882008911" lon="118.80436980255959">
        <ele>14.185440860688686</ele>
        <time>2026-07-28T11:09:36Z</time>
      </trkpt>
      <trkpt lat="32.05240847891719" lon="118.80448800732894">
        <ele>14.354546390473843</ele>
        <time>2026-07-28T11:09:51Z</time>
      </trkpt>
      <trkpt lat="32.052702665397156" lon="118.80455711734804">
        <ele>16.190926395356655</ele>
        <time>2026-07-28T11:10:03Z</time>
      </trkpt>
      <trkpt lat="32.05302698142587" lon="118.8046963638654">
        <ele>15.72324451059103</ele>
        <time>2026-07-28T11:10:18Z</time>
      </trkpt>
      <trkpt lat="32.05311203722476" lon="118.80471739782273">
        <ele>15.733815036714077</ele>
        <time>2026-07-28T11:10:21Z</time>
      </trkpt>
      <trkpt lat="32.053292837197816" lon="118.80458010882202">
        <ele>15.522431217133999</ele>
        <time>2026-07-28T11:10:30Z</time>
      </trkpt>
      <trkpt lat="32.05337864429133" lon="118.80445886060862">
        <ele>15.023041568696499</ele>
        <time>2026-07-28T11:10:36Z</time>
      </trkpt>
      <trkpt lat="32.053390492865596" lon="118.80437068488202">
        <ele>15.440522037446499</ele>
        <time>2026-07-28T11:10:39Z</time>
      </trkpt>
      <trkpt lat="32.05334900462824" lon="118.80409614573513">
        <ele>15.06531985849142</ele>
        <time>2026-07-28T11:10:48Z</time>
      </trkpt>
      <trkpt lat="32.053265755712054" lon="118.80396389224943">
        <ele>14.86450656503439</ele>
        <time>2026-07-28T11:10:55Z</time>
      </trkpt>
      <trkpt lat="32.05319965204708" lon="118.80391279750724">
        <ele>15.554138980805874</ele>
        <time>2026-07-28T11:10:58Z</time>
      </trkpt>
      <trkpt lat="32.0529194676134" lon="118.80384268494909">
        <ele>14.71918185800314</ele>
        <time>2026-07-28T11:11:10Z</time>
      </trkpt>
      <trkpt lat="32.052650254329905" lon="118.80375453593373">
        <ele>14.927918277680874</ele>
        <time>2026-07-28T11:11:22Z</time>
      </trkpt>
      <trkpt lat="32.052278014689335" lon="118.8036643925709">
        <ele>15.06531985849142</ele>
        <time>2026-07-28T11:11:40Z</time>
      </trkpt>
      <trkpt lat="32.05213794169844" lon="118.80364035811398">
        <ele>14.991333805024624</ele>
        <time>2026-07-28T11:11:46Z</time>
      </trkpt>
      <trkpt lat="32.052028014624376" lon="118.80369647866586">
        <ele>13.43503650277853</ele>
        <time>2026-07-28T11:11:52Z</time>
      </trkpt>
      <trkpt lat="32.05197310334744" lon="118.80375459816138">
        <ele>14.489300571382046</ele>
        <time>2026-07-28T11:11:55Z</time>
      </trkpt>
      <trkpt lat="32.051895364800366" lon="118.803914921316">
        <ele>15.189503513276577</ele>
        <time>2026-07-28T11:12:01Z</time>
      </trkpt>
      <trkpt lat="32.051881482047406" lon="118.8039840590015">
        <ele>14.86450656503439</ele>
        <time>2026-07-28T11:12:04Z</time>
      </trkpt>
      <trkpt lat="32.05190579299728" lon="118.80415940308384">
        <ele>14.772026859223843</ele>
        <time>2026-07-28T11:12:10Z</time>
      </trkpt>
      <trkpt lat="32.05200609334168" lon="118.80431870895245">
        <ele>15.691536746919155</ele>
        <time>2026-07-28T11:12:16Z</time>
      </trkpt>
      <trkpt lat="32.05207921113719" lon="118.8043768172724">
        <ele>15.712673984467983</ele>
        <time>2026-07-28T11:12:19Z</time>
      </trkpt>
      <trkpt lat="32.05235539877517" lon="118.8044489347771">
        <ele>15.284626804292202</ele>
        <time>2026-07-28T11:12:31Z</time>
      </trkpt>
      <trkpt lat="32.052651634744706" lon="118.80454610018325">
        <ele>15.408814273774624</ele>
        <time>2026-07-28T11:12:46Z</time>
      </trkpt>
      <trkpt lat="32.0527796580187" lon="118.80454308246054">
        <ele>15.522431217133999</ele>
        <time>2026-07-28T11:12:52Z</time>
      </trkpt>
      <trkpt lat="32.05302590399429" lon="118.8046522764643">
        <ele>15.680966220796108</ele>
        <time>2026-07-28T11:13:05Z</time>
      </trkpt>
      <trkpt lat="32.053200925442276" lon="118.80464224050104">
        <ele>11.535240970551968</ele>
        <time>2026-07-28T11:13:14Z</time>
      </trkpt>
      <trkpt lat="32.05329388652221" lon="118.80460816437214">
        <ele>26.641121707856655</ele>
        <time>2026-07-28T11:13:17Z</time>
      </trkpt>
      <trkpt lat="32.053347775817464" lon="118.80453802032764">
        <ele>13.987271152436733</ele>
        <time>2026-07-28T11:13:20Z</time>
      </trkpt>
      <trkpt lat="32.053407391647504" lon="118.80431056432924">
        <ele>14.499871097505093</ele>
        <time>2026-07-28T11:13:32Z</time>
      </trkpt>
      <trkpt lat="32.05336808397772" lon="118.80413922911029">
        <ele>14.44702609628439</ele>
        <time>2026-07-28T11:13:41Z</time>
      </trkpt>
      <trkpt lat="32.05322317468145" lon="118.80382910103452">
        <ele>14.917351566255093</ele>
        <time>2026-07-28T11:13:50Z</time>
      </trkpt>
      <trkpt lat="32.053202066764236" lon="118.80393713272458">
        <ele>14.36511691659689</ele>
        <time>2026-07-28T11:13:53Z</time>
      </trkpt>
      <trkpt lat="32.05311170221135" lon="118.80395288465779">
        <ele>14.531578861176968</ele>
        <time>2026-07-28T11:13:56Z</time>
      </trkpt>
      <trkpt lat="32.05304961165021" lon="118.80390880338996">
        <ele>15.054749332368374</ele>
        <time>2026-07-28T11:13:59Z</time>
      </trkpt>
      <trkpt lat="32.05294853160194" lon="118.80387574746952">
        <ele>14.30170138925314</ele>
        <time>2026-07-28T11:14:05Z</time>
      </trkpt>
      <trkpt lat="32.05286240262753" lon="118.80381263094397">
        <ele>13.987271152436733</ele>
        <time>2026-07-28T11:14:08Z</time>
      </trkpt>
      <trkpt lat="32.052628259875775" lon="118.80376054979783">
        <ele>14.87507327646017</ele>
        <time>2026-07-28T11:14:20Z</time>
      </trkpt>
      <trkpt lat="32.05255914697608" lon="118.80370444563908">
        <ele>12.674061618745327</ele>
        <time>2026-07-28T11:14:23Z</time>
      </trkpt>
      <trkpt lat="32.052278927911914" lon="118.80361429389495">
        <ele>15.493367038667202</ele>
        <time>2026-07-28T11:14:38Z</time>
      </trkpt>
      <trkpt lat="32.05213589601665" lon="118.80361430703941">
        <ele>14.970196567475796</ele>
        <time>2026-07-28T11:14:44Z</time>
      </trkpt>
      <trkpt lat="32.05191114525597" lon="118.80378666702335">
        <ele>15.189503513276577</ele>
        <time>2026-07-28T11:14:53Z</time>
      </trkpt>
      <trkpt lat="32.05191340544386" lon="118.80393596116596">
        <ele>15.45108874887228</ele>
        <time>2026-07-28T11:14:59Z</time>
      </trkpt>
      <trkpt lat="32.051886514575386" lon="118.80400209413706">
        <ele>15.712673984467983</ele>
        <time>2026-07-28T11:15:02Z</time>
      </trkpt>
      <trkpt lat="32.05187864896434" lon="118.80408024917912">
        <ele>4.459231220185757</ele>
        <time>2026-07-28T11:15:05Z</time>
      </trkpt>
      <trkpt lat="32.051913864693965" lon="118.8041994815702">
        <ele>15.461659274995327</ele>
        <time>2026-07-28T11:15:08Z</time>
      </trkpt>
      <trkpt lat="32.052027138275" lon="118.8043417526309">
        <ele>14.980767093598843</ele>
        <time>2026-07-28T11:15:15Z</time>
      </trkpt>
      <trkpt lat="32.05212227325316" lon="118.80440687283954">
        <ele>15.023041568696499</ele>
        <time>2026-07-28T11:15:18Z</time>
      </trkpt>
      <trkpt lat="32.05245249573728" lon="118.80449201122741">
        <ele>14.605561099946499</ele>
        <time>2026-07-28T11:15:33Z</time>
      </trkpt>
      <trkpt lat="32.05263263576796" lon="118.80454910788877">
        <ele>15.482796512544155</ele>
        <time>2026-07-28T11:15:42Z</time>
      </trkpt>
      <trkpt lat="32.05269064519171" lon="118.80454709858553">
        <ele>14.970196567475796</ele>
        <time>2026-07-28T11:15:45Z</time>
      </trkpt>
      <trkpt lat="32.053004941425286" lon="118.80467632611388">
        <ele>14.269993625581264</ele>
        <time>2026-07-28T11:16:00Z</time>
      </trkpt>
      <trkpt lat="32.05314196142323" lon="118.8046703015927">
        <ele>13.979344211518764</ele>
        <time>2026-07-28T11:16:06Z</time>
      </trkpt>
      <trkpt lat="32.05320993621902" lon="118.804647249614">
        <ele>13.958206973969936</ele>
        <time>2026-07-28T11:16:09Z</time>
      </trkpt>
      <trkpt lat="32.053249850414595" lon="118.80459313860611">
        <ele>15.334828220307827</ele>
        <time>2026-07-28T11:16:12Z</time>
      </trkpt>
      <trkpt lat="32.05331278905627" lon="118.80455004738133">
        <ele>14.425888858735561</ele>
        <time>2026-07-28T11:16:15Z</time>
      </trkpt>
      <trkpt lat="32.05340454500344" lon="118.80439873914393">
        <ele>13.01755603402853</ele>
        <time>2026-07-28T11:16:21Z</time>
      </trkpt>
      <trkpt lat="32.05342337246692" lon="118.80429753708508">
        <ele>14.468163333833218</ele>
        <time>2026-07-28T11:16:27Z</time>
      </trkpt>
      <trkpt lat="32.053386019856305" lon="118.80410015025133">
        <ele>15.086457096040249</ele>
        <time>2026-07-28T11:16:33Z</time>
      </trkpt>
      <trkpt lat="32.05329480055943" lon="118.80398593308315">
        <ele>15.263489566743374</ele>
        <time>2026-07-28T11:16:39Z</time>
      </trkpt>
      <trkpt lat="32.05317963538379" lon="118.80390578551244">
        <ele>15.45108874887228</ele>
        <time>2026-07-28T11:16:45Z</time>
      </trkpt>
      <trkpt lat="32.052986506947384" lon="118.80385670644311">
        <ele>14.573853336274624</ele>
        <time>2026-07-28T11:16:54Z</time>
      </trkpt>
      <trkpt lat="32.052940440922406" lon="118.80382464747039">
        <ele>15.80515369027853</ele>
        <time>2026-07-28T11:16:57Z</time>
      </trkpt>
      <trkpt lat="32.052875396812425" lon="118.80380761987642">
        <ele>13.937065921723843</ele>
        <time>2026-07-28T11:17:00Z</time>
      </trkpt>
      <trkpt lat="32.05277738716729" lon="118.80381464270612">
        <ele>14.814301334321499</ele>
        <time>2026-07-28T11:17:03Z</time>
      </trkpt>
      <trkpt lat="32.052508205255116" lon="118.8037445292509">
        <ele>14.531578861176968</ele>
        <time>2026-07-28T11:17:19Z</time>
      </trkpt>
      <trkpt lat="32.05220400166551" lon="118.80366640331707">
        <ele>13.53015597909689</ele>
        <time>2026-07-28T11:17:34Z</time>
      </trkpt>
      <trkpt lat="32.052009060876195" lon="118.80372553762537">
        <ele>14.280564151704311</ele>
        <time>2026-07-28T11:17:43Z</time>
      </trkpt>
      <trkpt lat="32.05195915770757" lon="118.80378766458556">
        <ele>15.263489566743374</ele>
        <time>2026-07-28T11:17:46Z</time>
      </trkpt>
      <trkpt lat="32.05190363358693" lon="118.80406822313543">
        <ele>15.649262271821499</ele>
        <time>2026-07-28T11:17:52Z</time>
      </trkpt>
      <trkpt lat="32.0519669464534" lon="118.80423955594675">
        <ele>12.964711032807827</ele>
        <time>2026-07-28T11:17:58Z</time>
      </trkpt>
      <trkpt lat="32.05207820041085" lon="118.80437080546224">
        <ele>11.94215091317892</ele>
        <time>2026-07-28T11:18:04Z</time>
      </trkpt>
      <trkpt lat="32.05215228694915" lon="118.8044108780194">
        <ele>15.284626804292202</ele>
        <time>2026-07-28T11:18:07Z</time>
      </trkpt>
      <trkpt lat="32.05220328956959" lon="118.8044058634112">
        <ele>9.833615146577358</ele>
        <time>2026-07-28T11:18:10Z</time>
      </trkpt>
      <trkpt lat="32.05212914527853" lon="118.8043327254089">
        <ele>13.059830509126186</ele>
        <time>2026-07-28T11:18:19Z</time>
      </trkpt>
      <trkpt lat="32.05203909195501" lon="118.80431369600586">
        <ele>16.44194110482931</ele>
        <time>2026-07-28T11:18:25Z</time>
      </trkpt>
      <trkpt lat="32.05209515344449" lon="118.80434174638144">
        <ele>11.598656497895718</ele>
        <time>2026-07-28T11:18:34Z</time>
      </trkpt>
      <trkpt lat="32.05243037871934" lon="118.80442788620532">
        <ele>14.885643802583218</ele>
        <time>2026-07-28T11:18:46Z</time>
      </trkpt>
      <trkpt lat="32.05261553032746" lon="118.80449099426174">
        <ele>14.322838626801968</ele>
        <time>2026-07-28T11:18:55Z</time>
      </trkpt>
      <trkpt lat="32.05268164318543" lon="118.80454709941264">
        <ele>15.168366275727749</ele>
        <time>2026-07-28T11:18:58Z</time>
      </trkpt>
      <trkpt lat="32.05297891457516" lon="118.80466430464232">
        <ele>14.676903568208218</ele>
        <time>2026-07-28T11:19:07Z</time>
      </trkpt>
      <trkpt lat="32.05314801189677" lon="118.80469835672315">
        <ele>15.992756687104702</ele>
        <time>2026-07-28T11:19:13Z</time>
      </trkpt>
      <trkpt lat="32.05326194429475" lon="118.80464524085903">
        <ele>14.563286624848843</ele>
        <time>2026-07-28T11:19:19Z</time>
      </trkpt>
      <trkpt lat="32.05334476813794" lon="118.80453401265817">
        <ele>14.782593570649624</ele>
        <time>2026-07-28T11:19:25Z</time>
      </trkpt>
      <trkpt lat="32.053372534374056" lon="118.8043967381168">
        <ele>14.71918185800314</ele>
        <time>2026-07-28T11:19:31Z</time>
      </trkpt>
      <trkpt lat="32.05336815912142" lon="118.80418231426188">
        <ele>14.740319095551968</ele>
        <time>2026-07-28T11:19:37Z</time>
      </trkpt>
      <trkpt lat="32.05324474754442" lon="118.80396189022558">
        <ele>14.626702152192593</ele>
        <time>2026-07-28T11:19:47Z</time>
      </trkpt>
      <trkpt lat="32.05318662822414" lon="118.8039007749887">
        <ele>15.231781803071499</ele>
        <time>2026-07-28T11:19:50Z</time>
      </trkpt>
      <trkpt lat="32.05304162730749" lon="118.80391882388763">
        <ele>14.740319095551968</ele>
        <time>2026-07-28T11:19:56Z</time>
      </trkpt>
      <trkpt lat="32.0529685622122" lon="118.80389077526713">
        <ele>10.47040256112814</ele>
        <time>2026-07-28T11:19:59Z</time>
      </trkpt>
      <trkpt lat="32.05288454697943" lon="118.80389278693984">
        <ele>14.594994388520718</ele>
        <time>2026-07-28T11:20:02Z</time>
      </trkpt>
      <trkpt lat="32.05260531746146" lon="118.80379662297582">
        <ele>14.31226810067892</ele>
        <time>2026-07-28T11:20:17Z</time>
      </trkpt>
      <trkpt lat="32.05244017441951" lon="118.8037355177411">
        <ele>14.050686679780483</ele>
        <time>2026-07-28T11:20:26Z</time>
      </trkpt>
      <trkpt lat="32.05237719171875" lon="118.80375355905362">
        <ele>13.968773685395718</ele>
        <time>2026-07-28T11:20:29Z</time>
      </trkpt>
    </trkseg>
  </trk>
</gpx>