<?xml version="1.0" encoding="UTF-8"?>
<gpx xmlns="http://www.topografix.com/GPX/1/1" xmlns:gpxtpx="http://www.garmin.com/xmlschemas/TrackPointExtension/v1" xmlns:xsi="http://www.w3.org/2001/XMLSchema-instance" xsi:schemaLocation="http://www.topografix.com/GPX/1/1 http://www.topografix.com/GPX/1/1/gpx.xsd" version="1.1" creator="gpx.py -- https://github.com/tkrajina/gpxpy">
  <trk>
    <name>gpx from keep</name>
    <type>Ride</type>
    <trkseg>
      <trkpt lat="31.234601934731916" lon="121.40681060356589">
        <ele>9.405580264516175</ele>
        <time>2026-09-18T04:30:05Z</time>
      </trkpt>
      <trkpt lat="31.235014828773558" lon="121.40701567055096">
        <ele>9.537694674916565</ele>
        <time>2026-09-18T04:30:16Z</time>
      </trkpt>
      <trkpt lat="31.235234782308122" lon="121.40714671836017">
        <ele>9.696231585927308</ele>
        <time>2026-09-18T04:30:23Z</time>
      </trkpt>
      <trkpt lat="31.235310754965695" lon="121.4071647210104">
        <ele>11.74135182518512</ele>
        <time>2026-09-18T04:30:39Z</time>
      </trkpt>
      <trkpt lat="31.235780690939194" lon="121.40751886598524">
        <ele>11.773057681508362</ele>
        <time>2026-09-18T04:30:51Z</time>
      </trkpt>
      <trkpt lat="31.23621460155054" lon="121.40776696240634">
        <ele>-9.317571896128356</ele>
        <time>2026-09-18T04:30:58Z</time>
      </trkpt>
      <trkpt lat="31.236590556383334" lon="121.40804708515853">
        <ele>10.409644824452698</ele>
        <time>2026-09-18T04:31:04Z</time>
      </trkpt>
      <trkpt lat="31.237015498605462" lon="121.40834021534704">
        <ele>9.891759616322815</ele>
        <time>2026-09-18T04:31:13Z</time>
      </trkpt>
      <trkpt lat="31.237273460749915" lon="121.40850829081675">
        <ele>7.7937943758443</ele>
        <time>2026-09-18T04:31:20Z</time>
      </trkpt>
      <trkpt lat="31.23768841340697" lon="121.40880042849616">
        <ele>13.38484547752887</ele>
        <time>2026-09-18T04:31:29Z</time>
      </trkpt>
      <trkpt lat="31.23807136745436" lon="121.40905855251593">
        <ele>9.997449618764222</ele>
        <time>2026-09-18T04:31:37Z</time>
      </trkpt>
      <trkpt lat="31.238320345050987" lon="121.40923764211085">
        <ele>9.178346377797425</ele>
        <time>2026-09-18T04:31:41Z</time>
      </trkpt>
      <trkpt lat="31.238494284170873" lon="121.40927364953272">
        <ele>8.274688464589417</ele>
        <time>2026-09-18T04:31:43Z</time>
      </trkpt>
      <trkpt lat="31.23845335623391" lon="121.40937671812911">
        <ele>9.738507968373597</ele>
        <time>2026-09-18T04:31:45Z</time>
      </trkpt>
      <trkpt lat="31.23847729708747" lon="121.40928365730281">
        <ele>8.32753346581012</ele>
        <time>2026-09-18T04:31:46Z</time>
      </trkpt>
      <trkpt lat="31.238486341694713" lon="121.40937771588607">
        <ele>10.621026736684144</ele>
        <time>2026-09-18T04:31:47Z</time>
      </trkpt>
      <trkpt lat="31.238947281557248" lon="121.40966285858127">
        <ele>7.735664111562073</ele>
        <time>2026-09-18T04:31:58Z</time>
      </trkpt>
      <trkpt lat="31.23916124994117" lon="121.40978592019654">
        <ele>10.404361468739808</ele>
        <time>2026-09-18T04:32:02Z</time>
      </trkpt>
      <trkpt lat="31.239297258938773" lon="121.40991699472339">
        <ele>9.479564410634339</ele>
        <time>2026-09-18T04:32:06Z</time>
      </trkpt>
      <trkpt lat="31.239434240799426" lon="121.40999803665147">
        <ele>10.171840411610901</ele>
        <time>2026-09-18T04:32:11Z</time>
      </trkpt>
      <trkpt lat="31.239805253042842" lon="121.41032422467534">
        <ele>7.349891406483948</ele>
        <time>2026-09-18T04:32:20Z</time>
      </trkpt>
      <trkpt lat="31.240234251349122" lon="121.41066342246148">
        <ele>8.977533084340394</ele>
        <time>2026-09-18T04:32:28Z</time>
      </trkpt>
      <trkpt lat="31.240530254538978" lon="121.4108995640153">
        <ele>6.060462695546448</ele>
        <time>2026-09-18T04:32:34Z</time>
      </trkpt>
      <trkpt lat="31.240789342151587" lon="121.41124379072093">
        <ele>12.042569858022034</ele>
        <time>2026-09-18T04:34:37Z</time>
      </trkpt>
      <trkpt lat="31.241177358651186" lon="121.41155899071788">
        <ele>12.021432620473206</ele>
        <time>2026-09-18T04:34:47Z</time>
      </trkpt>
      <trkpt lat="31.241506433781304" lon="121.41191723422173">
        <ele>10.589318973012269</ele>
        <time>2026-09-18T04:34:55Z</time>
      </trkpt>
      <trkpt lat="31.241648472829745" lon="121.41207934726316">
        <ele>10.31980870384723</ele>
        <time>2026-09-18T04:34:58Z</time>
      </trkpt>
      <trkpt lat="31.241740416363196" lon="121.41205632135056">
        <ele>9.04094670433551</ele>
        <time>2026-09-18T04:35:02Z</time>
      </trkpt>
      <trkpt lat="31.241882531327086" lon="121.41233352633637">
        <ele>8.697452289052308</ele>
        <time>2026-09-18T04:35:05Z</time>
      </trkpt>
      <trkpt lat="31.24178375898078" lon="121.41261075643429">
        <ele>10.161271792836487</ele>
        <time>2026-09-18T04:35:07Z</time>
      </trkpt>
      <trkpt lat="31.241926680194116" lon="121.41258972703456">
        <ele>10.21411679405719</ele>
        <time>2026-09-18T04:35:08Z</time>
      </trkpt>
      <trkpt lat="31.242013656085547" lon="121.4126127379979">
        <ele>11.868180972523987</ele>
        <time>2026-09-18T04:35:09Z</time>
      </trkpt>
      <trkpt lat="31.242077661127038" lon="121.41266377364693">
        <ele>8.7925736727193</ele>
        <time>2026-09-18T04:35:11Z</time>
      </trkpt>
      <trkpt lat="31.242326863398816" lon="121.41312813342323">
        <ele>10.420213443227112</ele>
        <time>2026-09-18T04:35:21Z</time>
      </trkpt>
      <trkpt lat="31.24261410378783" lon="121.41365655650013">
        <ele>8.72915814537555</ele>
        <time>2026-09-18T04:35:29Z</time>
      </trkpt>
      <trkpt lat="31.242878347329192" lon="121.4141579724358">
        <ele>11.096635562367737</ele>
        <time>2026-09-18T04:35:38Z</time>
      </trkpt>
      <trkpt lat="31.243180554761835" lon="121.41461936185051">
        <ele>10.473060351796448</ele>
        <time>2026-09-18T04:37:54Z</time>
      </trkpt>
      <trkpt lat="31.243452805613817" lon="121.41510678964237">
        <ele>8.200704318471253</ele>
        <time>2026-09-18T04:38:10Z</time>
      </trkpt>
      <trkpt lat="31.243742060321196" lon="121.41559522956224">
        <ele>6.499080401845276</ele>
        <time>2026-09-18T04:38:21Z</time>
      </trkpt>
      <trkpt lat="31.244035314133892" lon="121.41607166991805">
        <ele>2.7100598635151982</ele>
        <time>2026-09-18T04:38:30Z</time>
      </trkpt>
      <trkpt lat="31.244331598775638" lon="121.4165741485252">
        <ele>6.50964902061969</ele>
        <time>2026-09-18T04:38:41Z</time>
      </trkpt>
      <trkpt lat="31.24458685703037" lon="121.41701157630385">
        <ele>10.695010882802308</ele>
        <time>2026-09-18T04:38:49Z</time>
      </trkpt>
      <trkpt lat="31.244878177608694" lon="121.41752809535583">
        <ele>10.118995410390198</ele>
        <time>2026-09-18T04:39:00Z</time>
      </trkpt>
      <trkpt lat="31.245115436468108" lon="121.41793651516934">
        <ele>9.74907658714801</ele>
        <time>2026-09-18T04:39:07Z</time>
      </trkpt>
      <trkpt lat="31.245171475637754" lon="121.4180075878408">
        <ele>9.96574376244098</ele>
        <time>2026-09-18T04:39:09Z</time>
      </trkpt>
      <trkpt lat="31.245297691589144" lon="121.41830590527105">
        <ele>10.129564029164612</ele>
        <time>2026-09-18T04:39:16Z</time>
      </trkpt>
      <trkpt lat="31.24544505222807" lon="121.41876440636455">
        <ele>9.579971057362854</ele>
        <time>2026-09-18T04:39:24Z</time>
      </trkpt>
      <trkpt lat="31.24549613034064" lon="121.41887152358001">
        <ele>0.876321536488831</ele>
        <time>2026-09-18T04:39:26Z</time>
      </trkpt>
      <trkpt lat="31.245654224704023" lon="121.41904570894427">
        <ele>4.527944308705628</ele>
        <time>2026-09-18T04:39:30Z</time>
      </trkpt>
      <trkpt lat="31.24575223895436" lon="121.41910677059471">
        <ele>10.652734500356019</ele>
        <time>2026-09-18T04:39:32Z</time>
      </trkpt>
      <trkpt lat="31.2459083505563" lon="121.41929597572184">
        <ele>10.61045811790973</ele>
        <time>2026-09-18T04:39:36Z</time>
      </trkpt>
      <trkpt lat="31.246161700609555" lon="121.41977151169482">
        <ele>10.90110753197223</ele>
        <time>2026-09-18T04:39:43Z</time>
      </trkpt>
      <trkpt lat="31.24630884977809" lon="121.41998875777291">
        <ele>10.31980870384723</ele>
        <time>2026-09-18T04:39:47Z</time>
      </trkpt>
      <trkpt lat="31.24657420202316" lon="121.42045730146263">
        <ele>5.283633929677308</ele>
        <time>2026-09-18T04:39:55Z</time>
      </trkpt>
      <trkpt lat="31.246808559275095" lon="121.42090783692163">
        <ele>7.577127200551331</ele>
        <time>2026-09-18T04:40:03Z</time>
      </trkpt>
      <trkpt lat="31.24704105998221" lon="121.4214845437108">
        <ele>10.462491733022034</ele>
        <time>2026-09-18T04:40:13Z</time>
      </trkpt>
      <trkpt lat="31.247193592758585" lon="121.422044252641">
        <ele>11.603952151723206</ele>
        <time>2026-09-18T04:40:21Z</time>
      </trkpt>
      <trkpt lat="31.247281947606783" lon="121.42240471871294">
        <ele>7.693387729115784</ele>
        <time>2026-09-18T04:40:27Z</time>
      </trkpt>
      <trkpt lat="31.247567384890637" lon="121.42291237254764">
        <ele>8.544200641103089</ele>
        <time>2026-09-18T04:40:37Z</time>
      </trkpt>
      <trkpt lat="31.247817880210093" lon="121.42344708005947">
        <ele>8.348672610707581</ele>
        <time>2026-09-18T04:40:45Z</time>
      </trkpt>
      <trkpt lat="31.248019250983333" lon="121.42384561575075">
        <ele>10.92224667686969</ele>
        <time>2026-09-18T04:40:51Z</time>
      </trkpt>
      <trkpt lat="31.248320631387596" lon="121.42428420783601">
        <ele>8.480785113759339</ele>
        <time>2026-09-18T04:40:58Z</time>
      </trkpt>
      <trkpt lat="31.24859801291194" lon="121.42470779027177">
        <ele>8.158427936024964</ele>
        <time>2026-09-18T04:41:05Z</time>
      </trkpt>
      <trkpt lat="31.248773246775226" lon="121.42496614953318">
        <ele>5.6271302523091435</ele>
        <time>2026-09-18T04:41:11Z</time>
      </trkpt>
      <trkpt lat="31.249117556815584" lon="121.42534567595025">
        <ele>10.827125293202698</ele>
        <time>2026-09-18T04:41:21Z</time>
      </trkpt>
      <trkpt lat="31.249163618896713" lon="121.42541277107097">
        <ele>11.117774707265198</ele>
        <time>2026-09-18T04:41:23Z</time>
      </trkpt>
      <trkpt lat="31.249335717876868" lon="121.42555496694823">
        <ele>11.646230441518128</ele>
        <time>2026-09-18T04:41:29Z</time>
      </trkpt>
      <trkpt lat="31.249540925436754" lon="121.42579530782967">
        <ele>9.39501164574176</ele>
        <time>2026-09-18T04:41:35Z</time>
      </trkpt>
      <trkpt lat="31.2496819866304" lon="121.42589444439346">
        <ele>9.39501164574176</ele>
        <time>2026-09-18T04:42:05Z</time>
      </trkpt>
      <trkpt lat="31.250109279039123" lon="121.42627698624771">
        <ele>12.127122622914612</ele>
        <time>2026-09-18T04:42:19Z</time>
      </trkpt>
      <trkpt lat="31.250258374554278" lon="121.42640416743919">
        <ele>9.178346377797425</ele>
        <time>2026-09-18T04:42:23Z</time>
      </trkpt>
      <trkpt lat="31.250666624576485" lon="121.42674064959758">
        <ele>9.5007035555318</ele>
        <time>2026-09-18T04:42:33Z</time>
      </trkpt>
      <trkpt lat="31.250971996012666" lon="121.42713123116205">
        <ele>11.096635562367737</ele>
        <time>2026-09-18T04:42:41Z</time>
      </trkpt>
      <trkpt lat="31.251317394756864" lon="121.42755086311577">
        <ele>9.870622378773987</ele>
        <time>2026-09-18T04:42:51Z</time>
      </trkpt>
      <trkpt lat="31.25158273996513" lon="121.42789839504835">
        <ele>9.537694674916565</ele>
        <time>2026-09-18T04:42:59Z</time>
      </trkpt>
      <trkpt lat="31.2517809131149" lon="121.42809269077017">
        <ele>10.161271792836487</ele>
        <time>2026-09-18T04:45:40Z</time>
      </trkpt>
      <trkpt lat="31.251830993628992" lon="121.42816880953998">
        <ele>9.664523822255433</ele>
        <time>2026-09-18T04:45:43Z</time>
      </trkpt>
      <trkpt lat="31.251954067778332" lon="121.42826395314944">
        <ele>7.360461932606995</ele>
        <time>2026-09-18T04:45:49Z</time>
      </trkpt>
      <trkpt lat="31.252263584275145" lon="121.42874270963797">
        <ele>7.920623523183167</ele>
        <time>2026-09-18T04:46:04Z</time>
      </trkpt>
      <trkpt lat="31.25258098281174" lon="121.42913232809877">
        <ele>11.847041827626526</ele>
        <time>2026-09-18T04:46:14Z</time>
      </trkpt>
      <trkpt lat="31.252931357744995" lon="121.42951093273118">
        <ele>12.09541676659137</ele>
        <time>2026-09-18T04:46:22Z</time>
      </trkpt>
      <trkpt lat="31.25331972203538" lon="121.42988954124648">
        <ele>9.373874408192933</ele>
        <time>2026-09-18T04:46:30Z</time>
      </trkpt>
      <trkpt lat="31.253718949413337" lon="121.43017199036018">
        <ele>11.42956326622516</ele>
        <time>2026-09-18T04:46:39Z</time>
      </trkpt>
      <trkpt lat="31.25411522368121" lon="121.43048349410958">
        <ele>11.064929706044495</ele>
        <time>2026-09-18T04:46:48Z</time>
      </trkpt>
      <trkpt lat="31.25447849038249" lon="121.43077697400375">
        <ele>9.96574376244098</ele>
        <time>2026-09-18T04:46:56Z</time>
      </trkpt>
      <trkpt lat="31.254875785678937" lon="121.43109750296519">
        <ele>10.816554767079651</ele>
        <time>2026-09-18T04:47:04Z</time>
      </trkpt>
      <trkpt lat="31.255273161462203" lon="121.43146912811257">
        <ele>10.92224667686969</ele>
        <time>2026-09-18T04:47:15Z</time>
      </trkpt>
      <trkpt lat="31.255438421092187" lon="121.43169151176916">
        <ele>10.494197589345276</ele>
        <time>2026-09-18T04:47:22Z</time>
      </trkpt>
      <trkpt lat="31.25554979577607" lon="121.43197300939971">
        <ele>11.847041827626526</ele>
        <time>2026-09-18T04:47:31Z</time>
      </trkpt>
      <trkpt lat="31.25565097724134" lon="121.43212227118674">
        <ele>10.25639317650348</ele>
        <time>2026-09-18T04:47:36Z</time>
      </trkpt>
      <trkpt lat="31.25570903230029" lon="121.4321753626503">
        <ele>9.426719409413636</ele>
        <time>2026-09-18T04:47:38Z</time>
      </trkpt>
      <trkpt lat="31.255963692684745" lon="121.43268026521426">
        <ele>13.87102482933551</ele>
        <time>2026-09-18T04:47:48Z</time>
      </trkpt>
      <trkpt lat="31.25619449311183" lon="121.43326132474817">
        <ele>13.976714831776917</ele>
        <time>2026-09-18T04:47:58Z</time>
      </trkpt>
      <trkpt lat="31.256387171664947" lon="121.43374622150789">
        <ele>13.818177920766175</ele>
        <time>2026-09-18T04:48:07Z</time>
      </trkpt>
      <trkpt lat="31.25657988073934" lon="121.4342441546837">
        <ele>8.866557818837464</ele>
        <time>2026-09-18T04:48:15Z</time>
      </trkpt>
      <trkpt lat="31.2567675826088" lon="121.43473007691841">
        <ele>14.579152804799378</ele>
        <time>2026-09-18T04:48:23Z</time>
      </trkpt>
      <trkpt lat="31.25695030285204" lon="121.43522001883835">
        <ele>16.185655337758362</ele>
        <time>2026-09-18T04:48:32Z</time>
      </trkpt>
      <trkpt lat="31.257126000899806" lon="121.43568893101506">
        <ele>14.658422213979065</ele>
        <time>2026-09-18T04:48:40Z</time>
      </trkpt>
      <trkpt lat="31.257278548021247" lon="121.43605665239544">
        <ele>17.83971951622516</ele>
        <time>2026-09-18T04:48:46Z</time>
      </trkpt>
      <trkpt lat="31.257457304705472" lon="121.43655163587444">
        <ele>19.742156726308167</ele>
        <time>2026-09-18T04:48:53Z</time>
      </trkpt>
      <trkpt lat="31.257653070602274" lon="121.43705063770888">
        <ele>19.905977946706116</ele>
        <time>2026-09-18T04:49:01Z</time>
      </trkpt>
      <trkpt lat="31.257866963843725" lon="121.43762179967234">
        <ele>15.895005923695862</ele>
        <time>2026-09-18T04:49:09Z</time>
      </trkpt>
      <trkpt lat="31.25805775310026" lon="121.43812082703916">
        <ele>16.571428042836487</ele>
        <time>2026-09-18T04:49:16Z</time>
      </trkpt>
      <trkpt lat="31.25824655658741" lon="121.4386218704543">
        <ele>4.358838778920472</ele>
        <time>2026-09-18T04:49:22Z</time>
      </trkpt>
      <trkpt lat="31.25844035330095" lon="121.4391149078478">
        <ele>15.208015185780823</ele>
        <time>2026-09-18T04:49:27Z</time>
      </trkpt>
      <trkpt lat="31.258668330416707" lon="121.439710175776">
        <ele>10.805986148305237</ele>
        <time>2026-09-18T04:49:35Z</time>
      </trkpt>
      <trkpt lat="31.258790798383696" lon="121.43999578876415">
        <ele>11.01208279747516</ele>
        <time>2026-09-18T04:49:39Z</time>
      </trkpt>
      <trkpt lat="31.258948770617167" lon="121.44056102014592">
        <ele>12.280374270863831</ele>
        <time>2026-09-18T04:49:47Z</time>
      </trkpt>
      <trkpt lat="31.2590345221161" lon="121.44098495605314">
        <ele>13.2051713289693</ele>
        <time>2026-09-18T04:49:53Z</time>
      </trkpt>
      <trkpt lat="31.25904092483503" lon="121.44120144034528">
        <ele>9.416150790639222</ele>
        <time>2026-09-18T04:49:57Z</time>
      </trkpt>
      <trkpt lat="31.259116732738335" lon="121.4416474392941">
        <ele>6.921844226308167</ele>
        <time>2026-09-18T04:50:06Z</time>
      </trkpt>
      <trkpt lat="31.25924581833045" lon="121.44224679338166">
        <ele>7.275909167714417</ele>
        <time>2026-09-18T04:50:18Z</time>
      </trkpt>
      <trkpt lat="31.259354920270987" lon="121.44284315823315">
        <ele>8.998670321889222</ele>
        <time>2026-09-18T04:50:29Z</time>
      </trkpt>
      <trkpt lat="31.259446713332135" lon="121.4432711462414">
        <ele>10.67915700096637</ele>
        <time>2026-09-18T04:50:38Z</time>
      </trkpt>
      <trkpt lat="31.259483282819883" lon="121.44356984292584">
        <ele>12.190538150258362</ele>
        <time>2026-09-18T04:50:42Z</time>
      </trkpt>
      <trkpt lat="31.25960831539176" lon="121.4441201316341">
        <ele>10.494197589345276</ele>
        <time>2026-09-18T04:50:50Z</time>
      </trkpt>
      <trkpt lat="31.259747342876786" lon="121.44466542028759">
        <ele>8.232412082143128</ele>
        <time>2026-09-18T04:50:59Z</time>
      </trkpt>
      <trkpt lat="31.259856290798204" lon="121.4451596007053">
        <ele>10.700296145863831</ele>
        <time>2026-09-18T04:52:47Z</time>
      </trkpt>
      <trkpt lat="31.260009301981345" lon="121.44568987584147">
        <ele>9.870622378773987</ele>
        <time>2026-09-18T04:52:58Z</time>
      </trkpt>
      <trkpt lat="31.26011637219304" lon="121.44623420151837">
        <ele>9.188914996571839</ele>
        <time>2026-09-18T04:53:07Z</time>
      </trkpt>
      <trkpt lat="31.260224527562812" lon="121.44681462940456">
        <ele>11.38728688377887</ele>
        <time>2026-09-18T04:53:16Z</time>
      </trkpt>
      <trkpt lat="31.260253757169057" lon="121.44693091652181">
        <ele>11.223466617055237</ele>
        <time>2026-09-18T04:53:18Z</time>
      </trkpt>
      <trkpt lat="31.260301474670616" lon="121.44728379478809">
        <ele>10.050296527333558</ele>
        <time>2026-09-18T04:53:23Z</time>
      </trkpt>
      <trkpt lat="31.26030374744771" lon="121.4474141217911">
        <ele>11.667367679066956</ele>
        <time>2026-09-18T04:53:25Z</time>
      </trkpt>
      <trkpt lat="31.26037529734051" lon="121.4476898100672">
        <ele>8.72915814537555</ele>
        <time>2026-09-18T04:53:29Z</time>
      </trkpt>
      <trkpt lat="31.260456783867646" lon="121.44793642691307">
        <ele>8.739728671498597</ele>
        <time>2026-09-18T04:53:33Z</time>
      </trkpt>
      <trkpt lat="31.260587978711357" lon="121.44852391185263">
        <ele>11.667367679066956</ele>
        <time>2026-09-18T04:53:43Z</time>
      </trkpt>
      <trkpt lat="31.260708218334692" lon="121.44912444551845">
        <ele>11.688504916615784</ele>
        <time>2026-09-18T04:53:53Z</time>
      </trkpt>
      <trkpt lat="31.260846337794074" lon="121.44966784329486">
        <ele>13.374276858754456</ele>
        <time>2026-09-18T04:54:01Z</time>
      </trkpt>
      <trkpt lat="31.26092210918502" lon="121.45003579803719">
        <ele>10.129564029164612</ele>
        <time>2026-09-18T04:54:15Z</time>
      </trkpt>
      <trkpt lat="31.260929627763197" lon="121.45027342104862">
        <ele>11.355579120106995</ele>
        <time>2026-09-18T04:54:20Z</time>
      </trkpt>
      <trkpt lat="31.261027295068594" lon="121.45059526087526">
        <ele>9.56940243858844</ele>
        <time>2026-09-18T04:54:26Z</time>
      </trkpt>
      <trkpt lat="31.26115954215157" lon="121.45118280855796">
        <ele>11.751920443959534</ele>
        <time>2026-09-18T04:54:33Z</time>
      </trkpt>
      <trkpt lat="31.261297662760818" lon="121.45171020761504">
        <ele>10.266961795277894</ele>
        <time>2026-09-18T04:54:42Z</time>
      </trkpt>
      <trkpt lat="31.2613839421515" lon="121.45229377396258">
        <ele>9.10436223167926</ele>
        <time>2026-09-18T04:54:51Z</time>
      </trkpt>
      <trkpt lat="31.26144986378765" lon="121.45271190394239">
        <ele>9.062085849232972</ele>
        <time>2026-09-18T04:55:00Z</time>
      </trkpt>
      <trkpt lat="31.26149103113077" lon="121.4527931217552">
        <ele>10.21411679405719</ele>
        <time>2026-09-18T04:55:01Z</time>
      </trkpt>
      <trkpt lat="31.261505253696185" lon="121.45332958899037">
        <ele>10.483628970570862</ele>
        <time>2026-09-18T04:55:09Z</time>
      </trkpt>
      <trkpt lat="31.2615772560023" lon="121.45377781801163">
        <ele>9.622247439809144</ele>
        <time>2026-09-18T04:55:16Z</time>
      </trkpt>
      <trkpt lat="31.261780508835862" lon="121.45435540323513">
        <ele>11.223466617055237</ele>
        <time>2026-09-18T04:55:24Z</time>
      </trkpt>
      <trkpt lat="31.26195372149196" lon="121.45490592742334">
        <ele>12.03200123924762</ele>
        <time>2026-09-18T04:55:34Z</time>
      </trkpt>
      <trkpt lat="31.262047395597328" lon="121.45520977357069">
        <ele>7.97346852440387</ele>
        <time>2026-09-18T04:55:40Z</time>
      </trkpt>
      <trkpt lat="31.262075347989327" lon="121.4556179238956">
        <ele>12.021432620473206</ele>
        <time>2026-09-18T04:55:46Z</time>
      </trkpt>
      <trkpt lat="31.262169026270183" lon="121.45592077503798">
        <ele>10.911678058095276</ele>
        <time>2026-09-18T04:55:55Z</time>
      </trkpt>
      <trkpt lat="31.2622192503055" lon="121.4560240645025">
        <ele>11.244603854604065</ele>
        <time>2026-09-18T04:55:59Z</time>
      </trkpt>
      <trkpt lat="31.262290805282205" lon="121.45626975871177">
        <ele>10.525905353017151</ele>
        <time>2026-09-18T04:56:05Z</time>
      </trkpt>
      <trkpt lat="31.262284023950997" lon="121.45636001712717">
        <ele>10.140132647939026</ele>
        <time>2026-09-18T04:56:18Z</time>
      </trkpt>
      <trkpt lat="31.26237300249496" lon="121.456784225106">
        <ele>9.92346737999469</ele>
        <time>2026-09-18T04:57:38Z</time>
      </trkpt>
      <trkpt lat="31.262591825858227" lon="121.45716530369891">
        <ele>12.666146975941956</ele>
        <time>2026-09-18T04:57:47Z</time>
      </trkpt>
      <trkpt lat="31.262764168191268" lon="121.45774998247822">
        <ele>12.946227771230042</ele>
        <time>2026-09-18T04:57:59Z</time>
      </trkpt>
      <trkpt lat="31.262847862502134" lon="121.4580498484646">
        <ele>9.45842717308551</ele>
        <time>2026-09-18T04:58:05Z</time>
      </trkpt>
      <trkpt lat="31.262885061894828" lon="121.4581381028403">
        <ele>11.74135182518512</ele>
        <time>2026-09-18T04:58:08Z</time>
      </trkpt>
      <trkpt lat="31.263189060368514" lon="121.45859942740381">
        <ele>11.21289609093219</ele>
        <time>2026-09-18T04:58:18Z</time>
      </trkpt>
      <trkpt lat="31.263410281628246" lon="121.45913398252137">
        <ele>11.355579120106995</ele>
        <time>2026-09-18T04:58:27Z</time>
      </trkpt>
      <trkpt lat="31.263650355702378" lon="121.45960936981042">
        <ele>12.645009738393128</ele>
        <time>2026-09-18T04:58:34Z</time>
      </trkpt>
      <trkpt lat="31.263863477788185" lon="121.46009680286056">
        <ele>12.80883000511676</ele>
        <time>2026-09-18T04:58:43Z</time>
      </trkpt>
      <trkpt lat="31.26400206261177" lon="121.46035456158948">
        <ele>11.582814914174378</ele>
        <time>2026-09-18T04:58:48Z</time>
      </trkpt>
      <trkpt lat="31.264156227705627" lon="121.4608450206703">
        <ele>10.547044497914612</ele>
        <time>2026-09-18T04:58:56Z</time>
      </trkpt>
      <trkpt lat="31.26431425802109" lon="121.46128032030916">
        <ele>9.727939349599183</ele>
        <time>2026-09-18T04:59:05Z</time>
      </trkpt>
      <trkpt lat="31.264309762831505" lon="121.46147892185368">
        <ele>10.50476620811969</ele>
        <time>2026-09-18T04:59:29Z</time>
      </trkpt>
      <trkpt lat="31.26443136713056" lon="121.46173769656143">
        <ele>11.25517247337848</ele>
        <time>2026-09-18T04:59:36Z</time>
      </trkpt>
      <trkpt lat="31.264543765117416" lon="121.46191322066353">
        <ele>9.426719409413636</ele>
        <time>2026-09-18T04:59:40Z</time>
      </trkpt>
      <trkpt lat="31.26477814442918" lon="121.4624929703605">
        <ele>10.21411679405719</ele>
        <time>2026-09-18T04:59:51Z</time>
      </trkpt>
      <trkpt lat="31.265023494116644" lon="121.46305968935906">
        <ele>11.191758853383362</ele>
        <time>2026-09-18T05:00:04Z</time>
      </trkpt>
      <trkpt lat="31.265251822964455" lon="121.46361237614316">
        <ele>10.38850758690387</ele>
        <time>2026-09-18T05:00:13Z</time>
      </trkpt>
      <trkpt lat="31.265482795649923" lon="121.4640256382173">
        <ele>9.04094670433551</ele>
        <time>2026-09-18T05:00:21Z</time>
      </trkpt>
      <trkpt lat="31.26574979373884" lon="121.46445294608809">
        <ele>8.7925736727193</ele>
        <time>2026-09-18T05:00:31Z</time>
      </trkpt>
      <trkpt lat="31.266088928321864" lon="121.46494244803036">
        <ele>11.556392413564026</ele>
        <time>2026-09-18T05:00:40Z</time>
      </trkpt>
      <trkpt lat="31.266381798221452" lon="121.46532161360038">
        <ele>11.556392413564026</ele>
        <time>2026-09-18T05:00:46Z</time>
      </trkpt>
      <trkpt lat="31.266570306300245" lon="121.46554530180732">
        <ele>11.482408267445862</ele>
        <time>2026-09-18T05:00:54Z</time>
      </trkpt>
      <trkpt lat="31.266970321532458" lon="121.46599468686142">
        <ele>12.148261767812073</ele>
        <time>2026-09-18T05:01:05Z</time>
      </trkpt>
      <trkpt lat="31.26734014408476" lon="121.46636482847363">
        <ele>13.754764300771058</ele>
        <time>2026-09-18T05:01:15Z</time>
      </trkpt>
      <trkpt lat="31.26741433341523" lon="121.46644808656131">
        <ele>11.847041827626526</ele>
        <time>2026-09-18T05:01:17Z</time>
      </trkpt>
      <trkpt lat="31.267519741668657" lon="121.46661861978512">
        <ele>12.872243625111878</ele>
        <time>2026-09-18T05:01:21Z</time>
      </trkpt>
      <trkpt lat="31.267833395686758" lon="121.46691453572737">
        <ele>3.0958306612446904</ele>
        <time>2026-09-18T05:02:57Z</time>
      </trkpt>
      <trkpt lat="31.268281029310614" lon="121.4672234842442">
        <ele>9.817775470204651</ele>
        <time>2026-09-18T05:03:08Z</time>
      </trkpt>
      <trkpt lat="31.268633587588347" lon="121.4674883020046">
        <ele>12.549886447377503</ele>
        <time>2026-09-18T05:03:15Z</time>
      </trkpt>
      <trkpt lat="31.26896733349242" lon="121.46781933607042">
        <ele>11.234035235829651</ele>
        <time>2026-09-18T05:03:24Z</time>
      </trkpt>
      <trkpt lat="31.269285259035925" lon="121.46821357820367">
        <ele>13.236879092641175</ele>
        <time>2026-09-18T05:03:31Z</time>
      </trkpt>
      <trkpt lat="31.269594384512512" lon="121.46867905570312">
        <ele>9.727939349599183</ele>
        <time>2026-09-18T05:03:40Z</time>
      </trkpt>
      <trkpt lat="31.269928498604237" lon="121.46914253014359">
        <ele>9.384443026967347</ele>
        <time>2026-09-18T05:03:50Z</time>
      </trkpt>
      <trkpt lat="31.270262538058677" lon="121.4695769152099">
        <ele>6.726316195912659</ele>
        <time>2026-09-18T05:04:03Z</time>
      </trkpt>
      <trkpt lat="31.270593560869145" lon="121.47000327902813">
        <ele>11.001514178700745</ele>
        <time>2026-09-18T05:04:12Z</time>
      </trkpt>
      <trkpt lat="31.27082331155599" lon="121.47031327437546">
        <ele>10.420213443227112</ele>
        <time>2026-09-18T05:04:18Z</time>
      </trkpt>
      <trkpt lat="31.271224308408698" lon="121.4707386366115">
        <ele>11.656799060292542</ele>
        <time>2026-09-18T05:04:28Z</time>
      </trkpt>
      <trkpt lat="31.27165017400421" lon="121.47111885217213">
        <ele>9.051517230458558</ele>
        <time>2026-09-18T05:04:39Z</time>
      </trkpt>
      <trkpt lat="31.2720779420057" lon="121.47146295159975">
        <ele>11.03322194237262</ele>
        <time>2026-09-18T05:04:47Z</time>
      </trkpt>
      <trkpt lat="31.272354385059213" lon="121.47166559827401">
        <ele>10.420213443227112</ele>
        <time>2026-09-18T05:04:53Z</time>
      </trkpt>
      <trkpt lat="31.272552945364886" lon="121.47189835240042">
        <ele>10.494197589345276</ele>
        <time>2026-09-18T05:04:59Z</time>
      </trkpt>
      <trkpt lat="31.27296554143371" lon="121.47217623935096">
        <ele>9.622247439809144</ele>
        <time>2026-09-18T05:05:09Z</time>
      </trkpt>
      <trkpt lat="31.273373057563177" lon="121.47242402833143">
        <ele>9.072654468007386</ele>
        <time>2026-09-18T05:05:16Z</time>
      </trkpt>
      <trkpt lat="31.2737215440529" lon="121.47265175689589">
        <ele>8.39623234886676</ele>
        <time>2026-09-18T05:05:21Z</time>
      </trkpt>
      <trkpt lat="31.27413697257881" lon="121.47286844403428">
        <ele>12.750699740834534</ele>
        <time>2026-09-18T05:05:29Z</time>
      </trkpt>
      <trkpt lat="31.274497316097623" lon="121.47304600617653">
        <ele>12.460050326772034</ele>
        <time>2026-09-18T05:05:37Z</time>
      </trkpt>
      <trkpt lat="31.275014535333447" lon="121.47320248504626">
        <ele>4.327131015248597</ele>
        <time>2026-09-18T05:05:45Z</time>
      </trkpt>
      <trkpt lat="31.27546070938862" lon="121.4733318798566">
        <ele>6.673469287343323</ele>
        <time>2026-09-18T05:05:52Z</time>
      </trkpt>
      <trkpt lat="31.27590687552189" lon="121.47345826495038">
        <ele>11.936879855580628</ele>
        <time>2026-09-18T05:05:57Z</time>
      </trkpt>
      <trkpt lat="31.276387117797025" lon="121.47361675515027">
        <ele>8.686883670277894</ele>
        <time>2026-09-18T05:06:05Z</time>
      </trkpt>
      <trkpt lat="31.27684331173616" lon="121.4737541772209">
        <ele>12.903951388783753</ele>
        <time>2026-09-18T05:06:14Z</time>
      </trkpt>
      <trkpt lat="31.277195425916396" lon="121.47384746032243">
        <ele>9.247045260854065</ele>
        <time>2026-09-18T05:06:23Z</time>
      </trkpt>
      <trkpt lat="31.277419579867455" lon="121.47393573774592">
        <ele>9.955175143666565</ele>
        <time>2026-09-18T05:06:36Z</time>
      </trkpt>
      <trkpt lat="31.27752070940489" lon="121.4739969348108">
        <ele>9.43728802818805</ele>
        <time>2026-09-18T05:06:42Z</time>
      </trkpt>
      <trkpt lat="31.277686778007148" lon="121.47404608587689">
        <ele>10.21411679405719</ele>
        <time>2026-09-18T05:06:47Z</time>
      </trkpt>
      <trkpt lat="31.277961730640598" lon="121.47407014324997">
        <ele>7.191356402821839</ele>
        <time>2026-09-18T05:06:53Z</time>
      </trkpt>
      <trkpt lat="31.27806377538293" lon="121.47410123912469">
        <ele>7.825502139516175</ele>
        <time>2026-09-18T05:06:55Z</time>
      </trkpt>
      <trkpt lat="31.278475263795574" lon="121.47433599431658">
        <ele>9.247045260854065</ele>
        <time>2026-09-18T05:07:03Z</time>
      </trkpt>
      <trkpt lat="31.278854941976906" lon="121.47463296336251">
        <ele>10.536473971791565</ele>
        <time>2026-09-18T05:07:11Z</time>
      </trkpt>
      <trkpt lat="31.279251974638555" lon="121.47505736385568">
        <ele>12.407205325551331</ele>
        <time>2026-09-18T05:07:20Z</time>
      </trkpt>
      <trkpt lat="31.279526010502426" lon="121.47546371730279">
        <ele>10.018588763661683</ele>
        <time>2026-09-18T05:07:28Z</time>
      </trkpt>
      <trkpt lat="31.27981541330754" lon="121.47600051646953">
        <ele>11.128343326039612</ele>
        <time>2026-09-18T05:07:37Z</time>
      </trkpt>
      <trkpt lat="31.2799763853551" lon="121.47636574687785">
        <ele>6.456804019398987</ele>
        <time>2026-09-18T05:07:43Z</time>
      </trkpt>
      <trkpt lat="31.280052855809764" lon="121.47689253935715">
        <ele>10.763709765858948</ele>
        <time>2026-09-18T05:07:50Z</time>
      </trkpt>
      <trkpt lat="31.27976641941472" lon="121.47669789854714">
        <ele>10.182409030385315</ele>
        <time>2026-09-18T05:07:55Z</time>
      </trkpt>
      <trkpt lat="31.27998900910843" lon="121.47658649904095">
        <ele>10.182409030385315</ele>
        <time>2026-09-18T05:07:58Z</time>
      </trkpt>
      <trkpt lat="31.280104350330493" lon="121.47672295524461">
        <ele>9.558833819814026</ele>
        <time>2026-09-18T05:09:35Z</time>
      </trkpt>
      <trkpt lat="31.280147570026124" lon="121.4768062361682">
        <ele>9.289321643300354</ele>
        <time>2026-09-18T05:09:37Z</time>
      </trkpt>
      <trkpt lat="31.280239305758204" lon="121.4770771551067">
        <ele>10.700296145863831</ele>
        <time>2026-09-18T05:09:43Z</time>
      </trkpt>
      <trkpt lat="31.280356850938926" lon="121.47728485649418">
        <ele>10.245824557729065</ele>
        <time>2026-09-18T05:09:48Z</time>
      </trkpt>
      <trkpt lat="31.28056741847902" lon="121.47751362299157">
        <ele>10.087287646718323</ele>
        <time>2026-09-18T05:09:53Z</time>
      </trkpt>
      <trkpt lat="31.28078080436674" lon="121.47767917305151">
        <ele>11.128343326039612</ele>
        <time>2026-09-18T05:09:57Z</time>
      </trkpt>
      <trkpt lat="31.28107244336983" lon="121.47794405844377">
        <ele>10.890538913197815</ele>
        <time>2026-09-18T05:10:04Z</time>
      </trkpt>
      <trkpt lat="31.281457943579117" lon="121.4781738160937">
        <ele>9.90232823509723</ele>
        <time>2026-09-18T05:10:11Z</time>
      </trkpt>
      <trkpt lat="31.281891358428563" lon="121.47838049100878">
        <ele>13.173463565297425</ele>
        <time>2026-09-18T05:10:18Z</time>
      </trkpt>
      <trkpt lat="31.282267511708714" lon="121.47848782890877">
        <ele>9.25761387962848</ele>
        <time>2026-09-18T05:10:27Z</time>
      </trkpt>
      <trkpt lat="31.28273340857785" lon="121.47851889622251">
        <ele>9.92346737999469</ele>
        <time>2026-09-18T05:10:36Z</time>
      </trkpt>
      <trkpt lat="31.28280331323832" lon="121.47849581062623">
        <ele>9.7913529695943</ele>
        <time>2026-09-18T05:10:59Z</time>
      </trkpt>
      <trkpt lat="31.283293304445955" lon="121.47856300049095">
        <ele>7.920623523183167</ele>
        <time>2026-09-18T05:11:47Z</time>
      </trkpt>
      <trkpt lat="31.28372425093447" lon="121.47860611239365">
        <ele>11.42956326622516</ele>
        <time>2026-09-18T05:11:56Z</time>
      </trkpt>
      <trkpt lat="31.283801161420804" lon="121.47858603654758">
        <ele>9.90232823509723</ele>
        <time>2026-09-18T05:12:19Z</time>
      </trkpt>
      <trkpt lat="31.284056221066127" lon="121.4786432120405">
        <ele>7.143794757314026</ele>
        <time>2026-09-18T05:12:32Z</time>
      </trkpt>
      <trkpt lat="31.284543029306565" lon="121.47864618066644">
        <ele>12.063709002919495</ele>
        <time>2026-09-18T05:12:44Z</time>
      </trkpt>
      <trkpt lat="31.284986884356474" lon="121.4786591876113">
        <ele>10.27753232140094</ele>
        <time>2026-09-18T05:12:53Z</time>
      </trkpt>
      <trkpt lat="31.285419926230883" lon="121.47873541373706">
        <ele>10.108426791615784</ele>
        <time>2026-09-18T05:13:03Z</time>
      </trkpt>
      <trkpt lat="31.285850082407983" lon="121.4788507754032">
        <ele>9.912896853871644</ele>
        <time>2026-09-18T05:13:11Z</time>
      </trkpt>
      <trkpt lat="31.286036173965627" lon="121.47890896054219">
        <ele>10.642165881581604</ele>
        <time>2026-09-18T05:13:16Z</time>
      </trkpt>
      <trkpt lat="31.286362147502203" lon="121.4789460608981">
        <ele>10.087287646718323</ele>
        <time>2026-09-18T05:13:22Z</time>
      </trkpt>
      <trkpt lat="31.28663437774637" lon="121.47906444693747">
        <ele>8.0844437899068</ele>
        <time>2026-09-18T05:13:26Z</time>
      </trkpt>
      <trkpt lat="31.28712985904993" lon="121.47930122392273">
        <ele>10.56818173546344</ele>
        <time>2026-09-18T05:13:37Z</time>
      </trkpt>
      <trkpt lat="31.287620137401014" lon="121.4794667553675">
        <ele>10.816554767079651</ele>
        <time>2026-09-18T05:13:54Z</time>
      </trkpt>
      <trkpt lat="31.287828270132923" lon="121.47954199834544">
        <ele>9.093793612904847</ele>
        <time>2026-09-18T05:13:59Z</time>
      </trkpt>
      <trkpt lat="31.2883834154464" lon="121.47967039609442">
        <ele>11.01208279747516</ele>
        <time>2026-09-18T05:14:08Z</time>
      </trkpt>
      <trkpt lat="31.28883779705307" lon="121.47986603612078">
        <ele>7.746232730336487</ele>
        <time>2026-09-18T05:14:20Z</time>
      </trkpt>
      <trkpt lat="31.288908858261514" lon="121.47989713802608">
        <ele>9.342166644521058</ele>
        <time>2026-09-18T05:14:22Z</time>
      </trkpt>
      <trkpt lat="31.289123323681277" lon="121.48008778190288">
        <ele>9.997449618764222</ele>
        <time>2026-09-18T05:14:33Z</time>
      </trkpt>
      <trkpt lat="31.289586767072187" lon="121.48030549924367">
        <ele>5.368186694569886</ele>
        <time>2026-09-18T05:15:57Z</time>
      </trkpt>
      <trkpt lat="31.28980692529046" lon="121.48039077712055">
        <ele>8.824281436391175</ele>
        <time>2026-09-18T05:16:03Z</time>
      </trkpt>
      <trkpt lat="31.29026152509113" lon="121.48066067802452">
        <ele>9.511272174306214</ele>
        <time>2026-09-18T05:16:13Z</time>
      </trkpt>
      <trkpt lat="31.29054600803469" lon="121.48086637064814">
        <ele>7.027534228749573</ele>
        <time>2026-09-18T05:16:19Z</time>
      </trkpt>
      <trkpt lat="31.29077264357933" lon="121.48111622298343">
        <ele>8.04216740746051</ele>
        <time>2026-09-18T05:16:25Z</time>
      </trkpt>
      <trkpt lat="31.291156368488164" lon="121.48141824514285">
        <ele>7.97346852440387</ele>
        <time>2026-09-18T05:16:34Z</time>
      </trkpt>
      <trkpt lat="31.291508221751453" lon="121.48175940833107">
        <ele>7.888915759511292</ele>
        <time>2026-09-18T05:16:40Z</time>
      </trkpt>
      <trkpt lat="31.291827098577873" lon="121.48210358655336">
        <ele>8.565337878651917</ele>
        <time>2026-09-18T05:16:47Z</time>
      </trkpt>
      <trkpt lat="31.29208794735829" lon="121.48242970800354">
        <ele>8.956393939442933</ele>
        <time>2026-09-18T05:16:55Z</time>
      </trkpt>
      <trkpt lat="31.29216007688711" lon="121.4824838920112">
        <ele>10.171840411610901</ele>
        <time>2026-09-18T05:16:57Z</time>
      </trkpt>
      <trkpt lat="31.292267612501163" lon="121.48268157696614">
        <ele>7.027534228749573</ele>
        <time>2026-09-18T05:17:02Z</time>
      </trkpt>
      <trkpt lat="31.29258870114294" lon="121.48309700995905">
        <ele>8.845418673940003</ele>
        <time>2026-09-18T05:17:12Z</time>
      </trkpt>
      <trkpt lat="31.29289888451209" lon="121.48354255220414">
        <ele>7.254770022816956</ele>
        <time>2026-09-18T05:17:23Z</time>
      </trkpt>
      <trkpt lat="31.29321813717014" lon="121.48401218116715">
        <ele>7.941760760731995</ele>
        <time>2026-09-18T05:17:32Z</time>
      </trkpt>
      <trkpt lat="31.293461283618885" lon="121.48443465259186">
        <ele>10.710864764638245</ele>
        <time>2026-09-18T05:17:41Z</time>
      </trkpt>
      <trkpt lat="31.293746453367767" lon="121.48487016868282">
        <ele>4.036481601186097</ele>
        <time>2026-09-18T05:17:50Z</time>
      </trkpt>
      <trkpt lat="31.293972343310475" lon="121.48520232568923">
        <ele>9.299890262074769</ele>
        <time>2026-09-18T05:17:58Z</time>
      </trkpt>
      <trkpt lat="31.294014658366834" lon="121.48531472037983">
        <ele>9.479564410634339</ele>
        <time>2026-09-18T05:18:02Z</time>
      </trkpt>
      <trkpt lat="31.294023974918083" lon="121.48542310379881">
        <ele>10.27753232140094</ele>
        <time>2026-09-18T05:18:05Z</time>
      </trkpt>
      <trkpt lat="31.29411310524491" lon="121.48547929544436">
        <ele>11.149482470937073</ele>
        <time>2026-09-18T05:18:10Z</time>
      </trkpt>
      <trkpt lat="31.29419013068963" lon="121.48549835647108">
        <ele>9.870622378773987</ele>
        <time>2026-09-18T05:18:14Z</time>
      </trkpt>
      <trkpt lat="31.29426208104351" lon="121.48549132540145">
        <ele>9.479564410634339</ele>
        <time>2026-09-18T05:18:18Z</time>
      </trkpt>
      <trkpt lat="31.294394790482798" lon="121.48541102936804">
        <ele>8.353955966420472</ele>
        <time>2026-09-18T05:18:25Z</time>
      </trkpt>
      <trkpt lat="31.294449981917374" lon="121.48548328085087">
        <ele>11.107206088490784</ele>
        <time>2026-09-18T05:18:38Z</time>
      </trkpt>
      <trkpt lat="31.294497764006067" lon="121.48541603834595">
        <ele>-7.689932125620544</ele>
        <time>2026-09-18T05:21:13Z</time>
      </trkpt>
      <trkpt lat="31.29469518369958" lon="121.48524642028836">
        <ele>8.977533084340394</ele>
        <time>2026-09-18T05:21:16Z</time>
      </trkpt>
      <trkpt lat="31.294801049366757" lon="121.48521530098905">
        <ele>11.440131884999573</ele>
        <time>2026-09-18T05:21:18Z</time>
      </trkpt>
      <trkpt lat="31.294873070901257" lon="121.48523235527712">
        <ele>10.85883114952594</ele>
        <time>2026-09-18T05:21:23Z</time>
      </trkpt>
      <trkpt lat="31.294941491227082" lon="121.48538388651812">
        <ele>9.986880999989808</ele>
        <time>2026-09-18T05:22:50Z</time>
      </trkpt>
      <trkpt lat="31.295024235407045" lon="121.48564681193838">
        <ele>11.450700503773987</ele>
        <time>2026-09-18T05:22:58Z</time>
      </trkpt>
      <trkpt lat="31.295078424451017" lon="121.48571806012812">
        <ele>13.45354436058551</ele>
        <time>2026-09-18T05:23:02Z</time>
      </trkpt>
      <trkpt lat="31.29525941729551" lon="121.48574012299214">
        <ele>8.01574490685016</ele>
        <time>2026-09-18T05:23:09Z</time>
      </trkpt>
      <trkpt lat="31.29534623115459" lon="121.4856889339378">
        <ele>6.5307862581685185</ele>
        <time>2026-09-18T05:23:12Z</time>
      </trkpt>
      <trkpt lat="31.29556464817716" lon="121.48552132070353">
        <ele>6.652332049794495</ele>
        <time>2026-09-18T05:23:19Z</time>
      </trkpt>
      <trkpt lat="31.295648543422097" lon="121.4854972281048">
        <ele>11.149482470937073</ele>
        <time>2026-09-18T05:23:21Z</time>
      </trkpt>
      <trkpt lat="31.295922018845822" lon="121.48535670654502">
        <ele>12.169399005360901</ele>
        <time>2026-09-18T05:23:27Z</time>
      </trkpt>
      <trkpt lat="31.296399380519713" lon="121.4852051286289">
        <ele>9.426719409413636</ele>
        <time>2026-09-18T05:23:35Z</time>
      </trkpt>
      <trkpt lat="31.29683459351865" lon="121.48499735554762">
        <ele>10.953954440541565</ele>
        <time>2026-09-18T05:23:41Z</time>
      </trkpt>
      <trkpt lat="31.297126979443284" lon="121.48482873367422">
        <ele>12.179969531483948</ele>
        <time>2026-09-18T05:23:47Z</time>
      </trkpt>
      <trkpt lat="31.297600219764895" lon="121.48463500789252">
        <ele>9.210052234120667</ele>
        <time>2026-09-18T05:23:55Z</time>
      </trkpt>
      <trkpt lat="31.297752129755956" lon="121.4846249593919">
        <ele>12.893382770009339</ele>
        <time>2026-09-18T05:23:57Z</time>
      </trkpt>
      <trkpt lat="31.298219503212522" lon="121.48447539064283">
        <ele>4.712903720326722</ele>
        <time>2026-09-18T05:24:04Z</time>
      </trkpt>
      <trkpt lat="31.298464074898323" lon="121.48436297243416">
        <ele>8.39623234886676</ele>
        <time>2026-09-18T05:24:08Z</time>
      </trkpt>
      <trkpt lat="31.298750907884948" lon="121.48434488403971">
        <ele>9.944604617543519</ele>
        <time>2026-09-18T05:24:12Z</time>
      </trkpt>
      <trkpt lat="31.298944730521388" lon="121.48431074687932">
        <ele>8.43850873131305</ele>
        <time>2026-09-18T05:24:15Z</time>
      </trkpt>
      <trkpt lat="31.299231277076153" lon="121.48419531465507">
        <ele>9.56940243858844</ele>
        <time>2026-09-18T05:24:19Z</time>
      </trkpt>
      <trkpt lat="31.299565571600716" lon="121.48400059863457">
        <ele>10.56818173546344</ele>
        <time>2026-09-18T05:24:24Z</time>
      </trkpt>
      <trkpt lat="31.299764949468038" lon="121.48381593002024">
        <ele>11.03322194237262</ele>
        <time>2026-09-18T05:25:18Z</time>
      </trkpt>
      <trkpt lat="31.299844808685307" lon="121.48377879221425">
        <ele>7.598266345448792</ele>
        <time>2026-09-18T05:25:21Z</time>
      </trkpt>
      <trkpt lat="31.300317141120548" lon="121.48361517499829">
        <ele>8.834850055165589</ele>
        <time>2026-09-18T05:25:29Z</time>
      </trkpt>
      <trkpt lat="31.300501749733105" lon="121.48350677722">
        <ele>10.753141147084534</ele>
        <time>2026-09-18T05:25:33Z</time>
      </trkpt>
      <trkpt lat="31.300612744263066" lon="121.48351981368087">
        <ele>8.126720172353089</ele>
        <time>2026-09-18T05:25:36Z</time>
      </trkpt>
      <trkpt lat="31.30087845960282" lon="121.48345857523283">
        <ele>6.631192904897034</ele>
        <time>2026-09-18T05:25:42Z</time>
      </trkpt>
      <trkpt lat="31.301318761495914" lon="121.4832799084035">
        <ele>10.78484891075641</ele>
        <time>2026-09-18T05:25:48Z</time>
      </trkpt>
      <trkpt lat="31.301736070018748" lon="121.48310024041375">
        <ele>12.280374270863831</ele>
        <time>2026-09-18T05:25:55Z</time>
      </trkpt>
      <trkpt lat="31.301858877450655" lon="121.48305105689305">
        <ele>13.442975741811097</ele>
        <time>2026-09-18T05:25:57Z</time>
      </trkpt>
      <trkpt lat="31.301986585868203" lon="121.48296875651312">
        <ele>10.420213443227112</ele>
        <time>2026-09-18T05:25:58Z</time>
      </trkpt>
      <trkpt lat="31.302453778623107" lon="121.48275596858512">
        <ele>11.13891385216266</ele>
        <time>2026-09-18T05:26:05Z</time>
      </trkpt>
      <trkpt lat="31.30293278528066" lon="121.48248096180066">
        <ele>11.667367679066956</ele>
        <time>2026-09-18T05:26:12Z</time>
      </trkpt>
      <trkpt lat="31.303357005247356" lon="121.4822711894854">
        <ele>13.411267978139222</ele>
        <time>2026-09-18T05:26:22Z</time>
      </trkpt>
      <trkpt lat="31.303815271239664" lon="121.48208148518916">
        <ele>10.673871737904847</ele>
        <time>2026-09-18T05:26:32Z</time>
      </trkpt>
      <trkpt lat="31.30395793680612" lon="121.48198613888017">
        <ele>11.42956326622516</ele>
        <time>2026-09-18T05:26:36Z</time>
      </trkpt>
      <trkpt lat="31.304225632792903" lon="121.48191787687713">
        <ele>11.160051089711487</ele>
        <time>2026-09-18T05:26:43Z</time>
      </trkpt>
      <trkpt lat="31.304679860520253" lon="121.4817141246768">
        <ele>10.039727908559144</ele>
        <time>2026-09-18T05:26:51Z</time>
      </trkpt>
      <trkpt lat="31.305149039208242" lon="121.48149531913985">
        <ele>10.330377322621644</ele>
        <time>2026-09-18T05:26:59Z</time>
      </trkpt>
      <trkpt lat="31.305623333680767" lon="121.48131665409106">
        <ele>10.266961795277894</ele>
        <time>2026-09-18T05:27:08Z</time>
      </trkpt>
      <trkpt lat="31.305916979642525" lon="121.4812343414288">
        <ele>9.167775851674378</ele>
        <time>2026-09-18T05:27:14Z</time>
      </trkpt>
      <trkpt lat="31.306372621309674" lon="121.48117208505313">
        <ele>12.116554004140198</ele>
        <time>2026-09-18T05:27:22Z</time>
      </trkpt>
      <trkpt lat="31.306888397754435" lon="121.48116401278068">
        <ele>10.515336734242737</ele>
        <time>2026-09-18T05:27:30Z</time>
      </trkpt>
      <trkpt lat="31.3073800727557" lon="121.48111780942905">
        <ele>7.307615024037659</ele>
        <time>2026-09-18T05:27:38Z</time>
      </trkpt>
      <trkpt lat="31.307851969032246" lon="121.48114486355435">
        <ele>11.751920443959534</ele>
        <time>2026-09-18T05:27:46Z</time>
      </trkpt>
      <trkpt lat="31.308353704965644" lon="121.48112073642591">
        <ele>11.979156238026917</ele>
        <time>2026-09-18T05:27:54Z</time>
      </trkpt>
      <trkpt lat="31.30888660744185" lon="121.48115782036042">
        <ele>9.738507968373597</ele>
        <time>2026-09-18T05:28:02Z</time>
      </trkpt>
      <trkpt lat="31.309363561023677" lon="121.48120494416348">
        <ele>12.549886447377503</ele>
        <time>2026-09-18T05:28:10Z</time>
      </trkpt>
      <trkpt lat="31.30944948992816" lon="121.48119189122988">
        <ele>0.812906009145081</ele>
        <time>2026-09-18T05:28:12Z</time>
      </trkpt>
      <trkpt lat="31.30960551465025" lon="121.48122097949016">
        <ele>12.42834256310016</ele>
        <time>2026-09-18T05:28:16Z</time>
      </trkpt>
      <trkpt lat="31.31007827434824" lon="121.4812008688369">
        <ele>7.931192141957581</ele>
        <time>2026-09-18T05:29:31Z</time>
      </trkpt>
      <trkpt lat="31.31056307936852" lon="121.48119781673549">
        <ele>11.128343326039612</ele>
        <time>2026-09-18T05:29:39Z</time>
      </trkpt>
      <trkpt lat="31.31109092954193" lon="121.48121583454581">
        <ele>10.795417529530823</ele>
        <time>2026-09-18T05:29:47Z</time>
      </trkpt>
      <trkpt lat="31.311589750198493" lon="121.48121980577632">
        <ele>11.297448855824769</ele>
        <time>2026-09-18T05:29:54Z</time>
      </trkpt>
      <trkpt lat="31.312039508016404" lon="121.48119568307254">
        <ele>8.771436435170472</ele>
        <time>2026-09-18T05:30:02Z</time>
      </trkpt>
      <trkpt lat="31.31226336401529" lon="121.48117559377377">
        <ele>8.623468142934144</ele>
        <time>2026-09-18T05:30:06Z</time>
      </trkpt>
      <trkpt lat="31.31252530200259" lon="121.48118861686395">
        <ele>10.039727908559144</ele>
        <time>2026-09-18T05:30:10Z</time>
      </trkpt>
      <trkpt lat="31.31301498368883" lon="121.48114341715296">
        <ele>7.836070758290589</ele>
        <time>2026-09-18T05:30:18Z</time>
      </trkpt>
      <trkpt lat="31.313189887812864" lon="121.48113336710689">
        <ele>6.028754931874573</ele>
        <time>2026-09-18T05:30:20Z</time>
      </trkpt>
      <trkpt lat="31.313441955511134" lon="121.48118954173003">
        <ele>9.92346737999469</ele>
        <time>2026-09-18T05:30:27Z</time>
      </trkpt>
      <trkpt lat="31.313722670386134" lon="121.48112830387821">
        <ele>6.351112109608948</ele>
        <time>2026-09-18T05:30:33Z</time>
      </trkpt>
      <trkpt lat="31.314190439971508" lon="121.48111020067718">
        <ele>7.878347140736878</ele>
        <time>2026-09-18T05:30:41Z</time>
      </trkpt>
      <trkpt lat="31.314671204870898" lon="121.4810920963647">
        <ele>9.009240848012269</ele>
        <time>2026-09-18T05:30:48Z</time>
      </trkpt>
      <trkpt lat="31.315132065233744" lon="121.48110409886641">
        <ele>7.7937943758443</ele>
        <time>2026-09-18T05:30:54Z</time>
      </trkpt>
      <trkpt lat="31.315636856608954" lon="121.48109803453386">
        <ele>10.557613116689026</ele>
        <time>2026-09-18T05:31:01Z</time>
      </trkpt>
      <trkpt lat="31.316150656550857" lon="121.48109598344203">
        <ele>7.703956347890198</ele>
        <time>2026-09-18T05:31:08Z</time>
      </trkpt>
      <trkpt lat="31.316609454151124" lon="121.4810859090408">
        <ele>12.74013112206012</ele>
        <time>2026-09-18T05:31:19Z</time>
      </trkpt>
      <trkpt lat="31.316797409572217" lon="121.48109492444505">
        <ele>11.794196826405823</ele>
        <time>2026-09-18T05:31:23Z</time>
      </trkpt>
      <trkpt lat="31.317244510022803" lon="121.48118720847526">
        <ele>11.958017093129456</ele>
        <time>2026-09-18T05:31:30Z</time>
      </trkpt>
      <trkpt lat="31.317727392658195" lon="121.48120924415561">
        <ele>9.384443026967347</ele>
        <time>2026-09-18T05:31:40Z</time>
      </trkpt>
      <trkpt lat="31.31823306820386" lon="121.48116303953769">
        <ele>8.655175906606019</ele>
        <time>2026-09-18T05:31:49Z</time>
      </trkpt>
      <trkpt lat="31.3187389164409" lon="121.48117604169424">
        <ele>9.944604617543519</ele>
        <time>2026-09-18T05:31:55Z</time>
      </trkpt>
      <trkpt lat="31.319186757443493" lon="121.48117901378063">
        <ele>13.485252124257386</ele>
        <time>2026-09-18T05:32:02Z</time>
      </trkpt>
      <trkpt lat="31.319740477242004" lon="121.48115387864766">
        <ele>14.034845096059144</ele>
        <time>2026-09-18T05:32:09Z</time>
      </trkpt>
      <trkpt lat="31.32023333409184" lon="121.48116788542028">
        <ele>8.597045642323792</ele>
        <time>2026-09-18T05:32:17Z</time>
      </trkpt>
      <trkpt lat="31.320510192809003" lon="121.48115481610124">
        <ele>11.625091296620667</ele>
        <time>2026-09-18T05:32:21Z</time>
      </trkpt>
      <trkpt lat="31.32102685708177" lon="121.48110560005543">
        <ele>12.010864001698792</ele>
        <time>2026-09-18T05:32:29Z</time>
      </trkpt>
      <trkpt lat="31.3214575331977" lon="121.48104936690031">
        <ele>10.663303119130433</ele>
        <time>2026-09-18T05:32:36Z</time>
      </trkpt>
      <trkpt lat="31.321792364928307" lon="121.48103428562021">
        <ele>14.283218127675354</ele>
        <time>2026-09-18T05:32:41Z</time>
      </trkpt>
      <trkpt lat="31.32189249720489" lon="121.48109248021807">
        <ele>13.226308566518128</ele>
        <time>2026-09-18T05:32:42Z</time>
      </trkpt>
      <trkpt lat="31.322089415330666" lon="121.48108945280735">
        <ele>11.022653323598206</ele>
        <time>2026-09-18T05:32:45Z</time>
      </trkpt>
      <trkpt lat="31.32217547690864" lon="121.48112155754744">
        <ele>9.738507968373597</ele>
        <time>2026-09-18T05:32:48Z</time>
      </trkpt>
      <trkpt lat="31.32223263399984" lon="121.48118276642455">
        <ele>9.727939349599183</ele>
        <time>2026-09-18T05:32:51Z</time>
      </trkpt>
      <trkpt lat="31.322399589616122" lon="121.48118877312754">
        <ele>11.054361087270081</ele>
        <time>2026-09-18T05:34:41Z</time>
      </trkpt>
      <trkpt lat="31.322731326360483" lon="121.48114057642645">
        <ele>9.14663861412555</ele>
        <time>2026-09-18T05:34:49Z</time>
      </trkpt>
      <trkpt lat="31.3230189860628" lon="121.48106027142784">
        <ele>8.782005053944886</ele>
        <time>2026-09-18T05:34:57Z</time>
      </trkpt>
      <trkpt lat="31.323565798453956" lon="121.48106524201422">
        <ele>10.171840411610901</ele>
        <time>2026-09-18T05:35:04Z</time>
      </trkpt>
      <trkpt lat="31.324123653857004" lon="121.48108626771011">
        <ele>13.51695988792926</ele>
        <time>2026-09-18T05:35:12Z</time>
      </trkpt>
      <trkpt lat="31.324597651556545" lon="121.48114543377451">
        <ele>10.996230822987854</ele>
        <time>2026-09-18T05:35:20Z</time>
      </trkpt>
      <trkpt lat="31.32475765109238" lon="121.48116549013773">
        <ele>12.829969150014222</ele>
        <time>2026-09-18T05:35:24Z</time>
      </trkpt>
      <trkpt lat="31.32483457600591" lon="121.48114942745869">
        <ele>11.128343326039612</ele>
        <time>2026-09-18T05:35:30Z</time>
      </trkpt>
      <trkpt lat="31.325291890221866" lon="121.48131496668549">
        <ele>11.968587619252503</ele>
        <time>2026-09-18T05:35:43Z</time>
      </trkpt>
      <trkpt lat="31.32570240072399" lon="121.4815417244436">
        <ele>10.50476620811969</ele>
        <time>2026-09-18T05:35:53Z</time>
      </trkpt>
      <trkpt lat="31.32609397754842" lon="121.48178855484852">
        <ele>12.127122622914612</ele>
        <time>2026-09-18T05:36:01Z</time>
      </trkpt>
      <trkpt lat="31.32650977810125" lon="121.48211466196759">
        <ele>11.07549832481891</ele>
        <time>2026-09-18T05:36:09Z</time>
      </trkpt>
      <trkpt lat="31.326932551029564" lon="121.4824317382621">
        <ele>13.442975741811097</ele>
        <time>2026-09-18T05:36:17Z</time>
      </trkpt>
      <trkpt lat="31.32736437192638" lon="121.48276587511577">
        <ele>10.483628970570862</ele>
        <time>2026-09-18T05:36:25Z</time>
      </trkpt>
      <trkpt lat="31.327789187923145" lon="121.48309700346142">
        <ele>12.470618945546448</ele>
        <time>2026-09-18T05:36:33Z</time>
      </trkpt>
      <trkpt lat="31.328235000539163" lon="121.48342913496855">
        <ele>12.38606618065387</ele>
        <time>2026-09-18T05:36:42Z</time>
      </trkpt>
      <trkpt lat="31.32861270647002" lon="121.48371611441756">
        <ele>12.290944796986878</ele>
        <time>2026-09-18T05:36:48Z</time>
      </trkpt>
      <trkpt lat="31.328847093422322" lon="121.48387666082976">
        <ele>13.786472064442933</ele>
        <time>2026-09-18T05:36:52Z</time>
      </trkpt>
      <trkpt lat="31.32912778586013" lon="121.48414658991645">
        <ele>11.117774707265198</ele>
        <time>2026-09-18T05:36:58Z</time>
      </trkpt>
      <trkpt lat="31.329529452906897" lon="121.48442253079655">
        <ele>11.762489062733948</ele>
        <time>2026-09-18T05:37:06Z</time>
      </trkpt>
      <trkpt lat="31.32997731721207" lon="121.48477072434682">
        <ele>9.331598025746644</ele>
        <time>2026-09-18T05:37:57Z</time>
      </trkpt>
      <trkpt lat="31.33040309598313" lon="121.48508680738333">
        <ele>9.558833819814026</ele>
        <time>2026-09-18T05:38:05Z</time>
      </trkpt>
      <trkpt lat="31.330808847465537" lon="121.48539085053781">
        <ele>12.761268359608948</ele>
        <time>2026-09-18T05:38:12Z</time>
      </trkpt>
      <trkpt lat="31.331300776597605" lon="121.48576513670716">
        <ele>9.601110202260315</ele>
        <time>2026-09-18T05:38:21Z</time>
      </trkpt>
      <trkpt lat="31.3317256005606" lon="121.48609527315605">
        <ele>7.672250491566956</ele>
        <time>2026-09-18T05:38:29Z</time>
      </trkpt>
      <trkpt lat="31.332123316379384" lon="121.48638527024896">
        <ele>9.664523822255433</ele>
        <time>2026-09-18T05:38:37Z</time>
      </trkpt>
      <trkpt lat="31.33234387057712" lon="121.4865990118813">
        <ele>11.603952151723206</ele>
        <time>2026-09-18T05:38:43Z</time>
      </trkpt>
      <trkpt lat="31.33241212870923" lon="121.48669434537847">
        <ele>7.804362994618714</ele>
        <time>2026-09-18T05:38:44Z</time>
      </trkpt>
      <trkpt lat="31.33249510185027" lon="121.48669534184438">
        <ele>13.279155475087464</ele>
        <time>2026-09-18T05:38:46Z</time>
      </trkpt>
      <trkpt lat="31.332632388832064" lon="121.48680873384075">
        <ele>8.01574490685016</ele>
        <time>2026-09-18T05:38:48Z</time>
      </trkpt>
      <trkpt lat="31.332782448040497" lon="121.48684685679225">
        <ele>12.063709002919495</ele>
        <time>2026-09-18T05:38:52Z</time>
      </trkpt>
      <trkpt lat="31.33281775394502" lon="121.48695423623568">
        <ele>11.086066943593323</ele>
        <time>2026-09-18T05:38:56Z</time>
      </trkpt>
      <trkpt lat="31.332891766077935" lon="121.48696727637251">
        <ele>9.934035998769104</ele>
        <time>2026-09-18T05:39:17Z</time>
      </trkpt>
      <trkpt lat="31.333053969932426" lon="121.48705557712523">
        <ele>11.265741092152894</ele>
        <time>2026-09-18T05:39:23Z</time>
      </trkpt>
      <trkpt lat="31.333408745491333" lon="121.4873596306666">
        <ele>12.666146975941956</ele>
        <time>2026-09-18T05:39:32Z</time>
      </trkpt>
      <trkpt lat="31.333791508811274" lon="121.48766267905958">
        <ele>9.537694674916565</ele>
        <time>2026-09-18T05:39:38Z</time>
      </trkpt>
      <trkpt lat="31.333999860816945" lon="121.48780617344306">
        <ele>7.629972201772034</ele>
        <time>2026-09-18T05:39:42Z</time>
      </trkpt>
      <trkpt lat="31.334098127033318" lon="121.48790752691501">
        <ele>13.775901538319886</ele>
        <time>2026-09-18T05:39:44Z</time>
      </trkpt>
      <trkpt lat="31.334235242136653" lon="121.48796271227907">
        <ele>12.322652560658753</ele>
        <time>2026-09-18T05:39:46Z</time>
      </trkpt>
      <trkpt lat="31.334399529660182" lon="121.48807911400527">
        <ele>5.014121753163636</ele>
        <time>2026-09-18T05:39:51Z</time>
      </trkpt>
      <trkpt lat="31.33468697339141" lon="121.48826274557152">
        <ele>13.131187182851136</ele>
        <time>2026-09-18T05:39:56Z</time>
      </trkpt>
      <trkpt lat="31.334728182676265" lon="121.48833801104601">
        <ele>9.780784350819886</ele>
        <time>2026-09-18T05:39:57Z</time>
      </trkpt>
      <trkpt lat="31.33475449589872" lon="121.48844639623569">
        <ele>10.525905353017151</ele>
        <time>2026-09-18T05:40:00Z</time>
      </trkpt>
      <trkpt lat="31.33518016881777" lon="121.48872335035114">
        <ele>6.8425748171284795</ele>
        <time>2026-09-18T05:40:06Z</time>
      </trkpt>
      <trkpt lat="31.335515715968388" lon="121.48894712239822">
        <ele>10.441352588124573</ele>
        <time>2026-09-18T05:40:11Z</time>
      </trkpt>
      <trkpt lat="31.335855441535063" lon="121.48923111007628">
        <ele>8.565337878651917</ele>
        <time>2026-09-18T05:40:17Z</time>
      </trkpt>
      <trkpt lat="31.336274217393523" lon="121.48954118506323">
        <ele>10.362085086293519</ele>
        <time>2026-09-18T05:40:24Z</time>
      </trkpt>
      <trkpt lat="31.33673919917444" lon="121.48992552303446">
        <ele>10.140132647939026</ele>
        <time>2026-09-18T05:40:32Z</time>
      </trkpt>
      <trkpt lat="31.337144095280745" lon="121.49027373747768">
        <ele>9.838914615102112</ele>
        <time>2026-09-18T05:40:39Z</time>
      </trkpt>
      <trkpt lat="31.337619027291428" lon="121.49064201873921">
        <ele>10.663303119130433</ele>
        <time>2026-09-18T05:40:47Z</time>
      </trkpt>
      <trkpt lat="31.338080889728314" lon="121.4909852117866">
        <ele>10.56818173546344</ele>
        <time>2026-09-18T05:40:55Z</time>
      </trkpt>
      <trkpt lat="31.338536763966406" lon="121.49133141681577">
        <ele>9.912896853871644</ele>
        <time>2026-09-18T05:41:03Z</time>
      </trkpt>
      <trkpt lat="31.33875420353172" lon="121.49150401865937">
        <ele>10.330377322621644</ele>
        <time>2026-09-18T05:41:07Z</time>
      </trkpt>
      <trkpt lat="31.339178840508918" lon="121.49176692772056">
        <ele>11.27631161827594</ele>
        <time>2026-09-18T05:41:14Z</time>
      </trkpt>
      <trkpt lat="31.33964674802346" lon="121.49212517639367">
        <ele>11.086066943593323</ele>
        <time>2026-09-18T05:41:23Z</time>
      </trkpt>
      <trkpt lat="31.340111576109805" lon="121.49245632837358">
        <ele>9.447858554311097</ele>
        <time>2026-09-18T05:41:31Z</time>
      </trkpt>
      <trkpt lat="31.340514198128083" lon="121.49271121152543">
        <ele>9.90232823509723</ele>
        <time>2026-09-18T05:41:38Z</time>
      </trkpt>
      <trkpt lat="31.340943850097073" lon="121.49297913960011">
        <ele>11.27631161827594</ele>
        <time>2026-09-18T05:41:45Z</time>
      </trkpt>
      <trkpt lat="31.3412333259671" lon="121.49317180880615">
        <ele>11.85761044640094</ele>
        <time>2026-09-18T05:41:51Z</time>
      </trkpt>
      <trkpt lat="31.341675877827505" lon="121.49340762052005">
        <ele>10.087287646718323</ele>
        <time>2026-09-18T05:42:00Z</time>
      </trkpt>
      <trkpt lat="31.3421284986658" lon="121.4936675183401">
        <ele>11.36614773888141</ele>
        <time>2026-09-18T05:42:07Z</time>
      </trkpt>
      <trkpt lat="31.34258218262704" lon="121.49394849222485">
        <ele>10.108426791615784</ele>
        <time>2026-09-18T05:42:15Z</time>
      </trkpt>
      <trkpt lat="31.343068894548875" lon="121.49424251053048">
        <ele>9.944604617543519</ele>
        <time>2026-09-18T05:42:23Z</time>
      </trkpt>
      <trkpt lat="31.34352060694777" lon="121.49453251755943">
        <ele>10.27753232140094</ele>
        <time>2026-09-18T05:42:32Z</time>
      </trkpt>
      <trkpt lat="31.343912132943622" lon="121.4947532802069">
        <ele>12.280374270863831</ele>
        <time>2026-09-18T05:42:38Z</time>
      </trkpt>
      <trkpt lat="31.344372755565107" lon="121.49501418181583">
        <ele>9.468995791859925</ele>
        <time>2026-09-18T05:42:46Z</time>
      </trkpt>
      <trkpt lat="31.344765335787798" lon="121.49525300971622">
        <ele>11.773057681508362</ele>
        <time>2026-09-18T05:42:53Z</time>
      </trkpt>
      <trkpt lat="31.345201979212646" lon="121.49551792805403">
        <ele>10.298669558949769</ele>
        <time>2026-09-18T05:43:01Z</time>
      </trkpt>
      <trkpt lat="31.34564966117157" lon="121.49579689621464">
        <ele>9.976312381215394</ele>
        <time>2026-09-18T05:43:09Z</time>
      </trkpt>
      <trkpt lat="31.34608520612994" lon="121.49602869532411">
        <ele>11.043790561147034</ele>
        <time>2026-09-18T05:43:18Z</time>
      </trkpt>
      <trkpt lat="31.346565937309023" lon="121.49632773318795">
        <ele>12.592162829823792</ele>
        <time>2026-09-18T05:43:26Z</time>
      </trkpt>
      <trkpt lat="31.346996559549716" lon="121.49658462329911">
        <ele>12.259237033315003</ele>
        <time>2026-09-18T05:43:34Z</time>
      </trkpt>
      <trkpt lat="31.347438175173654" lon="121.49684050886171">
        <ele>9.838914615102112</ele>
        <time>2026-09-18T05:43:42Z</time>
      </trkpt>
      <trkpt lat="31.347738616695164" lon="121.49702213854547">
        <ele>9.558833819814026</ele>
        <time>2026-09-18T05:43:48Z</time>
      </trkpt>
      <trkpt lat="31.347803756811743" lon="121.49707632849513">
        <ele>11.535253268666565</ele>
        <time>2026-09-18T05:43:50Z</time>
      </trkpt>
      <trkpt lat="31.347976950199126" lon="121.49716061783953">
        <ele>11.128343326039612</ele>
        <time>2026-09-18T05:43:55Z</time>
      </trkpt>
      <trkpt lat="31.348382569413204" lon="121.49741349557524">
        <ele>10.732002002187073</ele>
        <time>2026-09-18T05:44:03Z</time>
      </trkpt>
      <trkpt lat="31.348833098241805" lon="121.49764127893597">
        <ele>12.116554004140198</ele>
        <time>2026-09-18T05:44:13Z</time>
      </trkpt>
      <trkpt lat="31.34912044227791" lon="121.49778878657564">
        <ele>16.745818835683167</ele>
        <time>2026-09-18T05:44:19Z</time>
      </trkpt>
      <trkpt lat="31.349221516085663" lon="121.49782490827367">
        <ele>11.603952151723206</ele>
        <time>2026-09-18T05:44:21Z</time>
      </trkpt>
      <trkpt lat="31.349445530030504" lon="121.49785499776561">
        <ele>11.78362820763141</ele>
        <time>2026-09-18T05:44:26Z</time>
      </trkpt>
      <trkpt lat="31.349882784193888" lon="121.49798944553214">
        <ele>12.687286120839417</ele>
        <time>2026-09-18T05:44:33Z</time>
      </trkpt>
      <trkpt lat="31.3503489475821" lon="121.49809679308365">
        <ele>11.958017093129456</ele>
        <time>2026-09-18T05:44:41Z</time>
      </trkpt>
      <trkpt lat="31.350540171284337" lon="121.49819312425417">
        <ele>10.536473971791565</ele>
        <time>2026-09-18T05:44:45Z</time>
      </trkpt>
      <trkpt lat="31.351007223482295" lon="121.4982633377861">
        <ele>11.21289609093219</ele>
        <time>2026-09-18T05:44:53Z</time>
      </trkpt>
      <trkpt lat="31.35131608896008" lon="121.49825327525217">
        <ele>9.61167882103473</ele>
        <time>2026-09-18T05:44:59Z</time>
      </trkpt>
      <trkpt lat="31.35156016876921" lon="121.49830744988458">
        <ele>9.986880999989808</ele>
        <time>2026-09-18T05:45:48Z</time>
      </trkpt>
      <trkpt lat="31.351726998233904" lon="121.49826929812069">
        <ele>11.01208279747516</ele>
        <time>2026-09-18T05:45:54Z</time>
      </trkpt>
      <trkpt lat="31.35197632280774" lon="121.4984057690857">
        <ele>10.108426791615784</ele>
        <time>2026-09-18T05:46:01Z</time>
      </trkpt>
      <trkpt lat="31.35205924375764" lon="121.49838870048771">
        <ele>11.72021268028766</ele>
        <time>2026-09-18T05:46:04Z</time>
      </trkpt>
      <trkpt lat="31.352158060187104" lon="121.49833851109672">
        <ele>11.794196826405823</ele>
        <time>2026-09-18T05:46:06Z</time>
      </trkpt>
      <trkpt lat="31.352645397163695" lon="121.49817186870335">
        <ele>11.223466617055237</ele>
        <time>2026-09-18T05:46:15Z</time>
      </trkpt>
      <trkpt lat="31.35312374338898" lon="121.49800723426834">
        <ele>13.342569095082581</ele>
        <time>2026-09-18T05:46:23Z</time>
      </trkpt>
      <trkpt lat="31.353354389382528" lon="121.4979148815621">
        <ele>8.956393939442933</ele>
        <time>2026-09-18T05:46:27Z</time>
      </trkpt>
      <trkpt lat="31.353465289034002" lon="121.49789379608241">
        <ele>10.78484891075641</ele>
        <time>2026-09-18T05:46:29Z</time>
      </trkpt>
      <trkpt lat="31.353902423946113" lon="121.49765389357361">
        <ele>12.872243625111878</ele>
        <time>2026-09-18T05:46:37Z</time>
      </trkpt>
      <trkpt lat="31.354384592028335" lon="121.49743004508532">
        <ele>10.932815295644104</ele>
        <time>2026-09-18T05:46:45Z</time>
      </trkpt>
      <trkpt lat="31.35487383913569" lon="121.49723329370359">
        <ele>10.018588763661683</ele>
        <time>2026-09-18T05:46:53Z</time>
      </trkpt>
      <trkpt lat="31.355332876991927" lon="121.49696328055063">
        <ele>9.490133029408753</ele>
        <time>2026-09-18T05:47:04Z</time>
      </trkpt>
      <trkpt lat="31.35584600528918" lon="121.49672939309892">
        <ele>11.03322194237262</ele>
        <time>2026-09-18T05:47:13Z</time>
      </trkpt>
      <trkpt lat="31.35633623168896" lon="121.49652561621369">
        <ele>13.041349154897034</ele>
        <time>2026-09-18T05:47:22Z</time>
      </trkpt>
      <trkpt lat="31.356446077892276" lon="121.49648646562197">
        <ele>10.483628970570862</ele>
        <time>2026-09-18T05:47:24Z</time>
      </trkpt>
      <trkpt lat="31.356645975436816" lon="121.49647440510755">
        <ele>11.149482470937073</ele>
        <time>2026-09-18T05:47:28Z</time>
      </trkpt>
      <trkpt lat="31.356898464540695" lon="121.4963318693859">
        <ele>9.331598025746644</ele>
        <time>2026-09-18T05:47:35Z</time>
      </trkpt>
      <trkpt lat="31.35717004665181" lon="121.49622245152521">
        <ele>11.947448474355042</ele>
        <time>2026-09-18T05:47:39Z</time>
      </trkpt>
      <trkpt lat="31.35759922774731" lon="121.49599660019832">
        <ele>8.623468142934144</ele>
        <time>2026-09-18T05:47:47Z</time>
      </trkpt>
      <trkpt lat="31.358040525372353" lon="121.49581089268517">
        <ele>9.426719409413636</ele>
        <time>2026-09-18T05:47:56Z</time>
      </trkpt>
      <trkpt lat="31.358501765501703" lon="121.49560812194056">
        <ele>10.27753232140094</ele>
        <time>2026-09-18T05:48:03Z</time>
      </trkpt>
      <trkpt lat="31.358984962552295" lon="121.49539330590963">
        <ele>14.84866498131305</ele>
        <time>2026-09-18T05:48:11Z</time>
      </trkpt>
      <trkpt lat="31.35946917459122" lon="121.49518350793815">
        <ele>11.36614773888141</ele>
        <time>2026-09-18T05:48:19Z</time>
      </trkpt>
      <trkpt lat="31.35992028947996" lon="121.4949375825373">
        <ele>17.982402545399964</ele>
        <time>2026-09-18T05:48:28Z</time>
      </trkpt>
      <trkpt lat="31.360401494050997" lon="121.4947247740914">
        <ele>13.363708239980042</ele>
        <time>2026-09-18T05:48:35Z</time>
      </trkpt>
      <trkpt lat="31.360639076382046" lon="121.49461134481984">
        <ele>13.38484547752887</ele>
        <time>2026-09-18T05:48:39Z</time>
      </trkpt>
      <trkpt lat="31.361114382594657" lon="121.49443165641416">
        <ele>12.539317828603089</ele>
        <time>2026-09-18T05:48:47Z</time>
      </trkpt>
      <trkpt lat="31.36162758351213" lon="121.49422085266173">
        <ele>11.646230441518128</ele>
        <time>2026-09-18T05:48:55Z</time>
      </trkpt>
      <trkpt lat="31.362053915311424" lon="121.49404417943549">
        <ele>13.839317065663636</ele>
        <time>2026-09-18T05:49:03Z</time>
      </trkpt>
      <trkpt lat="31.36253916807339" lon="121.49384742889501">
        <ele>13.902730685658753</ele>
        <time>2026-09-18T05:49:11Z</time>
      </trkpt>
      <trkpt lat="31.362640027050976" lon="121.49381129004806">
        <ele>13.45354436058551</ele>
        <time>2026-09-18T05:49:13Z</time>
      </trkpt>
      <trkpt lat="31.362722084599284" lon="121.49383938432031">
        <ele>13.723056537099183</ele>
        <time>2026-09-18T05:52:24Z</time>
      </trkpt>
      <trkpt lat="31.362905778391475" lon="121.49375707199917">
        <ele>11.625091296620667</ele>
        <time>2026-09-18T05:52:30Z</time>
      </trkpt>
      <trkpt lat="31.363190457531925" lon="121.49368077276453">
        <ele>12.549886447377503</ele>
        <time>2026-09-18T05:52:37Z</time>
      </trkpt>
      <trkpt lat="31.363625655092722" lon="121.49345993988997">
        <ele>10.943383914418519</ele>
        <time>2026-09-18T05:52:45Z</time>
      </trkpt>
      <trkpt lat="31.36406397520413" lon="121.49328025513444">
        <ele>9.310458880849183</ele>
        <time>2026-09-18T05:52:53Z</time>
      </trkpt>
      <trkpt lat="31.36451923603333" lon="121.49308250395396">
        <ele>15.16045354027301</ele>
        <time>2026-09-18T05:53:01Z</time>
      </trkpt>
      <trkpt lat="31.365022475725418" lon="121.49288274156709">
        <ele>11.947448474355042</ele>
        <time>2026-09-18T05:53:10Z</time>
      </trkpt>
      <trkpt lat="31.36553868158867" lon="121.49267294206896">
        <ele>11.36614773888141</ele>
        <time>2026-09-18T05:53:17Z</time>
      </trkpt>
      <trkpt lat="31.365889157372923" lon="121.49253541704624">
        <ele>13.051919681020081</ele>
        <time>2026-09-18T05:53:23Z</time>
      </trkpt>
      <trkpt lat="31.366307341281864" lon="121.49230756117817">
        <ele>11.873464328236878</ele>
        <time>2026-09-18T05:53:31Z</time>
      </trkpt>
      <trkpt lat="31.366508907241638" lon="121.49218409965302">
        <ele>12.571025592274964</ele>
        <time>2026-09-18T05:53:35Z</time>
      </trkpt>
      <trkpt lat="31.366936250910456" lon="121.49201043831636">
        <ele>14.129966479726136</ele>
        <time>2026-09-18T05:53:43Z</time>
      </trkpt>
      <trkpt lat="31.3673646305842" lon="121.49184882034228">
        <ele>12.475904208607972</ele>
        <time>2026-09-18T05:53:52Z</time>
      </trkpt>
      <trkpt lat="31.367778976001727" lon="121.49167415675912">
        <ele>16.37590001244098</ele>
        <time>2026-09-18T05:53:59Z</time>
      </trkpt>
      <trkpt lat="31.36825425730724" lon="121.49148443397031">
        <ele>20.11735985893756</ele>
        <time>2026-09-18T05:54:09Z</time>
      </trkpt>
      <trkpt lat="31.368725468277127" lon="121.49127062511751">
        <ele>20.21776555199176</ele>
        <time>2026-09-18T05:54:19Z</time>
      </trkpt>
      <trkpt lat="31.369169637249374" lon="121.49103975749777">
        <ele>22.194186908192933</ele>
        <time>2026-09-18T05:54:30Z</time>
      </trkpt>
      <trkpt lat="31.369585806522615" lon="121.49080588173766">
        <ele>21.903536540456116</ele>
        <time>2026-09-18T05:54:39Z</time>
      </trkpt>
      <trkpt lat="31.37001695049678" lon="121.49056497976723">
        <ele>22.63280461449176</ele>
        <time>2026-09-18T05:54:49Z</time>
      </trkpt>
      <trkpt lat="31.370452081685123" lon="121.49032006337579">
        <ele>21.153131228871644</ele>
        <time>2026-09-18T05:54:59Z</time>
      </trkpt>
      <trkpt lat="31.37090910161036" lon="121.49004001944132">
        <ele>23.224673968739808</ele>
        <time>2026-09-18T05:55:09Z</time>
      </trkpt>
      <trkpt lat="31.37110870625829" lon="121.4899286027237">
        <ele>24.815322619862854</ele>
        <time>2026-09-18T05:55:13Z</time>
      </trkpt>
      <trkpt lat="31.37157099784647" lon="121.48973988646986">
        <ele>21.380367022939026</ele>
        <time>2026-09-18T05:55:21Z</time>
      </trkpt>
      <trkpt lat="31.37208316944983" lon="121.48951604026735">
        <ele>19.250694018788636</ele>
        <time>2026-09-18T05:55:29Z</time>
      </trkpt>
      <trkpt lat="31.372557266768393" lon="121.48926309339029">
        <ele>16.434030276723206</ele>
        <time>2026-09-18T05:55:37Z</time>
      </trkpt>
      <trkpt lat="31.37300951805693" lon="121.48905932492222">
        <ele>11.968587619252503</ele>
        <time>2026-09-18T05:55:46Z</time>
      </trkpt>
      <trkpt lat="31.373488877955776" lon="121.4888946945366">
        <ele>14.579152804799378</ele>
        <time>2026-09-18T05:55:53Z</time>
      </trkpt>
      <trkpt lat="31.373791484643366" lon="121.48879430936641">
        <ele>9.178346377797425</ele>
        <time>2026-09-18T05:55:59Z</time>
      </trkpt>
      <trkpt lat="31.373877490730074" lon="121.48880534150831">
        <ele>13.215739947743714</ele>
        <time>2026-09-18T05:56:02Z</time>
      </trkpt>
      <trkpt lat="31.373948719673315" lon="121.48888963716661">
        <ele>13.686065417714417</ele>
        <time>2026-09-18T05:56:03Z</time>
      </trkpt>
      <trkpt lat="31.374044359760326" lon="121.48911443392804">
        <ele>10.710864764638245</ele>
        <time>2026-09-18T05:56:07Z</time>
      </trkpt>
      <trkpt lat="31.374168988113503" lon="121.48933822497578">
        <ele>13.997853976674378</ele>
        <time>2026-09-18T05:56:10Z</time>
      </trkpt>
      <trkpt lat="31.374225736640895" lon="121.48959514091375">
        <ele>15.710046512074769</ele>
        <time>2026-09-18T05:56:15Z</time>
      </trkpt>
      <trkpt lat="31.374368698164645" lon="121.4895971358616">
        <ele>6.414527636952698</ele>
        <time>2026-09-18T05:56:16Z</time>
      </trkpt>
      <trkpt lat="31.374333275049455" lon="121.48978681899604">
        <ele>12.354358416981995</ele>
        <time>2026-09-18T05:56:17Z</time>
      </trkpt>
      <trkpt lat="31.374248454155502" lon="121.48983800982171">
        <ele>14.293788653798401</ele>
        <time>2026-09-18T05:56:18Z</time>
      </trkpt>
      <trkpt lat="31.374130464398707" lon="121.49016419006566">
        <ele>9.225906115956604</ele>
        <time>2026-09-18T05:56:23Z</time>
      </trkpt>
      <trkpt lat="31.3742982234528" lon="121.49010094881758">
        <ele>12.925090533681214</ele>
        <time>2026-09-18T05:56:27Z</time>
      </trkpt>
      <trkpt lat="31.37437139244845" lon="121.49016517303163">
        <ele>12.85110638756305</ele>
        <time>2026-09-18T05:56:28Z</time>
      </trkpt>
      <trkpt lat="31.374459371674273" lon="121.49084530025164">
        <ele>11.773057681508362</ele>
        <time>2026-09-18T05:56:33Z</time>
      </trkpt>
      <trkpt lat="31.374814432664316" lon="121.49055955094137">
        <ele>16.053542834706604</ele>
        <time>2026-09-18T05:56:37Z</time>
      </trkpt>
      <trkpt lat="31.37484800391816" lon="121.49075424732615">
        <ele>11.556392413564026</ele>
        <time>2026-09-18T05:56:38Z</time>
      </trkpt>
      <trkpt lat="31.374944088056264" lon="121.49079237609224">
        <ele>12.322652560658753</ele>
        <time>2026-09-18T05:56:40Z</time>
      </trkpt>
      <trkpt lat="31.374925399758954" lon="121.4908947454528">
        <ele>12.903951388783753</ele>
        <time>2026-09-18T05:56:42Z</time>
      </trkpt>
      <trkpt lat="31.375155690387952" lon="121.49135036331742">
        <ele>13.51695988792926</ele>
        <time>2026-09-18T05:56:54Z</time>
      </trkpt>
      <trkpt lat="31.375254068055398" lon="121.49148684565847">
        <ele>11.149482470937073</ele>
        <time>2026-09-18T05:56:57Z</time>
      </trkpt>
      <trkpt lat="31.375453627466612" lon="121.4920287780813">
        <ele>13.945007068105042</ele>
        <time>2026-09-18T05:57:07Z</time>
      </trkpt>
      <trkpt lat="31.37556318821973" lon="121.4922274838574">
        <ele>9.738507968373597</ele>
        <time>2026-09-18T05:57:11Z</time>
      </trkpt>
      <trkpt lat="31.37560752594569" lon="121.49234490273251">
        <ele>10.557613116689026</ele>
        <time>2026-09-18T05:57:13Z</time>
      </trkpt>
      <trkpt lat="31.375761289546293" lon="121.49261586518082">
        <ele>11.471839648671448</ele>
        <time>2026-09-18T05:57:18Z</time>
      </trkpt>
      <trkpt lat="31.375802811576037" lon="121.49279450496181">
        <ele>12.49175809044391</ele>
        <time>2026-09-18T05:57:24Z</time>
      </trkpt>
      <trkpt lat="31.37586895941243" lon="121.4928507017242">
        <ele>11.492976886220276</ele>
        <time>2026-09-18T05:57:44Z</time>
      </trkpt>
      <trkpt lat="31.376183208873172" lon="121.49330029461629">
        <ele>11.794196826405823</ele>
        <time>2026-09-18T05:57:56Z</time>
      </trkpt>
      <trkpt lat="31.376144626635167" lon="121.49343578614976">
        <ele>11.36614773888141</ele>
        <time>2026-09-18T05:58:03Z</time>
      </trkpt>
      <trkpt lat="31.376287475504995" lon="121.49373384824038">
        <ele>8.126720172353089</ele>
        <time>2026-09-18T05:58:09Z</time>
      </trkpt>
      <trkpt lat="31.37633467142417" lon="121.49380409744519">
        <ele>10.92224667686969</ele>
        <time>2026-09-18T05:58:11Z</time>
      </trkpt>
      <trkpt lat="31.376358067153628" lon="121.49393858025746">
        <ele>11.825904590077698</ele>
        <time>2026-09-18T05:58:13Z</time>
      </trkpt>
      <trkpt lat="31.376470405395473" lon="121.49406301932585">
        <ele>12.71899197716266</ele>
        <time>2026-09-18T05:58:16Z</time>
      </trkpt>
      <trkpt lat="31.376497736802357" lon="121.49417642589538">
        <ele>11.191758853383362</ele>
        <time>2026-09-18T05:58:18Z</time>
      </trkpt>
      <trkpt lat="31.376629222584498" lon="121.49435204797486">
        <ele>12.539317828603089</ele>
        <time>2026-09-18T05:58:24Z</time>
      </trkpt>
      <trkpt lat="31.376664467375214" lon="121.4944373525999">
        <ele>13.300292712636292</ele>
        <time>2026-09-18T05:58:27Z</time>
      </trkpt>
      <trkpt lat="31.376729660835768" lon="121.49450860400653">
        <ele>12.238099795766175</ele>
        <time>2026-09-18T05:58:30Z</time>
      </trkpt>
      <trkpt lat="31.376950045810258" lon="121.49499333361607">
        <ele>12.238099795766175</ele>
        <time>2026-09-18T05:58:42Z</time>
      </trkpt>
      <trkpt lat="31.377009280259443" lon="121.49507763267212">
        <ele>13.194602710194886</ele>
        <time>2026-09-18T05:58:46Z</time>
      </trkpt>
      <trkpt lat="31.377103076920218" lon="121.49501941466617">
        <ele>14.441755038686097</ele>
        <time>2026-09-18T05:58:49Z</time>
      </trkpt>
      <trkpt lat="31.37718903543457" lon="121.49501438921631">
        <ele>12.829969150014222</ele>
        <time>2026-09-18T05:58:53Z</time>
      </trkpt>
      <trkpt lat="31.377275442036495" lon="121.49515890319027">
        <ele>13.215739947743714</ele>
        <time>2026-09-18T06:00:27Z</time>
      </trkpt>
      <trkpt lat="31.37736453196632" lon="121.49519803678233">
        <ele>12.71899197716266</ele>
        <time>2026-09-18T06:00:30Z</time>
      </trkpt>
      <trkpt lat="31.377631890306567" lon="121.49501134049979">
        <ele>11.926311236806214</ele>
        <time>2026-09-18T06:00:39Z</time>
      </trkpt>
      <trkpt lat="31.377746461072274" lon="121.49487985643974">
        <ele>12.798261386342347</ele>
        <time>2026-09-18T06:00:48Z</time>
      </trkpt>
      <trkpt lat="31.378151356301476" lon="121.4945526417165">
        <ele>13.194602710194886</ele>
        <time>2026-09-18T06:01:41Z</time>
      </trkpt>
      <trkpt lat="31.378250196682018" lon="121.49450947762202">
        <ele>9.157207232899964</ele>
        <time>2026-09-18T06:01:44Z</time>
      </trkpt>
      <trkpt lat="31.378359817218684" lon="121.49439405201123">
        <ele>14.02427647728473</ele>
        <time>2026-09-18T06:01:47Z</time>
      </trkpt>
      <trkpt lat="31.378453571965412" lon="121.49432178340759">
        <ele>15.784030658192933</ele>
        <time>2026-09-18T06:01:49Z</time>
      </trkpt>
      <trkpt lat="31.378715100975274" lon="121.49419129056828">
        <ele>13.215739947743714</ele>
        <time>2026-09-18T06:01:53Z</time>
      </trkpt>
      <trkpt lat="31.378794031732326" lon="121.49417622953531">
        <ele>14.262080890126526</ele>
        <time>2026-09-18T06:01:55Z</time>
      </trkpt>
      <trkpt lat="31.378944705999814" lon="121.49408288010575">
        <ele>13.633218509145081</ele>
        <time>2026-09-18T06:01:59Z</time>
      </trkpt>
      <trkpt lat="31.3792408427385" lon="121.49382492486937">
        <ele>10.192979556508362</ele>
        <time>2026-09-18T06:02:06Z</time>
      </trkpt>
      <trkpt lat="31.379348686552106" lon="121.4937837673099">
        <ele>7.101518374867737</ele>
        <time>2026-09-18T06:02:08Z</time>
      </trkpt>
      <trkpt lat="31.379461661122193" lon="121.4937867685007">
        <ele>13.215739947743714</ele>
        <time>2026-09-18T06:02:11Z</time>
      </trkpt>
      <trkpt lat="31.37965586955954" lon="121.49387607389394">
        <ele>12.290944796986878</ele>
        <time>2026-09-18T06:02:15Z</time>
      </trkpt>
      <trkpt lat="31.38017463792208" lon="121.4941851440399">
        <ele>10.25639317650348</ele>
        <time>2026-09-18T06:02:26Z</time>
      </trkpt>
      <trkpt lat="31.380598188973813" lon="121.49441192575978">
        <ele>15.636062365956604</ele>
        <time>2026-09-18T06:02:34Z</time>
      </trkpt>
      <trkpt lat="31.380982743081848" lon="121.49463570007018">
        <ele>12.09541676659137</ele>
        <time>2026-09-18T06:02:41Z</time>
      </trkpt>
      <trkpt lat="31.38126406695108" lon="121.49477216834467">
        <ele>11.979156238026917</ele>
        <time>2026-09-18T06:02:46Z</time>
      </trkpt>
      <trkpt lat="31.381652809666814" lon="121.4950591705552">
        <ele>13.733625155873597</ele>
        <time>2026-09-18T06:02:55Z</time>
      </trkpt>
      <trkpt lat="31.381943043864265" lon="121.49516653316486">
        <ele>12.475904208607972</ele>
        <time>2026-09-18T06:03:00Z</time>
      </trkpt>
      <trkpt lat="31.38215331732411" lon="121.49527892073314">
        <ele>14.262080890126526</ele>
        <time>2026-09-18T06:03:05Z</time>
      </trkpt>
      <trkpt lat="31.382354452207885" lon="121.4953441389077">
        <ele>15.73118565697223</ele>
        <time>2026-09-18T06:03:09Z</time>
      </trkpt>
      <trkpt lat="31.382437625684553" lon="121.49541037079291">
        <ele>13.152326327748597</ele>
        <time>2026-09-18T06:03:11Z</time>
      </trkpt>
      <trkpt lat="31.382909283887475" lon="121.49567729375129">
        <ele>13.733625155873597</ele>
        <time>2026-09-18T06:03:21Z</time>
      </trkpt>
      <trkpt lat="31.383324835858296" lon="121.49590307308895">
        <ele>9.74907658714801</ele>
        <time>2026-09-18T06:03:29Z</time>
      </trkpt>
      <trkpt lat="31.383506025136256" lon="121.49598435096146">
        <ele>12.116554004140198</ele>
        <time>2026-09-18T06:03:34Z</time>
      </trkpt>
      <trkpt lat="31.383672348257157" lon="121.4961087858465">
        <ele>12.09541676659137</ele>
        <time>2026-09-18T06:04:04Z</time>
      </trkpt>
      <trkpt lat="31.383740427114247" lon="121.49614189954843">
        <ele>12.000293475575745</ele>
        <time>2026-09-18T06:04:06Z</time>
      </trkpt>
      <trkpt lat="31.383972414760027" lon="121.49616094853818">
        <ele>18.130369883961976</ele>
        <time>2026-09-18T06:04:12Z</time>
      </trkpt>
      <trkpt lat="31.384397970241384" lon="121.49638873434154">
        <ele>5.690543872304261</ele>
        <time>2026-09-18T06:04:25Z</time>
      </trkpt>
      <trkpt lat="31.38457615461348" lon="121.4964680052492">
        <ele>10.050296527333558</ele>
        <time>2026-09-18T06:04:29Z</time>
      </trkpt>
      <trkpt lat="31.384670337030773" lon="121.49653825073864">
        <ele>14.526307803578675</ele>
        <time>2026-09-18T06:04:31Z</time>
      </trkpt>
      <trkpt lat="31.384855519363335" lon="121.49661752105133">
        <ele>13.839317065663636</ele>
        <time>2026-09-18T06:04:36Z</time>
      </trkpt>
      <trkpt lat="31.385076871405552" lon="121.49675700559312">
        <ele>14.84866498131305</ele>
        <time>2026-09-18T06:04:42Z</time>
      </trkpt>
      <trkpt lat="31.38553951553955" lon="121.4970179077747">
        <ele>12.539317828603089</ele>
        <time>2026-09-18T06:04:53Z</time>
      </trkpt>
      <trkpt lat="31.385974062948748" lon="121.49724368557494">
        <ele>12.03200123924762</ele>
        <time>2026-09-18T06:05:04Z</time>
      </trkpt>
      <trkpt lat="31.386111232698866" lon="121.49731392738396">
        <ele>14.658422213979065</ele>
        <time>2026-09-18T06:05:09Z</time>
      </trkpt>
      <trkpt lat="31.386449457084538" lon="121.4974222896423">
        <ele>10.525905353017151</ele>
        <time>2026-09-18T06:05:17Z</time>
      </trkpt>
      <trkpt lat="31.38690007523659" lon="121.49767315655802">
        <ele>10.473060351796448</ele>
        <time>2026-09-18T06:05:27Z</time>
      </trkpt>
      <trkpt lat="31.38731865789817" lon="121.49790897183472">
        <ele>15.947850924916565</ele>
        <time>2026-09-18T06:05:35Z</time>
      </trkpt>
      <trkpt lat="31.38753694811423" lon="121.49802738049252">
        <ele>11.836473208852112</ele>
        <time>2026-09-18T06:05:40Z</time>
      </trkpt>
      <trkpt lat="31.38791738589948" lon="121.49821101064549">
        <ele>6.715745669789612</ele>
        <time>2026-09-18T06:05:49Z</time>
      </trkpt>
      <trkpt lat="31.388119843126606" lon="121.49838361612237">
        <ele>11.535253268666565</ele>
        <time>2026-09-18T06:05:55Z</time>
      </trkpt>
      <trkpt lat="31.388470169704654" lon="121.4985271039365">
        <ele>13.506391269154847</ele>
        <time>2026-09-18T06:06:03Z</time>
      </trkpt>
      <trkpt lat="31.38886569639774" lon="121.49874184487794">
        <ele>11.78362820763141</ele>
        <time>2026-09-18T06:06:12Z</time>
      </trkpt>
      <trkpt lat="31.389328401686853" lon="121.49902281887758">
        <ele>12.613301974721253</ele>
        <time>2026-09-18T06:06:23Z</time>
      </trkpt>
      <trkpt lat="31.38981503695777" lon="121.49928271466814">
        <ele>11.482408267445862</ele>
        <time>2026-09-18T06:06:33Z</time>
      </trkpt>
      <trkpt lat="31.38995822927322" lon="121.49936098469838">
        <ele>12.169399005360901</ele>
        <time>2026-09-18T06:06:35Z</time>
      </trkpt>
      <trkpt lat="31.39016539390374" lon="121.49943623839792">
        <ele>12.375497561879456</ele>
        <time>2026-09-18T06:06:39Z</time>
      </trkpt>
      <trkpt lat="31.3905699572142" lon="121.49966402515878">
        <ele>15.075900775380433</ele>
        <time>2026-09-18T06:06:47Z</time>
      </trkpt>
      <trkpt lat="31.39094738742072" lon="121.49984464408595">
        <ele>8.739728671498597</ele>
        <time>2026-09-18T06:06:55Z</time>
      </trkpt>
      <trkpt lat="31.391039585620025" lon="121.49991990749662">
        <ele>12.116554004140198</ele>
        <time>2026-09-18T06:06:57Z</time>
      </trkpt>
      <trkpt lat="31.391107895756086" lon="121.50003029951056">
        <ele>11.408424121327698</ele>
        <time>2026-09-18T06:06:59Z</time>
      </trkpt>
      <trkpt lat="31.391133260335252" lon="121.50015474577623">
        <ele>14.399478656239808</ele>
        <time>2026-09-18T06:07:01Z</time>
      </trkpt>
      <trkpt lat="31.391113625949128" lon="121.50027518136609">
        <ele>7.381599170155823</ele>
        <time>2026-09-18T06:07:03Z</time>
      </trkpt>
      <trkpt lat="31.390922114717853" lon="121.50075492560633">
        <ele>10.060865146107972</ele>
        <time>2026-09-18T06:07:11Z</time>
      </trkpt>
      <trkpt lat="31.390716660513" lon="121.50125273512671">
        <ele>12.290944796986878</ele>
        <time>2026-09-18T06:07:19Z</time>
      </trkpt>
      <trkpt lat="31.390652358934034" lon="121.50148056037533">
        <ele>12.71899197716266</ele>
        <time>2026-09-18T06:07:23Z</time>
      </trkpt>
      <trkpt lat="31.390629790559576" lon="121.5016230749814">
        <ele>11.38728688377887</ele>
        <time>2026-09-18T06:07:25Z</time>
      </trkpt>
      <trkpt lat="31.390696366650126" lon="121.50182278761575">
        <ele>12.269805652089417</ele>
        <time>2026-09-18T06:07:28Z</time>
      </trkpt>
      <trkpt lat="31.390866667060045" lon="121.50194019532664">
        <ele>12.322652560658753</ele>
        <time>2026-09-18T06:07:33Z</time>
      </trkpt>
      <trkpt lat="31.39129582934059" lon="121.50203650513018">
        <ele>8.491353732533753</ele>
        <time>2026-09-18T06:07:41Z</time>
      </trkpt>
      <trkpt lat="31.391751020124634" lon="121.50214485595895">
        <ele>12.85110638756305</ele>
        <time>2026-09-18T06:07:49Z</time>
      </trkpt>
      <trkpt lat="31.392201278293335" lon="121.50227528649972">
        <ele>13.442975741811097</ele>
        <time>2026-09-18T06:07:57Z</time>
      </trkpt>
      <trkpt lat="31.39268957941395" lon="121.50242377861731">
        <ele>12.645009738393128</ele>
        <time>2026-09-18T06:08:43Z</time>
      </trkpt>
      <trkpt lat="31.39275775993905" lon="121.50249101439398">
        <ele>11.836473208852112</ele>
        <time>2026-09-18T06:08:45Z</time>
      </trkpt>
      <trkpt lat="31.392803798142847" lon="121.50284427928858">
        <ele>12.51818059105426</ele>
        <time>2026-09-18T06:08:51Z</time>
      </trkpt>
      <trkpt lat="31.3928400086445" lon="121.50291854284917">
        <ele>8.01574490685016</ele>
        <time>2026-09-18T06:08:54Z</time>
      </trkpt>
      <trkpt lat="31.392863568845925" lon="121.5027730183259">
        <ele>13.442975741811097</ele>
        <time>2026-09-18T06:08:59Z</time>
      </trkpt>
      <trkpt lat="31.39292111014813" lon="121.50262447996595">
        <ele>12.819398623891175</ele>
        <time>2026-09-18T06:09:02Z</time>
      </trkpt>
      <trkpt lat="31.393046682492887" lon="121.50249299697477">
        <ele>12.51818059105426</ele>
        <time>2026-09-18T06:09:06Z</time>
      </trkpt>
      <trkpt lat="31.393201365917754" lon="121.50240165565286">
        <ele>13.194602710194886</ele>
        <time>2026-09-18T06:09:10Z</time>
      </trkpt>
      <trkpt lat="31.39366384110518" lon="121.50227014377106">
        <ele>11.545823794789612</ele>
        <time>2026-09-18T06:09:19Z</time>
      </trkpt>
      <trkpt lat="31.39417221057538" lon="121.50210751603868">
        <ele>10.515336734242737</ele>
        <time>2026-09-18T06:09:29Z</time>
      </trkpt>
      <trkpt lat="31.394554804709752" lon="121.50200812621904">
        <ele>13.2051713289693</ele>
        <time>2026-09-18T06:09:36Z</time>
      </trkpt>
      <trkpt lat="31.395000225424443" lon="121.50185654332105">
        <ele>11.836473208852112</ele>
        <time>2026-09-18T06:09:44Z</time>
      </trkpt>
      <trkpt lat="31.39532879635108" lon="121.50174411104851">
        <ele>12.343789798207581</ele>
        <time>2026-09-18T06:09:53Z</time>
      </trkpt>
      <trkpt lat="31.395407803697978" lon="121.50175414040692">
        <ele>14.193382007069886</ele>
        <time>2026-09-18T06:09:55Z</time>
      </trkpt>
      <trkpt lat="31.39558006865791" lon="121.50185950469927">
        <ele>12.4970414461568</ele>
        <time>2026-09-18T06:10:02Z</time>
      </trkpt>
      <trkpt lat="31.39558601011847" lon="121.50184043561866">
        <ele>12.85110638756305</ele>
        <time>2026-09-18T06:10:38Z</time>
      </trkpt>
    </trkseg>
  </trk>
</gpx>