<?xml version="1.0" encoding="UTF-8"?>
<gpx xmlns="http://www.topografix.com/GPX/1/1" xmlns:gpxtpx="http://www.garmin.com/xmlschemas/TrackPointExtension/v1" xmlns:xsi="http://www.w3.org/2001/XMLSchema-instance" xsi:schemaLocation="http://www.topografix.com/GPX/1/1 http://www.topografix.com/GPX/1/1/gpx.xsd" version="1.1" creator="gpx.py -- https://github.com/tkrajina/gpxpy">
  <trk>
    <name>gpx from keep</name>
    <type>Run</type>
    <trkseg>
      <trkpt lat="32.05190834851775" lon="118.80390389838364">
        <ele>14.16658781748265</ele>
        <time>2026-08-04T10:31:09Z</time>
      </trkpt>
      <trkpt lat="32.05192577299592" lon="118.80414537352428">
        <ele>15.831222522072494</ele>
        <time>2026-08-04T10:31:18Z</time>
      </trkpt>
      <trkpt lat="32.05204108015366" lon="118.80430668194349">
        <ele>14.972484576515853</ele>
        <time>2026-08-04T10:31:24Z</time>
      </trkpt>
      <trkpt lat="32.05233234986037" lon="118.80442388727378">
        <ele>15.965980517677963</ele>
        <time>2026-08-04T10:31:36Z</time>
      </trkpt>
      <trkpt lat="32.05267962696338" lon="118.80453808171899">
        <ele>16.1456527588889</ele>
        <time>2026-08-04T10:31:48Z</time>
      </trkpt>
      <trkpt lat="32.05303787158227" lon="118.80463223560209">
        <ele>15.3926010010764</ele>
        <time>2026-08-04T10:32:00Z</time>
      </trkpt>
      <trkpt lat="32.05310189285956" lon="118.80463623767176">
        <ele>14.219436633400619</ele>
        <time>2026-08-04T10:32:03Z</time>
      </trkpt>
      <trkpt lat="32.05328779575869" lon="118.80455706358492">
        <ele>15.590774524025619</ele>
        <time>2026-08-04T10:32:09Z</time>
      </trkpt>
      <trkpt lat="32.05334969915122" lon="118.80449393276093">
        <ele>14.940776812843978</ele>
        <time>2026-08-04T10:32:12Z</time>
      </trkpt>
      <trkpt lat="32.05339654497246" lon="118.80439974186329">
        <ele>15.255203234963119</ele>
        <time>2026-08-04T10:32:15Z</time>
      </trkpt>
      <trkpt lat="32.053423281513744" lon="118.80424543401794">
        <ele>13.109680163674057</ele>
        <time>2026-08-04T10:32:21Z</time>
      </trkpt>
      <trkpt lat="32.05340104765206" lon="118.80411417658424">
        <ele>15.255203234963119</ele>
        <time>2026-08-04T10:32:24Z</time>
      </trkpt>
      <trkpt lat="32.05335589443399" lon="118.80403201845506">
        <ele>16.29097746592015</ele>
        <time>2026-08-04T10:32:27Z</time>
      </trkpt>
      <trkpt lat="32.05325669613947" lon="118.80393082784263">
        <ele>16.312118518166244</ele>
        <time>2026-08-04T10:32:30Z</time>
      </trkpt>
      <trkpt lat="32.05315456704374" lon="118.80386971668126">
        <ele>14.668621051125228</ele>
        <time>2026-08-04T10:32:33Z</time>
      </trkpt>
      <trkpt lat="32.05287538635795" lon="118.80380160802983">
        <ele>14.594638812355697</ele>
        <time>2026-08-04T10:32:45Z</time>
      </trkpt>
      <trkpt lat="32.05262123915658" lon="118.80374952873156">
        <ele>8.451351153664291</ele>
        <time>2026-08-04T10:32:54Z</time>
      </trkpt>
      <trkpt lat="32.05238401570499" lon="118.80365135719164">
        <ele>13.590572345070541</ele>
        <time>2026-08-04T10:33:03Z</time>
      </trkpt>
      <trkpt lat="32.052234961594195" lon="118.8036393472262">
        <ele>14.679191577248275</ele>
        <time>2026-08-04T10:33:09Z</time>
      </trkpt>
      <trkpt lat="32.052103981100174" lon="118.80366741448101">
        <ele>14.354190814308822</ele>
        <time>2026-08-04T10:33:15Z</time>
      </trkpt>
      <trkpt lat="32.05199909347345" lon="118.80374557800995">
        <ele>15.580207812599838</ele>
        <time>2026-08-04T10:33:18Z</time>
      </trkpt>
      <trkpt lat="32.05193923340043" lon="118.80383375725143">
        <ele>15.852363574318588</ele>
        <time>2026-08-04T10:33:21Z</time>
      </trkpt>
      <trkpt lat="32.051890410778185" lon="118.80394197513965">
        <ele>14.668621051125228</ele>
        <time>2026-08-04T10:33:24Z</time>
      </trkpt>
      <trkpt lat="32.0518845787136" lon="118.80403916750531">
        <ele>13.537727343849838</ele>
        <time>2026-08-04T10:33:27Z</time>
      </trkpt>
      <trkpt lat="32.05193187045815" lon="118.80420048189676">
        <ele>15.944839465431869</ele>
        <time>2026-08-04T10:33:33Z</time>
      </trkpt>
      <trkpt lat="32.052013091403836" lon="118.80431670434359">
        <ele>15.633048999123275</ele>
        <time>2026-08-04T10:33:36Z</time>
      </trkpt>
      <trkpt lat="32.05216727103411" lon="118.80439985481485">
        <ele>15.704391467384994</ele>
        <time>2026-08-04T10:33:42Z</time>
      </trkpt>
      <trkpt lat="32.052478480509244" lon="118.80447998501222">
        <ele>12.826957690529525</ele>
        <time>2026-08-04T10:33:54Z</time>
      </trkpt>
      <trkpt lat="32.052787722915966" lon="118.8045791532458">
        <ele>15.223495471291244</ele>
        <time>2026-08-04T10:34:06Z</time>
      </trkpt>
      <trkpt lat="32.05312092867109" lon="118.80465427171">
        <ele>15.181220996193588</ele>
        <time>2026-08-04T10:34:18Z</time>
      </trkpt>
      <trkpt lat="32.05330679648497" lon="118.80455505786553">
        <ele>15.078170764259994</ele>
        <time>2026-08-04T10:34:27Z</time>
      </trkpt>
      <trkpt lat="32.05338564935401" lon="118.80446086393543">
        <ele>15.223495471291244</ele>
        <time>2026-08-04T10:34:30Z</time>
      </trkpt>
      <trkpt lat="32.05343534540074" lon="118.80428050228232">
        <ele>15.181220996193588</ele>
        <time>2026-08-04T10:34:36Z</time>
      </trkpt>
      <trkpt lat="32.05341402434624" lon="118.80409914569847">
        <ele>13.233867633156478</ele>
        <time>2026-08-04T10:34:42Z</time>
      </trkpt>
      <trkpt lat="32.05330774413268" lon="118.80395186466541">
        <ele>15.265777575783432</ele>
        <time>2026-08-04T10:34:48Z</time>
      </trkpt>
      <trkpt lat="32.05324263721246" lon="118.80389876588934">
        <ele>15.611915576271713</ele>
        <time>2026-08-04T10:34:51Z</time>
      </trkpt>
      <trkpt lat="32.05293441867388" lon="118.8038126243259">
        <ele>15.276344287209213</ele>
        <time>2026-08-04T10:35:03Z</time>
      </trkpt>
      <trkpt lat="32.05261816361183" lon="118.80370644416146">
        <ele>15.9369125245139</ele>
        <time>2026-08-04T10:35:15Z</time>
      </trkpt>
      <trkpt lat="32.05232196011837" lon="118.80362731557027">
        <ele>14.364761340431869</ele>
        <time>2026-08-04T10:35:27Z</time>
      </trkpt>
      <trkpt lat="32.052240895083195" lon="118.80360026979186">
        <ele>14.845653521828353</ele>
        <time>2026-08-04T10:35:30Z</time>
      </trkpt>
      <trkpt lat="32.05215592657414" lon="118.80362933477181">
        <ele>14.322483050636947</ele>
        <time>2026-08-04T10:35:33Z</time>
      </trkpt>
      <trkpt lat="32.05199009146557" lon="118.8037455788372">
        <ele>15.149513232521713</ele>
        <time>2026-08-04T10:35:40Z</time>
      </trkpt>
      <trkpt lat="32.05189635804757" lon="118.8039109133193">
        <ele>13.014556872658432</ele>
        <time>2026-08-04T10:35:43Z</time>
      </trkpt>
      <trkpt lat="32.05189160471796" lon="118.80405319455917">
        <ele>12.9405746338889</ele>
        <time>2026-08-04T10:35:46Z</time>
      </trkpt>
      <trkpt lat="32.05197699940117" lon="118.80426861249838">
        <ele>14.259067523293197</ele>
        <time>2026-08-04T10:35:52Z</time>
      </trkpt>
      <trkpt lat="32.052085200221875" lon="118.8043698028353">
        <ele>14.930206286720932</ele>
        <time>2026-08-04T10:35:58Z</time>
      </trkpt>
      <trkpt lat="32.05236539224739" lon="118.80444392393385">
        <ele>15.66475676279515</ele>
        <time>2026-08-04T10:36:10Z</time>
      </trkpt>
      <trkpt lat="32.05265763608227" lon="118.80454609963184">
        <ele>15.778373706154525</ele>
        <time>2026-08-04T10:36:22Z</time>
      </trkpt>
      <trkpt lat="32.05300688572537" lon="118.8046442623059">
        <ele>16.57369993906468</ele>
        <time>2026-08-04T10:36:37Z</time>
      </trkpt>
      <trkpt lat="32.053150902022864" lon="118.80463523118071">
        <ele>15.149513232521713</ele>
        <time>2026-08-04T10:36:43Z</time>
      </trkpt>
      <trkpt lat="32.053226875104215" lon="118.80461017450453">
        <ele>15.170654284767807</ele>
        <time>2026-08-04T10:36:46Z</time>
      </trkpt>
      <trkpt lat="32.05329081045234" lon="118.80456507920275">
        <ele>15.160087573342025</ele>
        <time>2026-08-04T10:36:49Z</time>
      </trkpt>
      <trkpt lat="32.053381580154806" lon="118.80442178689643">
        <ele>15.3926010010764</ele>
        <time>2026-08-04T10:36:55Z</time>
      </trkpt>
      <trkpt lat="32.05341341748042" lon="118.80432459153701">
        <ele>15.212928759865463</ele>
        <time>2026-08-04T10:36:58Z</time>
      </trkpt>
      <trkpt lat="32.05341013352259" lon="118.80416227079243">
        <ele>13.601142871193588</ele>
        <time>2026-08-04T10:37:04Z</time>
      </trkpt>
      <trkpt lat="32.05339199674085" lon="118.80408612199145">
        <ele>14.459880816750228</ele>
        <time>2026-08-04T10:37:07Z</time>
      </trkpt>
      <trkpt lat="32.05331579651243" lon="118.80398092126603">
        <ele>12.919437396340072</ele>
        <time>2026-08-04T10:37:13Z</time>
      </trkpt>
      <trkpt lat="32.05321365342211" lon="118.8039117942442">
        <ele>14.481018054299057</ele>
        <time>2026-08-04T10:37:19Z</time>
      </trkpt>
      <trkpt lat="32.052924458270176" lon="118.80383667263942">
        <ele>15.244636523537338</ele>
        <time>2026-08-04T10:37:34Z</time>
      </trkpt>
      <trkpt lat="32.05264718052312" lon="118.80371245333293">
        <ele>14.626346576027572</ele>
        <time>2026-08-04T10:37:43Z</time>
      </trkpt>
      <trkpt lat="32.05236795123949" lon="118.80361628965669">
        <ele>13.601142871193588</ele>
        <time>2026-08-04T10:37:55Z</time>
      </trkpt>
      <trkpt lat="32.052284899678256" lon="118.80359725983438">
        <ele>14.95134352426976</ele>
        <time>2026-08-04T10:37:58Z</time>
      </trkpt>
      <trkpt lat="32.05220389030962" lon="118.80360227713497">
        <ele>14.5655746338889</ele>
        <time>2026-08-04T10:38:01Z</time>
      </trkpt>
      <trkpt lat="32.0520679904744" lon="118.80367743751229">
        <ele>14.177158343605697</ele>
        <time>2026-08-04T10:38:07Z</time>
      </trkpt>
      <trkpt lat="32.05199410106592" lon="118.80375058833692">
        <ele>15.276344287209213</ele>
        <time>2026-08-04T10:38:10Z</time>
      </trkpt>
      <trkpt lat="32.05189945814546" lon="118.80396802571144">
        <ele>14.428173053078353</ele>
        <time>2026-08-04T10:38:16Z</time>
      </trkpt>
      <trkpt lat="32.051910762660036" lon="118.80414136698307">
        <ele>15.463943469338119</ele>
        <time>2026-08-04T10:38:22Z</time>
      </trkpt>
      <trkpt lat="32.05194691926003" lon="118.80422653202656">
        <ele>10.565170275978744</ele>
        <time>2026-08-04T10:38:25Z</time>
      </trkpt>
      <trkpt lat="32.05200006050959" lon="118.80430067381629">
        <ele>14.721466052345932</ele>
        <time>2026-08-04T10:38:28Z</time>
      </trkpt>
      <trkpt lat="32.052065159003206" lon="118.80434876302107">
        <ele>14.95134352426976</ele>
        <time>2026-08-04T10:38:31Z</time>
      </trkpt>
      <trkpt lat="32.05233933040747" lon="118.80441186281782">
        <ele>15.537933337502182</ele>
        <time>2026-08-04T10:38:44Z</time>
      </trkpt>
      <trkpt lat="32.052633567634444" lon="118.80451003033603">
        <ele>14.919635760597885</ele>
        <time>2026-08-04T10:38:56Z</time>
      </trkpt>
      <trkpt lat="32.0529738450419" lon="118.80462522756946">
        <ele>13.109680163674057</ele>
        <time>2026-08-04T10:39:08Z</time>
      </trkpt>
      <trkpt lat="32.053068899540776" lon="118.80464425660803">
        <ele>15.286910998634994</ele>
        <time>2026-08-04T10:39:11Z</time>
      </trkpt>
      <trkpt lat="32.053238872516054" lon="118.80460716743936">
        <ele>12.919437396340072</ele>
        <time>2026-08-04T10:39:17Z</time>
      </trkpt>
      <trkpt lat="32.0533108008822" lon="118.80455706147113">
        <ele>14.887931811623275</ele>
        <time>2026-08-04T10:39:20Z</time>
      </trkpt>
      <trkpt lat="32.053405522465724" lon="118.80438571326002">
        <ele>14.417606341652572</ele>
        <time>2026-08-04T10:39:26Z</time>
      </trkpt>
      <trkpt lat="32.05342626294676" lon="118.80423441194515">
        <ele>14.837726580910385</ele>
        <time>2026-08-04T10:39:32Z</time>
      </trkpt>
      <trkpt lat="32.05339503583472" lon="118.80410816525892">
        <ele>15.01475905161351</ele>
        <time>2026-08-04T10:39:35Z</time>
      </trkpt>
      <trkpt lat="32.05335088633761" lon="118.80402801100207">
        <ele>14.58406828623265</ele>
        <time>2026-08-04T10:39:38Z</time>
      </trkpt>
      <trkpt lat="32.05328875211232" lon="118.80395888025026">
        <ele>14.961914050392807</ele>
        <time>2026-08-04T10:39:41Z</time>
      </trkpt>
      <trkpt lat="32.05301046174979" lon="118.80382764696051">
        <ele>10.596878039650619</ele>
        <time>2026-08-04T10:39:53Z</time>
      </trkpt>
      <trkpt lat="32.05273721973855" lon="118.80372346676319">
        <ele>14.385898577980697</ele>
        <time>2026-08-04T10:40:05Z</time>
      </trkpt>
      <trkpt lat="32.05256507694678" lon="118.80366336421805">
        <ele>14.541793811134994</ele>
        <time>2026-08-04T10:40:14Z</time>
      </trkpt>
      <trkpt lat="32.05240398188439" lon="118.80362931197587">
        <ele>14.282848346047103</ele>
        <time>2026-08-04T10:40:20Z</time>
      </trkpt>
      <trkpt lat="32.05226085432343" lon="118.80357421671236">
        <ele>14.58406828623265</ele>
        <time>2026-08-04T10:40:26Z</time>
      </trkpt>
      <trkpt lat="32.052184861720626" lon="118.80358825128823">
        <ele>13.936710345558822</ele>
        <time>2026-08-04T10:40:29Z</time>
      </trkpt>
      <trkpt lat="32.05205302890593" lon="118.80370148623128">
        <ele>14.837726580910385</ele>
        <time>2026-08-04T10:40:35Z</time>
      </trkpt>
      <trkpt lat="32.05199215635931" lon="118.8037826516819">
        <ele>8.345661151222885</ele>
        <time>2026-08-04T10:40:38Z</time>
      </trkpt>
      <trkpt lat="32.05191745518266" lon="118.80396401614878">
        <ele>14.187728869728744</ele>
        <time>2026-08-04T10:40:44Z</time>
      </trkpt>
      <trkpt lat="32.051905607841675" lon="118.80405319327244">
        <ele>14.983051287941635</ele>
        <time>2026-08-04T10:40:48Z</time>
      </trkpt>
      <trkpt lat="32.051917776452974" lon="118.80414838019958">
        <ele>12.438541400246322</ele>
        <time>2026-08-04T10:40:51Z</time>
      </trkpt>
      <trkpt lat="32.05194793696848" lon="118.80423655174849">
        <ele>15.590774524025619</ele>
        <time>2026-08-04T10:40:54Z</time>
      </trkpt>
      <trkpt lat="32.05200107472924" lon="118.80430868958489">
        <ele>14.322483050636947</ele>
        <time>2026-08-04T10:40:57Z</time>
      </trkpt>
      <trkpt lat="32.05213224396792" lon="118.8043888362074">
        <ele>6.474929797463119</ele>
        <time>2026-08-04T10:41:03Z</time>
      </trkpt>
      <trkpt lat="32.05234836919033" lon="118.80443290366432">
        <ele>14.95134352426976</ele>
        <time>2026-08-04T10:41:12Z</time>
      </trkpt>
      <trkpt lat="32.052628605077196" lon="118.80453207448842">
        <ele>15.675331103615463</ele>
        <time>2026-08-04T10:41:24Z</time>
      </trkpt>
      <trkpt lat="32.05293283941315" lon="118.80462723531285">
        <ele>14.491588580422103</ele>
        <time>2026-08-04T10:41:36Z</time>
      </trkpt>
      <trkpt lat="32.05308693864084" lon="118.80466429471704">
        <ele>14.784881579689682</ele>
        <time>2026-08-04T10:41:42Z</time>
      </trkpt>
      <trkpt lat="32.05317095560191" lon="118.80466328500904">
        <ele>16.29097746592015</ele>
        <time>2026-08-04T10:41:45Z</time>
      </trkpt>
      <trkpt lat="32.05330887934093" lon="118.80460215106926">
        <ele>13.989555346779525</ele>
        <time>2026-08-04T10:41:51Z</time>
      </trkpt>
      <trkpt lat="32.05341969722136" lon="118.8044839064721">
        <ele>13.968418109230697</ele>
        <time>2026-08-04T10:41:57Z</time>
      </trkpt>
      <trkpt lat="32.05345551434511" lon="118.80437468684273">
        <ele>14.732036578468978</ele>
        <time>2026-08-04T10:42:00Z</time>
      </trkpt>
      <trkpt lat="32.05345834352658" lon="118.80427649223971">
        <ele>8.765781390480697</ele>
        <time>2026-08-04T10:42:03Z</time>
      </trkpt>
      <trkpt lat="32.053409009259845" lon="118.80409113032441">
        <ele>14.700328814797103</ele>
        <time>2026-08-04T10:42:09Z</time>
      </trkpt>
      <trkpt lat="32.05333878244213" lon="118.80396989740221">
        <ele>9.946876513771713</ele>
        <time>2026-08-04T10:42:15Z</time>
      </trkpt>
      <trkpt lat="32.0532556435961" lon="118.80390076864643">
        <ele>14.177158343605697</ele>
        <time>2026-08-04T10:42:18Z</time>
      </trkpt>
      <trkpt lat="32.053026440918124" lon="118.80381361784403">
        <ele>14.491588580422103</ele>
        <time>2026-08-04T10:42:27Z</time>
      </trkpt>
      <trkpt lat="32.0528373813734" lon="118.80380361547151">
        <ele>13.558864581398666</ele>
        <time>2026-08-04T10:42:33Z</time>
      </trkpt>
      <trkpt lat="32.05265127893788" lon="118.80376856347385">
        <ele>14.983051287941635</ele>
        <time>2026-08-04T10:42:39Z</time>
      </trkpt>
      <trkpt lat="32.05237905809917" lon="118.8036764069535">
        <ele>14.145450579933822</ele>
        <time>2026-08-04T10:42:51Z</time>
      </trkpt>
      <trkpt lat="32.05229097582387" lon="118.80364034405042">
        <ele>13.926143634133041</ele>
        <time>2026-08-04T10:42:54Z</time>
      </trkpt>
      <trkpt lat="32.05210195628961" lon="118.80365338705646">
        <ele>14.898498523049057</ele>
        <time>2026-08-04T10:43:00Z</time>
      </trkpt>
      <trkpt lat="32.05202103743597" lon="118.80371050692764">
        <ele>14.721466052345932</ele>
        <time>2026-08-04T10:43:03Z</time>
      </trkpt>
      <trkpt lat="32.05193824189167" lon="118.80383876721801">
        <ele>15.109878527931869</ele>
        <time>2026-08-04T10:43:09Z</time>
      </trkpt>
      <trkpt lat="32.05189744374152" lon="118.80396001007901">
        <ele>14.679191577248275</ele>
        <time>2026-08-04T10:43:12Z</time>
      </trkpt>
      <trkpt lat="32.05189359468851" lon="118.80404718250472">
        <ele>14.481018054299057</ele>
        <time>2026-08-04T10:43:15Z</time>
      </trkpt>
      <trkpt lat="32.05190976593145" lon="118.80414337103485">
        <ele>14.80601881723851</ele>
        <time>2026-08-04T10:43:18Z</time>
      </trkpt>
      <trkpt lat="32.052033109864006" lon="118.80432471836808">
        <ele>10.982650744728744</ele>
        <time>2026-08-04T10:43:24Z</time>
      </trkpt>
      <trkpt lat="32.05207318004079" lon="118.80435978410283">
        <ele>8.953384387306869</ele>
        <time>2026-08-04T10:43:27Z</time>
      </trkpt>
      <trkpt lat="32.0523834137774" lon="118.80445394212845">
        <ele>14.71089934092015</ele>
        <time>2026-08-04T10:43:39Z</time>
      </trkpt>
      <trkpt lat="32.05267966027002" lon="118.80455711946179">
        <ele>14.491588580422103</ele>
        <time>2026-08-04T10:43:51Z</time>
      </trkpt>
      <trkpt lat="32.052943868177486" lon="118.80464226411968">
        <ele>14.827156054787338</ele>
        <time>2026-08-04T10:44:03Z</time>
      </trkpt>
      <trkpt lat="32.05305293983813" lon="118.80466930778347">
        <ele>15.286910998634994</ele>
        <time>2026-08-04T10:44:06Z</time>
      </trkpt>
      <trkpt lat="32.05317094332011" lon="118.80465627109129">
        <ele>14.887931811623275</ele>
        <time>2026-08-04T10:44:12Z</time>
      </trkpt>
      <trkpt lat="32.05335473881744" lon="118.80451597598899">
        <ele>13.30784987192601</ele>
        <time>2026-08-04T10:44:21Z</time>
      </trkpt>
      <trkpt lat="32.05340863345673" lon="118.80444883800156">
        <ele>15.527358996681869</ele>
        <time>2026-08-04T10:44:24Z</time>
      </trkpt>
      <trkpt lat="32.053420279096834" lon="118.80424443231205">
        <ele>14.576141345314682</ele>
        <time>2026-08-04T10:44:30Z</time>
      </trkpt>
      <trkpt lat="32.05337595126601" lon="118.8040620759694">
        <ele>12.343421923927963</ele>
        <time>2026-08-04T10:44:36Z</time>
      </trkpt>
      <trkpt lat="32.05327670233912" lon="118.80393182798085">
        <ele>14.428173053078353</ele>
        <time>2026-08-04T10:44:42Z</time>
      </trkpt>
      <trkpt lat="32.053199622401564" lon="118.80389576391387">
        <ele>14.71089934092015</ele>
        <time>2026-08-04T10:44:45Z</time>
      </trkpt>
      <trkpt lat="32.05292946461316" lon="118.8038396781048">
        <ele>14.124313342384994</ele>
        <time>2026-08-04T10:44:57Z</time>
      </trkpt>
      <trkpt lat="32.0526811706926" lon="118.80370243047948">
        <ele>11.077770221047103</ele>
        <time>2026-08-04T10:45:09Z</time>
      </trkpt>
      <trkpt lat="32.05255814153032" lon="118.80370143981278">
        <ele>14.177158343605697</ele>
        <time>2026-08-04T10:45:12Z</time>
      </trkpt>
      <trkpt lat="32.052505100119966" lon="118.80368441115067">
        <ele>13.820449816994369</ele>
        <time>2026-08-04T10:45:15Z</time>
      </trkpt>
      <trkpt lat="32.05245600913906" lon="118.80363832494037">
        <ele>14.491588580422103</ele>
        <time>2026-08-04T10:45:18Z</time>
      </trkpt>
      <trkpt lat="32.05232191140878" lon="118.80359926037535">
        <ele>12.647281634621322</ele>
        <time>2026-08-04T10:45:24Z</time>
      </trkpt>
      <trkpt lat="32.052251892318324" lon="118.80359726286773">
        <ele>13.276142108254135</ele>
        <time>2026-08-04T10:45:27Z</time>
      </trkpt>
      <trkpt lat="32.052123931615576" lon="118.8036363515142">
        <ele>14.845653521828353</ele>
        <time>2026-08-04T10:45:33Z</time>
      </trkpt>
      <trkpt lat="32.051989032037966" lon="118.80371151184183">
        <ele>4.350540149025619</ele>
        <time>2026-08-04T10:45:37Z</time>
      </trkpt>
      <trkpt lat="32.05190915526291" lon="118.80379267905215">
        <ele>13.109680163674057</ele>
        <time>2026-08-04T10:45:40Z</time>
      </trkpt>
      <trkpt lat="32.05185341473353" lon="118.80394899237747">
        <ele>15.025329577736557</ele>
        <time>2026-08-04T10:45:46Z</time>
      </trkpt>
      <trkpt lat="32.0518686816635" lon="118.80410028968004">
        <ele>15.149513232521713</ele>
        <time>2026-08-04T10:45:52Z</time>
      </trkpt>
      <trkpt lat="32.05194997763636" lon="118.80425959714265">
        <ele>14.721466052345932</ele>
        <time>2026-08-04T10:45:55Z</time>
      </trkpt>
      <trkpt lat="32.052026145052395" lon="118.80434576065558">
        <ele>14.845653521828353</ele>
        <time>2026-08-04T10:45:58Z</time>
      </trkpt>
      <trkpt lat="32.05207320804815" lon="118.8043758158401">
        <ele>15.120452868752182</ele>
        <time>2026-08-04T10:46:01Z</time>
      </trkpt>
      <trkpt lat="32.05240642591308" lon="118.80445794795467">
        <ele>13.757038104347885</ele>
        <time>2026-08-04T10:46:13Z</time>
      </trkpt>
      <trkpt lat="32.052732689616356" lon="118.80456713445794">
        <ele>15.035896289162338</ele>
        <time>2026-08-04T10:46:25Z</time>
      </trkpt>
      <trkpt lat="32.053045901433244" lon="118.80464826667391">
        <ele>14.5655746338889</ele>
        <time>2026-08-04T10:46:37Z</time>
      </trkpt>
      <trkpt lat="32.05312889361282" lon="118.80463322922685">
        <ele>15.590774524025619</ele>
        <time>2026-08-04T10:46:40Z</time>
      </trkpt>
      <trkpt lat="32.05333370084398" lon="118.80449694018837">
        <ele>14.827156054787338</ele>
        <time>2026-08-04T10:46:49Z</time>
      </trkpt>
      <trkpt lat="32.05339544847104" lon="118.80434463285289">
        <ele>15.160087573342025</ele>
        <time>2026-08-04T10:46:55Z</time>
      </trkpt>
      <trkpt lat="32.05341027512081" lon="118.80424343124953">
        <ele>14.993621814064682</ele>
        <time>2026-08-04T10:46:58Z</time>
      </trkpt>
      <trkpt lat="32.05337097285307" lon="118.80407510215299">
        <ele>13.590572345070541</ele>
        <time>2026-08-04T10:47:04Z</time>
      </trkpt>
      <trkpt lat="32.05332281028677" lon="118.80398793446439">
        <ele>15.704391467384994</ele>
        <time>2026-08-04T10:47:07Z</time>
      </trkpt>
      <trkpt lat="32.05312255294073" lon="118.8038657117207">
        <ele>14.95134352426976</ele>
        <time>2026-08-04T10:47:16Z</time>
      </trkpt>
      <trkpt lat="32.0528553453139" lon="118.8037805684098">
        <ele>12.3143539307639</ele>
        <time>2026-08-04T10:47:28Z</time>
      </trkpt>
      <trkpt lat="32.05267920506826" lon="118.80372247012139">
        <ele>14.626346576027572</ele>
        <time>2026-08-04T10:47:37Z</time>
      </trkpt>
      <trkpt lat="32.05240100905508" lon="118.80364534379801">
        <ele>14.060897815041244</ele>
        <time>2026-08-04T10:47:49Z</time>
      </trkpt>
      <trkpt lat="32.05225792670764" lon="118.80361629976784">
        <ele>14.039760577492416</ele>
        <time>2026-08-04T10:47:58Z</time>
      </trkpt>
      <trkpt lat="32.05211294656223" lon="118.8036463722424">
        <ele>13.947280871681869</ele>
        <time>2026-08-04T10:48:01Z</time>
      </trkpt>
      <trkpt lat="32.05203001681141" lon="118.80369748045466">
        <ele>15.035896289162338</ele>
        <time>2026-08-04T10:48:07Z</time>
      </trkpt>
      <trkpt lat="32.0518974856174" lon="118.80398405753093">
        <ele>14.417606341652572</ele>
        <time>2026-08-04T10:48:16Z</time>
      </trkpt>
      <trkpt lat="32.051885615601506" lon="118.80406020896044">
        <ele>14.396469104103744</ele>
        <time>2026-08-04T10:48:19Z</time>
      </trkpt>
      <trkpt lat="32.051897773737934" lon="118.80414938401776">
        <ele>15.255203234963119</ele>
        <time>2026-08-04T10:48:22Z</time>
      </trkpt>
      <trkpt lat="32.051934928822284" lon="118.80423354699894">
        <ele>14.082035052590072</ele>
        <time>2026-08-04T10:48:25Z</time>
      </trkpt>
      <trkpt lat="32.05205317557919" lon="118.8043597859409">
        <ele>14.784881579689682</ele>
        <time>2026-08-04T10:48:31Z</time>
      </trkpt>
      <trkpt lat="32.05223736194941" lon="118.8044429337126">
        <ele>14.763744342140853</ele>
        <time>2026-08-04T10:48:40Z</time>
      </trkpt>
      <trkpt lat="32.05230737580977" lon="118.80444192529464">
        <ele>13.392402636818588</ele>
        <time>2026-08-04T10:48:46Z</time>
      </trkpt>
      <trkpt lat="32.05252558737188" lon="118.804535089913">
        <ele>15.067604052834213</ele>
        <time>2026-08-04T10:48:52Z</time>
      </trkpt>
      <trkpt lat="32.052808764421606" lon="118.80460019304567">
        <ele>10.409275042824447</ele>
        <time>2026-08-04T10:49:04Z</time>
      </trkpt>
      <trkpt lat="32.05304494858382" lon="118.80467532044935">
        <ele>8.493625628761947</ele>
        <time>2026-08-04T10:49:13Z</time>
      </trkpt>
      <trkpt lat="32.053190937249234" lon="118.80465025732437">
        <ele>13.947280871681869</ele>
        <time>2026-08-04T10:49:19Z</time>
      </trkpt>
      <trkpt lat="32.05331679345336" lon="118.80455205098677">
        <ele>15.057037341408432</ele>
        <time>2026-08-04T10:49:26Z</time>
      </trkpt>
      <trkpt lat="32.05339956840368" lon="118.8044127673825">
        <ele>14.658050525002182</ele>
        <time>2026-08-04T10:49:32Z</time>
      </trkpt>
      <trkpt lat="32.05343143023897" lon="118.80432959979743">
        <ele>3.1588744996115565</ele>
        <time>2026-08-04T10:49:35Z</time>
      </trkpt>
      <trkpt lat="32.05343825862529" lon="118.80423040291649">
        <ele>15.025329577736557</ele>
        <time>2026-08-04T10:49:38Z</time>
      </trkpt>
      <trkpt lat="32.05342007459442" lon="118.80412720057294">
        <ele>14.251140582375228</ele>
        <time>2026-08-04T10:49:41Z</time>
      </trkpt>
      <trkpt lat="32.05334783156167" lon="118.80399694996427">
        <ele>12.700126635842025</ele>
        <time>2026-08-04T10:49:47Z</time>
      </trkpt>
      <trkpt lat="32.053293737524974" lon="118.80394986199855">
        <ele>14.6474838135764</ele>
        <time>2026-08-04T10:49:50Z</time>
      </trkpt>
      <trkpt lat="32.05300250702653" lon="118.80385470102189">
        <ele>14.3119125245139</ele>
        <time>2026-08-04T10:50:02Z</time>
      </trkpt>
      <trkpt lat="32.05271726926564" lon="118.80375452977523">
        <ele>8.9005355713889</ele>
        <time>2026-08-04T10:50:14Z</time>
      </trkpt>
      <trkpt lat="32.05245104804789" lon="118.80366137075272">
        <ele>14.282848346047103</ele>
        <time>2026-08-04T10:50:26Z</time>
      </trkpt>
      <trkpt lat="32.05226493870715" lon="118.80362231095248">
        <ele>13.45317457895726</ele>
        <time>2026-08-04T10:50:35Z</time>
      </trkpt>
      <trkpt lat="32.05213193862005" lon="118.80363935669381">
        <ele>13.841590869240463</ele>
        <time>2026-08-04T10:50:41Z</time>
      </trkpt>
      <trkpt lat="32.0520849716406" lon="118.80366441031109">
        <ele>14.576141345314682</ele>
        <time>2026-08-04T10:50:44Z</time>
      </trkpt>
      <trkpt lat="32.05198612714906" lon="118.8037666206507">
        <ele>13.852157580666244</ele>
        <time>2026-08-04T10:50:47Z</time>
      </trkpt>
      <trkpt lat="32.051900414753824" lon="118.80394297619722">
        <ele>13.989555346779525</ele>
        <time>2026-08-04T10:50:53Z</time>
      </trkpt>
      <trkpt lat="32.05191079411287" lon="118.80415940262431">
        <ele>14.827156054787338</ele>
        <time>2026-08-04T10:50:59Z</time>
      </trkpt>
      <trkpt lat="32.05196198031365" lon="118.80425959603978">
        <ele>9.854396807961166</ele>
        <time>2026-08-04T10:51:02Z</time>
      </trkpt>
      <trkpt lat="32.052091184056145" lon="118.80435978244856">
        <ele>14.259067523293197</ele>
        <time>2026-08-04T10:51:08Z</time>
      </trkpt>
      <trkpt lat="32.052388442920915" lon="118.80446997343043">
        <ele>14.407035815529525</ele>
        <time>2026-08-04T10:51:20Z</time>
      </trkpt>
      <trkpt lat="32.05270168971921" lon="118.80457114525412">
        <ele>14.972484576515853</ele>
        <time>2026-08-04T10:51:32Z</time>
      </trkpt>
      <trkpt lat="32.05298789377205" lon="118.80465127796842">
        <ele>12.343421923927963</ele>
        <time>2026-08-04T10:51:45Z</time>
      </trkpt>
      <trkpt lat="32.05314595880509" lon="118.8046682972483">
        <ele>13.968418109230697</ele>
        <time>2026-08-04T10:51:51Z</time>
      </trkpt>
      <trkpt lat="32.0532928775305" lon="118.80460315452706">
        <ele>14.134883868508041</ele>
        <time>2026-08-04T10:51:57Z</time>
      </trkpt>
      <trkpt lat="32.05336077345469" lon="118.80453501317396">
        <ele>13.611713397316635</ele>
        <time>2026-08-04T10:52:00Z</time>
      </trkpt>
      <trkpt lat="32.05343150199762" lon="118.80437068111378">
        <ele>14.459880816750228</ele>
        <time>2026-08-04T10:52:06Z</time>
      </trkpt>
      <trkpt lat="32.053431136452375" lon="118.80416126688199">
        <ele>14.2300033448264</ele>
        <time>2026-08-04T10:52:12Z</time>
      </trkpt>
      <trkpt lat="32.05335285012801" lon="118.80400696928153">
        <ele>14.198295581154525</ele>
        <time>2026-08-04T10:52:18Z</time>
      </trkpt>
      <trkpt lat="32.05329872119441" lon="118.80393984177148">
        <ele>14.259067523293197</ele>
        <time>2026-08-04T10:52:21Z</time>
      </trkpt>
      <trkpt lat="32.05302245919564" lon="118.80382463993314">
        <ele>12.721263873390853</ele>
        <time>2026-08-04T10:52:33Z</time>
      </trkpt>
      <trkpt lat="32.0526862135937" lon="118.80372647737036">
        <ele>13.757038104347885</ele>
        <time>2026-08-04T10:52:48Z</time>
      </trkpt>
      <trkpt lat="32.052500069415906" lon="118.80366737808129">
        <ele>14.354190814308822</ele>
        <time>2026-08-04T10:52:57Z</time>
      </trkpt>
      <trkpt lat="32.052372018249606" lon="118.80365436421037">
        <ele>13.392402636818588</ele>
        <time>2026-08-04T10:53:03Z</time>
      </trkpt>
      <trkpt lat="32.052330955166276" lon="118.8036233068572">
        <ele>11.862525927834213</ele>
        <time>2026-08-04T10:53:06Z</time>
      </trkpt>
      <trkpt lat="32.052268915244056" lon="118.80360828298687">
        <ele>10.964153277687728</ele>
        <time>2026-08-04T10:53:09Z</time>
      </trkpt>
      <trkpt lat="32.05218691783061" lon="118.8036203141794">
        <ele>14.039760577492416</ele>
        <time>2026-08-04T10:53:12Z</time>
      </trkpt>
      <trkpt lat="32.051989120851026" lon="118.80376261247994">
        <ele>13.014556872658432</ele>
        <time>2026-08-04T10:53:21Z</time>
      </trkpt>
      <trkpt lat="32.05191639564762" lon="118.80392994903109">
        <ele>14.018623339943588</ele>
        <time>2026-08-04T10:53:28Z</time>
      </trkpt>
      <trkpt lat="32.05190866613658" lon="118.80408625829574">
        <ele>14.198295581154525</ele>
        <time>2026-08-04T10:53:34Z</time>
      </trkpt>
      <trkpt lat="32.051921864730836" lon="118.80419847885409">
        <ele>14.187728869728744</ele>
        <time>2026-08-04T10:53:37Z</time>
      </trkpt>
      <trkpt lat="32.05195197808258" lon="118.80425959695883">
        <ele>14.784881579689682</ele>
        <time>2026-08-04T10:53:40Z</time>
      </trkpt>
      <trkpt lat="32.05209119280806" lon="118.80436479236602">
        <ele>10.388137805275619</ele>
        <time>2026-08-04T10:53:46Z</time>
      </trkpt>
      <trkpt lat="32.052434451426606" lon="118.8044689672177">
        <ele>12.898296344093978</ele>
        <time>2026-08-04T10:54:01Z</time>
      </trkpt>
      <trkpt lat="32.052756726526916" lon="118.80458516801683">
        <ele>7.132854449562728</ele>
        <time>2026-08-04T10:54:13Z</time>
      </trkpt>
      <trkpt lat="32.05300492036902" lon="118.8046643022529">
        <ele>13.339557635597885</ele>
        <time>2026-08-04T10:54:22Z</time>
      </trkpt>
      <trkpt lat="32.053177944879664" lon="118.80465627044798">
        <ele>14.301345813088119</ele>
        <time>2026-08-04T10:54:28Z</time>
      </trkpt>
      <trkpt lat="32.05332877509091" lon="118.8045400260465">
        <ele>14.272281634621322</ele>
        <time>2026-08-04T10:54:34Z</time>
      </trkpt>
      <trkpt lat="32.05341252052346" lon="118.80438370864891">
        <ele>14.177158343605697</ele>
        <time>2026-08-04T10:54:40Z</time>
      </trkpt>
      <trkpt lat="32.053436356119086" lon="118.80428651408394">
        <ele>12.565372454933822</ele>
        <time>2026-08-04T10:54:43Z</time>
      </trkpt>
      <trkpt lat="32.05343118364102" lon="118.80418832035545">
        <ele>7.027164447121322</ele>
        <time>2026-08-04T10:54:46Z</time>
      </trkpt>
      <trkpt lat="32.053364854546295" lon="118.80400797015632">
        <ele>13.1493148682639</ele>
        <time>2026-08-04T10:54:52Z</time>
      </trkpt>
      <trkpt lat="32.053315724981324" lon="118.8039398402089">
        <ele>13.989555346779525</ele>
        <time>2026-08-04T10:54:55Z</time>
      </trkpt>
      <trkpt lat="32.05300244951087" lon="118.80382163584726">
        <ele>14.343620288185775</ele>
        <time>2026-08-04T10:55:10Z</time>
      </trkpt>
      <trkpt lat="32.052777331412855" lon="118.8037825795275">
        <ele>12.919437396340072</ele>
        <time>2026-08-04T10:55:19Z</time>
      </trkpt>
      <trkpt lat="32.052483088252075" lon="118.80368040528329">
        <ele>14.29341887217015</ele>
        <time>2026-08-04T10:55:31Z</time>
      </trkpt>
      <trkpt lat="32.05229494713767" lon="118.8036233101663">
        <ele>13.466384875588119</ele>
        <time>2026-08-04T10:55:40Z</time>
      </trkpt>
      <trkpt lat="32.05214494325987" lon="118.80364035747056">
        <ele>13.58000563364476</ele>
        <time>2026-08-04T10:55:46Z</time>
      </trkpt>
      <trkpt lat="32.05206397739848" lon="118.80367042407421">
        <ele>11.717201220802963</ele>
        <time>2026-08-04T10:55:49Z</time>
      </trkpt>
      <trkpt lat="32.05199008798248" lon="118.80374357489036">
        <ele>13.1493148682639</ele>
        <time>2026-08-04T10:55:52Z</time>
      </trkpt>
      <trkpt lat="32.05192524073411" lon="118.80383977038788">
        <ele>13.936710345558822</ele>
        <time>2026-08-04T10:55:55Z</time>
      </trkpt>
      <trkpt lat="32.051872623177665" lon="118.80406622202716">
        <ele>13.265575396828353</ele>
        <time>2026-08-04T10:56:04Z</time>
      </trkpt>
      <trkpt lat="32.05188979117484" lon="118.80416040653458">
        <ele>13.09910963755101</ele>
        <time>2026-08-04T10:56:07Z</time>
      </trkpt>
      <trkpt lat="32.051929945193045" lon="118.80424356727343">
        <ele>11.717201220802963</ele>
        <time>2026-08-04T10:56:10Z</time>
      </trkpt>
      <trkpt lat="32.05205818544651" lon="118.80436479539884">
        <ele>14.031833636574447</ele>
        <time>2026-08-04T10:56:16Z</time>
      </trkpt>
      <trkpt lat="32.052377394923404" lon="118.80444392283101">
        <ele>6.860702502541244</ele>
        <time>2026-08-04T10:56:31Z</time>
      </trkpt>
      <trkpt lat="32.05265965230534" lon="118.80455511732663">
        <ele>13.883865344338119</ele>
        <time>2026-08-04T10:56:43Z</time>
      </trkpt>
      <trkpt lat="32.052923863720366" lon="118.8046422659577">
        <ele>13.778175341896713</ele>
        <time>2026-08-04T10:56:55Z</time>
      </trkpt>
      <trkpt lat="32.0531079485838" lon="118.80466729875216">
        <ele>11.915370929054916</ele>
        <time>2026-08-04T10:57:04Z</time>
      </trkpt>
      <trkpt lat="32.05317193301619" lon="118.8046502590705">
        <ele>11.777973162941635</ele>
        <time>2026-08-04T10:57:07Z</time>
      </trkpt>
      <trkpt lat="32.053345691251415" lon="118.80448992518619">
        <ele>12.774112689308822</ele>
        <time>2026-08-04T10:57:16Z</time>
      </trkpt>
      <trkpt lat="32.05339957365702" lon="118.80441577333556">
        <ele>13.569435107521713</ele>
        <time>2026-08-04T10:57:19Z</time>
      </trkpt>
      <trkpt lat="32.05342642387564" lon="118.80432659430807">
        <ele>14.145450579933822</ele>
        <time>2026-08-04T10:57:22Z</time>
      </trkpt>
      <trkpt lat="32.053415097940864" lon="118.80414122875027">
        <ele>13.159881579689682</ele>
        <time>2026-08-04T10:57:28Z</time>
      </trkpt>
      <trkpt lat="32.053283698665794" lon="118.8039288214079">
        <ele>11.508460986427963</ele>
        <time>2026-08-04T10:57:37Z</time>
      </trkpt>
      <trkpt lat="32.05301249356726" lon="118.80384568232603">
        <ele>13.601142871193588</ele>
        <time>2026-08-04T10:57:49Z</time>
      </trkpt>
      <trkpt lat="32.052671203284866" lon="118.80372247085673">
        <ele>12.678989398293197</ele>
        <time>2026-08-04T10:58:04Z</time>
      </trkpt>
      <trkpt lat="32.05248808588575" lon="118.803678400879">
        <ele>13.223297107033432</ele>
        <time>2026-08-04T10:58:13Z</time>
      </trkpt>
      <trkpt lat="32.05235694182787" lon="118.80361228278274">
        <ele>13.276142108254135</ele>
        <time>2026-08-04T10:58:19Z</time>
      </trkpt>
      <trkpt lat="32.05223591658194" lon="118.80361329587625">
        <ele>13.735897052101791</ele>
        <time>2026-08-04T10:58:25Z</time>
      </trkpt>
      <trkpt lat="32.052080996855565" lon="118.80367944026203">
        <ele>-0.3764877440407872</ele>
        <time>2026-08-04T10:58:31Z</time>
      </trkpt>
      <trkpt lat="32.05195717642607" lon="118.80379868648585">
        <ele>13.014556872658432</ele>
        <time>2026-08-04T10:58:37Z</time>
      </trkpt>
      <trkpt lat="32.05191327814773" lon="118.80386281692">
        <ele>13.025127398781478</ele>
        <time>2026-08-04T10:58:40Z</time>
      </trkpt>
      <trkpt lat="32.051890536412046" lon="118.80401411750246">
        <ele>11.717201220802963</ele>
        <time>2026-08-04T10:58:46Z</time>
      </trkpt>
      <trkpt lat="32.05192387741387" lon="118.80420549253661">
        <ele>10.795047747902572</ele>
        <time>2026-08-04T10:58:52Z</time>
      </trkpt>
      <trkpt lat="32.05197102080152" lon="118.80428163881696">
        <ele>13.894435870461166</ele>
        <time>2026-08-04T10:58:55Z</time>
      </trkpt>
      <trkpt lat="32.05216830277585" lon="118.80441789043925">
        <ele>12.293216693215072</ele>
        <time>2026-08-04T10:59:04Z</time>
      </trkpt>
      <trkpt lat="32.05247650284094" lon="118.80449301100734">
        <ele>13.58000563364476</ele>
        <time>2026-08-04T10:59:19Z</time>
      </trkpt>
      <trkpt lat="32.05274271288548" lon="118.80457915738137">
        <ele>12.887729632668197</ele>
        <time>2026-08-04T10:59:32Z</time>
      </trkpt>
      <trkpt lat="32.05303493056327" lon="118.80466630347256">
        <ele>13.191589343361557</ele>
        <time>2026-08-04T10:59:44Z</time>
      </trkpt>
      <trkpt lat="32.05322188275975" lon="118.80461518490158">
        <ele>12.887729632668197</ele>
        <time>2026-08-04T10:59:53Z</time>
      </trkpt>
      <trkpt lat="32.05335474758031" lon="118.80452098591907">
        <ele>13.506019580177963</ele>
        <time>2026-08-04T10:59:59Z</time>
      </trkpt>
      <trkpt lat="32.05340463256581" lon="118.8044488383692">
        <ele>13.45317457895726</ele>
        <time>2026-08-04T11:00:02Z</time>
      </trkpt>
      <trkpt lat="32.05343042476655" lon="118.80432659394043">
        <ele>13.09910963755101</ele>
        <time>2026-08-04T11:00:05Z</time>
      </trkpt>
      <trkpt lat="32.0534071083901" lon="118.80414824334565">
        <ele>12.293216693215072</ele>
        <time>2026-08-04T11:00:11Z</time>
      </trkpt>
      <trkpt lat="32.05333585332269" lon="118.8040109787553">
        <ele>8.670658099465072</ele>
        <time>2026-08-04T11:00:17Z</time>
      </trkpt>
      <trkpt lat="32.053219639063734" lon="118.80390277590752">
        <ele>12.626144397072494</ele>
        <time>2026-08-04T11:00:23Z</time>
      </trkpt>
      <trkpt lat="32.05303152220463" lon="118.8038597082328">
        <ele>12.898296344093978</ele>
        <time>2026-08-04T11:00:32Z</time>
      </trkpt>
      <trkpt lat="32.05280930719011" lon="118.8037645410556">
        <ele>12.240371691994369</ele>
        <time>2026-08-04T11:00:41Z</time>
      </trkpt>
      <trkpt lat="32.05266923244187" lon="118.80373950458515">
        <ele>13.569435107521713</ele>
        <time>2026-08-04T11:00:47Z</time>
      </trkpt>
      <trkpt lat="32.05248605759241" lon="118.8036623695076">
        <ele>12.805816638283432</ele>
        <time>2026-08-04T11:00:56Z</time>
      </trkpt>
      <trkpt lat="32.052358051675576" lon="118.8036754069115">
        <ele>12.774112689308822</ele>
        <time>2026-08-04T11:01:02Z</time>
      </trkpt>
      <trkpt lat="32.05229697542198" lon="118.80363934152722">
        <ele>10.491188037209213</ele>
        <time>2026-08-04T11:01:05Z</time>
      </trkpt>
      <trkpt lat="32.05211894964075" lon="118.8036473736627">
        <ele>12.805816638283432</ele>
        <time>2026-08-04T11:01:14Z</time>
      </trkpt>
      <trkpt lat="32.052052969723256" lon="118.80366741916882">
        <ele>12.343421923927963</ele>
        <time>2026-08-04T11:01:17Z</time>
      </trkpt>
      <trkpt lat="32.05192831113191" lon="118.803879849125">
        <ele>13.24443434458226</ele>
        <time>2026-08-04T11:01:26Z</time>
      </trkpt>
      <trkpt lat="32.05190059101272" lon="118.80404417592625">
        <ele>11.569232928566635</ele>
        <time>2026-08-04T11:01:35Z</time>
      </trkpt>
      <trkpt lat="32.05193582415729" lon="118.80417342805124">
        <ele>12.102973925881088</ele>
        <time>2026-08-04T11:01:41Z</time>
      </trkpt>
      <trkpt lat="32.05205513927119" lon="118.8043387441082">
        <ele>12.544231402687728</ele>
        <time>2026-08-04T11:01:51Z</time>
      </trkpt>
      <trkpt lat="32.05217931398541" lon="118.80442289935046">
        <ele>13.381835925392807</ele>
        <time>2026-08-04T11:01:57Z</time>
      </trkpt>
      <trkpt lat="32.052462510232836" lon="118.8044990242078">
        <ele>13.276142108254135</ele>
        <time>2026-08-04T11:02:09Z</time>
      </trkpt>
      <trkpt lat="32.052761738162694" lon="118.80459117947997">
        <ele>13.00399016123265</ele>
        <time>2026-08-04T11:02:21Z</time>
      </trkpt>
      <trkpt lat="32.05306996292839" lon="118.8046803280945">
        <ele>12.879802691750228</ele>
        <time>2026-08-04T11:02:33Z</time>
      </trkpt>
      <trkpt lat="32.05315196189656" lon="118.80466929868528">
        <ele>14.103176104836166</ele>
        <time>2026-08-04T11:02:36Z</time>
      </trkpt>
      <trkpt lat="32.053339831887044" lon="118.80457108662027">
        <ele>13.339557635597885</ele>
        <time>2026-08-04T11:02:45Z</time>
      </trkpt>
      <trkpt lat="32.05341964816832" lon="118.80445585088532">
        <ele>12.866592395119369</ele>
        <time>2026-08-04T11:02:51Z</time>
      </trkpt>
      <trkpt lat="32.053414447452646" lon="118.80434162515698">
        <ele>12.605007159523666</ele>
        <time>2026-08-04T11:02:57Z</time>
      </trkpt>
      <trkpt lat="32.053440176906136" lon="118.80418330962485">
        <ele>13.120250689797103</ele>
        <time>2026-08-04T11:03:00Z</time>
      </trkpt>
      <trkpt lat="32.053368876382436" lon="118.80401999352324">
        <ele>12.887729632668197</ele>
        <time>2026-08-04T11:03:06Z</time>
      </trkpt>
      <trkpt lat="32.05325367454136" lon="118.80391880440136">
        <ele>13.466384875588119</ele>
        <time>2026-08-04T11:03:12Z</time>
      </trkpt>
      <trkpt lat="32.05304954016169" lon="118.80386772238158">
        <ele>12.982849108986557</ele>
        <time>2026-08-04T11:03:21Z</time>
      </trkpt>
      <trkpt lat="32.05272123010235" lon="118.80373148401911">
        <ele>12.438541400246322</ele>
        <time>2026-08-04T11:03:36Z</time>
      </trkpt>
      <trkpt lat="32.05242703399479" lon="118.80365636309874">
        <ele>13.035697924904525</ele>
        <time>2026-08-04T11:03:48Z</time>
      </trkpt>
      <trkpt lat="32.05235496051849" lon="118.80362330465113">
        <ele>12.406833636574447</ele>
        <time>2026-08-04T11:03:54Z</time>
      </trkpt>
      <trkpt lat="32.052236915065365" lon="118.80361229381309">
        <ele>12.7318343995139</ele>
        <time>2026-08-04T11:03:57Z</time>
      </trkpt>
      <trkpt lat="32.05199813156812" lon="118.8037676215215">
        <ele>12.689559924416244</ele>
        <time>2026-08-04T11:04:09Z</time>
      </trkpt>
      <trkpt lat="32.051897410595664" lon="118.80394097251961">
        <ele>10.837326037697494</ele>
        <time>2026-08-04T11:04:15Z</time>
      </trkpt>
      <trkpt lat="32.051885535296414" lon="118.80401411796201">
        <ele>12.113540637306869</ele>
        <time>2026-08-04T11:04:19Z</time>
      </trkpt>
      <trkpt lat="32.05195193261517" lon="118.80423354543655">
        <ele>12.113540637306869</ele>
        <time>2026-08-04T11:04:28Z</time>
      </trkpt>
      <trkpt lat="32.05202111593636" lon="118.80432972938556">
        <ele>7.058872210793197</ele>
        <time>2026-08-04T11:04:31Z</time>
      </trkpt>
      <trkpt lat="32.05214525387085" lon="118.80439284294845">
        <ele>13.484882342629135</ele>
        <time>2026-08-04T11:04:37Z</time>
      </trkpt>
      <trkpt lat="32.05238641094308" lon="118.80445193788285">
        <ele>13.141387927345932</ele>
        <time>2026-08-04T11:04:49Z</time>
      </trkpt>
      <trkpt lat="32.05271466456593" lon="118.80455511227203">
        <ele>13.286712634377182</ele>
        <time>2026-08-04T11:05:01Z</time>
      </trkpt>
      <trkpt lat="32.05300395173133" lon="118.80468233813711">
        <ele>12.930004107765853</ele>
        <time>2026-08-04T11:05:13Z</time>
      </trkpt>
      <trkpt lat="32.05321793273824" lon="118.8046442429147">
        <ele>13.947280871681869</ele>
        <time>2026-08-04T11:05:22Z</time>
      </trkpt>
      <trkpt lat="32.053286900747864" lon="118.80461718290303">
        <ele>13.601142871193588</ele>
        <time>2026-08-04T11:05:25Z</time>
      </trkpt>
      <trkpt lat="32.05340071752008" lon="118.80449793601639">
        <ele>8.440780627541244</ele>
        <time>2026-08-04T11:05:31Z</time>
      </trkpt>
      <trkpt lat="32.05343659590758" lon="118.80442378581054">
        <ele>13.685695636086166</ele>
        <time>2026-08-04T11:05:34Z</time>
      </trkpt>
      <trkpt lat="32.0534544511115" lon="118.80433861553114">
        <ele>11.685493457131088</ele>
        <time>2026-08-04T11:05:37Z</time>
      </trkpt>
      <trkpt lat="32.0534231364181" lon="118.80416226959757">
        <ele>13.00399016123265</ele>
        <time>2026-08-04T11:05:43Z</time>
      </trkpt>
      <trkpt lat="32.053364903421574" lon="118.80403602554065">
        <ele>9.246673571877182</ele>
        <time>2026-08-04T11:05:49Z</time>
      </trkpt>
      <trkpt lat="32.05328773095493" lon="118.80394685661962">
        <ele>12.092403399758041</ele>
        <time>2026-08-04T11:05:52Z</time>
      </trkpt>
      <trkpt lat="32.05298848124719" lon="118.80384167663173">
        <ele>11.318218219093978</ele>
        <time>2026-08-04T11:06:07Z</time>
      </trkpt>
      <trkpt lat="32.05277037863689" lon="118.80381063545127">
        <ele>12.293216693215072</ele>
        <time>2026-08-04T11:06:19Z</time>
      </trkpt>
      <trkpt lat="32.052503085749166" lon="118.80367639555556">
        <ele>13.170452105812728</ele>
        <time>2026-08-04T11:06:34Z</time>
      </trkpt>
      <trkpt lat="32.052225959586856" lon="118.80363934805347">
        <ele>13.265575396828353</ele>
        <time>2026-08-04T11:06:46Z</time>
      </trkpt>
      <trkpt lat="32.052060063547536" lon="118.8037205230723">
        <ele>13.537727343849838</ele>
        <time>2026-08-04T11:06:52Z</time>
      </trkpt>
      <trkpt lat="32.051984147606255" lon="118.80377864452115">
        <ele>12.982849108986557</ele>
        <time>2026-08-04T11:06:55Z</time>
      </trkpt>
      <trkpt lat="32.05190141497694" lon="118.8039429761053">
        <ele>12.615573870949447</ele>
        <time>2026-08-04T11:07:01Z</time>
      </trkpt>
      <trkpt lat="32.0519087290186" lon="118.80412232955128">
        <ele>13.484882342629135</ele>
        <time>2026-08-04T11:07:07Z</time>
      </trkpt>
      <trkpt lat="32.0519298892418" lon="118.80421150387124">
        <ele>12.972282397560775</ele>
        <time>2026-08-04T11:07:10Z</time>
      </trkpt>
      <trkpt lat="32.05203014069437" lon="118.80434275433835">
        <ele>12.219234454445541</ele>
        <time>2026-08-04T11:07:17Z</time>
      </trkpt>
      <trkpt lat="32.05222432752492" lon="118.80442489918379">
        <ele>13.223297107033432</ele>
        <time>2026-08-04T11:07:26Z</time>
      </trkpt>
      <trkpt lat="32.05253651271452" lon="118.80449100152205">
        <ele>13.905002581886947</ele>
        <time>2026-08-04T11:07:38Z</time>
      </trkpt>
      <trkpt lat="32.052821763811735" lon="118.8045981878764">
        <ele>13.202159869484603</ele>
        <time>2026-08-04T11:07:50Z</time>
      </trkpt>
      <trkpt lat="32.05308591911821" lon="118.80465327293838">
        <ele>13.569435107521713</ele>
        <time>2026-08-04T11:08:02Z</time>
      </trkpt>
      <trkpt lat="32.053187915528945" lon="118.80463823374401">
        <ele>12.951145160011947</ele>
        <time>2026-08-04T11:08:05Z</time>
      </trkpt>
      <trkpt lat="32.05325488134196" lon="118.80461017193126">
        <ele>12.79524992685765</ele>
        <time>2026-08-04T11:08:08Z</time>
      </trkpt>
      <trkpt lat="32.05341160785253" lon="118.80443380795407">
        <ele>13.339557635597885</ele>
        <time>2026-08-04T11:08:17Z</time>
      </trkpt>
      <trkpt lat="32.053438515810555" lon="118.80437769435642">
        <ele>13.159881579689682</ele>
        <time>2026-08-04T11:08:20Z</time>
      </trkpt>
      <trkpt lat="32.05343828485466" lon="118.80424543263928">
        <ele>14.208866107277572</ele>
        <time>2026-08-04T11:08:23Z</time>
      </trkpt>
      <trkpt lat="32.053422130952775" lon="118.80415926374869">
        <ele>13.014556872658432</ele>
        <time>2026-08-04T11:08:26Z</time>
      </trkpt>
      <trkpt lat="32.053291733590456" lon="118.80394785822874">
        <ele>13.424110400490463</ele>
        <time>2026-08-04T11:08:35Z</time>
      </trkpt>
      <trkpt lat="32.053223643442564" lon="118.803904779492">
        <ele>13.601142871193588</ele>
        <time>2026-08-04T11:08:38Z</time>
      </trkpt>
      <trkpt lat="32.05295849722137" lon="118.80385470506624">
        <ele>12.533664691261947</ele>
        <time>2026-08-04T11:08:51Z</time>
      </trkpt>
      <trkpt lat="32.05268833248016" lon="118.80379461139815">
        <ele>12.554801928810775</ele>
        <time>2026-08-04T11:09:03Z</time>
      </trkpt>
      <trkpt lat="32.05245418276556" lon="118.80373852237418">
        <ele>12.66841887217015</ele>
        <time>2026-08-04T11:09:12Z</time>
      </trkpt>
      <trkpt lat="32.05227996641063" lon="118.80363633717486">
        <ele>12.972282397560775</ele>
        <time>2026-08-04T11:09:21Z</time>
      </trkpt>
      <trkpt lat="32.05215696855811" lon="118.80365338200096">
        <ele>12.700126635842025</ele>
        <time>2026-08-04T11:09:27Z</time>
      </trkpt>
      <trkpt lat="32.05206802702948" lon="118.80369847893446">
        <ele>12.848094928078353</ele>
        <time>2026-08-04T11:09:30Z</time>
      </trkpt>
      <trkpt lat="32.05196323178382" lon="118.80382974714605">
        <ele>13.675125109963119</ele>
        <time>2026-08-04T11:09:36Z</time>
      </trkpt>
      <trkpt lat="32.05192436429492" lon="118.80391091074576">
        <ele>11.120048510842025</ele>
        <time>2026-08-04T11:09:39Z</time>
      </trkpt>
      <trkpt lat="32.05190268226323" lon="118.80409627863828">
        <ele>13.09910963755101</ele>
        <time>2026-08-04T11:09:45Z</time>
      </trkpt>
      <trkpt lat="32.05192785033753" lon="118.80418946047567">
        <ele>13.706832873634994</ele>
        <time>2026-08-04T11:09:48Z</time>
      </trkpt>
      <trkpt lat="32.052025087082086" lon="118.80431269530983">
        <ele>13.181022631935775</ele>
        <time>2026-08-04T11:09:54Z</time>
      </trkpt>
      <trkpt lat="32.05216928899003" lon="118.8044098744728">
        <ele>14.103176104836166</ele>
        <time>2026-08-04T11:10:00Z</time>
      </trkpt>
      <trkpt lat="32.05225333224168" lon="118.80442389453412">
        <ele>13.170452105812728</ele>
        <time>2026-08-04T11:10:03Z</time>
      </trkpt>
      <trkpt lat="32.05251852972851" lon="118.80450302700415">
        <ele>12.951145160011947</ele>
        <time>2026-08-04T11:10:15Z</time>
      </trkpt>
      <trkpt lat="32.05284679919847" lon="118.80461521936472">
        <ele>12.816387164406478</ele>
        <time>2026-08-04T11:10:30Z</time>
      </trkpt>
      <trkpt lat="32.05293089335093" lon="118.80465829712392">
        <ele>8.847690570168197</ele>
        <time>2026-08-04T11:10:33Z</time>
      </trkpt>
      <trkpt lat="32.053088961897515" lon="118.80467732038275">
        <ele>13.318420398049057</ele>
        <time>2026-08-04T11:10:40Z</time>
      </trkpt>
      <trkpt lat="32.05323095317836" lon="118.80465426160085">
        <ele>4.141803729347885</ele>
        <time>2026-08-04T11:10:46Z</time>
      </trkpt>
      <trkpt lat="32.05332689211942" lon="118.80460715935192">
        <ele>13.276142108254135</ele>
        <time>2026-08-04T11:10:49Z</time>
      </trkpt>
      <trkpt lat="32.05338280815474" lon="118.8045520449211">
        <ele>12.7318343995139</ele>
        <time>2026-08-04T11:10:52Z</time>
      </trkpt>
      <trkpt lat="32.053420688683815" lon="118.80447889645308">
        <ele>13.077972400002182</ele>
        <time>2026-08-04T11:10:55Z</time>
      </trkpt>
      <trkpt lat="32.053440549519934" lon="118.80439673186709">
        <ele>13.181022631935775</ele>
        <time>2026-08-04T11:10:58Z</time>
      </trkpt>
      <trkpt lat="32.053435275443" lon="118.804240423007">
        <ele>13.035697924904525</ele>
        <time>2026-08-04T11:11:04Z</time>
      </trkpt>
      <trkpt lat="32.053398055718354" lon="118.80411918675775">
        <ele>12.742404925636947</ele>
        <time>2026-08-04T11:11:07Z</time>
      </trkpt>
      <trkpt lat="32.05327575968446" lon="118.80396489330732">
        <ele>12.272079455666244</ele>
        <time>2026-08-04T11:11:13Z</time>
      </trkpt>
      <trkpt lat="32.05315761130053" lon="118.80389476579845">
        <ele>13.339557635597885</ele>
        <time>2026-08-04T11:11:19Z</time>
      </trkpt>
      <trkpt lat="32.053079562536894" lon="118.80387673740404">
        <ele>11.60094069223851</ele>
        <time>2026-08-04T11:11:22Z</time>
      </trkpt>
      <trkpt lat="32.05290838500091" lon="118.80379659512484">
        <ele>12.710697161965072</ele>
        <time>2026-08-04T11:11:31Z</time>
      </trkpt>
      <trkpt lat="32.052783357140974" lon="118.80379660661455">
        <ele>12.816387164406478</ele>
        <time>2026-08-04T11:11:37Z</time>
      </trkpt>
      <trkpt lat="32.05252112457646" lon="118.80369643335038">
        <ele>12.501956927590072</ele>
        <time>2026-08-04T11:11:52Z</time>
      </trkpt>
      <trkpt lat="32.05244608174251" lon="118.80368141065665">
        <ele>11.653785693459213</ele>
        <time>2026-08-04T11:11:55Z</time>
      </trkpt>
      <trkpt lat="32.052319950973356" lon="118.80362230589691">
        <ele>12.605007159523666</ele>
        <time>2026-08-04T11:12:01Z</time>
      </trkpt>
      <trkpt lat="32.05224991970443" lon="118.80361329458937">
        <ele>12.657852160744369</ele>
        <time>2026-08-04T11:12:04Z</time>
      </trkpt>
      <trkpt lat="32.052174941251614" lon="118.80363534485473">
        <ele>12.752971637062728</ele>
        <time>2026-08-04T11:12:07Z</time>
      </trkpt>
      <trkpt lat="32.05200015988619" lon="118.80378365292064">
        <ele>13.056835162453353</ele>
        <time>2026-08-04T11:12:16Z</time>
      </trkpt>
      <trkpt lat="32.05190639516066" lon="118.80393095192669">
        <ele>12.375125872902572</ele>
        <time>2026-08-04T11:12:22Z</time>
      </trkpt>
      <trkpt lat="32.05188758462041" lon="118.80404217316442">
        <ele>13.109680163674057</ele>
        <time>2026-08-04T11:12:28Z</time>
      </trkpt>
      <trkpt lat="32.05188684992947" lon="118.80419447414755">
        <ele>12.689559924416244</ele>
        <time>2026-08-04T11:12:31Z</time>
      </trkpt>
      <trkpt lat="32.05193597276388" lon="118.80425859644747">
        <ele>12.657852160744369</ele>
        <time>2026-08-04T11:12:34Z</time>
      </trkpt>
      <trkpt lat="32.052138271569206" lon="118.80440386541653">
        <ele>11.423908221535385</ele>
        <time>2026-08-04T11:12:43Z</time>
      </trkpt>
      <trkpt lat="32.05243645187257" lon="118.8044689670339">
        <ele>11.360492694191635</ele>
        <time>2026-08-04T11:12:58Z</time>
      </trkpt>
      <trkpt lat="32.05274869142961" lon="118.80456613100075">
        <ele>12.512527453713119</ele>
        <time>2026-08-04T11:13:13Z</time>
      </trkpt>
      <trkpt lat="32.05302490377146" lon="118.8046522765562">
        <ele>11.611511218361557</ele>
        <time>2026-08-04T11:13:25Z</time>
      </trkpt>
      <trkpt lat="32.05314797153366" lon="118.80467531098357">
        <ele>11.275939929299057</ele>
        <time>2026-08-04T11:13:31Z</time>
      </trkpt>
      <trkpt lat="32.05326690155444" lon="118.8046201907039">
        <ele>13.09910963755101</ele>
        <time>2026-08-04T11:13:37Z</time>
      </trkpt>
      <trkpt lat="32.053331816079" lon="118.8045630714612">
        <ele>11.381633746437728</ele>
        <time>2026-08-04T11:13:40Z</time>
      </trkpt>
      <trkpt lat="32.05342059934904" lon="118.80442779521918">
        <ele>12.898296344093978</ele>
        <time>2026-08-04T11:13:47Z</time>
      </trkpt>
      <trkpt lat="32.053439341044026" lon="118.80427749596815">
        <ele>12.470249163918197</ele>
        <time>2026-08-04T11:13:53Z</time>
      </trkpt>
      <trkpt lat="32.05340005791076" lon="118.80412018855353">
        <ele>12.491386401467025</ele>
        <time>2026-08-04T11:13:59Z</time>
      </trkpt>
      <trkpt lat="32.053319786933976" lon="118.80397490903462">
        <ele>12.784679400734603</ele>
        <time>2026-08-04T11:14:05Z</time>
      </trkpt>
      <trkpt lat="32.0532626887551" lon="118.80392581740875">
        <ele>13.392402636818588</ele>
        <time>2026-08-04T11:14:08Z</time>
      </trkpt>
      <trkpt lat="32.053121575382" lon="118.8038787374948">
        <ele>11.476753222756088</ele>
        <time>2026-08-04T11:14:14Z</time>
      </trkpt>
      <trkpt lat="32.05292447918575" lon="118.80384869634017">
        <ele>12.155818927101791</ele>
        <time>2026-08-04T11:14:23Z</time>
      </trkpt>
      <trkpt lat="32.05282739831183" lon="118.80381463811025">
        <ele>11.423908221535385</ele>
        <time>2026-08-04T11:14:29Z</time>
      </trkpt>
      <trkpt lat="32.05279032908429" lon="118.80377957241045">
        <ele>11.862525927834213</ele>
        <time>2026-08-04T11:14:32Z</time>
      </trkpt>
      <trkpt lat="32.052735299404965" lon="118.8037695577266">
        <ele>12.605007159523666</ele>
        <time>2026-08-04T11:14:35Z</time>
      </trkpt>
      <trkpt lat="32.05247017936751" lon="118.80373451301031">
        <ele>13.077972400002182</ele>
        <time>2026-08-04T11:14:44Z</time>
      </trkpt>
      <trkpt lat="32.05227297702956" lon="118.80364335162012">
        <ele>12.79524992685765</ele>
        <time>2026-08-04T11:14:53Z</time>
      </trkpt>
      <trkpt lat="32.05213497583266" lon="118.80366039782695">
        <ele>12.385696399025619</ele>
        <time>2026-08-04T11:14:59Z</time>
      </trkpt>
      <trkpt lat="32.051963242240745" lon="118.80383575899532">
        <ele>12.848094928078353</ele>
        <time>2026-08-04T11:15:09Z</time>
      </trkpt>
      <trkpt lat="32.05192036340245" lon="118.8039109111134">
        <ele>12.66841887217015</ele>
        <time>2026-08-04T11:15:12Z</time>
      </trkpt>
      <trkpt lat="32.05190352185903" lon="118.80400409652994">
        <ele>7.185703265480697</ele>
        <time>2026-08-04T11:15:15Z</time>
      </trkpt>
      <trkpt lat="32.05192583241266" lon="118.80417944085326">
        <ele>12.657852160744369</ele>
        <time>2026-08-04T11:15:21Z</time>
      </trkpt>
      <trkpt lat="32.052030121444055" lon="118.80433173252439">
        <ele>13.159881579689682</ele>
        <time>2026-08-04T11:15:27Z</time>
      </trkpt>
      <trkpt lat="32.05216131347296" lon="118.80442490497366">
        <ele>14.827156054787338</ele>
        <time>2026-08-04T11:15:33Z</time>
      </trkpt>
      <trkpt lat="32.05225438851188" lon="118.80445595795382">
        <ele>12.470249163918197</ele>
        <time>2026-08-04T11:15:36Z</time>
      </trkpt>
      <trkpt lat="32.052383422535925" lon="118.80445895205348">
        <ele>12.700126635842025</ele>
        <time>2026-08-04T11:15:42Z</time>
      </trkpt>
      <trkpt lat="32.05264465772701" lon="118.80456012863826">
        <ele>12.219234454445541</ele>
        <time>2026-08-04T11:15:54Z</time>
      </trkpt>
      <trkpt lat="32.05289980750285" lon="118.80461321051891">
        <ele>12.805816638283432</ele>
        <time>2026-08-04T11:16:06Z</time>
      </trkpt>
      <trkpt lat="32.05302791847591" lon="118.80466029218604">
        <ele>11.653785693459213</ele>
        <time>2026-08-04T11:16:12Z</time>
      </trkpt>
      <trkpt lat="32.05317996813485" lon="118.80466929611205">
        <ele>12.639354693703353</ele>
        <time>2026-08-04T11:16:18Z</time>
      </trkpt>
      <trkpt lat="32.05324694621625" lon="118.80464824820172">
        <ele>10.660293566994369</ele>
        <time>2026-08-04T11:16:21Z</time>
      </trkpt>
      <trkpt lat="32.05334784594255" lon="118.80457809979337">
        <ele>12.752971637062728</ele>
        <time>2026-08-04T11:16:27Z</time>
      </trkpt>
      <trkpt lat="32.05341869174242" lon="118.80448090060769">
        <ele>12.356632220558822</ele>
        <time>2026-08-04T11:16:30Z</time>
      </trkpt>
      <trkpt lat="32.05345556336623" lon="118.8044027423932">
        <ele>12.449111926369369</ele>
        <time>2026-08-04T11:16:33Z</time>
      </trkpt>
      <trkpt lat="32.05343928332865" lon="118.80424443056573">
        <ele>12.678989398293197</ele>
        <time>2026-08-04T11:16:39Z</time>
      </trkpt>
      <trkpt lat="32.053394012905066" lon="118.80409513961979">
        <ele>11.717201220802963</ele>
        <time>2026-08-04T11:16:45Z</time>
      </trkpt>
      <trkpt lat="32.0533318175268" lon="118.8039909395696">
        <ele>12.039558398537338</ele>
        <time>2026-08-04T11:16:48Z</time>
      </trkpt>
      <trkpt lat="32.05327071844573" lon="118.80394184829849">
        <ele>13.120250689797103</ele>
        <time>2026-08-04T11:16:51Z</time>
      </trkpt>
      <trkpt lat="32.05300254014876" lon="118.80387373855483">
        <ele>12.597080218605697</ele>
        <time>2026-08-04T11:17:03Z</time>
      </trkpt>
      <trkpt lat="32.0526833243966" lon="118.8037906039608">
        <ele>9.936309802345932</ele>
        <time>2026-08-04T11:17:21Z</time>
      </trkpt>
      <trkpt lat="32.0524060884892" lon="118.80369043208552">
        <ele>13.72533034067601</ele>
        <time>2026-08-04T11:17:34Z</time>
      </trkpt>
      <trkpt lat="32.05230800223676" lon="118.80365336812127">
        <ele>11.66435621958226</ele>
        <time>2026-08-04T11:17:37Z</time>
      </trkpt>
      <trkpt lat="32.0521839832818" lon="118.80365838937894">
        <ele>9.059074389748275</ele>
        <time>2026-08-04T11:17:43Z</time>
      </trkpt>
      <trkpt lat="32.05203705319308" lon="118.8037175192674">
        <ele>12.176956164650619</ele>
        <time>2026-08-04T11:17:49Z</time>
      </trkpt>
      <trkpt lat="32.05199111433013" lon="118.80375860440138">
        <ele>11.93651198130101</ele>
        <time>2026-08-04T11:17:52Z</time>
      </trkpt>
      <trkpt lat="32.05192928346086" lon="118.80386381742477">
        <ele>13.24443434458226</ele>
        <time>2026-08-04T11:17:58Z</time>
      </trkpt>
      <trkpt lat="32.05189052419437" lon="118.80400710365791">
        <ele>13.381835925392807</ele>
        <time>2026-08-04T11:18:01Z</time>
      </trkpt>
      <trkpt lat="32.05193587309869" lon="118.80420148351001">
        <ele>12.544231402687728</ele>
        <time>2026-08-04T11:18:07Z</time>
      </trkpt>
      <trkpt lat="32.05205518302686" lon="118.80436379369102">
        <ele>13.109680163674057</ele>
        <time>2026-08-04T11:18:13Z</time>
      </trkpt>
      <trkpt lat="32.05228138577531" lon="118.8044509455477">
        <ele>12.58650969248265</ele>
        <time>2026-08-04T11:18:22Z</time>
      </trkpt>
      <trkpt lat="32.052608604124" lon="118.80453408029891">
        <ele>14.031833636574447</ele>
        <time>2026-08-04T11:18:37Z</time>
      </trkpt>
      <trkpt lat="32.05293784578977" lon="118.8046302408166">
        <ele>12.565372454933822</ele>
        <time>2026-08-04T11:18:52Z</time>
      </trkpt>
      <trkpt lat="32.05307291271269" lon="118.80465127015684">
        <ele>12.9405746338889</ele>
        <time>2026-08-04T11:18:58Z</time>
      </trkpt>
      <trkpt lat="32.05325685898858" lon="118.8045971459117">
        <ele>13.484882342629135</ele>
        <time>2026-08-04T11:19:07Z</time>
      </trkpt>
      <trkpt lat="32.05334374863532" lon="118.80452299090216">
        <ele>12.982849108986557</ele>
        <time>2026-08-04T11:19:10Z</time>
      </trkpt>
      <trkpt lat="32.05337562260324" lon="118.8044468370647">
        <ele>10.691997515968978</ele>
        <time>2026-08-04T11:19:13Z</time>
      </trkpt>
      <trkpt lat="32.05341121589588" lon="118.80420936379231">
        <ele>12.908866870217025</ele>
        <time>2026-08-04T11:19:22Z</time>
      </trkpt>
      <trkpt lat="32.05339907515824" lon="118.80413020844237">
        <ele>12.816387164406478</ele>
        <time>2026-08-04T11:19:25Z</time>
      </trkpt>
      <trkpt lat="32.053321839732064" lon="118.8040049681754">
        <ele>12.073909747414291</ele>
        <time>2026-08-04T11:19:31Z</time>
      </trkpt>
      <trkpt lat="32.053188824066105" lon="118.80401299622247">
        <ele>11.349925982765853</ele>
        <time>2026-08-04T11:19:34Z</time>
      </trkpt>
      <trkpt lat="32.05310903496132" lon="118.8039418073334">
        <ele>11.579803454689682</ele>
        <time>2026-08-04T11:19:37Z</time>
      </trkpt>
      <trkpt lat="32.05309187897543" lon="118.80367561082565">
        <ele>11.1517562745139</ele>
        <time>2026-08-04T11:19:46Z</time>
      </trkpt>
      <trkpt lat="32.05301500758515" lon="118.80367987993523">
        <ele>8.126350390724838</ele>
        <time>2026-08-04T11:19:49Z</time>
      </trkpt>
      <trkpt lat="32.05294035903138" lon="118.80377755467471">
        <ele>11.225738513283432</ele>
        <time>2026-08-04T11:19:52Z</time>
      </trkpt>
      <trkpt lat="32.0528913812122" lon="118.80379659668743">
        <ele>11.904804217629135</ele>
        <time>2026-08-04T11:19:55Z</time>
      </trkpt>
      <trkpt lat="32.05274231664304" lon="118.8037785748485">
        <ele>11.371063220314682</ele>
        <time>2026-08-04T11:20:04Z</time>
      </trkpt>
      <trkpt lat="32.052433075362494" lon="118.80367940790687">
        <ele>12.155818927101791</ele>
        <time>2026-08-04T11:20:19Z</time>
      </trkpt>
      <trkpt lat="32.05220490270929" lon="118.80360929084088">
        <ele>12.887729632668197</ele>
        <time>2026-08-04T11:20:28Z</time>
      </trkpt>
      <trkpt lat="32.05213088620331" lon="118.80360929764291">
        <ele>10.87960051279515</ele>
        <time>2026-08-04T11:20:31Z</time>
      </trkpt>
      <trkpt lat="32.05205392992058" lon="118.80364437372202">
        <ele>13.24443434458226</ele>
        <time>2026-08-04T11:20:34Z</time>
      </trkpt>
      <trkpt lat="32.05194112581878" lon="118.80377163465602">
        <ele>12.113540637306869</ele>
        <time>2026-08-04T11:20:40Z</time>
      </trkpt>
      <trkpt lat="32.05186537031495" lon="118.80392193790733">
        <ele>10.430412280373275</ele>
        <time>2026-08-04T11:20:46Z</time>
      </trkpt>
      <trkpt lat="32.0518776696988" lon="118.80409227301935">
        <ele>13.706832873634994</ele>
        <time>2026-08-04T11:20:52Z</time>
      </trkpt>
      <trkpt lat="32.05198202850343" lon="118.80428464375264">
        <ele>12.700126635842025</ele>
        <time>2026-08-04T11:20:58Z</time>
      </trkpt>
      <trkpt lat="32.052122246989605" lon="118.80439184307824">
        <ele>12.08183668833226</ele>
        <time>2026-08-04T11:21:04Z</time>
      </trkpt>
      <trkpt lat="32.0522823649798" lon="118.80443892163797">
        <ele>12.480819690041244</ele>
        <time>2026-08-04T11:21:10Z</time>
      </trkpt>
      <trkpt lat="32.05248848624306" lon="118.80448198806398">
        <ele>13.109680163674057</ele>
        <time>2026-08-04T11:21:20Z</time>
      </trkpt>
      <trkpt lat="32.05277174039169" lon="118.80459117856095">
        <ele>12.79524992685765</ele>
        <time>2026-08-04T11:21:32Z</time>
      </trkpt>
      <trkpt lat="32.05301494014413" lon="118.80467432121787">
        <ele>13.484882342629135</ele>
        <time>2026-08-04T11:21:41Z</time>
      </trkpt>
      <trkpt lat="32.053093977050324" lon="118.80468533583196">
        <ele>13.130817401222885</ele>
        <time>2026-08-04T11:21:44Z</time>
      </trkpt>
      <trkpt lat="32.05324795696556" lon="118.80465426003852">
        <ele>10.367000567726791</ele>
        <time>2026-08-04T11:21:50Z</time>
      </trkpt>
      <trkpt lat="32.053323877421114" lon="118.80459914372877">
        <ele>11.622077929787338</ele>
        <time>2026-08-04T11:21:53Z</time>
      </trkpt>
      <trkpt lat="32.05341252402486" lon="118.80438571261666">
        <ele>12.113540637306869</ele>
        <time>2026-08-04T11:22:02Z</time>
      </trkpt>
      <trkpt lat="32.05341413266597" lon="118.8041612684445">
        <ele>11.24687575083226</ele>
        <time>2026-08-04T11:22:11Z</time>
      </trkpt>
      <trkpt lat="32.053361923703335" lon="118.80404804955647">
        <ele>12.710697161965072</ele>
        <time>2026-08-04T11:22:17Z</time>
      </trkpt>
      <trkpt lat="32.05329574145955" lon="118.80395186576841">
        <ele>37.15173338633031</ele>
        <time>2026-08-04T11:22:20Z</time>
      </trkpt>
      <trkpt lat="32.053176721927215" lon="118.80395588461398">
        <ele>12.512527453713119</ele>
        <time>2026-08-04T11:22:26Z</time>
      </trkpt>
      <trkpt lat="32.053146358203286" lon="118.80388051233194">
        <ele>12.427974688820541</ele>
        <time>2026-08-04T11:22:32Z</time>
      </trkpt>
      <trkpt lat="32.05279235566246" lon="118.80379460183873">
        <ele>6.924118029884994</ele>
        <time>2026-08-04T11:22:47Z</time>
      </trkpt>
      <trkpt lat="32.0524991283756" lon="118.80370144523597">
        <ele>12.303787219338119</ele>
        <time>2026-08-04T11:23:05Z</time>
      </trkpt>
      <trkpt lat="32.05235901883105" lon="118.80365636934923">
        <ele>11.894233691506088</ele>
        <time>2026-08-04T11:23:15Z</time>
      </trkpt>
      <trkpt lat="32.05212795686879" lon="118.80365037875094">
        <ele>12.261508929543197</ele>
        <time>2026-08-04T11:23:27Z</time>
      </trkpt>
      <trkpt lat="32.05203200507195" lon="118.80369046646274">
        <ele>10.763339984230697</ele>
        <time>2026-08-04T11:23:33Z</time>
      </trkpt>
      <trkpt lat="32.05189638769679" lon="118.80392794691642">
        <ele>11.130615222267807</ele>
        <time>2026-08-04T11:23:45Z</time>
      </trkpt>
      <trkpt lat="32.05185170756564" lon="118.80411732489216">
        <ele>12.826957690529525</ele>
        <time>2026-08-04T11:23:51Z</time>
      </trkpt>
      <trkpt lat="32.05198701737428" lon="118.80427762941784">
        <ele>13.130817401222885</ele>
        <time>2026-08-04T11:23:57Z</time>
      </trkpt>
      <trkpt lat="32.05206113360959" lon="118.80433473562444">
        <ele>12.417404162697494</ele>
        <time>2026-08-04T11:24:00Z</time>
      </trkpt>
      <trkpt lat="32.05235138036785" lon="118.80443891529667">
        <ele>12.626144397072494</ele>
        <time>2026-08-04T11:24:12Z</time>
      </trkpt>
      <trkpt lat="32.05248949522653" lon="118.80448699789936">
        <ele>13.141387927345932</ele>
        <time>2026-08-04T11:24:18Z</time>
      </trkpt>
      <trkpt lat="32.0525875223329" lon="118.80448999484946">
        <ele>11.770046222023666</ele>
        <time>2026-08-04T11:24:24Z</time>
      </trkpt>
      <trkpt lat="32.05274973022717" lon="118.80458817462139">
        <ele>13.191589343361557</ele>
        <time>2026-08-04T11:24:30Z</time>
      </trkpt>
      <trkpt lat="32.05288280546801" lon="118.80461421406875">
        <ele>12.972282397560775</ele>
        <time>2026-08-04T11:24:36Z</time>
      </trkpt>
      <trkpt lat="32.05301492961591" lon="118.80466830928731">
        <ele>12.427974688820541</ele>
        <time>2026-08-04T11:24:42Z</time>
      </trkpt>
      <trkpt lat="32.05308896716194" lon="118.80468032634839">
        <ele>13.381835925392807</ele>
        <time>2026-08-04T11:24:45Z</time>
      </trkpt>
      <trkpt lat="32.05321595510011" lon="118.80465726894393">
        <ele>12.774112689308822</ele>
        <time>2026-08-04T11:24:52Z</time>
      </trkpt>
      <trkpt lat="32.05335579512861" lon="118.80454803945645">
        <ele>12.763542163185775</ele>
        <time>2026-08-04T11:24:58Z</time>
      </trkpt>
      <trkpt lat="32.05342553392331" lon="118.80438971935759">
        <ele>12.615573870949447</ele>
        <time>2026-08-04T11:25:04Z</time>
      </trkpt>
      <trkpt lat="32.05342513336848" lon="118.80416026545319">
        <ele>8.189765918068588</ele>
        <time>2026-08-04T11:25:13Z</time>
      </trkpt>
      <trkpt lat="32.05339599239247" lon="118.8040831156867">
        <ele>13.141387927345932</ele>
        <time>2026-08-04T11:25:16Z</time>
      </trkpt>
      <trkpt lat="32.053258703562065" lon="118.80393483556502">
        <ele>12.961711871437728</ele>
        <time>2026-08-04T11:25:22Z</time>
      </trkpt>
      <trkpt lat="32.052974502530084" lon="118.80385570557084">
        <ele>12.597080218605697</ele>
        <time>2026-08-04T11:25:34Z</time>
      </trkpt>
      <trkpt lat="32.05289145963025" lon="118.80384168554771">
        <ele>11.957649218849838</ele>
        <time>2026-08-04T11:25:37Z</time>
      </trkpt>
      <trkpt lat="32.05275529863742" lon="118.80376654996675">
        <ele>10.063137042336166</ele>
        <time>2026-08-04T11:25:43Z</time>
      </trkpt>
      <trkpt lat="32.0525721307248" lon="118.80369342274469">
        <ele>11.777973162941635</ele>
        <time>2026-08-04T11:25:52Z</time>
      </trkpt>
      <trkpt lat="32.0525221474316" lon="118.80370945890412">
        <ele>11.93651198130101</ele>
        <time>2026-08-04T11:25:55Z</time>
      </trkpt>
      <trkpt lat="32.05224898733804" lon="118.80365237157257">
        <ele>12.533664691261947</ele>
        <time>2026-08-04T11:26:10Z</time>
      </trkpt>
      <trkpt lat="32.05215195352158" lon="118.80364536668581">
        <ele>12.887729632668197</ele>
        <time>2026-08-04T11:26:13Z</time>
      </trkpt>
      <trkpt lat="32.05208698601022" lon="118.80367242590454">
        <ele>11.978786456398666</ele>
        <time>2026-08-04T11:26:16Z</time>
      </trkpt>
      <trkpt lat="32.052050922291116" lon="118.80364036611087">
        <ele>11.799110400490463</ele>
        <time>2026-08-04T11:26:49Z</time>
      </trkpt>
    </trkseg>
  </trk>
</gpx>