<?xml version="1.0" encoding="UTF-8"?>
<gpx xmlns="http://www.topografix.com/GPX/1/1" xmlns:gpxtpx="http://www.garmin.com/xmlschemas/TrackPointExtension/v1" xmlns:xsi="http://www.w3.org/2001/XMLSchema-instance" xsi:schemaLocation="http://www.topografix.com/GPX/1/1 http://www.topografix.com/GPX/1/1/gpx.xsd" version="1.1" creator="gpx.py -- https://github.com/tkrajina/gpxpy">
  <trk>
    <name>gpx from keep</name>
    <type>Run</type>
    <trkseg>
      <trkpt lat="31.229920414768795" lon="121.40030490459999">
        <ele>18.89352445024997</ele>
        <time>2026-06-30T10:07:23Z</time>
      </trkpt>
      <trkpt lat="31.230033366559343" lon="121.40034190040397">
        <ele>14.221985143609345</ele>
        <time>2026-06-30T10:07:29Z</time>
      </trkpt>
      <trkpt lat="31.230185295917305" lon="121.40034088699787">
        <ele>21.575432104058564</ele>
        <time>2026-06-30T10:07:35Z</time>
      </trkpt>
      <trkpt lat="31.23037420164266" lon="121.40028286168857">
        <ele>21.134170812554657</ele>
        <time>2026-06-30T10:07:41Z</time>
      </trkpt>
      <trkpt lat="31.23066006335822" lon="121.40023182913392">
        <ele>23.639045995660126</ele>
        <time>2026-06-30T10:07:48Z</time>
      </trkpt>
      <trkpt lat="31.230981901231083" lon="121.40011178367149">
        <ele>20.494743627496064</ele>
        <time>2026-06-30T10:07:57Z</time>
      </trkpt>
      <trkpt lat="31.23110783359691" lon="121.40002176014153">
        <ele>22.275635045953095</ele>
        <time>2026-06-30T10:08:03Z</time>
      </trkpt>
      <trkpt lat="31.23119977908871" lon="121.39990073592591">
        <ele>11.151661199517548</ele>
        <time>2026-06-30T10:08:06Z</time>
      </trkpt>
      <trkpt lat="31.231237748705823" lon="121.39976271508189">
        <ele>25.08437375444919</ele>
        <time>2026-06-30T10:08:09Z</time>
      </trkpt>
      <trkpt lat="31.231235736437846" lon="121.39960969698852">
        <ele>-0.9208867130801082</ele>
        <time>2026-06-30T10:08:12Z</time>
      </trkpt>
      <trkpt lat="31.231205741170115" lon="121.39949568679145">
        <ele>10.691906255669892</ele>
        <time>2026-06-30T10:08:15Z</time>
      </trkpt>
      <trkpt lat="31.231113773669044" lon="121.39936068052135">
        <ele>24.402664464898407</ele>
        <time>2026-06-30T10:08:21Z</time>
      </trkpt>
      <trkpt lat="31.231005818766917" lon="121.39929068290351">
        <ele>23.26120023149997</ele>
        <time>2026-06-30T10:08:24Z</time>
      </trkpt>
      <trkpt lat="31.23092385524903" lon="121.39926868789527">
        <ele>22.484375280328095</ele>
        <time>2026-06-30T10:08:27Z</time>
      </trkpt>
      <trkpt lat="31.23060500672674" lon="121.39932172094967">
        <ele>24.310188573785126</ele>
        <time>2026-06-30T10:08:39Z</time>
      </trkpt>
      <trkpt lat="31.230336134868654" lon="121.39936974927697">
        <ele>22.37075833696872</ele>
        <time>2026-06-30T10:08:48Z</time>
      </trkpt>
      <trkpt lat="31.230041277417918" lon="121.39944678306777">
        <ele>20.862015050835907</ele>
        <time>2026-06-30T10:09:00Z</time>
      </trkpt>
      <trkpt lat="31.229826386039747" lon="121.39955981421969">
        <ele>12.094951909966767</ele>
        <time>2026-06-30T10:09:09Z</time>
      </trkpt>
      <trkpt lat="31.229762423359343" lon="121.39965183039543">
        <ele>19.081123632378876</ele>
        <time>2026-06-30T10:09:12Z</time>
      </trkpt>
      <trkpt lat="31.22968047795701" lon="121.3998378603235">
        <ele>0.920776647515595</ele>
        <time>2026-06-30T10:09:15Z</time>
      </trkpt>
      <trkpt lat="31.22972848237752" lon="121.40010789243745">
        <ele>22.44474057573825</ele>
        <time>2026-06-30T10:09:27Z</time>
      </trkpt>
      <trkpt lat="31.229856444249865" lon="121.40030290987619">
        <ele>21.868721288628876</ele>
        <time>2026-06-30T10:09:36Z</time>
      </trkpt>
      <trkpt lat="31.230046364471956" lon="121.4003759045314">
        <ele>16.724220556207</ele>
        <time>2026-06-30T10:09:42Z</time>
      </trkpt>
      <trkpt lat="31.230267259612233" lon="121.40035588216125">
        <ele>23.010185522027314</ele>
        <time>2026-06-30T10:09:51Z</time>
      </trkpt>
      <trkpt lat="31.230616085191812" lon="121.4002448348993">
        <ele>17.73885373491794</ele>
        <time>2026-06-30T10:10:03Z</time>
      </trkpt>
      <trkpt lat="31.230887950085624" lon="121.40016179902015">
        <ele>11.41589002031833</ele>
        <time>2026-06-30T10:10:12Z</time>
      </trkpt>
      <trkpt lat="31.231065858571082" lon="121.40007577127886">
        <ele>21.342911046929657</ele>
        <time>2026-06-30T10:10:18Z</time>
      </trkpt>
      <trkpt lat="31.23112682409184" lon="121.40001475752712">
        <ele>2.960613531060517</ele>
        <time>2026-06-30T10:10:21Z</time>
      </trkpt>
      <trkpt lat="31.231183787072077" lon="121.39990673810584">
        <ele>18.283157628960907</ele>
        <time>2026-06-30T10:10:27Z</time>
      </trkpt>
      <trkpt lat="31.231231740963562" lon="121.39964170105638">
        <ele>18.000435155816376</ele>
        <time>2026-06-30T10:10:33Z</time>
      </trkpt>
      <trkpt lat="31.231212741395403" lon="121.39953969104563">
        <ele>16.98580197710544</ele>
        <time>2026-06-30T10:10:36Z</time>
      </trkpt>
      <trkpt lat="31.231167754326375" lon="121.39943768384752">
        <ele>22.3813250483945</ele>
        <time>2026-06-30T10:10:39Z</time>
      </trkpt>
      <trkpt lat="31.23110177936984" lon="121.39936268177239">
        <ele>-7.0034024296328425</ele>
        <time>2026-06-30T10:10:42Z</time>
      </trkpt>
      <trkpt lat="31.231054798998347" lon="121.399332682821">
        <ele>12.72381238359958</ele>
        <time>2026-06-30T10:10:45Z</time>
      </trkpt>
      <trkpt lat="31.230779924435208" lon="121.39930470399452">
        <ele>17.434990209527314</ele>
        <time>2026-06-30T10:10:54Z</time>
      </trkpt>
      <trkpt lat="31.230410098262137" lon="121.39933773956247">
        <ele>17.69657163042575</ele>
        <time>2026-06-30T10:11:06Z</time>
      </trkpt>
      <trkpt lat="31.23011024248415" lon="121.3994077729253">
        <ele>7.698208135552704</ele>
        <time>2026-06-30T10:11:18Z</time>
      </trkpt>
      <trkpt lat="31.229920338114592" lon="121.3995058000117">
        <ele>1.192932409234345</ele>
        <time>2026-06-30T10:11:27Z</time>
      </trkpt>
      <trkpt lat="31.229781413777125" lon="121.39964282768275">
        <ele>25.15835599321872</ele>
        <time>2026-06-30T10:11:33Z</time>
      </trkpt>
      <trkpt lat="31.22971845690265" lon="121.3998008523345">
        <ele>6.601665777154267</ele>
        <time>2026-06-30T10:11:39Z</time>
      </trkpt>
      <trkpt lat="31.229710471410403" lon="121.39991586780094">
        <ele>1.3488238276913762</ele>
        <time>2026-06-30T10:11:42Z</time>
      </trkpt>
      <trkpt lat="31.229781462855602" lon="121.40015589467079">
        <ele>22.49758176226169</ele>
        <time>2026-06-30T10:11:51Z</time>
      </trkpt>
      <trkpt lat="31.229979391044065" lon="121.40033690434348">
        <ele>23.911201757378876</ele>
        <time>2026-06-30T10:12:01Z</time>
      </trkpt>
      <trkpt lat="31.230174303334195" lon="121.40036089104312">
        <ele>17.14169339556247</ele>
        <time>2026-06-30T10:12:10Z</time>
      </trkpt>
      <trkpt lat="31.230312236200753" lon="121.40033387484998">
        <ele>22.91506223101169</ele>
        <time>2026-06-30T10:12:16Z</time>
      </trkpt>
      <trkpt lat="31.230384197005186" lon="121.4002828608167">
        <ele>20.68234280962497</ele>
        <time>2026-06-30T10:12:22Z</time>
      </trkpt>
      <trkpt lat="31.230709036811135" lon="121.4001968197121">
        <ele>9.896580022759736</ele>
        <time>2026-06-30T10:12:34Z</time>
      </trkpt>
      <trkpt lat="31.23096391062191" lon="121.40012178666097">
        <ele>20.67177609819919</ele>
        <time>2026-06-30T10:12:46Z</time>
      </trkpt>
      <trkpt lat="31.231141814640143" lon="121.39998975281952">
        <ele>20.13803128618747</ele>
        <time>2026-06-30T10:12:58Z</time>
      </trkpt>
      <trkpt lat="31.23122775943957" lon="121.39982972434024">
        <ele>9.917717260308564</ele>
        <time>2026-06-30T10:13:04Z</time>
      </trkpt>
      <trkpt lat="31.231250740283667" lon="121.39973571063543">
        <ele>6.902885717339814</ele>
        <time>2026-06-30T10:13:07Z</time>
      </trkpt>
      <trkpt lat="31.231218742006057" lon="121.39958169526061">
        <ele>-34.044433313421905</ele>
        <time>2026-06-30T10:13:13Z</time>
      </trkpt>
      <trkpt lat="31.23112077333628" lon="121.39940068404594">
        <ele>24.038032812066376</ele>
        <time>2026-06-30T10:13:19Z</time>
      </trkpt>
      <trkpt lat="31.23105080127527" lon="121.39933868377584">
        <ele>14.576050085015595</ele>
        <time>2026-06-30T10:13:22Z</time>
      </trkpt>
      <trkpt lat="31.23073294476843" lon="121.39928370601676">
        <ele>23.32461575884372</ele>
        <time>2026-06-30T10:13:34Z</time>
      </trkpt>
      <trkpt lat="31.23058901435407" lon="121.39932472264576">
        <ele>17.770553869195282</ele>
        <time>2026-06-30T10:13:40Z</time>
      </trkpt>
      <trkpt lat="31.230521050464194" lon="121.39938873510988">
        <ele>18.597587865777314</ele>
        <time>2026-06-30T10:13:43Z</time>
      </trkpt>
      <trkpt lat="31.230445229533558" lon="121.39938109266426">
        <ele>18.15897397417575</ele>
        <time>2026-06-30T10:13:46Z</time>
      </trkpt>
      <trkpt lat="31.23040386830603" lon="121.39935964878138">
        <ele>18.851249975152314</ele>
        <time>2026-06-30T10:13:49Z</time>
      </trkpt>
      <trkpt lat="31.230240183212203" lon="121.3994217630632">
        <ele>16.880111974664032</ele>
        <time>2026-06-30T10:13:58Z</time>
      </trkpt>
      <trkpt lat="31.22993732952152" lon="121.39949679754233">
        <ele>24.048599523492157</ele>
        <time>2026-06-30T10:14:11Z</time>
      </trkpt>
      <trkpt lat="31.22986136818775" lon="121.39953980892349">
        <ele>18.880310338921845</ele>
        <time>2026-06-30T10:14:14Z</time>
      </trkpt>
      <trkpt lat="31.229780415341192" lon="121.39965582929686">
        <ele>23.691894811578095</ele>
        <time>2026-06-30T10:14:20Z</time>
      </trkpt>
      <trkpt lat="31.22974044514149" lon="121.3997838482921">
        <ele>23.094742101617157</ele>
        <time>2026-06-30T10:14:23Z</time>
      </trkpt>
      <trkpt lat="31.22973046581868" lon="121.3999538710901">
        <ele>22.275635045953095</ele>
        <time>2026-06-30T10:14:29Z</time>
      </trkpt>
      <trkpt lat="31.229793462472994" lon="121.40020390059982">
        <ele>15.046371740289032</ele>
        <time>2026-06-30T10:14:38Z</time>
      </trkpt>
      <trkpt lat="31.229861441134975" lon="121.40029590837906">
        <ele>12.063244146294892</ele>
        <time>2026-06-30T10:14:41Z</time>
      </trkpt>
      <trkpt lat="31.229962400433624" lon="121.40034990782652">
        <ele>23.773803991265595</ele>
        <time>2026-06-30T10:14:44Z</time>
      </trkpt>
      <trkpt lat="31.230071353221597" lon="121.40037890281886">
        <ele>4.3821566523984075</ele>
        <time>2026-06-30T10:14:47Z</time>
      </trkpt>
      <trkpt lat="31.230366207161058" lon="121.40029886480454">
        <ele>23.166076940484345</ele>
        <time>2026-06-30T10:14:56Z</time>
      </trkpt>
      <trkpt lat="31.230504140462603" lon="121.40027484915005">
        <ele>17.091491979546845</ele>
        <time>2026-06-30T10:15:02Z</time>
      </trkpt>
      <trkpt lat="31.230792993887437" lon="121.40015980701442">
        <ele>21.197586339898407</ele>
        <time>2026-06-30T10:15:14Z</time>
      </trkpt>
      <trkpt lat="31.23107485172729" lon="121.40004976687578">
        <ele>18.095558446832</ele>
        <time>2026-06-30T10:15:26Z</time>
      </trkpt>
      <trkpt lat="31.23113181996957" lon="121.39999675464003">
        <ele>19.300430578179657</ele>
        <time>2026-06-30T10:15:29Z</time>
      </trkpt>
      <trkpt lat="31.23122176351803" lon="121.39984372664553">
        <ele>24.320755285210907</ele>
        <time>2026-06-30T10:15:35Z</time>
      </trkpt>
      <trkpt lat="31.231231743425855" lon="121.39967070447324">
        <ele>21.98233823198825</ele>
        <time>2026-06-30T10:15:41Z</time>
      </trkpt>
      <trkpt lat="31.231215743885475" lon="121.3995876962066">
        <ele>21.76303128618747</ele>
        <time>2026-06-30T10:15:44Z</time>
      </trkpt>
      <trkpt lat="31.231129771546605" lon="121.39943268662958">
        <ele>22.19107846636325</ele>
        <time>2026-06-30T10:15:51Z</time>
      </trkpt>
      <trkpt lat="31.231058798566607" lon="121.39935268449986">
        <ele>-2.6568638859316707</ele>
        <time>2026-06-30T10:15:54Z</time>
      </trkpt>
      <trkpt lat="31.230989827491957" lon="121.39930968618245">
        <ele>5.082359594292939</ele>
        <time>2026-06-30T10:15:57Z</time>
      </trkpt>
      <trkpt lat="31.230695961574217" lon="121.39927870875194">
        <ele>24.635185522027314</ele>
        <time>2026-06-30T10:16:06Z</time>
      </trkpt>
      <trkpt lat="31.230458076786366" lon="121.39934873649295">
        <ele>20.93600491899997</ele>
        <time>2026-06-30T10:16:15Z</time>
      </trkpt>
      <trkpt lat="31.23036811916435" lon="121.3993577452572">
        <ele>12.179504674859345</ele>
        <time>2026-06-30T10:16:18Z</time>
      </trkpt>
      <trkpt lat="31.230281163376993" lon="121.39941075833097">
        <ele>24.561203283257782</ele>
        <time>2026-06-30T10:16:21Z</time>
      </trkpt>
      <trkpt lat="31.230002296047218" lon="121.39945378721714">
        <ele>25.274612707085907</ele>
        <time>2026-06-30T10:16:30Z</time>
      </trkpt>
      <trkpt lat="31.229809394902915" lon="121.39957181705873">
        <ele>19.752266210503876</ele>
        <time>2026-06-30T10:16:39Z</time>
      </trkpt>
      <trkpt lat="31.229752432467144" lon="121.3997038374527">
        <ele>-10.118644434027374</ele>
        <time>2026-06-30T10:16:45Z</time>
      </trkpt>
      <trkpt lat="31.229745463112277" lon="121.39999687556886">
        <ele>22.056328100152314</ele>
        <time>2026-06-30T10:16:54Z</time>
      </trkpt>
      <trkpt lat="31.229756469376465" lon="121.40010788999628">
        <ele>12.72381238359958</ele>
        <time>2026-06-30T10:16:57Z</time>
      </trkpt>
      <trkpt lat="31.229801458322502" lon="121.40019989931643">
        <ele>18.661003393121064</ele>
        <time>2026-06-30T10:17:00Z</time>
      </trkpt>
      <trkpt lat="31.22991341915661" lon="121.40031490673184">
        <ele>21.522583288140595</ele>
        <time>2026-06-30T10:17:06Z</time>
      </trkpt>
      <trkpt lat="31.229996385001023" lon="121.40035290532524">
        <ele>23.964050573296845</ele>
        <time>2026-06-30T10:17:09Z</time>
      </trkpt>
      <trkpt lat="31.23031423435512" lon="121.40032587344996">
        <ele>21.49087552446872</ele>
        <time>2026-06-30T10:17:21Z</time>
      </trkpt>
      <trkpt lat="31.230628077308648" lon="121.40022383074121">
        <ele>21.81588010210544</ele>
        <time>2026-06-30T10:17:30Z</time>
      </trkpt>
      <trkpt lat="31.23078500061376" lon="121.400187811772">
        <ele>14.494140905328095</ele>
        <time>2026-06-30T10:17:36Z</time>
      </trkpt>
      <trkpt lat="31.231072852960732" lon="121.40005276746585">
        <ele>22.790878576226532</ele>
        <time>2026-06-30T10:17:48Z</time>
      </trkpt>
      <trkpt lat="31.231126822184944" lon="121.3999957549403">
        <ele>21.615066808648407</ele>
        <time>2026-06-30T10:17:51Z</time>
      </trkpt>
      <trkpt lat="31.231199775765187" lon="121.39986573138505">
        <ele>20.798599523492157</ele>
        <time>2026-06-30T10:17:57Z</time>
      </trkpt>
      <trkpt lat="31.23122775522737" lon="121.39978371855703">
        <ele>21.82644681353122</ele>
        <time>2026-06-30T10:18:00Z</time>
      </trkpt>
      <trkpt lat="31.2311827506572" lon="121.3994806871617">
        <ele>20.58986691851169</ele>
        <time>2026-06-30T10:18:09Z</time>
      </trkpt>
      <trkpt lat="31.231023812933163" lon="121.39932668491967">
        <ele>21.805305761285126</ele>
        <time>2026-06-30T10:18:18Z</time>
      </trkpt>
      <trkpt lat="31.230859885306497" lon="121.39927469406132">
        <ele>-30.69931765180081</ele>
        <time>2026-06-30T10:18:24Z</time>
      </trkpt>
      <trkpt lat="31.23060400628257" lon="121.39930871973763">
        <ele>20.38112668413669</ele>
        <time>2026-06-30T10:18:33Z</time>
      </trkpt>
      <trkpt lat="31.230299152753897" lon="121.39937975353348">
        <ele>20.169739049859345</ele>
        <time>2026-06-30T10:18:45Z</time>
      </trkpt>
      <trkpt lat="31.230032283883503" lon="121.39947678708104">
        <ele>23.53335599321872</ele>
        <time>2026-06-30T10:18:57Z</time>
      </trkpt>
      <trkpt lat="31.229693449251236" lon="121.39957782785349">
        <ele>22.505508703179657</ele>
        <time>2026-06-30T10:19:12Z</time>
      </trkpt>
      <trkpt lat="31.229522533805202" lon="121.39963984991253">
        <ele>18.03214291948825</ele>
        <time>2026-06-30T10:19:30Z</time>
      </trkpt>
      <trkpt lat="31.229375596802857" lon="121.39957585535086">
        <ele>3.890693944878876</ele>
        <time>2026-06-30T10:19:55Z</time>
      </trkpt>
      <trkpt lat="31.229238661530186" lon="121.39958886877625">
        <ele>14.724014562554657</ele>
        <time>2026-06-30T10:20:01Z</time>
      </trkpt>
      <trkpt lat="31.228951803371974" lon="121.39968890548819">
        <ele>11.666904729790986</ele>
        <time>2026-06-30T10:20:07Z</time>
      </trkpt>
      <trkpt lat="31.22881786786748" lon="121.3997139201752">
        <ele>9.687839788384736</ele>
        <time>2026-06-30T10:20:10Z</time>
      </trkpt>
      <trkpt lat="31.228686928985816" lon="121.39971593183782">
        <ele>21.332344335503876</ele>
        <time>2026-06-30T10:20:13Z</time>
      </trkpt>
      <trkpt lat="31.228555992413163" lon="121.39974394666561">
        <ele>15.331741613335907</ele>
        <time>2026-06-30T10:20:16Z</time>
      </trkpt>
      <trkpt lat="31.228427057406392" lon="121.39979896472416">
        <ele>19.279297155328095</ele>
        <time>2026-06-30T10:20:19Z</time>
      </trkpt>
      <trkpt lat="31.22831611919331" lon="121.39990698823996">
        <ele>15.675232213921845</ele>
        <time>2026-06-30T10:20:22Z</time>
      </trkpt>
      <trkpt lat="31.228206177839837" lon="121.39998300793538">
        <ele>26.133354467339814</ele>
        <time>2026-06-30T10:20:25Z</time>
      </trkpt>
      <trkpt lat="31.22792131797523" lon="121.40005604277394">
        <ele>19.887016576714814</ele>
        <time>2026-06-30T10:20:31Z</time>
      </trkpt>
      <trkpt lat="31.22775040212126" lon="121.40009906369849">
        <ele>18.69271115679294</ele>
        <time>2026-06-30T10:20:34Z</time>
      </trkpt>
      <trkpt lat="31.227618462405747" lon="121.40008707351708">
        <ele>5.071789068169892</ele>
        <time>2026-06-30T10:20:37Z</time>
      </trkpt>
      <trkpt lat="31.227513502587293" lon="121.40000107078825">
        <ele>22.967911046929657</ele>
        <time>2026-06-30T10:20:40Z</time>
      </trkpt>
      <trkpt lat="31.227463512503792" lon="121.39986305689177">
        <ele>15.989662450738251</ele>
        <time>2026-06-30T10:20:43Z</time>
      </trkpt>
      <trkpt lat="31.227493481356515" lon="121.39967203065973">
        <ele>17.05978421587497</ele>
        <time>2026-06-30T10:20:46Z</time>
      </trkpt>
      <trkpt lat="31.227436498791995" lon="121.39956202289642">
        <ele>21.657341283746064</ele>
        <time>2026-06-30T10:20:49Z</time>
      </trkpt>
      <trkpt lat="31.22725758302022" lon="121.39957103951907">
        <ele>22.716896337457</ele>
        <time>2026-06-30T10:20:52Z</time>
      </trkpt>
      <trkpt lat="31.22696172770837" lon="121.3996500744406">
        <ele>21.374618810601532</ele>
        <time>2026-06-30T10:20:58Z</time>
      </trkpt>
      <trkpt lat="31.226626886017545" lon="121.3996721062417">
        <ele>25.945755285210907</ele>
        <time>2026-06-30T10:21:07Z</time>
      </trkpt>
      <trkpt lat="31.22641598919973" lon="121.3997251309969">
        <ele>24.373596471734345</ele>
        <time>2026-06-30T10:21:10Z</time>
      </trkpt>
      <trkpt lat="31.226282059646486" lon="121.39981215344011">
        <ele>13.320968908257782</ele>
        <time>2026-06-30T10:21:13Z</time>
      </trkpt>
      <trkpt lat="31.226244090597092" lon="121.39995117477164">
        <ele>20.505310338921845</ele>
        <time>2026-06-30T10:21:16Z</time>
      </trkpt>
      <trkpt lat="31.226264097067737" lon="121.40010719445952">
        <ele>7.740486425347626</ele>
        <time>2026-06-30T10:21:19Z</time>
      </trkpt>
      <trkpt lat="31.226236143257847" lon="121.40040424123836">
        <ele>18.851249975152314</ele>
        <time>2026-06-30T10:21:25Z</time>
      </trkpt>
      <trkpt lat="31.226253166337" lon="121.4006552808451">
        <ele>18.116691869683564</ele>
        <time>2026-06-30T10:21:31Z</time>
      </trkpt>
      <trkpt lat="31.22620119689809" lon="121.40070329361345">
        <ele>17.82340268511325</ele>
        <time>2026-06-30T10:21:34Z</time>
      </trkpt>
      <trkpt lat="31.226136230717138" lon="121.40072930379115">
        <ele>19.960998815484345</ele>
        <time>2026-06-30T10:21:37Z</time>
      </trkpt>
      <trkpt lat="31.22606825646705" lon="121.4006833017613">
        <ele>16.021370214410126</ele>
        <time>2026-06-30T10:21:43Z</time>
      </trkpt>
      <trkpt lat="31.225999286006225" lon="121.40066230418046">
        <ele>12.41995267290622</ele>
        <time>2026-06-30T10:21:46Z</time>
      </trkpt>
      <trkpt lat="31.225942315395038" lon="121.40068331274504">
        <ele>18.441696447320282</ele>
        <time>2026-06-30T10:21:49Z</time>
      </trkpt>
      <trkpt lat="31.22576139501751" lon="121.40064432186381">
        <ele>17.781128210015595</ele>
        <time>2026-06-30T10:21:55Z</time>
      </trkpt>
      <trkpt lat="31.225610472825988" lon="121.40069934444129">
        <ele>16.724220556207</ele>
        <time>2026-06-30T10:22:01Z</time>
      </trkpt>
      <trkpt lat="31.22562145796729" lon="121.40062433068383">
        <ele>21.68904904741794</ele>
        <time>2026-06-30T10:22:04Z</time>
      </trkpt>
      <trkpt lat="31.22561044239113" lon="121.40045730420825">
        <ele>23.575630468316376</ele>
        <time>2026-06-30T10:22:07Z</time>
      </trkpt>
      <trkpt lat="31.225629416166626" lon="121.40030927946535">
        <ele>22.759170812554657</ele>
        <time>2026-06-30T10:22:10Z</time>
      </trkpt>
      <trkpt lat="31.225670379227708" lon="121.40014825208493">
        <ele>21.197586339898407</ele>
        <time>2026-06-30T10:22:13Z</time>
      </trkpt>
      <trkpt lat="31.225618380295384" lon="121.3999192251036">
        <ele>17.7599871577695</ele>
        <time>2026-06-30T10:22:19Z</time>
      </trkpt>
      <trkpt lat="31.225623385220192" lon="121.39999323455008">
        <ele>20.61100034136325</ele>
        <time>2026-06-30T10:22:34Z</time>
      </trkpt>
      <trkpt lat="31.225638384063714" lon="121.40005124118922">
        <ele>21.01791409868747</ele>
        <time>2026-06-30T10:23:01Z</time>
      </trkpt>
      <trkpt lat="31.225808311053182" lon="121.40011423520203">
        <ele>25.713234228082</ele>
        <time>2026-06-30T10:23:19Z</time>
      </trkpt>
      <trkpt lat="31.225842290974917" lon="121.40007422660635">
        <ele>28.524612707085907</ele>
        <time>2026-06-30T10:23:28Z</time>
      </trkpt>
      <trkpt lat="31.22584529596155" lon="121.40013523496704">
        <ele>29.573593419976532</ele>
        <time>2026-06-30T10:23:49Z</time>
      </trkpt>
      <trkpt lat="31.22579931515878" lon="121.40011323584477">
        <ele>29.56302670855075</ele>
        <time>2026-06-30T10:24:40Z</time>
      </trkpt>
      <trkpt lat="31.2257563282313" lon="121.40004523007266">
        <ele>28.302658361382782</ele>
        <time>2026-06-30T10:24:46Z</time>
      </trkpt>
      <trkpt lat="31.225798315101542" lon="121.40010823522363">
        <ele>29.121765417046845</ele>
        <time>2026-06-30T10:24:52Z</time>
      </trkpt>
      <trkpt lat="31.225817316706415" lon="121.40020624768984">
        <ele>28.765060705132782</ele>
        <time>2026-06-30T10:24:58Z</time>
      </trkpt>
      <trkpt lat="31.225688376848048" lon="121.40020425864175">
        <ele>28.270950597710907</ele>
        <time>2026-06-30T10:25:16Z</time>
      </trkpt>
    </trkseg>
  </trk>
</gpx>