<?xml version="1.0" encoding="UTF-8"?>
<gpx xmlns="http://www.topografix.com/GPX/1/1" xmlns:gpxtpx="http://www.garmin.com/xmlschemas/TrackPointExtension/v1" xmlns:xsi="http://www.w3.org/2001/XMLSchema-instance" xsi:schemaLocation="http://www.topografix.com/GPX/1/1 http://www.topografix.com/GPX/1/1/gpx.xsd" version="1.1" creator="gpx.py -- https://github.com/tkrajina/gpxpy">
  <trk>
    <name>gpx from keep</name>
    <type>Run</type>
    <trkseg>
      <trkpt lat="31.230192296613676" lon="121.40037489164663">
        <ele>13.379068668931723</ele>
        <time>2026-05-15T11:12:11Z</time>
      </trkpt>
      <trkpt lat="31.230473156864512" lon="121.40029285456701">
        <ele>13.97093802317977</ele>
        <time>2026-05-15T11:12:29Z</time>
      </trkpt>
      <trkpt lat="31.23066805505242" lon="121.40018982226461">
        <ele>16.42825346812606</ele>
        <time>2026-05-15T11:12:44Z</time>
      </trkpt>
      <trkpt lat="31.230823979416126" lon="121.40015880416733">
        <ele>16.116464909166098</ele>
        <time>2026-05-15T11:12:56Z</time>
      </trkpt>
      <trkpt lat="31.23104386353982" lon="121.40002476613293">
        <ele>6.910782154649496</ele>
        <time>2026-05-15T11:13:11Z</time>
      </trkpt>
      <trkpt lat="31.231164788054258" lon="121.39982372907257">
        <ele>16.470529850572348</ele>
        <time>2026-05-15T11:13:23Z</time>
      </trkpt>
      <trkpt lat="31.23118676520433" lon="121.39968170970438">
        <ele>13.468906696885824</ele>
        <time>2026-05-15T11:13:32Z</time>
      </trkpt>
      <trkpt lat="31.231155764788767" lon="121.39950169180831">
        <ele>13.178257282823324</ele>
        <time>2026-05-15T11:13:39Z</time>
      </trkpt>
      <trkpt lat="31.231103783962293" lon="121.39943768942766">
        <ele>15.14410811290145</ele>
        <time>2026-05-15T11:13:42Z</time>
      </trkpt>
      <trkpt lat="31.230989831098068" lon="121.39936069133284">
        <ele>13.986791905015707</ele>
        <time>2026-05-15T11:13:48Z</time>
      </trkpt>
      <trkpt lat="31.230907867584182" lon="121.39933969634511">
        <ele>14.800611790269613</ele>
        <time>2026-05-15T11:13:51Z</time>
      </trkpt>
      <trkpt lat="31.230783920316867" lon="121.39927170039445">
        <ele>13.585167225450277</ele>
        <time>2026-05-15T11:13:57Z</time>
      </trkpt>
      <trkpt lat="31.230518049898176" lon="121.39936173258818">
        <ele>14.737198170274496</ele>
        <time>2026-05-15T11:14:06Z</time>
      </trkpt>
      <trkpt lat="31.230288161096514" lon="121.3994237590894">
        <ele>14.39370184764266</ele>
        <time>2026-05-15T11:14:15Z</time>
      </trkpt>
      <trkpt lat="31.229977314744165" lon="121.39954479936915">
        <ele>13.511183079332113</ele>
        <time>2026-05-15T11:14:27Z</time>
      </trkpt>
      <trkpt lat="31.22984638217345" lon="121.39962582003234">
        <ele>15.202238377183676</ele>
        <time>2026-05-15T11:14:33Z</time>
      </trkpt>
      <trkpt lat="31.229746440643055" lon="121.39976484541269">
        <ele>13.711996372789145</ele>
        <time>2026-05-15T11:14:39Z</time>
      </trkpt>
      <trkpt lat="31.229708473499084" lon="121.39992786955644">
        <ele>15.14410811290145</ele>
        <time>2026-05-15T11:14:45Z</time>
      </trkpt>
      <trkpt lat="31.229727487500696" lon="121.40015189880297">
        <ele>14.124189671128988</ele>
        <time>2026-05-15T11:14:51Z</time>
      </trkpt>
      <trkpt lat="31.229755481539065" lon="121.40021690582282">
        <ele>13.738418873399496</ele>
        <time>2026-05-15T11:14:54Z</time>
      </trkpt>
      <trkpt lat="31.22986544326884" lon="121.40033091336213">
        <ele>13.490043934434652</ele>
        <time>2026-05-15T11:15:00Z</time>
      </trkpt>
      <trkpt lat="31.229928417837698" lon="121.4003639129556">
        <ele>13.32622366771102</ele>
        <time>2026-05-15T11:15:03Z</time>
      </trkpt>
      <trkpt lat="31.229991389645836" lon="121.40037290885998">
        <ele>14.552238758653402</ele>
        <time>2026-05-15T11:15:06Z</time>
      </trkpt>
      <trkpt lat="31.230285246662362" lon="121.40031587445105">
        <ele>7.492082890123129</ele>
        <time>2026-05-15T11:15:19Z</time>
      </trkpt>
      <trkpt lat="31.230382202017434" lon="121.40031886645158">
        <ele>12.940450962632895</ele>
        <time>2026-05-15T11:15:22Z</time>
      </trkpt>
      <trkpt lat="31.230576104067005" lon="121.40024783883327">
        <ele>14.319717701524496</ele>
        <time>2026-05-15T11:15:31Z</time>
      </trkpt>
      <trkpt lat="31.230690048792198" lon="121.40022582563091">
        <ele>13.305084522813559</ele>
        <time>2026-05-15T11:15:37Z</time>
      </trkpt>
      <trkpt lat="31.230745020236437" lon="121.40019781671955">
        <ele>13.252239521592855</ele>
        <time>2026-05-15T11:15:40Z</time>
      </trkpt>
      <trkpt lat="31.23092593045068" lon="121.40014279297338">
        <ele>14.018499668687582</ele>
        <time>2026-05-15T11:15:46Z</time>
      </trkpt>
      <trkpt lat="31.23100188821295" lon="121.40007577685898">
        <ele>14.642076786607504</ele>
        <time>2026-05-15T11:15:49Z</time>
      </trkpt>
      <trkpt lat="31.23115179883984" lon="121.39987473673168">
        <ele>12.982727345079184</ele>
        <time>2026-05-15T11:15:55Z</time>
      </trkpt>
      <trkpt lat="31.231180776626488" lon="121.3997797221573">
        <ele>13.659149464219809</ele>
        <time>2026-05-15T11:15:58Z</time>
      </trkpt>
      <trkpt lat="31.231190755706308" lon="121.39959069872926">
        <ele>13.379068668931723</ele>
        <time>2026-05-15T11:16:04Z</time>
      </trkpt>
      <trkpt lat="31.231167760565906" lon="121.39951869263481">
        <ele>13.28394728526473</ele>
        <time>2026-05-15T11:16:07Z</time>
      </trkpt>
      <trkpt lat="31.231079792470403" lon="121.39940268782968">
        <ele>14.975002583116293</ele>
        <time>2026-05-15T11:16:13Z</time>
      </trkpt>
      <trkpt lat="31.23103081239559" lon="121.39936468816781">
        <ele>14.821750935167074</ele>
        <time>2026-05-15T11:16:16Z</time>
      </trkpt>
      <trkpt lat="31.23090486918691" lon="121.39934269691057">
        <ele>12.877037342637777</ele>
        <time>2026-05-15T11:16:23Z</time>
      </trkpt>
      <trkpt lat="31.23067797437266" lon="121.39934271670238">
        <ele>13.39492255076766</ele>
        <time>2026-05-15T11:16:29Z</time>
      </trkpt>
      <trkpt lat="31.230378119280946" lon="121.39942275113694">
        <ele>14.219312962144613</ele>
        <time>2026-05-15T11:16:41Z</time>
      </trkpt>
      <trkpt lat="31.23006826903782" lon="121.39950078655919">
        <ele>13.014435108751059</ele>
        <time>2026-05-15T11:16:53Z</time>
      </trkpt>
      <trkpt lat="31.229877364312372" lon="121.39958381249455">
        <ele>14.303865727037191</ele>
        <time>2026-05-15T11:17:02Z</time>
      </trkpt>
      <trkpt lat="31.229748433976717" lon="121.39969983732061">
        <ele>13.585167225450277</ele>
        <time>2026-05-15T11:17:08Z</time>
      </trkpt>
      <trkpt lat="31.229718453913687" lon="121.39976784822466">
        <ele>13.521751698106527</ele>
        <time>2026-05-15T11:17:11Z</time>
      </trkpt>
      <trkpt lat="31.22969647945947" lon="121.39993187113139">
        <ele>13.305084522813559</ele>
        <time>2026-05-15T11:17:17Z</time>
      </trkpt>
      <trkpt lat="31.229714485854636" lon="121.40007888957568">
        <ele>13.770126637071371</ele>
        <time>2026-05-15T11:17:23Z</time>
      </trkpt>
      <trkpt lat="31.229787466023907" lon="121.40021090215026">
        <ele>13.865248020738363</ele>
        <time>2026-05-15T11:17:29Z</time>
      </trkpt>
      <trkpt lat="31.229889428931077" lon="121.40030290699907">
        <ele>12.744922932237387</ele>
        <time>2026-05-15T11:17:35Z</time>
      </trkpt>
      <trkpt lat="31.230015375951943" lon="121.40035090335996">
        <ele>11.809559162706137</ele>
        <time>2026-05-15T11:17:41Z</time>
      </trkpt>
      <trkpt lat="31.230293244324493" lon="121.40032787558697">
        <ele>14.219312962144613</ele>
        <time>2026-05-15T11:17:53Z</time>
      </trkpt>
      <trkpt lat="31.23058210028737" lon="121.40023883697222">
        <ele>14.261589344590902</ele>
        <time>2026-05-15T11:18:06Z</time>
      </trkpt>
      <trkpt lat="31.230847967013297" lon="121.40014680034803">
        <ele>13.5006144605577</ele>
        <time>2026-05-15T11:18:18Z</time>
      </trkpt>
      <trkpt lat="31.2309149341663" lon="121.40012979207306">
        <ele>14.673782642930746</ele>
        <time>2026-05-15T11:18:21Z</time>
      </trkpt>
      <trkpt lat="31.23113980802254" lon="121.39991274272897">
        <ele>14.552238758653402</ele>
        <time>2026-05-15T11:18:33Z</time>
      </trkpt>
      <trkpt lat="31.23115878726559" lon="121.39978472469767">
        <ele>13.759556110948324</ele>
        <time>2026-05-15T11:18:36Z</time>
      </trkpt>
      <trkpt lat="31.231195760350364" lon="121.39967370796806">
        <ele>13.43719893321395</ele>
        <time>2026-05-15T11:18:39Z</time>
      </trkpt>
      <trkpt lat="31.231183758047997" lon="121.39957969808452">
        <ele>13.209963139146566</ele>
        <time>2026-05-15T11:18:42Z</time>
      </trkpt>
      <trkpt lat="31.231151765629765" lon="121.39948869073518">
        <ele>14.340856846421957</ele>
        <time>2026-05-15T11:18:45Z</time>
      </trkpt>
      <trkpt lat="31.230999823208524" lon="121.39931468580947">
        <ele>13.305084522813559</ele>
        <time>2026-05-15T11:18:54Z</time>
      </trkpt>
      <trkpt lat="31.230895868627883" lon="121.39927469092252">
        <ele>13.63801222667098</ele>
        <time>2026-05-15T11:18:57Z</time>
      </trkpt>
      <trkpt lat="31.230773263399474" lon="121.39930701037207">
        <ele>14.124189671128988</ele>
        <time>2026-05-15T11:19:00Z</time>
      </trkpt>
      <trkpt lat="31.230775304447192" lon="121.39923647216628">
        <ele>14.885164555162191</ele>
        <time>2026-05-15T11:19:03Z</time>
      </trkpt>
      <trkpt lat="31.23053404276823" lon="121.39936573160308">
        <ele>14.943294819444418</ele>
        <time>2026-05-15T11:19:15Z</time>
      </trkpt>
      <trkpt lat="31.2302491804615" lon="121.39944076429292">
        <ele>14.541670139878988</ele>
        <time>2026-05-15T11:19:28Z</time>
      </trkpt>
      <trkpt lat="31.229943331648418" lon="121.39955880390623">
        <ele>10.916469868272543</ele>
        <time>2026-05-15T11:19:40Z</time>
      </trkpt>
      <trkpt lat="31.22984938119911" lon="121.39963082035256">
        <ele>9.584762867540121</ele>
        <time>2026-05-15T11:19:46Z</time>
      </trkpt>
      <trkpt lat="31.2297674270759" lon="121.39972183831911">
        <ele>13.696142490953207</ele>
        <time>2026-05-15T11:19:49Z</time>
      </trkpt>
      <trkpt lat="31.22972945115686" lon="121.3997938504989">
        <ele>14.166466053575277</ele>
        <time>2026-05-15T11:19:52Z</time>
      </trkpt>
      <trkpt lat="31.229706476277467" lon="121.39994687224973">
        <ele>12.898174580186605</ele>
        <time>2026-05-15T11:19:58Z</time>
      </trkpt>
      <trkpt lat="31.22972448090053" lon="121.40007588828404">
        <ele>13.157118137925863</ele>
        <time>2026-05-15T11:20:04Z</time>
      </trkpt>
      <trkpt lat="31.229783472073088" lon="121.40024890812097">
        <ele>11.592891987413168</ele>
        <time>2026-05-15T11:20:10Z</time>
      </trkpt>
      <trkpt lat="31.229877438733325" lon="121.40033991369735">
        <ele>12.845329578965902</ele>
        <time>2026-05-15T11:20:16Z</time>
      </trkpt>
      <trkpt lat="31.229947409251515" lon="121.40036591160916">
        <ele>13.252239521592855</ele>
        <time>2026-05-15T11:20:19Z</time>
      </trkpt>
      <trkpt lat="31.23015531238143" lon="121.40036289300943">
        <ele>13.067280109971762</ele>
        <time>2026-05-15T11:20:28Z</time>
      </trkpt>
      <trkpt lat="31.230461160175192" lon="121.40027285259858">
        <ele>13.521751698106527</ele>
        <time>2026-05-15T11:20:41Z</time>
      </trkpt>
      <trkpt lat="31.23079399546909" lon="121.4001788096778">
        <ele>12.68150931224227</ele>
        <time>2026-05-15T11:20:56Z</time>
      </trkpt>
      <trkpt lat="31.23099789079119" lon="121.400082778188">
        <ele>12.898174580186605</ele>
        <time>2026-05-15T11:21:05Z</time>
      </trkpt>
      <trkpt lat="31.231129816343206" lon="121.39995074862776">
        <ele>13.416061695665121</ele>
        <time>2026-05-15T11:21:11Z</time>
      </trkpt>
      <trkpt lat="31.23119976918985" lon="121.39979472237117">
        <ele>14.716059025377035</ele>
        <time>2026-05-15T11:21:17Z</time>
      </trkpt>
      <trkpt lat="31.231218750474365" lon="121.39968270703349">
        <ele>12.475410755723715</ele>
        <time>2026-05-15T11:21:20Z</time>
      </trkpt>
      <trkpt lat="31.231180755813387" lon="121.3995346932778">
        <ele>13.801832493394613</ele>
        <time>2026-05-15T11:21:26Z</time>
      </trkpt>
      <trkpt lat="31.23110678018799" lon="121.39940568578936">
        <ele>14.901018436998129</ele>
        <time>2026-05-15T11:21:32Z</time>
      </trkpt>
      <trkpt lat="31.231037808650516" lon="121.39935768684103">
        <ele>13.231102284044027</ele>
        <time>2026-05-15T11:21:35Z</time>
      </trkpt>
      <trkpt lat="31.230863886980476" lon="121.3993256987694">
        <ele>11.57175474986434</ele>
        <time>2026-05-15T11:21:41Z</time>
      </trkpt>
      <trkpt lat="31.230788919504505" lon="121.3992937021197">
        <ele>14.520530994981527</ele>
        <time>2026-05-15T11:21:44Z</time>
      </trkpt>
      <trkpt lat="31.230721951105107" lon="121.39930170875353">
        <ele>12.411997135728598</ele>
        <time>2026-05-15T11:21:47Z</time>
      </trkpt>
      <trkpt lat="31.230478070254563" lon="121.39938673865149">
        <ele>10.990454014390707</ele>
        <time>2026-05-15T11:21:57Z</time>
      </trkpt>
      <trkpt lat="31.230379752682676" lon="121.3994710107988">
        <ele>12.5018351636827</ele>
        <time>2026-05-15T11:22:00Z</time>
      </trkpt>
      <trkpt lat="31.230287954629215" lon="121.39960568087689">
        <ele>11.349802311509848</ele>
        <time>2026-05-15T11:22:06Z</time>
      </trkpt>
      <trkpt lat="31.23028239549701" lon="121.39949952905712">
        <ele>11.672159489244223</ele>
        <time>2026-05-15T11:22:09Z</time>
      </trkpt>
      <trkpt lat="31.230247182753118" lon="121.39945876639312">
        <ele>13.025003727525473</ele>
        <time>2026-05-15T11:22:12Z</time>
      </trkpt>
      <trkpt lat="31.23006227151025" lon="121.39949678664408">
        <ele>13.63801222667098</ele>
        <time>2026-05-15T11:22:21Z</time>
      </trkpt>
      <trkpt lat="31.22986637007365" lon="121.39959181436741">
        <ele>5.082329090684652</ele>
        <time>2026-05-15T11:22:30Z</time>
      </trkpt>
      <trkpt lat="31.22976242852155" lon="121.39971183754506">
        <ele>10.831917103379965</ele>
        <time>2026-05-15T11:22:36Z</time>
      </trkpt>
      <trkpt lat="31.229706474330882" lon="121.39992686959876">
        <ele>12.401428516954184</ele>
        <time>2026-05-15T11:22:45Z</time>
      </trkpt>
      <trkpt lat="31.229731487036258" lon="121.40016490032866">
        <ele>10.969314869493246</ele>
        <time>2026-05-15T11:22:54Z</time>
      </trkpt>
      <trkpt lat="31.22980446793669" lon="121.4002989138031">
        <ele>12.121345814317465</ele>
        <time>2026-05-15T11:23:00Z</time>
      </trkpt>
      <trkpt lat="31.229849452538783" lon="121.40034691721596">
        <ele>12.713215168565512</ele>
        <time>2026-05-15T11:23:03Z</time>
      </trkpt>
      <trkpt lat="31.229963404161285" lon="121.40038591332669">
        <ele>13.305084522813559</ele>
        <time>2026-05-15T11:23:09Z</time>
      </trkpt>
      <trkpt lat="31.23017430356654" lon="121.40036289135288">
        <ele>11.518907841295004</ele>
        <time>2026-05-15T11:23:18Z</time>
      </trkpt>
      <trkpt lat="31.230541120626032" lon="121.40025084233176">
        <ele>13.22053175792098</ele>
        <time>2026-05-15T11:23:34Z</time>
      </trkpt>
      <trkpt lat="31.23087195440526" lon="121.40013279625049">
        <ele>12.692077931016684</ele>
        <time>2026-05-15T11:23:49Z</time>
      </trkpt>
      <trkpt lat="31.230986895264316" lon="121.40007677830671">
        <ele>12.866468723863363</ele>
        <time>2026-05-15T11:23:55Z</time>
      </trkpt>
      <trkpt lat="31.23115480078818" lon="121.39990974102751">
        <ele>12.63923292979598</ele>
        <time>2026-05-15T11:24:04Z</time>
      </trkpt>
      <trkpt lat="31.231218755807582" lon="121.39974371440313">
        <ele>12.057932194322348</ele>
        <time>2026-05-15T11:24:10Z</time>
      </trkpt>
      <trkpt lat="31.231219742115428" lon="121.39958869597208">
        <ele>11.185982044786215</ele>
        <time>2026-05-15T11:24:16Z</time>
      </trkpt>
      <trkpt lat="31.231170755828334" lon="121.39947568766554">
        <ele>13.056711491197348</ele>
        <time>2026-05-15T11:24:19Z</time>
      </trkpt>
      <trkpt lat="31.23111377599041" lon="121.39939268382258">
        <ele>13.199394520372152</ele>
        <time>2026-05-15T11:24:22Z</time>
      </trkpt>
      <trkpt lat="31.231058798709658" lon="121.39935468470378">
        <ele>12.92988234385848</ele>
        <time>2026-05-15T11:24:25Z</time>
      </trkpt>
      <trkpt lat="31.230799913789355" lon="121.39928470027344">
        <ele>12.100208576768637</ele>
        <time>2026-05-15T11:24:34Z</time>
      </trkpt>
      <trkpt lat="31.23053204190784" lon="121.39934072922918">
        <ele>10.969314869493246</ele>
        <time>2026-05-15T11:24:46Z</time>
      </trkpt>
      <trkpt lat="31.23024718252481" lon="121.39945576607097">
        <ele>12.877037342637777</ele>
        <time>2026-05-15T11:24:58Z</time>
      </trkpt>
      <trkpt lat="31.23004828179459" lon="121.39954479317893">
        <ele>9.056309040635824</ele>
        <time>2026-05-15T11:25:07Z</time>
      </trkpt>
      <trkpt lat="31.229897354946857" lon="121.39958281063686">
        <ele>11.50833922252059</ele>
        <time>2026-05-15T11:25:16Z</time>
      </trkpt>
      <trkpt lat="31.229823393436945" lon="121.39963282285247">
        <ele>12.877037342637777</ele>
        <time>2026-05-15T11:25:19Z</time>
      </trkpt>
      <trkpt lat="31.229724453387572" lon="121.3997928508098">
        <ele>12.517687138170004</ele>
        <time>2026-05-15T11:25:25Z</time>
      </trkpt>
      <trkpt lat="31.229695476170328" lon="121.39989286609936">
        <ele>13.077850636094809</ele>
        <time>2026-05-15T11:25:28Z</time>
      </trkpt>
      <trkpt lat="31.229696489594946" lon="121.40003388489781">
        <ele>12.184761341661215</ele>
        <time>2026-05-15T11:25:34Z</time>
      </trkpt>
      <trkpt lat="31.229761481843326" lon="121.40024490944369">
        <ele>11.962810810655355</ele>
        <time>2026-05-15T11:25:43Z</time>
      </trkpt>
      <trkpt lat="31.229793471912135" lon="121.40028891324901">
        <ele>13.780695255845785</ele>
        <time>2026-05-15T11:25:46Z</time>
      </trkpt>
      <trkpt lat="31.229888435475978" lon="121.40035591520474">
        <ele>13.32622366771102</ele>
        <time>2026-05-15T11:25:53Z</time>
      </trkpt>
      <trkpt lat="31.230046363771997" lon="121.4003699035986">
        <ele>11.983948048204184</ele>
        <time>2026-05-15T11:25:59Z</time>
      </trkpt>
      <trkpt lat="31.230250259154893" lon="121.40028287249973">
        <ele>12.649801548570395</ele>
        <time>2026-05-15T11:26:14Z</time>
      </trkpt>
      <trkpt lat="31.230566107041014" lon="121.40023283747765">
        <ele>6.445741947740316</ele>
        <time>2026-05-15T11:26:23Z</time>
      </trkpt>
      <trkpt lat="31.230868955795167" lon="121.40013279651205">
        <ele>12.565248783677816</ele>
        <time>2026-05-15T11:26:38Z</time>
      </trkpt>
      <trkpt lat="31.230931923762583" lon="121.40010578718143">
        <ele>12.036793049424887</ele>
        <time>2026-05-15T11:26:41Z</time>
      </trkpt>
      <trkpt lat="31.231151798178857" lon="121.3998677358279">
        <ele>11.381510075181723</ele>
        <time>2026-05-15T11:26:53Z</time>
      </trkpt>
      <trkpt lat="31.231219747873222" lon="121.39965770398237">
        <ele>13.410776432603598</ele>
        <time>2026-05-15T11:27:00Z</time>
      </trkpt>
      <trkpt lat="31.231185752389205" lon="121.39952069128672">
        <ele>11.99451857432723</ele>
        <time>2026-05-15T11:27:06Z</time>
      </trkpt>
      <trkpt lat="31.231096784376753" lon="121.3993996860341">
        <ele>12.808338459581137</ele>
        <time>2026-05-15T11:27:12Z</time>
      </trkpt>
      <trkpt lat="31.230927855035205" lon="121.39929268990167">
        <ele>12.522972401231527</ele>
        <time>2026-05-15T11:27:21Z</time>
      </trkpt>
      <trkpt lat="31.2306329928402" lon="121.39930871720918">
        <ele>13.28394728526473</ele>
        <time>2026-05-15T11:27:36Z</time>
      </trkpt>
      <trkpt lat="31.230438086918898" lon="121.39936073946082">
        <ele>13.39492255076766</ele>
        <time>2026-05-15T11:27:45Z</time>
      </trkpt>
      <trkpt lat="31.23017021900778" lon="121.39946577386002">
        <ele>12.628662403672934</ele>
        <time>2026-05-15T11:27:57Z</time>
      </trkpt>
      <trkpt lat="31.22993533304297" lon="121.39952980135726">
        <ele>13.252239521592855</ele>
        <time>2026-05-15T11:28:10Z</time>
      </trkpt>
      <trkpt lat="31.229773424114583" lon="121.39971983755358">
        <ele>13.209963139146566</ele>
        <time>2026-05-15T11:28:19Z</time>
      </trkpt>
      <trkpt lat="31.22974144981754" lon="121.39983985526001">
        <ele>12.295736607164145</ele>
        <time>2026-05-15T11:28:25Z</time>
      </trkpt>
      <trkpt lat="31.22973247553569" lon="121.40005988535567">
        <ele>12.734354313462973</ele>
        <time>2026-05-15T11:28:34Z</time>
      </trkpt>
      <trkpt lat="31.229750476928064" lon="121.40015289694159">
        <ele>12.544109638780355</ele>
        <time>2026-05-15T11:28:37Z</time>
      </trkpt>
      <trkpt lat="31.2297954628576" lon="121.40021590218818">
        <ele>12.142484959214926</ele>
        <time>2026-05-15T11:28:43Z</time>
      </trkpt>
      <trkpt lat="31.229891427889168" lon="121.40030190667295">
        <ele>12.380289372056723</ele>
        <time>2026-05-15T11:28:55Z</time>
      </trkpt>
      <trkpt lat="31.23000937827404" lon="121.40034690326627">
        <ele>13.025003727525473</ele>
        <time>2026-05-15T11:29:04Z</time>
      </trkpt>
      <trkpt lat="31.230099338131723" lon="121.40036089758208">
        <ele>10.789640720933676</ele>
        <time>2026-05-15T11:29:10Z</time>
      </trkpt>
      <trkpt lat="31.230304237393533" lon="121.40031187218504">
        <ele>11.349802311509848</ele>
        <time>2026-05-15T11:29:26Z</time>
      </trkpt>
      <trkpt lat="31.230003376246398" lon="121.40030489736358">
        <ele>10.990454014390707</ele>
        <time>2026-05-15T11:29:32Z</time>
      </trkpt>
      <trkpt lat="31.230772190662268" lon="121.40019748820211">
        <ele>13.92866164073348</ele>
        <time>2026-05-15T11:29:47Z</time>
      </trkpt>
      <trkpt lat="31.23085896213016" lon="121.40014879967622">
        <ele>13.157118137925863</ele>
        <time>2026-05-15T11:29:50Z</time>
      </trkpt>
      <trkpt lat="31.230914936186053" lon="121.40014879479365">
        <ele>4.770540531724691</ele>
        <time>2026-05-15T11:29:53Z</time>
      </trkpt>
      <trkpt lat="31.231017881735323" lon="121.40008477672475">
        <ele>13.178257282823324</ele>
        <time>2026-05-15T11:29:59Z</time>
      </trkpt>
      <trkpt lat="31.231154802913796" lon="121.3999317439251">
        <ele>12.565248783677816</ele>
        <time>2026-05-15T11:30:05Z</time>
      </trkpt>
      <trkpt lat="31.23122775432407" lon="121.3997737173145">
        <ele>14.39370184764266</ele>
        <time>2026-05-15T11:30:11Z</time>
      </trkpt>
      <trkpt lat="31.231227739893296" lon="121.39960669734012">
        <ele>12.163624104112387</ele>
        <time>2026-05-15T11:30:17Z</time>
      </trkpt>
      <trkpt lat="31.231199746144004" lon="121.39952369039844">
        <ele>12.628662403672934</ele>
        <time>2026-05-15T11:30:20Z</time>
      </trkpt>
      <trkpt lat="31.231090786641513" lon="121.39939268582795">
        <ele>12.15305357798934</ele>
        <time>2026-05-15T11:30:26Z</time>
      </trkpt>
      <trkpt lat="31.230901868395737" lon="121.39931169405452">
        <ele>13.014435108751059</ele>
        <time>2026-05-15T11:30:36Z</time>
      </trkpt>
      <trkpt lat="31.230860889075494" lon="121.3993357000385">
        <ele>11.339233692735434</ele>
        <time>2026-05-15T11:30:39Z</time>
      </trkpt>
      <trkpt lat="31.23079691816479" lon="121.39932770481215">
        <ele>12.898174580186605</ele>
        <time>2026-05-15T11:30:42Z</time>
      </trkpt>
      <trkpt lat="31.230520049547394" lon="121.39936973323448">
        <ele>12.443704899400473</ele>
        <time>2026-05-15T11:30:54Z</time>
      </trkpt>
      <trkpt lat="31.230239185628886" lon="121.3994477659117">
        <ele>8.20549612864852</ele>
        <time>2026-05-15T11:31:09Z</time>
      </trkpt>
      <trkpt lat="31.230103251245684" lon="121.39948078132487">
        <ele>12.211183842271566</ele>
        <time>2026-05-15T11:31:15Z</time>
      </trkpt>
      <trkpt lat="31.229908348135897" lon="121.39956180729608">
        <ele>11.983948048204184</ele>
        <time>2026-05-15T11:31:21Z</time>
      </trkpt>
      <trkpt lat="31.229831388303616" lon="121.39961582018054">
        <ele>13.157118137925863</ele>
        <time>2026-05-15T11:31:24Z</time>
      </trkpt>
      <trkpt lat="31.229782416376697" lon="121.39967883184568">
        <ele>11.011591251939535</ele>
        <time>2026-05-15T11:31:27Z</time>
      </trkpt>
      <trkpt lat="31.229721459197258" lon="121.39984085713121">
        <ele>12.808338459581137</ele>
        <time>2026-05-15T11:31:33Z</time>
      </trkpt>
      <trkpt lat="31.22971048016537" lon="121.40000487970764">
        <ele>13.34736281260848</ele>
        <time>2026-05-15T11:31:36Z</time>
      </trkpt>
      <trkpt lat="31.229687576082437" lon="121.4001242367055">
        <ele>12.338012989610434</ele>
        <time>2026-05-15T11:31:42Z</time>
      </trkpt>
      <trkpt lat="31.229786462144695" lon="121.4001708964016">
        <ele>11.487201984971762</ele>
        <time>2026-05-15T11:31:51Z</time>
      </trkpt>
      <trkpt lat="31.22982844996104" lon="121.40023790256242">
        <ele>13.114841755479574</ele>
        <time>2026-05-15T11:31:57Z</time>
      </trkpt>
      <trkpt lat="31.229946406475257" lon="121.4003379073742">
        <ele>13.262810047715902</ele>
        <time>2026-05-15T11:32:06Z</time>
      </trkpt>
      <trkpt lat="31.230093344067367" lon="121.40038790230494">
        <ele>12.766062077134848</ele>
        <time>2026-05-15T11:32:30Z</time>
      </trkpt>
      <trkpt lat="31.230376204001157" lon="121.40031186590758">
        <ele>12.855898197740316</ele>
        <time>2026-05-15T11:33:09Z</time>
      </trkpt>
      <trkpt lat="31.23051113609628" lon="121.40026484703924">
        <ele>12.68150931224227</ele>
        <time>2026-05-15T11:33:28Z</time>
      </trkpt>
      <trkpt lat="31.230561109248494" lon="121.40023183776552">
        <ele>12.63923292979598</ele>
        <time>2026-05-15T11:33:34Z</time>
      </trkpt>
      <trkpt lat="31.23075901222849" lon="121.40018381345638">
        <ele>12.411997135728598</ele>
        <time>2026-05-15T11:33:46Z</time>
      </trkpt>
      <trkpt lat="31.230826975360763" lon="121.40013380031685">
        <ele>14.45711737498641</ele>
        <time>2026-05-15T11:33:49Z</time>
      </trkpt>
      <trkpt lat="31.230970903713114" lon="121.4000867811034">
        <ele>12.163624104112387</ele>
        <time>2026-05-15T11:33:55Z</time>
      </trkpt>
      <trkpt lat="31.2310328708722" lon="121.40004677012251">
        <ele>8.797365482896566</ele>
        <time>2026-05-15T11:33:58Z</time>
      </trkpt>
      <trkpt lat="31.2311168226572" lon="121.39995375016132">
        <ele>12.5018351636827</ele>
        <time>2026-05-15T11:34:01Z</time>
      </trkpt>
      <trkpt lat="31.23116479225361" lon="121.3998687348234">
        <ele>12.163624104112387</ele>
        <time>2026-05-15T11:34:04Z</time>
      </trkpt>
      <trkpt lat="31.231218749958682" lon="121.39967670631917">
        <ele>12.522972401231527</ele>
        <time>2026-05-15T11:34:10Z</time>
      </trkpt>
      <trkpt lat="31.231198748757315" lon="121.39955069349827">
        <ele>12.253460224717855</ele>
        <time>2026-05-15T11:34:13Z</time>
      </trkpt>
      <trkpt lat="31.231163758608833" lon="121.39946968762669">
        <ele>12.485981281846762</ele>
        <time>2026-05-15T11:34:16Z</time>
      </trkpt>
      <trkpt lat="31.23110078215713" lon="121.39939468516415">
        <ele>12.877037342637777</ele>
        <time>2026-05-15T11:34:19Z</time>
      </trkpt>
      <trkpt lat="31.230935851398083" lon="121.39929368930295">
        <ele>13.564028080552816</ele>
        <time>2026-05-15T11:34:25Z</time>
      </trkpt>
      <trkpt lat="31.230866881723724" lon="121.39926969296256">
        <ele>12.734354313462973</ele>
        <time>2026-05-15T11:34:28Z</time>
      </trkpt>
      <trkpt lat="31.23054803505925" lon="121.39934872864606">
        <ele>13.294515904039145</ele>
        <time>2026-05-15T11:34:40Z</time>
      </trkpt>
      <trkpt lat="31.230235187863357" lon="121.39945276679553">
        <ele>12.232322987169027</ele>
        <time>2026-05-15T11:34:52Z</time>
      </trkpt>
      <trkpt lat="31.22997131554332" lon="121.39951979710935">
        <ele>12.306305225938559</ele>
        <time>2026-05-15T11:35:04Z</time>
      </trkpt>
      <trkpt lat="31.22991634217955" lon="121.39953380345897">
        <ele>8.665252979844809</ele>
        <time>2026-05-15T11:35:08Z</time>
      </trkpt>
      <trkpt lat="31.229801405167454" lon="121.39965082687765">
        <ele>12.485981281846762</ele>
        <time>2026-05-15T11:35:14Z</time>
      </trkpt>
      <trkpt lat="31.229733449117624" lon="121.39979184990018">
        <ele>12.26402884349227</ele>
        <time>2026-05-15T11:35:20Z</time>
      </trkpt>
      <trkpt lat="31.22971246808557" lon="121.39989086435686">
        <ele>8.686390217393637</ele>
        <time>2026-05-15T11:35:23Z</time>
      </trkpt>
      <trkpt lat="31.229720484732184" lon="121.40009489129945">
        <ele>11.672159489244223</ele>
        <time>2026-05-15T11:35:29Z</time>
      </trkpt>
      <trkpt lat="31.22975048211046" lon="121.40020090390928">
        <ele>12.248176869004965</ele>
        <time>2026-05-15T11:35:32Z</time>
      </trkpt>
      <trkpt lat="31.22980246570805" lon="121.40027090975398">
        <ele>12.744922932237387</ele>
        <time>2026-05-15T11:35:35Z</time>
      </trkpt>
      <trkpt lat="31.229936412964094" lon="121.4003539107108">
        <ele>12.692077931016684</ele>
        <time>2026-05-15T11:35:41Z</time>
      </trkpt>
      <trkpt lat="31.23014032050517" lon="121.40037289586927">
        <ele>11.423786457628012</ele>
        <time>2026-05-15T11:35:50Z</time>
      </trkpt>
      <trkpt lat="31.230202910794933" lon="121.40039934703508">
        <ele>12.485981281846762</ele>
        <time>2026-05-15T11:35:53Z</time>
      </trkpt>
      <trkpt lat="31.230245122283105" lon="121.40045255468881">
        <ele>11.703867252916098</ele>
        <time>2026-05-15T11:35:56Z</time>
      </trkpt>
      <trkpt lat="31.23035124211016" lon="121.40053490334905">
        <ele>12.517687138170004</ele>
        <time>2026-05-15T11:36:05Z</time>
      </trkpt>
      <trkpt lat="31.23038923504747" lon="121.40061891399696">
        <ele>10.530697163194418</ele>
        <time>2026-05-15T11:36:12Z</time>
      </trkpt>
      <trkpt lat="31.230477799243406" lon="121.40057368877375">
        <ele>3.5973704420030117</ele>
        <time>2026-05-15T11:36:24Z</time>
      </trkpt>
      <trkpt lat="31.230502184313032" lon="121.40063190633866">
        <ele>12.919313725084066</ele>
        <time>2026-05-15T11:37:33Z</time>
      </trkpt>
      <trkpt lat="31.230473190023922" lon="121.40057089865005">
        <ele>12.5018351636827</ele>
        <time>2026-05-15T11:37:36Z</time>
      </trkpt>
      <trkpt lat="31.23052917038813" lon="121.40062090212771">
        <ele>10.874193485826254</ele>
        <time>2026-05-15T11:37:42Z</time>
      </trkpt>
      <trkpt lat="31.230469195408535" lon="121.40059890366426">
        <ele>13.199394520372152</ele>
        <time>2026-05-15T11:37:54Z</time>
      </trkpt>
      <trkpt lat="31.230414213762277" lon="121.4005418990055">
        <ele>11.032730396836996</ele>
        <time>2026-05-15T11:38:00Z</time>
      </trkpt>
      <trkpt lat="31.230318255808868" lon="121.40052190409877">
        <ele>11.323379810899496</ele>
        <time>2026-05-15T11:38:03Z</time>
      </trkpt>
      <trkpt lat="31.230287264927505" lon="121.40047889982799">
        <ele>11.381510075181723</ele>
        <time>2026-05-15T11:38:12Z</time>
      </trkpt>
      <trkpt lat="31.230311245645673" lon="121.40041088690613">
        <ele>12.496549900621176</ele>
        <time>2026-05-15T11:38:18Z</time>
      </trkpt>
      <trkpt lat="31.2304271817217" lon="121.40032386329194">
        <ele>12.184761341661215</ele>
        <time>2026-05-15T11:38:24Z</time>
      </trkpt>
      <trkpt lat="31.23058809883778" lon="121.40025083823393">
        <ele>11.894111927598715</ele>
        <time>2026-05-15T11:38:30Z</time>
      </trkpt>
      <trkpt lat="31.230893945275213" lon="121.40014279576343">
        <ele>11.703867252916098</ele>
        <time>2026-05-15T11:38:42Z</time>
      </trkpt>
      <trkpt lat="31.23107584480548" lon="121.39998575803311">
        <ele>11.93110304698348</ele>
        <time>2026-05-15T11:38:48Z</time>
      </trkpt>
      <trkpt lat="31.231193766055803" lon="121.39972871475258">
        <ele>9.193706806749105</ele>
        <time>2026-05-15T11:38:55Z</time>
      </trkpt>
      <trkpt lat="31.231199756032197" lon="121.3996447041979">
        <ele>12.898174580186605</ele>
        <time>2026-05-15T11:38:58Z</time>
      </trkpt>
      <trkpt lat="31.231173756454133" lon="121.39950169023889">
        <ele>9.294113453477621</ele>
        <time>2026-05-15T11:39:01Z</time>
      </trkpt>
      <trkpt lat="31.231125773323882" lon="121.39943168687226">
        <ele>13.32622366771102</ele>
        <time>2026-05-15T11:39:04Z</time>
      </trkpt>
      <trkpt lat="31.231051803174676" lon="121.39937168705585">
        <ele>11.946956928819418</ele>
        <time>2026-05-15T11:39:07Z</time>
      </trkpt>
      <trkpt lat="31.230739943318635" lon="121.39930970797967">
        <ele>10.430290516465902</ele>
        <time>2026-05-15T11:39:19Z</time>
      </trkpt>
      <trkpt lat="31.230565025972485" lon="121.39933172544261">
        <ele>6.963627155870199</ele>
        <time>2026-05-15T11:39:25Z</time>
      </trkpt>
      <trkpt lat="31.230380116870748" lon="121.39940274886156">
        <ele>11.614029224961996</ele>
        <time>2026-05-15T11:39:31Z</time>
      </trkpt>
      <trkpt lat="31.23008126129963" lon="121.39947878302583">
        <ele>11.946956928819418</ele>
        <time>2026-05-15T11:39:43Z</time>
      </trkpt>
      <trkpt lat="31.229927338592027" lon="121.3995528046259">
        <ele>12.047363575547934</ele>
        <time>2026-05-15T11:39:49Z</time>
      </trkpt>
      <trkpt lat="31.229785415845093" lon="121.39968883277677">
        <ele>12.443704899400473</ele>
        <time>2026-05-15T11:39:55Z</time>
      </trkpt>
      <trkpt lat="31.229741443054394" lon="121.39976584597215">
        <ele>11.661590870469809</ele>
        <time>2026-05-15T11:39:58Z</time>
      </trkpt>
      <trkpt lat="31.22971348129472" lon="121.40002988286551">
        <ele>11.080290134996176</ele>
        <time>2026-05-15T11:40:07Z</time>
      </trkpt>
      <trkpt lat="31.229773469259683" lon="121.4001808989861">
        <ele>11.592891987413168</ele>
        <time>2026-05-15T11:40:13Z</time>
      </trkpt>
      <trkpt lat="31.2299426762366" lon="121.40033978543474">
        <ele>4.670133884996176</ele>
        <time>2026-05-15T11:40:26Z</time>
      </trkpt>
      <trkpt lat="31.23007434261739" lon="121.40029889026299">
        <ele>5.446962650865316</ele>
        <time>2026-05-15T11:40:32Z</time>
      </trkpt>
      <trkpt lat="31.230365203683803" lon="121.40026385961882">
        <ele>9.151430424302816</ele>
        <time>2026-05-15T11:40:41Z</time>
      </trkpt>
      <trkpt lat="31.230643068600795" lon="121.400207827078">
        <ele>13.812401112169027</ele>
        <time>2026-05-15T11:40:53Z</time>
      </trkpt>
      <trkpt lat="31.23078799717101" lon="121.40016880875089">
        <ele>13.28394728526473</ele>
        <time>2026-05-15T11:40:59Z</time>
      </trkpt>
      <trkpt lat="31.23086995437952" lon="121.40012379514135">
        <ele>13.209963139146566</ele>
        <time>2026-05-15T11:41:02Z</time>
      </trkpt>
      <trkpt lat="31.231109816593328" lon="121.39985673807487">
        <ele>10.937607105821371</ele>
        <time>2026-05-15T11:41:11Z</time>
      </trkpt>
      <trkpt lat="31.23117977052306" lon="121.39970571318969">
        <ele>11.830696400254965</ele>
        <time>2026-05-15T11:41:14Z</time>
      </trkpt>
      <trkpt lat="31.23119075677615" lon="121.39960370022072">
        <ele>10.831917103379965</ele>
        <time>2026-05-15T11:41:17Z</time>
      </trkpt>
      <trkpt lat="31.23118075701132" lon="121.39954969495544">
        <ele>11.228258427232504</ele>
        <time>2026-05-15T11:41:21Z</time>
      </trkpt>
      <trkpt lat="31.231120775639248" lon="121.39943168730821">
        <ele>9.907121952623129</ele>
        <time>2026-05-15T11:41:24Z</time>
      </trkpt>
      <trkpt lat="31.2310488031265" lon="121.39935168526988">
        <ele>10.842485722154379</ele>
        <time>2026-05-15T11:41:27Z</time>
      </trkpt>
      <trkpt lat="31.23095984117962" lon="121.39930668849942">
        <ele>11.64045363292098</ele>
        <time>2026-05-15T11:41:30Z</time>
      </trkpt>
      <trkpt lat="31.230887873497103" lon="121.39929169329051">
        <ele>10.324600514024496</ele>
        <time>2026-05-15T11:41:33Z</time>
      </trkpt>
      <trkpt lat="31.230602008750168" lon="121.39933072211588">
        <ele>14.007931049913168</ele>
        <time>2026-05-15T11:41:45Z</time>
      </trkpt>
      <trkpt lat="31.230381116112586" lon="121.39939874835669">
        <ele>8.073383625596762</ele>
        <time>2026-05-15T11:41:57Z</time>
      </trkpt>
      <trkpt lat="31.230309152405336" lon="121.39943775874238">
        <ele>11.518907841295004</ele>
        <time>2026-05-15T11:42:00Z</time>
      </trkpt>
      <trkpt lat="31.230175026147283" lon="121.39945868302327">
        <ele>11.413217838853598</ele>
        <time>2026-05-15T11:42:06Z</time>
      </trkpt>
      <trkpt lat="31.2300452791656" lon="121.39949378779811">
        <ele>12.522972401231527</ele>
        <time>2026-05-15T11:42:12Z</time>
      </trkpt>
      <trkpt lat="31.22983038851871" lon="121.39961281992086">
        <ele>11.339233692735434</ele>
        <time>2026-05-15T11:42:21Z</time>
      </trkpt>
      <trkpt lat="31.229782415862072" lon="121.3996728311326">
        <ele>11.97337942942977</ele>
        <time>2026-05-15T11:42:27Z</time>
      </trkpt>
      <trkpt lat="31.229734451031835" lon="121.39981785307903">
        <ele>10.678665455430746</ele>
        <time>2026-05-15T11:42:33Z</time>
      </trkpt>
      <trkpt lat="31.229712478735507" lon="121.39999987885331">
        <ele>11.080290134996176</ele>
        <time>2026-05-15T11:42:39Z</time>
      </trkpt>
      <trkpt lat="31.22976847060967" lon="121.40017189811581">
        <ele>10.68923407420516</ele>
        <time>2026-05-15T11:42:45Z</time>
      </trkpt>
      <trkpt lat="31.229869436629656" lon="121.40028890662293">
        <ele>7.074604328721762</ele>
        <time>2026-05-15T11:42:54Z</time>
      </trkpt>
      <trkpt lat="31.22995040600319" lon="121.40034990887276">
        <ele>11.101429279893637</ele>
        <time>2026-05-15T11:42:58Z</time>
      </trkpt>
      <trkpt lat="31.230091342076108" lon="121.40036289858934">
        <ele>10.107933338731527</ele>
        <time>2026-05-15T11:43:07Z</time>
      </trkpt>
      <trkpt lat="31.230194289789356" lon="121.40032388360646">
        <ele>10.668096836656332</ele>
        <time>2026-05-15T11:43:13Z</time>
      </trkpt>
      <trkpt lat="31.230343217827766" lon="121.40029886680983">
        <ele>10.636389072984457</ele>
        <time>2026-05-15T11:43:19Z</time>
      </trkpt>
      <trkpt lat="31.230610083132778" lon="121.40020082892897">
        <ele>11.185982044786215</ele>
        <time>2026-05-15T11:43:34Z</time>
      </trkpt>
      <trkpt lat="31.230884945431384" lon="121.4001047911379">
        <ele>11.349802311509848</ele>
        <time>2026-05-15T11:43:46Z</time>
      </trkpt>
      <trkpt lat="31.230944915964958" lon="121.40008878365128">
        <ele>7.5607817731797695</ele>
        <time>2026-05-15T11:43:50Z</time>
      </trkpt>
      <trkpt lat="31.231059853212656" lon="121.399995760782">
        <ele>11.714435871690512</ele>
        <time>2026-05-15T11:43:56Z</time>
      </trkpt>
      <trkpt lat="31.23118677814487" lon="121.39982672753446">
        <ele>9.204277332872152</ele>
        <time>2026-05-15T11:44:02Z</time>
      </trkpt>
      <trkpt lat="31.231214750784055" lon="121.39966470524492">
        <ele>9.928259190171957</ele>
        <time>2026-05-15T11:44:08Z</time>
      </trkpt>
      <trkpt lat="31.23118075653095" lon="121.39954369428297">
        <ele>10.04451971873641</ele>
        <time>2026-05-15T11:44:14Z</time>
      </trkpt>
      <trkpt lat="31.231025813208873" lon="121.39934368646209">
        <ele>10.520128544420004</ele>
        <time>2026-05-15T11:44:26Z</time>
      </trkpt>
      <trkpt lat="31.230911862653997" lon="121.39929569159322">
        <ele>10.742079075425863</ele>
        <time>2026-05-15T11:44:32Z</time>
      </trkpt>
      <trkpt lat="31.23085189100459" lon="121.39930369761757">
        <ele>8.62297659739852</ele>
        <time>2026-05-15T11:44:35Z</time>
      </trkpt>
      <trkpt lat="31.230707956285958" lon="121.39928270809821">
        <ele>10.68923407420516</ele>
        <time>2026-05-15T11:44:41Z</time>
      </trkpt>
      <trkpt lat="31.23037911528842" lon="121.39937474604257">
        <ele>11.946956928819418</ele>
        <time>2026-05-15T11:44:56Z</time>
      </trkpt>
      <trkpt lat="31.23011024753567" lon="121.39947478006381">
        <ele>10.240047749131918</ele>
        <time>2026-05-15T11:45:05Z</time>
      </trkpt>
      <trkpt lat="31.229940329066476" lon="121.399508798598">
        <ele>8.173790272325277</ele>
        <time>2026-05-15T11:45:15Z</time>
      </trkpt>
      <trkpt lat="31.229819395629775" lon="121.39963682366798">
        <ele>9.743299778550863</ele>
        <time>2026-05-15T11:45:18Z</time>
      </trkpt>
      <trkpt lat="31.229762429573114" lon="121.39972383899766">
        <ele>10.02338057383895</ele>
        <time>2026-05-15T11:45:21Z</time>
      </trkpt>
      <trkpt lat="31.2297304746215" lon="121.40004188303635">
        <ele>11.02215987071395</ele>
        <time>2026-05-15T11:45:33Z</time>
      </trkpt>
      <trkpt lat="31.22976547189485" lon="121.4001708982325">
        <ele>10.150209721177816</ele>
        <time>2026-05-15T11:45:39Z</time>
      </trkpt>
      <trkpt lat="31.229818460418436" lon="121.40028991122045">
        <ele>12.316875752061605</ele>
        <time>2026-05-15T11:45:42Z</time>
      </trkpt>
      <trkpt lat="31.229891435943582" lon="121.40037191742309">
        <ele>12.348581608384848</ele>
        <time>2026-05-15T11:45:45Z</time>
      </trkpt>
      <trkpt lat="31.229970403384204" lon="121.40040691600717">
        <ele>11.185982044786215</ele>
        <time>2026-05-15T11:45:48Z</time>
      </trkpt>
      <trkpt lat="31.230032374374396" lon="121.40040491028725">
        <ele>11.032730396836996</ele>
        <time>2026-05-15T11:45:51Z</time>
      </trkpt>
      <trkpt lat="31.230334220983227" lon="121.40028986623247">
        <ele>7.138017948716879</ele>
        <time>2026-05-15T11:46:03Z</time>
      </trkpt>
      <trkpt lat="31.230613079678598" lon="121.40018182589486">
        <ele>7.396961506456137</ele>
        <time>2026-05-15T11:46:15Z</time>
      </trkpt>
      <trkpt lat="31.23080798416442" lon="121.40013380197342">
        <ele>10.171348866075277</ele>
        <time>2026-05-15T11:46:21Z</time>
      </trkpt>
      <trkpt lat="31.23092792814397" lon="121.4001297909396">
        <ele>9.526634510606527</ele>
        <time>2026-05-15T11:46:24Z</time>
      </trkpt>
      <trkpt lat="31.231049863100917" lon="121.40004776877865">
        <ele>9.901836689561605</ele>
        <time>2026-05-15T11:46:30Z</time>
      </trkpt>
      <trkpt lat="31.231185776219014" lon="121.39980072434334">
        <ele>11.497770603746176</ele>
        <time>2026-05-15T11:46:39Z</time>
      </trkpt>
      <trkpt lat="31.231202757366578" lon="121.3996767077142">
        <ele>8.342895802110434</ele>
        <time>2026-05-15T11:46:42Z</time>
      </trkpt>
      <trkpt lat="31.2311967534211" lon="121.39959669889338">
        <ele>10.68923407420516</ele>
        <time>2026-05-15T11:46:45Z</time>
      </trkpt>
      <trkpt lat="31.23115476308317" lon="121.39947368884397">
        <ele>10.498991306871176</ele>
        <time>2026-05-15T11:46:48Z</time>
      </trkpt>
      <trkpt lat="31.231046805490372" lon="121.3993716874918">
        <ele>12.005087193101645</ele>
        <time>2026-05-15T11:46:54Z</time>
      </trkpt>
      <trkpt lat="31.230907865337787" lon="121.39930769313277">
        <ele>12.692077931016684</ele>
        <time>2026-05-15T11:47:00Z</time>
      </trkpt>
      <trkpt lat="31.23071795254429" lon="121.39929570850784">
        <ele>11.270534809678793</ele>
        <time>2026-05-15T11:47:10Z</time>
      </trkpt>
      <trkpt lat="31.230367122384756" lon="121.3993957492646">
        <ele>8.881918247789145</ele>
        <time>2026-05-15T11:47:25Z</time>
      </trkpt>
      <trkpt lat="31.230068266104713" lon="121.3994627824298">
        <ele>10.779072102159262</ele>
        <time>2026-05-15T11:47:40Z</time>
      </trkpt>
      <trkpt lat="31.22984737889382" lon="121.39959181602394">
        <ele>9.368097599595785</ele>
        <time>2026-05-15T11:47:49Z</time>
      </trkpt>
      <trkpt lat="31.22975343348841" lon="121.39972083941846">
        <ele>8.644113834947348</ele>
        <time>2026-05-15T11:47:55Z</time>
      </trkpt>
      <trkpt lat="31.229693490075196" lon="121.40002488392268">
        <ele>11.122566517442465</ele>
        <time>2026-05-15T11:48:04Z</time>
      </trkpt>
      <trkpt lat="31.229727490726393" lon="121.400181903142">
        <ele>10.488420780748129</ele>
        <time>2026-05-15T11:48:10Z</time>
      </trkpt>
      <trkpt lat="31.229847451280616" lon="121.40032791447192">
        <ele>10.012811955064535</ele>
        <time>2026-05-15T11:48:19Z</time>
      </trkpt>
      <trkpt lat="31.23003037073114" lon="121.40036590437275">
        <ele>11.080290134996176</ele>
        <time>2026-05-15T11:48:25Z</time>
      </trkpt>
      <trkpt lat="31.230275253707273" lon="121.40033687853636">
        <ele>8.765659626573324</ele>
        <time>2026-05-15T11:48:37Z</time>
      </trkpt>
      <trkpt lat="31.23038220053575" lon="121.40030586447186">
        <ele>11.04329901561141</ele>
        <time>2026-05-15T11:48:40Z</time>
      </trkpt>
      <trkpt lat="31.230447164988348" lon="121.40025785157201">
        <ele>10.594112690538168</ele>
        <time>2026-05-15T11:48:47Z</time>
      </trkpt>
      <trkpt lat="31.23071802885745" lon="121.40016181384219">
        <ele>8.041675861924887</ele>
        <time>2026-05-15T11:48:59Z</time>
      </trkpt>
      <trkpt lat="31.230941918397527" lon="121.40009878532084">
        <ele>10.668096836656332</ele>
        <time>2026-05-15T11:49:08Z</time>
      </trkpt>
      <trkpt lat="31.231186781972763" lon="121.39986773277626">
        <ele>10.789640720933676</ele>
        <time>2026-05-15T11:49:17Z</time>
      </trkpt>
      <trkpt lat="31.23122875126657" lon="121.39974471365369">
        <ele>10.572973545640707</ele>
        <time>2026-05-15T11:49:20Z</time>
      </trkpt>
      <trkpt lat="31.23122874209989" lon="121.39963870096702">
        <ele>9.859560307115316</ele>
        <time>2026-05-15T11:49:23Z</time>
      </trkpt>
      <trkpt lat="31.23120974278438" lon="121.3995396913072">
        <ele>10.958746250718832</ele>
        <time>2026-05-15T11:49:26Z</time>
      </trkpt>
      <trkpt lat="31.23116875552933" lon="121.39945968611298">
        <ele>10.842485722154379</ele>
        <time>2026-05-15T11:49:29Z</time>
      </trkpt>
      <trkpt lat="31.231020814252346" lon="121.39932568508073">
        <ele>12.026224430650473</ele>
        <time>2026-05-15T11:49:35Z</time>
      </trkpt>
      <trkpt lat="31.230826902865452" lon="121.39930770019507">
        <ele>11.883541401475668</ele>
        <time>2026-05-15T11:49:41Z</time>
      </trkpt>
      <trkpt lat="31.230541039163278" lon="121.3993607304805">
        <ele>11.164842899888754</ele>
        <time>2026-05-15T11:49:50Z</time>
      </trkpt>
      <trkpt lat="31.23023818594148" lon="121.39944576578522">
        <ele>10.82134848460555</ele>
        <time>2026-05-15T11:50:02Z</time>
      </trkpt>
      <trkpt lat="31.229940331198897" lon="121.3995358015894">
        <ele>10.50955992564559</ele>
        <time>2026-05-15T11:50:11Z</time>
      </trkpt>
      <trkpt lat="31.229824390476573" lon="121.3996028192912">
        <ele>10.979885395616293</ele>
        <time>2026-05-15T11:50:14Z</time>
      </trkpt>
      <trkpt lat="31.22972944719593" lon="121.39974984504798">
        <ele>6.963627155870199</ele>
        <time>2026-05-15T11:50:21Z</time>
      </trkpt>
      <trkpt lat="31.22969748065234" lon="121.39994887330066">
        <ele>6.783953007310629</ele>
        <time>2026-05-15T11:50:27Z</time>
      </trkpt>
      <trkpt lat="31.229707495083563" lon="121.40013589825186">
        <ele>9.605902012437582</ele>
        <time>2026-05-15T11:50:33Z</time>
      </trkpt>
      <trkpt lat="31.229759484888607" lon="121.40026391245352">
        <ele>10.710373219102621</ele>
        <time>2026-05-15T11:50:36Z</time>
      </trkpt>
      <trkpt lat="31.229802471141646" lon="121.40031891701949">
        <ele>10.874193485826254</ele>
        <time>2026-05-15T11:50:39Z</time>
      </trkpt>
      <trkpt lat="31.229898433511682" lon="121.40037891790197">
        <ele>10.208339985460043</ele>
        <time>2026-05-15T11:50:42Z</time>
      </trkpt>
      <trkpt lat="31.230039370654023" lon="121.40040090904876">
        <ele>10.604681309312582</ele>
        <time>2026-05-15T11:50:48Z</time>
      </trkpt>
      <trkpt lat="31.2303472141643" lon="121.40028286404262">
        <ele>10.430290516465902</ele>
        <time>2026-05-15T11:51:00Z</time>
      </trkpt>
      <trkpt lat="31.230618078119328" lon="121.40018882647817">
        <ele>-1.4599415697157383</ele>
        <time>2026-05-15T11:51:12Z</time>
      </trkpt>
      <trkpt lat="31.230698038126445" lon="121.40016181558595">
        <ele>10.303463276475668</ele>
        <time>2026-05-15T11:51:15Z</time>
      </trkpt>
      <trkpt lat="31.230800989644976" lon="121.40015480559623">
        <ele>10.229479130357504</ele>
        <time>2026-05-15T11:51:18Z</time>
      </trkpt>
      <trkpt lat="31.23101187846218" lon="121.40002576906019">
        <ele>10.520128544420004</ele>
        <time>2026-05-15T11:51:30Z</time>
      </trkpt>
      <trkpt lat="31.231103824500778" lon="121.39991074560534">
        <ele>11.080290134996176</ele>
        <time>2026-05-15T11:51:36Z</time>
      </trkpt>
      <trkpt lat="31.231128805928048" lon="121.39983673386182">
        <ele>11.032730396836996</ele>
        <time>2026-05-15T11:51:39Z</time>
      </trkpt>
      <trkpt lat="31.231180775096526" lon="121.39976272005171">
        <ele>7.9359858594834805</ele>
        <time>2026-05-15T11:51:42Z</time>
      </trkpt>
      <trkpt lat="31.231205757442815" lon="121.39969370948148">
        <ele>11.434355076402426</ele>
        <time>2026-05-15T11:51:45Z</time>
      </trkpt>
      <trkpt lat="31.231185755661745" lon="121.39956169587008">
        <ele>10.39858466014266</ele>
        <time>2026-05-15T11:51:51Z</time>
      </trkpt>
      <trkpt lat="31.231084791414013" lon="121.39941968917826">
        <ele>12.401428516954184</ele>
        <time>2026-05-15T11:51:57Z</time>
      </trkpt>
      <trkpt lat="31.230871882155093" lon="121.39930969647077">
        <ele>9.616470631211996</ele>
        <time>2026-05-15T11:52:10Z</time>
      </trkpt>
      <trkpt lat="31.23077192765787" lon="121.39929770399759">
        <ele>10.636389072984457</ele>
        <time>2026-05-15T11:52:13Z</time>
      </trkpt>
      <trkpt lat="31.230554031992835" lon="121.39934472771658">
        <ele>11.360370930284262</ele>
        <time>2026-05-15T11:52:22Z</time>
      </trkpt>
      <trkpt lat="31.23036612462245" lon="121.3994197518667">
        <ele>9.600616749376059</ele>
        <time>2026-05-15T11:52:31Z</time>
      </trkpt>
      <trkpt lat="31.23011924236413" lon="121.39946177787563">
        <ele>10.118503864854574</ele>
        <time>2026-05-15T11:52:43Z</time>
      </trkpt>
      <trkpt lat="31.229814396945702" lon="121.39962482270609">
        <ele>10.324600514024496</ele>
        <time>2026-05-15T11:52:55Z</time>
      </trkpt>
      <trkpt lat="31.22973744374862" lon="121.39975284471893">
        <ele>11.50833922252059</ele>
        <time>2026-05-15T11:53:01Z</time>
      </trkpt>
      <trkpt lat="31.229704484259692" lon="121.40001788200475">
        <ele>9.44208174571395</ele>
        <time>2026-05-15T11:53:10Z</time>
      </trkpt>
      <trkpt lat="31.229733485570975" lon="121.40015989943231">
        <ele>10.002243336290121</ele>
        <time>2026-05-15T11:53:16Z</time>
      </trkpt>
      <trkpt lat="31.229785470478358" lon="121.40024290705388">
        <ele>10.594112690538168</ele>
        <time>2026-05-15T11:53:22Z</time>
      </trkpt>
      <trkpt lat="31.22985144759477" lon="121.4003119116803">
        <ele>9.959966953843832</ele>
        <time>2026-05-15T11:53:25Z</time>
      </trkpt>
      <trkpt lat="31.229923586073713" lon="121.40036944466415">
        <ele>8.09452086314559</ele>
        <time>2026-05-15T11:53:31Z</time>
      </trkpt>
      <trkpt lat="31.23009533882868" lon="121.40035089638509">
        <ele>10.002243336290121</ele>
        <time>2026-05-15T11:53:37Z</time>
      </trkpt>
      <trkpt lat="31.230274247347204" lon="121.4002768695038">
        <ele>10.282324131578207</ele>
        <time>2026-05-15T11:53:43Z</time>
      </trkpt>
      <trkpt lat="31.23060708376127" lon="121.40019382816686">
        <ele>9.035171803086996</ele>
        <time>2026-05-15T11:53:52Z</time>
      </trkpt>
      <trkpt lat="31.230954909260237" lon="121.4000687799792">
        <ele>10.065656956285238</ele>
        <time>2026-05-15T11:54:08Z</time>
      </trkpt>
      <trkpt lat="31.23103386525436" lon="121.39999576304892">
        <ele>9.658747013658285</ele>
        <time>2026-05-15T11:54:14Z</time>
      </trkpt>
      <trkpt lat="31.231134793551224" lon="121.39973072014013">
        <ele>9.257122334092855</ele>
        <time>2026-05-15T11:54:23Z</time>
      </trkpt>
      <trkpt lat="31.231186761545725" lon="121.39963870462898">
        <ele>9.722162541002035</ele>
        <time>2026-05-15T11:54:26Z</time>
      </trkpt>
      <trkpt lat="31.23117076148127" lon="121.39954769560298">
        <ele>10.927038487046957</ele>
        <time>2026-05-15T11:54:29Z</time>
      </trkpt>
      <trkpt lat="31.23112377545528" lon="121.3994476887501">
        <ele>10.176632221788168</ele>
        <time>2026-05-15T11:54:32Z</time>
      </trkpt>
      <trkpt lat="31.23106379943895" lon="121.3993966885985">
        <ele>10.699802692979574</ele>
        <time>2026-05-15T11:54:35Z</time>
      </trkpt>
      <trkpt lat="31.23100382811248" lon="121.39940869508418">
        <ele>8.332325275987387</ele>
        <time>2026-05-15T11:54:38Z</time>
      </trkpt>
      <trkpt lat="31.230950848090743" lon="121.39934569320425">
        <ele>11.434355076402426</ele>
        <time>2026-05-15T11:54:41Z</time>
      </trkpt>
      <trkpt lat="31.23067897483644" lon="121.39935571793758">
        <ele>8.332325275987387</ele>
        <time>2026-05-15T11:54:53Z</time>
      </trkpt>
      <trkpt lat="31.230377123145452" lon="121.39946775602809">
        <ele>9.57947951182723</ele>
        <time>2026-05-15T11:55:02Z</time>
      </trkpt>
      <trkpt lat="31.230196210746325" lon="121.39951477693978">
        <ele>10.002243336290121</ele>
        <time>2026-05-15T11:55:08Z</time>
      </trkpt>
      <trkpt lat="31.230016294659016" lon="121.39951979318597">
        <ele>10.107933338731527</ele>
        <time>2026-05-15T11:55:14Z</time>
      </trkpt>
      <trkpt lat="31.22983638673225" lon="121.399624820788">
        <ele>5.040052708238363</ele>
        <time>2026-05-15T11:55:23Z</time>
      </trkpt>
      <trkpt lat="31.22976642806784" lon="121.3997278391348">
        <ele>9.701023396104574</ele>
        <time>2026-05-15T11:55:30Z</time>
      </trkpt>
      <trkpt lat="31.229697475814678" lon="121.39989886670736">
        <ele>10.75264960154891</ele>
        <time>2026-05-15T11:55:39Z</time>
      </trkpt>
      <trkpt lat="31.229717485084123" lon="121.40008489015513">
        <ele>9.463218983262777</ele>
        <time>2026-05-15T11:55:42Z</time>
      </trkpt>
      <trkpt lat="31.229760480537596" lon="121.40022890715784">
        <ele>7.09574156627059</ele>
        <time>2026-05-15T11:55:48Z</time>
      </trkpt>
      <trkpt lat="31.229807466884225" lon="121.40030191399651">
        <ele>10.3774455152452</ele>
        <time>2026-05-15T11:55:51Z</time>
      </trkpt>
      <trkpt lat="31.22988143965401" lon="121.40036391705331">
        <ele>10.763218220323324</ele>
        <time>2026-05-15T11:55:54Z</time>
      </trkpt>
      <trkpt lat="31.230115336688044" lon="121.40041190415215">
        <ele>9.066877659410238</ele>
        <time>2026-05-15T11:56:03Z</time>
      </trkpt>
      <trkpt lat="31.230189301409805" lon="121.40040389644192">
        <ele>10.958746250718832</ele>
        <time>2026-05-15T11:56:06Z</time>
      </trkpt>
      <trkpt lat="31.23029624581347" lon="121.40035287916936">
        <ele>10.958746250718832</ele>
        <time>2026-05-15T11:56:12Z</time>
      </trkpt>
      <trkpt lat="31.230334964710476" lon="121.40032369327868">
        <ele>10.192486103624105</ele>
        <time>2026-05-15T11:56:15Z</time>
      </trkpt>
      <trkpt lat="31.230683050937312" lon="121.40021582476649">
        <ele>10.68923407420516</ele>
        <time>2026-05-15T11:56:30Z</time>
      </trkpt>
      <trkpt lat="31.23093492226805" lon="121.40010478677846">
        <ele>9.938827808946371</ele>
        <time>2026-05-15T11:56:42Z</time>
      </trkpt>
      <trkpt lat="31.231109819141643" lon="121.39988374155939">
        <ele>10.002243336290121</ele>
        <time>2026-05-15T11:56:54Z</time>
      </trkpt>
      <trkpt lat="31.231198762599004" lon="121.39971571273989">
        <ele>10.430290516465902</ele>
        <time>2026-05-15T11:57:00Z</time>
      </trkpt>
      <trkpt lat="31.2312097516556" lon="121.39964770367787">
        <ele>10.076227482408285</ele>
        <time>2026-05-15T11:57:03Z</time>
      </trkpt>
      <trkpt lat="31.231196752110385" lon="121.39958069706488">
        <ele>9.711593922227621</ele>
        <time>2026-05-15T11:57:06Z</time>
      </trkpt>
      <trkpt lat="31.231119778983288" lon="121.39946969146304">
        <ele>9.119724567979574</ele>
        <time>2026-05-15T11:57:12Z</time>
      </trkpt>
      <trkpt lat="31.23097083755241" lon="121.39932768964128">
        <ele>8.829073246568441</ele>
        <time>2026-05-15T11:57:22Z</time>
      </trkpt>
      <trkpt lat="31.230858885565908" lon="121.3992716938553">
        <ele>9.035171803086996</ele>
        <time>2026-05-15T11:57:28Z</time>
      </trkpt>
      <trkpt lat="31.2305740212373" lon="121.39932372385317">
        <ele>10.636389072984457</ele>
        <time>2026-05-15T11:57:40Z</time>
      </trkpt>
      <trkpt lat="31.230436091197518" lon="121.3994067443976">
        <ele>9.410373982042074</ele>
        <time>2026-05-15T11:57:46Z</time>
      </trkpt>
      <trkpt lat="31.230110249004323" lon="121.39949378213099">
        <ele>9.928259190171957</ele>
        <time>2026-05-15T11:58:01Z</time>
      </trkpt>
      <trkpt lat="31.229944331507003" lon="121.39956280427029">
        <ele>9.484358128160238</ele>
        <time>2026-05-15T11:58:10Z</time>
      </trkpt>
      <trkpt lat="31.229808404649518" lon="121.3996828300553">
        <ele>10.324600514024496</ele>
        <time>2026-05-15T11:58:16Z</time>
      </trkpt>
      <trkpt lat="31.22973644936813" lon="121.39980985189594">
        <ele>10.562404926866293</ele>
        <time>2026-05-15T11:58:22Z</time>
      </trkpt>
      <trkpt lat="31.229703473315645" lon="121.39990186657616">
        <ele>9.753868397325277</ele>
        <time>2026-05-15T11:58:25Z</time>
      </trkpt>
      <trkpt lat="31.229697484204042" lon="121.39998487812912">
        <ele>10.498991306871176</ele>
        <time>2026-05-15T11:58:28Z</time>
      </trkpt>
      <trkpt lat="31.22975148088402" lon="121.40019390279842">
        <ele>7.127449329942465</ele>
        <time>2026-05-15T11:58:37Z</time>
      </trkpt>
      <trkpt lat="31.229837456611733" lon="121.40033391626332">
        <ele>9.537203129380941</ele>
        <time>2026-05-15T11:58:47Z</time>
      </trkpt>
      <trkpt lat="31.229894748016676" lon="121.40038389452">
        <ele>10.80020933970809</ele>
        <time>2026-05-15T11:58:50Z</time>
      </trkpt>
      <trkpt lat="31.230217279577847" lon="121.40032788221315">
        <ele>10.303463276475668</ele>
        <time>2026-05-15T11:59:02Z</time>
      </trkpt>
      <trkpt lat="31.230350212097772" lon="121.4002768628776">
        <ele>10.488420780748129</ele>
        <time>2026-05-15T11:59:08Z</time>
      </trkpt>
      <trkpt lat="31.23052013002831" lon="121.40024784371576">
        <ele>8.903057392686605</ele>
        <time>2026-05-15T11:59:14Z</time>
      </trkpt>
      <trkpt lat="31.230588093003952" lon="121.40019783040806">
        <ele>9.605902012437582</ele>
        <time>2026-05-15T11:59:20Z</time>
      </trkpt>
      <trkpt lat="31.23090393757381" lon="121.40011379075582">
        <ele>9.648178394883871</ele>
        <time>2026-05-15T11:59:35Z</time>
      </trkpt>
      <trkpt lat="31.231017877513224" lon="121.4000437710156">
        <ele>9.257122334092855</ele>
        <time>2026-05-15T11:59:42Z</time>
      </trkpt>
      <trkpt lat="31.23105385449731" lon="121.39998075927633">
        <ele>10.86362486705184</ele>
        <time>2026-05-15T11:59:48Z</time>
      </trkpt>
      <trkpt lat="31.231150799019343" lon="121.39987173643121">
        <ele>8.797365482896566</ele>
        <time>2026-05-15T11:59:54Z</time>
      </trkpt>
      <trkpt lat="31.231116780142756" lon="121.39946669140072">
        <ele>9.848991688340902</ele>
        <time>2026-05-15T12:00:00Z</time>
      </trkpt>
      <trkpt lat="31.23099282884965" lon="121.39934868984716">
        <ele>9.410373982042074</ele>
        <time>2026-05-15T12:00:06Z</time>
      </trkpt>
      <trkpt lat="31.23092485829946" lon="121.39931969284889">
        <ele>9.056309040635824</ele>
        <time>2026-05-15T12:00:09Z</time>
      </trkpt>
      <trkpt lat="31.230742941373144" lon="121.39930170692257">
        <ele>7.190862949937582</ele>
        <time>2026-05-15T12:00:15Z</time>
      </trkpt>
      <trkpt lat="31.23064998516935" lon="121.39931171602603">
        <ele>11.746143635362387</ele>
        <time>2026-05-15T12:00:18Z</time>
      </trkpt>
      <trkpt lat="31.23048106813595" lon="121.39937673735567">
        <ele>9.315252598375082</ele>
        <time>2026-05-15T12:00:27Z</time>
      </trkpt>
      <trkpt lat="31.230429095705585" lon="121.399423746796">
        <ele>5.304279621690512</ele>
        <time>2026-05-15T12:00:30Z</time>
      </trkpt>
      <trkpt lat="31.230378382024547" lon="121.39926153995563">
        <ele>8.395740803331137</ele>
        <time>2026-05-15T12:00:33Z</time>
      </trkpt>
      <trkpt lat="31.230191934821516" lon="121.3995064012042">
        <ele>9.764438923448324</ele>
        <time>2026-05-15T12:00:39Z</time>
      </trkpt>
      <trkpt lat="31.230094259492915" lon="121.39953278782848">
        <ele>10.04451971873641</ele>
        <time>2026-05-15T12:00:45Z</time>
      </trkpt>
      <trkpt lat="31.22995332620333" lon="121.39954880190993">
        <ele>10.02338057383895</ele>
        <time>2026-05-15T12:00:51Z</time>
      </trkpt>
      <trkpt lat="31.229736441469647" lon="121.39972184102184">
        <ele>10.86362486705184</ele>
        <time>2026-05-15T12:01:03Z</time>
      </trkpt>
      <trkpt lat="31.22972747438847" lon="121.40002588109562">
        <ele>9.970535572618246</ele>
        <time>2026-05-15T12:01:15Z</time>
      </trkpt>
      <trkpt lat="31.229764474413468" lon="121.40018990108123">
        <ele>10.678665455430746</ele>
        <time>2026-05-15T12:01:21Z</time>
      </trkpt>
      <trkpt lat="31.22988944754712" lon="121.40046193179784">
        <ele>9.637609776109457</ele>
        <time>2026-05-15T12:01:30Z</time>
      </trkpt>
      <trkpt lat="31.229914429021903" lon="121.40040392041803">
        <ele>10.192486103624105</ele>
        <time>2026-05-15T12:01:48Z</time>
      </trkpt>
      <trkpt lat="31.229918417178236" lon="121.40031790675339">
        <ele>10.282324131578207</ele>
        <time>2026-05-15T12:01:57Z</time>
      </trkpt>
      <trkpt lat="31.229854423459074" lon="121.4001038808864">
        <ele>9.928259190171957</ele>
        <time>2026-05-15T12:02:09Z</time>
      </trkpt>
      <trkpt lat="31.229786442085" lon="121.39997686929078">
        <ele>9.193706806749105</ele>
        <time>2026-05-15T12:02:18Z</time>
      </trkpt>
      <trkpt lat="31.22978443947463" lon="121.3999408646518">
        <ele>0.20997649058699608</ele>
        <time>2026-05-15T12:02:21Z</time>
      </trkpt>
    </trkseg>
  </trk>
</gpx>