<?xml version="1.0" encoding="UTF-8"?>
<gpx xmlns="http://www.topografix.com/GPX/1/1" xmlns:gpxtpx="http://www.garmin.com/xmlschemas/TrackPointExtension/v1" xmlns:xsi="http://www.w3.org/2001/XMLSchema-instance" xsi:schemaLocation="http://www.topografix.com/GPX/1/1 http://www.topografix.com/GPX/1/1/gpx.xsd" version="1.1" creator="gpx.py -- https://github.com/tkrajina/gpxpy">
  <trk>
    <name>gpx from keep</name>
    <type>Run</type>
    <trkseg>
      <trkpt lat="31.230104338611575" lon="121.40038490087737">
        <ele>17.019552401266992</ele>
        <time>2026-06-21T11:01:44Z</time>
      </trkpt>
      <trkpt lat="31.230207293413702" lon="121.40040689534409">
        <ele>19.8837758814916</ele>
        <time>2026-06-21T11:01:44Z</time>
      </trkpt>
      <trkpt lat="31.23030923793717" lon="121.40033687557202">
        <ele>16.966703585349023</ele>
        <time>2026-06-21T11:01:44Z</time>
      </trkpt>
      <trkpt lat="31.230574101570905" lon="121.40021683441721">
        <ele>21.220766237936914</ele>
        <time>2026-06-21T11:01:44Z</time>
      </trkpt>
      <trkpt lat="31.230825979994126" lon="121.40017280601711">
        <ele>-12.99403936509043</ele>
        <time>2026-06-21T11:01:44Z</time>
      </trkpt>
      <trkpt lat="31.23104386917436" lon="121.40007977375687">
        <ele>10.754720858298242</ele>
        <time>2026-06-21T11:01:44Z</time>
      </trkpt>
      <trkpt lat="31.231100837142023" lon="121.40002476116314">
        <ele>21.81791894789785</ele>
        <time>2026-06-21T11:01:44Z</time>
      </trkpt>
      <trkpt lat="31.231148806958206" lon="121.3999447461724">
        <ele>19.61162011977285</ele>
        <time>2026-06-21T11:01:44Z</time>
      </trkpt>
      <trkpt lat="31.231212758585517" lon="121.39974371492627">
        <ele>4.030132464133203</ele>
        <time>2026-06-21T11:01:44Z</time>
      </trkpt>
      <trkpt lat="31.231190752863125" lon="121.3995556947579">
        <ele>21.178487948141992</ele>
        <time>2026-06-21T11:01:44Z</time>
      </trkpt>
      <trkpt lat="31.23115876046489" lon="121.39946368741535">
        <ele>18.744955233298242</ele>
        <time>2026-06-21T11:01:44Z</time>
      </trkpt>
      <trkpt lat="31.23110977784274" lon="121.39939268417135">
        <ele>21.429506472311914</ele>
        <time>2026-06-21T11:01:44Z</time>
      </trkpt>
      <trkpt lat="31.23104180501917" lon="121.39933268395446">
        <ele>19.10959070082754</ele>
        <time>2026-06-21T11:01:44Z</time>
      </trkpt>
      <trkpt lat="31.230894869227317" lon="121.39927669120544">
        <ele>22.09800165053457</ele>
        <time>2026-06-21T11:01:44Z</time>
      </trkpt>
      <trkpt lat="31.230819903229158" lon="121.39926569667065">
        <ele>22.716291598044336</ele>
        <time>2026-06-21T11:01:44Z</time>
      </trkpt>
      <trkpt lat="31.230520048683772" lon="121.3993577320047">
        <ele>5.628708056174219</ele>
        <time>2026-06-21T11:01:44Z</time>
      </trkpt>
      <trkpt lat="31.230325142157266" lon="121.3993997533435">
        <ele>22.851049593649805</ele>
        <time>2026-06-21T11:01:44Z</time>
      </trkpt>
      <trkpt lat="31.23001329676285" lon="121.3995287944456">
        <ele>17.814874819479883</ele>
        <time>2026-06-21T11:01:44Z</time>
      </trkpt>
      <trkpt lat="31.2298283894472" lon="121.39961282009524">
        <ele>11.264677218161523</ele>
        <time>2026-06-21T11:01:44Z</time>
      </trkpt>
      <trkpt lat="31.2297444422908" lon="121.39977284657688">
        <ele>1.7577764308080077</ele>
        <time>2026-06-21T11:01:44Z</time>
      </trkpt>
      <trkpt lat="31.22971347787103" lon="121.39999587822311">
        <ele>12.371790102683008</ele>
        <time>2026-06-21T11:01:44Z</time>
      </trkpt>
      <trkpt lat="31.229730481448847" lon="121.40010789226308">
        <ele>14.157968691550195</ele>
        <time>2026-06-21T11:01:44Z</time>
      </trkpt>
      <trkpt lat="31.229769472200527" lon="121.40019090079117">
        <ele>2.1118413722142577</ele>
        <time>2026-06-21T11:01:44Z</time>
      </trkpt>
      <trkpt lat="31.229867440851805" lon="121.40031791119983">
        <ele>19.873205355368555</ele>
        <time>2026-06-21T11:01:44Z</time>
      </trkpt>
      <trkpt lat="31.22997639847966" lon="121.40038891266197">
        <ele>3.300865343771875</ele>
        <time>2026-06-21T11:01:44Z</time>
      </trkpt>
      <trkpt lat="31.230127328761327" lon="121.40039189996607">
        <ele>21.577474764548242</ele>
        <time>2026-06-21T11:01:44Z</time>
      </trkpt>
      <trkpt lat="31.230463159247847" lon="121.40027285242421">
        <ele>9.71894662734121</ele>
        <time>2026-06-21T11:01:44Z</time>
      </trkpt>
      <trkpt lat="31.23076301080834" lon="121.40018781369014">
        <ele>20.38580911513418</ele>
        <time>2026-06-21T11:01:44Z</time>
      </trkpt>
      <trkpt lat="31.231039868654374" lon="121.40005677089809">
        <ele>18.586420229636133</ele>
        <time>2026-06-21T11:01:44Z</time>
      </trkpt>
      <trkpt lat="31.231160800135545" lon="121.39993174340196">
        <ele>16.216299227438867</ele>
        <time>2026-06-21T11:01:44Z</time>
      </trkpt>
      <trkpt lat="31.231208767220526" lon="121.3998187246038">
        <ele>19.873205355368555</ele>
        <time>2026-06-21T11:01:44Z</time>
      </trkpt>
      <trkpt lat="31.231215749980286" lon="121.39966070468508">
        <ele>11.222402743063867</ele>
        <time>2026-06-21T11:01:44Z</time>
      </trkpt>
      <trkpt lat="31.231202748843767" lon="121.39957469585953">
        <ele>21.97381418105215</ele>
        <time>2026-06-21T11:01:44Z</time>
      </trkpt>
      <trkpt lat="31.231166759149932" lon="121.39949469008249">
        <ele>15.05634134169668</ele>
        <time>2026-06-21T11:01:44Z</time>
      </trkpt>
      <trkpt lat="31.230941851975505" lon="121.39934169358322">
        <ele>21.23133676405996</ele>
        <time>2026-06-21T11:01:44Z</time>
      </trkpt>
      <trkpt lat="31.230678973980247" lon="121.3993437167166">
        <ele>20.02910058852285</ele>
        <time>2026-06-21T11:01:44Z</time>
      </trkpt>
      <trkpt lat="31.230454083295164" lon="121.39941274345759">
        <ele>16.089471987448633</ele>
        <time>2026-06-21T11:01:44Z</time>
      </trkpt>
      <trkpt lat="31.23039410942412" lon="121.39938974628653">
        <ele>17.008981875143945</ele>
        <time>2026-06-21T11:01:44Z</time>
      </trkpt>
      <trkpt lat="31.230333138153043" lon="121.39939575222897">
        <ele>17.072397402487695</ele>
        <time>2026-06-21T11:01:44Z</time>
      </trkpt>
      <trkpt lat="31.230281165241983" lon="121.399435760971">
        <ele>17.793737581931055</ele>
        <time>2026-06-21T11:01:44Z</time>
      </trkpt>
      <trkpt lat="31.22998131288773" lon="121.3995447990204">
        <ele>18.723817995749414</ele>
        <time>2026-06-21T11:01:44Z</time>
      </trkpt>
      <trkpt lat="31.229867368627986" lon="121.39957981291076">
        <ele>14.366708925925195</ele>
        <time>2026-06-21T11:01:44Z</time>
      </trkpt>
      <trkpt lat="31.2297814148769" lon="121.39965582920968">
        <ele>21.25247400160879</ele>
        <time>2026-06-21T11:01:44Z</time>
      </trkpt>
      <trkpt lat="31.229723453307" lon="121.39978685014802">
        <ele>21.545767000876367</ele>
        <time>2026-06-21T11:01:44Z</time>
      </trkpt>
      <trkpt lat="31.229693478726922" lon="121.39990986849536">
        <ele>17.376257113181055</ele>
        <time>2026-06-21T11:01:44Z</time>
      </trkpt>
      <trkpt lat="31.229686491410448" lon="121.40000588193621">
        <ele>19.236417940817773</ele>
        <time>2026-06-21T11:01:44Z</time>
      </trkpt>
      <trkpt lat="31.22973548582434" lon="121.40017090084805">
        <ele>18.985403231345117</ele>
        <time>2026-06-21T11:01:44Z</time>
      </trkpt>
      <trkpt lat="31.229855445737876" lon="121.40031191133157">
        <ele>17.574426821433008</ele>
        <time>2026-06-21T11:01:44Z</time>
      </trkpt>
      <trkpt lat="31.23002537305147" lon="121.40036590480868">
        <ele>18.451662234030664</ele>
        <time>2026-06-21T11:01:44Z</time>
      </trkpt>
      <trkpt lat="31.230347215632722" lon="121.40029586600662">
        <ele>19.424020937643945</ele>
        <time>2026-06-21T11:01:44Z</time>
      </trkpt>
      <trkpt lat="31.230593093532484" lon="121.40022383379278">
        <ele>-26.416791745461524</ele>
        <time>2026-06-21T11:01:44Z</time>
      </trkpt>
      <trkpt lat="31.230786000258856" lon="121.40018881183057">
        <ele>20.071375063620508</ele>
        <time>2026-06-21T11:01:44Z</time>
      </trkpt>
      <trkpt lat="31.231005888647683" lon="121.40009777959969">
        <ele>15.286218813620508</ele>
        <time>2026-06-21T11:01:44Z</time>
      </trkpt>
      <trkpt lat="31.23108184624484" lon="121.40002776323149">
        <ele>13.790693453513086</ele>
        <time>2026-06-21T11:01:44Z</time>
      </trkpt>
      <trkpt lat="31.23113980966544" lon="121.39992974496846">
        <ele>19.48743265029043</ele>
        <time>2026-06-21T11:01:44Z</time>
      </trkpt>
      <trkpt lat="31.231198764005317" lon="121.39973171468174">
        <ele>19.527067354880273</ele>
        <time>2026-06-21T11:01:44Z</time>
      </trkpt>
      <trkpt lat="31.23120375638949" lon="121.39967070691455">
        <ele>19.68560617323965</ele>
        <time>2026-06-21T11:01:44Z</time>
      </trkpt>
      <trkpt lat="31.231164761955007" lon="121.39951869289638">
        <ele>20.3012563502416</ele>
        <time>2026-06-21T11:01:44Z</time>
      </trkpt>
      <trkpt lat="31.231068796391273" lon="121.39938668712306">
        <ele>22.549829653464258</ele>
        <time>2026-06-21T11:01:44Z</time>
      </trkpt>
      <trkpt lat="31.230920861703684" lon="121.3993416954142">
        <ele>18.826864412985742</ele>
        <time>2026-06-21T11:01:44Z</time>
      </trkpt>
      <trkpt lat="31.23066997893616" lon="121.39935471862023">
        <ele>21.37666147109121</ele>
        <time>2026-06-21T11:01:44Z</time>
      </trkpt>
      <trkpt lat="31.23033313977818" lon="121.39941775453316">
        <ele>14.54374139662832</ele>
        <time>2026-06-21T11:01:44Z</time>
      </trkpt>
      <trkpt lat="31.23005527585275" lon="121.39951078879189">
        <ele>15.159391573630273</ele>
        <time>2026-06-21T11:01:44Z</time>
      </trkpt>
      <trkpt lat="31.22986037335205" lon="121.3995978155781">
        <ele>18.795160464011133</ele>
        <time>2026-06-21T11:01:44Z</time>
      </trkpt>
      <trkpt lat="31.229786414433676" lon="121.39967783137796">
        <ele>16.435609987936914</ele>
        <time>2026-06-21T11:01:44Z</time>
      </trkpt>
      <trkpt lat="31.229758432046697" lon="121.39973084019724">
        <ele>19.69617288466543</ele>
        <time>2026-06-21T11:01:44Z</time>
      </trkpt>
      <trkpt lat="31.22970947381159" lon="121.39993587052756">
        <ele>16.435609987936914</ele>
        <time>2026-06-21T11:01:44Z</time>
      </trkpt>
      <trkpt lat="31.229743479431068" lon="121.4001458965459">
        <ele>13.35471551772207</ele>
        <time>2026-06-21T11:01:44Z</time>
      </trkpt>
      <trkpt lat="31.229819459841224" lon="121.4002889109822">
        <ele>12.998010805808008</ele>
        <time>2026-06-21T11:01:44Z</time>
      </trkpt>
      <trkpt lat="31.22996340182542" lon="121.40036591021419">
        <ele>19.027677706442773</ele>
        <time>2026-06-21T11:01:44Z</time>
      </trkpt>
      <trkpt lat="31.23000838175629" lon="121.40037290737781">
        <ele>-21.222078152932227</ele>
        <time>2026-06-21T11:01:44Z</time>
      </trkpt>
      <trkpt lat="31.230303237288133" lon="121.40030687151159">
        <ele>9.396591356955469</ele>
        <time>2026-06-21T11:01:44Z</time>
      </trkpt>
      <trkpt lat="31.2304311740858" lon="121.4002728552142">
        <ele>19.548210314475</ele>
        <time>2026-06-21T11:01:44Z</time>
      </trkpt>
      <trkpt lat="31.230720034448424" lon="121.40022182242474">
        <ele>15.777683428488672</ele>
        <time>2026-06-21T11:01:44Z</time>
      </trkpt>
      <trkpt lat="31.23097590004914" lon="121.4000737788463">
        <ele>-3.1462820256128907</ele>
        <time>2026-06-21T11:01:44Z</time>
      </trkpt>
      <trkpt lat="31.231084842235127" lon="121.40000175941711">
        <ele>20.605117968283594</ele>
        <time>2026-06-21T11:01:44Z</time>
      </trkpt>
      <trkpt lat="31.231164794339275" lon="121.39989073767362">
        <ele>19.265484026633203</ele>
        <time>2026-06-21T11:01:44Z</time>
      </trkpt>
      <trkpt lat="31.231211758871037" lon="121.39974171476875">
        <ele>20.57341020461172</ele>
        <time>2026-06-21T11:01:44Z</time>
      </trkpt>
      <trkpt lat="31.23120274925082" lon="121.3995796964279">
        <ele>-5.022296735085547</ele>
        <time>2026-06-21T11:01:44Z</time>
      </trkpt>
      <trkpt lat="31.23117075683204" lon="121.39948868907858">
        <ele>16.121177843771875</ele>
        <time>2026-06-21T11:01:44Z</time>
      </trkpt>
      <trkpt lat="31.231056802387503" lon="121.39939268879239">
        <ele>15.756546190939844</ele>
        <time>2026-06-21T11:01:44Z</time>
      </trkpt>
      <trkpt lat="31.231012693914618" lon="121.39943424494342">
        <ele>15.819961718283594</ele>
        <time>2026-06-21T11:01:44Z</time>
      </trkpt>
      <trkpt lat="31.23102581536128" lon="121.39937368952869">
        <ele>16.435611895285547</ele>
        <time>2026-06-21T11:01:44Z</time>
      </trkpt>
      <trkpt lat="31.230853887882482" lon="121.39927169429124">
        <ele>15.859592608176172</ele>
        <time>2026-06-21T11:01:44Z</time>
      </trkpt>
      <trkpt lat="31.230752934614205" lon="121.39927070299966">
        <ele>16.697193316183984</ele>
        <time>2026-06-21T11:01:44Z</time>
      </trkpt>
      <trkpt lat="31.230681969851165" lon="121.39930471253898">
        <ele>16.163456133566797</ele>
        <time>2026-06-21T11:01:44Z</time>
      </trkpt>
      <trkpt lat="31.230407102303865" lon="121.39937474360131">
        <ele>18.26406495925039</ele>
        <time>2026-06-21T11:01:44Z</time>
      </trkpt>
      <trkpt lat="31.230116247234466" lon="121.39950678303317">
        <ele>13.854107073508203</ele>
        <time>2026-06-21T11:01:44Z</time>
      </trkpt>
      <trkpt lat="31.22985437787582" lon="121.3996188185226">
        <ele>19.455730608664453</ele>
        <time>2026-06-21T11:01:44Z</time>
      </trkpt>
      <trkpt lat="31.229786415294488" lon="121.39968783257008">
        <ele>21.40837114211172</ele>
        <time>2026-06-21T11:01:44Z</time>
      </trkpt>
      <trkpt lat="31.22970946635813" lon="121.39985786035264">
        <ele>7.945984057150781</ele>
        <time>2026-06-21T11:01:44Z</time>
      </trkpt>
      <trkpt lat="31.229688492093555" lon="121.40002188394735">
        <ele>16.509594134055078</ele>
        <time>2026-06-21T11:01:44Z</time>
      </trkpt>
      <trkpt lat="31.229733486537686" lon="121.40016890073284">
        <ele>16.70776384230703</ele>
        <time>2026-06-21T11:01:44Z</time>
      </trkpt>
      <trkpt lat="31.22976947602825" lon="121.40022590592973">
        <ele>21.84962861891836</ele>
        <time>2026-06-21T11:01:44Z</time>
      </trkpt>
      <trkpt lat="31.229929414020635" lon="121.4003349083957">
        <ele>19.286625078879297</ele>
        <time>2026-06-21T11:01:44Z</time>
      </trkpt>
      <trkpt lat="31.23014232039495" lon="121.40037989678446">
        <ele>18.295772722922266</ele>
        <time>2026-06-21T11:01:44Z</time>
      </trkpt>
      <trkpt lat="31.230435170664226" lon="121.40025885276769">
        <ele>15.756546190939844</ele>
        <time>2026-06-21T11:01:44Z</time>
      </trkpt>
      <trkpt lat="31.230693045426495" lon="121.40020782271861">
        <ele>15.296791247092187</ele>
        <time>2026-06-21T11:01:44Z</time>
      </trkpt>
      <trkpt lat="31.230982897946785" lon="121.40008477977638">
        <ele>20.216705492697656</ele>
        <time>2026-06-21T11:01:44Z</time>
      </trkpt>
      <trkpt lat="31.231129812942157" lon="121.39991574399498">
        <ele>6.244360140524805</ele>
        <time>2026-06-21T11:01:44Z</time>
      </trkpt>
      <trkpt lat="31.231179781478478" lon="121.39982772827159">
        <ele>20.007965258322656</ele>
        <time>2026-06-21T11:01:44Z</time>
      </trkpt>
      <trkpt lat="31.231203756989416" lon="121.39967770774594">
        <ele>20.541702440939844</ele>
        <time>2026-06-21T11:01:44Z</time>
      </trkpt>
      <trkpt lat="31.23117075909801" lon="121.39951769226266">
        <ele>21.743938616476953</ele>
        <time>2026-06-21T11:01:44Z</time>
      </trkpt>
      <trkpt lat="31.231083790839236" lon="121.39940568779473">
        <ele>21.178489855490625</ele>
        <time>2026-06-21T11:01:44Z</time>
      </trkpt>
      <trkpt lat="31.23083290008542" lon="121.39930769967194">
        <ele>15.841098955832422</ele>
        <time>2026-06-21T11:01:44Z</time>
      </trkpt>
      <trkpt lat="31.23077192939795" lon="121.39932270648954">
        <ele>21.889263323508203</ele>
        <time>2026-06-21T11:01:44Z</time>
      </trkpt>
      <trkpt lat="31.230650989836644" lon="121.39938372325715">
        <ele>15.788253954611719</ele>
        <time>2026-06-21T11:01:44Z</time>
      </trkpt>
      <trkpt lat="31.23037312137616" lon="121.3994197512564">
        <ele>12.85268800612539</ele>
        <time>2026-06-21T11:01:44Z</time>
      </trkpt>
      <trkpt lat="31.230309150983743" lon="121.39941875673098">
        <ele>-10.682046719826758</ele>
        <time>2026-06-21T11:01:44Z</time>
      </trkpt>
      <trkpt lat="31.23003628776364" lon="121.3995497947857">
        <ele>19.83093278761953</ele>
        <time>2026-06-21T11:01:44Z</time>
      </trkpt>
      <trkpt lat="31.229870368792273" lon="121.39959881482103">
        <ele>19.035606554709375</ele>
        <time>2026-06-21T11:01:44Z</time>
      </trkpt>
      <trkpt lat="31.229747440268465" lon="121.39976584544904">
        <ele>20.457149676047266</ele>
        <time>2026-06-21T11:01:44Z</time>
      </trkpt>
      <trkpt lat="31.229698477948894" lon="121.39992587016425">
        <ele>20.531135729514062</ele>
        <time>2026-06-21T11:01:44Z</time>
      </trkpt>
      <trkpt lat="31.22969048885134" lon="121.39999888063555">
        <ele>-0.44323522690683603</ele>
        <time>2026-06-21T11:01:44Z</time>
      </trkpt>
      <trkpt lat="31.22982145857412" lon="121.40028591035492">
        <ele>20.113655260764062</ele>
        <time>2026-06-21T11:01:44Z</time>
      </trkpt>
      <trkpt lat="31.229920419927666" lon="121.40034991148832">
        <ele>21.033165148459375</ele>
        <time>2026-06-21T11:01:44Z</time>
      </trkpt>
      <trkpt lat="31.230170305538515" lon="121.40036389185661">
        <ele>17.511017016135156</ele>
        <time>2026-06-21T11:01:44Z</time>
      </trkpt>
      <trkpt lat="31.23045116413943" lon="121.40026685257016">
        <ele>18.274631670676172</ele>
        <time>2026-06-21T11:01:44Z</time>
      </trkpt>
      <trkpt lat="31.230737021127464" lon="121.40017181363194">
        <ele>20.177070788107812</ele>
        <time>2026-06-21T11:01:44Z</time>
      </trkpt>
      <trkpt lat="31.23101688167961" lon="121.40007977611097">
        <ele>18.108169726096094</ele>
        <time>2026-06-21T11:01:44Z</time>
      </trkpt>
      <trkpt lat="31.23107584871964" lon="121.40002476334287">
        <ele>19.89434831496328</ele>
        <time>2026-06-21T11:01:44Z</time>
      </trkpt>
      <trkpt lat="31.23118277292013" lon="121.3997487181547">
        <ele>20.248409441672266</ele>
        <time>2026-06-21T11:01:44Z</time>
      </trkpt>
      <trkpt lat="31.23116776183273" lon="121.39953469441127">
        <ele>14.398418596945703</ele>
        <time>2026-06-21T11:01:44Z</time>
      </trkpt>
      <trkpt lat="31.231085789913024" lon="121.39940568762034">
        <ele>22.54983156081289</ele>
        <time>2026-06-21T11:01:44Z</time>
      </trkpt>
      <trkpt lat="31.230927855795002" lon="121.39930369099122">
        <ele>16.039268664084375</ele>
        <time>2026-06-21T11:01:44Z</time>
      </trkpt>
      <trkpt lat="31.230725948080888" lon="121.3992847067254">
        <ele>12.382362536154687</ele>
        <time>2026-06-21T11:01:44Z</time>
      </trkpt>
      <trkpt lat="31.230650983803883" lon="121.39929871464642">
        <ele>8.780941179953516</ele>
        <time>2026-06-21T11:01:44Z</time>
      </trkpt>
      <trkpt lat="31.230519050808258" lon="121.3993807344556">
        <ele>8.728096178732812</ele>
        <time>2026-06-21T11:01:44Z</time>
      </trkpt>
      <trkpt lat="31.230239185553227" lon="121.39944676580485">
        <ele>20.18499772902578</ele>
        <time>2026-06-21T11:01:44Z</time>
      </trkpt>
      <trkpt lat="31.23017322047598" lon="121.39950277762405">
        <ele>20.729305437766016</ele>
        <time>2026-06-21T11:01:44Z</time>
      </trkpt>
      <trkpt lat="31.22987336855708" lon="121.3996128161719">
        <ele>20.237842730246484</ele>
        <time>2026-06-21T11:01:44Z</time>
      </trkpt>
      <trkpt lat="31.22976442943736" lon="121.39973283991769">
        <ele>15.64028566237539</ele>
        <time>2026-06-21T11:01:44Z</time>
      </trkpt>
      <trkpt lat="31.22969147917555" lon="121.39990486801473">
        <ele>19.173004320822656</ele>
        <time>2026-06-21T11:01:44Z</time>
      </trkpt>
      <trkpt lat="31.229680493095135" lon="121.3999948809646">
        <ele>3.958791903220117</ele>
        <time>2026-06-21T11:01:44Z</time>
      </trkpt>
      <trkpt lat="31.229704492474987" lon="121.40009789311718">
        <ele>19.873207262717187</ele>
        <time>2026-06-21T11:01:44Z</time>
      </trkpt>
      <trkpt lat="31.229766476980945" lon="121.40022190560076">
        <ele>18.879715136252344</ele>
        <time>2026-06-21T11:01:44Z</time>
      </trkpt>
      <trkpt lat="31.229866441658878" lon="121.40032091174498">
        <ele>6.838871172629297</ele>
        <time>2026-06-21T11:01:44Z</time>
      </trkpt>
      <trkpt lat="31.229945409482497" lon="121.4003599108539">
        <ele>21.252475908957422</ele>
        <time>2026-06-21T11:01:44Z</time>
      </trkpt>
      <trkpt lat="31.23016430948698" lon="121.4003738939323">
        <ele>15.119758776389062</ele>
        <time>2026-06-21T11:01:44Z</time>
      </trkpt>
      <trkpt lat="31.230464155659305" lon="121.40024484815181">
        <ele>19.141300371848047</ele>
        <time>2026-06-21T11:01:44Z</time>
      </trkpt>
      <trkpt lat="31.230800989751987" lon="121.40015580574027">
        <ele>16.726261309348047</ele>
        <time>2026-06-21T11:01:44Z</time>
      </trkpt>
      <trkpt lat="31.230963909463792" lon="121.40011078509919">
        <ele>16.205730608664453</ele>
        <time>2026-06-21T11:01:44Z</time>
      </trkpt>
      <trkpt lat="31.231068853892797" lon="121.40004376656896">
        <ele>15.06691377516836</ele>
        <time>2026-06-21T11:01:44Z</time>
      </trkpt>
      <trkpt lat="31.231129819003957" lon="121.39997775224559">
        <ele>16.100040606223047</ele>
        <time>2026-06-21T11:01:44Z</time>
      </trkpt>
      <trkpt lat="31.231157795400588" lon="121.39986773530475">
        <ele>15.975853136740625</ele>
        <time>2026-06-21T11:01:44Z</time>
      </trkpt>
      <trkpt lat="31.231199771295444" lon="121.39981772526218">
        <ele>15.191097429953516</ele>
        <time>2026-06-21T11:01:44Z</time>
      </trkpt>
      <trkpt lat="31.231208744047102" lon="121.39954969251411">
        <ele>6.973627260886133</ele>
        <time>2026-06-21T11:01:44Z</time>
      </trkpt>
      <trkpt lat="31.23117174659656" lon="121.39935767515762">
        <ele>18.63926713820547</ele>
        <time>2026-06-21T11:01:44Z</time>
      </trkpt>
      <trkpt lat="31.231123475711513" lon="121.39935118741472">
        <ele>19.883777788840234</ele>
        <time>2026-06-21T11:01:44Z</time>
      </trkpt>
      <trkpt lat="31.23102624844604" lon="121.39939067705879">
        <ele>20.834995440207422</ele>
        <time>2026-06-21T11:01:44Z</time>
      </trkpt>
      <trkpt lat="31.23096084575865" lon="121.39937769560842">
        <ele>19.632763079367578</ele>
        <time>2026-06-21T11:01:44Z</time>
      </trkpt>
      <trkpt lat="31.23089487219744" lon="121.39931969546456">
        <ele>22.24597185011953</ele>
        <time>2026-06-21T11:01:44Z</time>
      </trkpt>
      <trkpt lat="31.230828901039104" lon="121.39929469873101">
        <ele>18.441097429953516</ele>
        <time>2026-06-21T11:01:44Z</time>
      </trkpt>
      <trkpt lat="31.230504056893203" lon="121.39936873452672">
        <ele>21.712230852805078</ele>
        <time>2026-06-21T11:01:44Z</time>
      </trkpt>
      <trkpt lat="31.23043809071414" lon="121.39941274485258">
        <ele>20.647396258078516</ele>
        <time>2026-06-21T11:01:44Z</time>
      </trkpt>
      <trkpt lat="31.230269170883247" lon="121.39943676212353">
        <ele>17.030121020041406</ele>
        <time>2026-06-21T11:01:44Z</time>
      </trkpt>
      <trkpt lat="31.230097255737522" lon="121.39950278425023">
        <ele>17.104107073508203</ele>
        <time>2026-06-21T11:01:44Z</time>
      </trkpt>
      <trkpt lat="31.22995832205091" lon="121.39952579890767">
        <ele>17.376259020529687</ele>
        <time>2026-06-21T11:01:44Z</time>
      </trkpt>
      <trkpt lat="31.22982039416017" lon="121.39962482218297">
        <ele>18.023616961203516</ele>
        <time>2026-06-21T11:01:44Z</time>
      </trkpt>
      <trkpt lat="31.22972845427868" lon="121.39982285423429">
        <ele>11.201263598166406</ele>
        <time>2026-06-21T11:01:44Z</time>
      </trkpt>
      <trkpt lat="31.229689484465162" lon="121.39994987413134">
        <ele>16.726261309348047</ele>
        <time>2026-06-21T11:01:44Z</time>
      </trkpt>
      <trkpt lat="31.229729483491784" lon="121.40012289447918">
        <ele>19.392315081320703</ele>
        <time>2026-06-21T11:01:44Z</time>
      </trkpt>
      <trkpt lat="31.229801463604943" lon="121.40024790640273">
        <ele>-7.5773752415552735</ele>
        <time>2026-06-21T11:01:44Z</time>
      </trkpt>
      <trkpt lat="31.229859443084404" lon="121.4003049099183">
        <ele>3.602085283957422</ele>
        <time>2026-06-21T11:01:44Z</time>
      </trkpt>
      <trkpt lat="31.23000738024356" lon="121.40035590482967">
        <ele>16.726261309348047</ele>
        <time>2026-06-21T11:01:44Z</time>
      </trkpt>
      <trkpt lat="31.23031523423524" lon="121.40032887382199">
        <ele>19.85207002516836</ele>
        <time>2026-06-21T11:01:44Z</time>
      </trkpt>
      <trkpt lat="31.230637071600633" lon="121.40020982789483">
        <ele>15.975853136740625</ele>
        <time>2026-06-21T11:01:44Z</time>
      </trkpt>
      <trkpt lat="31.230834972716867" lon="121.40014380105096">
        <ele>18.515079668723047</ele>
        <time>2026-06-21T11:01:44Z</time>
      </trkpt>
      <trkpt lat="31.23100189323143" lon="121.40012378363242">
        <ele>20.980320147238672</ele>
        <time>2026-06-21T11:01:44Z</time>
      </trkpt>
      <trkpt lat="31.23106685904114" lon="121.40008477245249">
        <ele>21.284183672629297</ele>
        <time>2026-06-21T11:01:44Z</time>
      </trkpt>
      <trkpt lat="31.231138812862365" lon="121.39995774877733">
        <ele>18.837436846457422</ele>
        <time>2026-06-21T11:01:44Z</time>
      </trkpt>
      <trkpt lat="31.231189774366957" lon="121.39980072399457">
        <ele>15.339065722189844</ele>
        <time>2026-06-21T11:01:44Z</time>
      </trkpt>
      <trkpt lat="31.231202757109337" lon="121.39967370735773">
        <ele>17.669552019797266</ele>
        <time>2026-06-21T11:01:44Z</time>
      </trkpt>
      <trkpt lat="31.231186755521986" lon="121.39956569623477">
        <ele>7.705536059103906</ele>
        <time>2026-06-21T11:01:44Z</time>
      </trkpt>
      <trkpt lat="31.231141768184017" lon="121.39946168868222">
        <ele>17.584999254904687</ele>
        <time>2026-06-21T11:01:44Z</time>
      </trkpt>
      <trkpt lat="31.231063798488137" lon="121.39938368724816">
        <ele>19.246990374289453</ele>
        <time>2026-06-21T11:01:44Z</time>
      </trkpt>
      <trkpt lat="31.230910863878524" lon="121.39930669277169">
        <ele>21.387230089865625</ele>
        <time>2026-06-21T11:01:44Z</time>
      </trkpt>
      <trkpt lat="31.230843894089116" lon="121.39929469742317">
        <ele>20.82442872878164</ele>
        <time>2026-06-21T11:01:44Z</time>
      </trkpt>
      <trkpt lat="31.230524050395832" lon="121.3994067367251">
        <ele>19.215282610617578</ele>
        <time>2026-06-21T11:01:44Z</time>
      </trkpt>
      <trkpt lat="31.230421102435464" lon="121.39946375176054">
        <ele>15.547805956564844</ele>
        <time>2026-06-21T11:01:44Z</time>
      </trkpt>
      <trkpt lat="31.230177220586974" lon="121.39952778003594">
        <ele>10.09679429885</ele>
        <time>2026-06-21T11:01:44Z</time>
      </trkpt>
      <trkpt lat="31.229888364610172" lon="121.39964881905755">
        <ele>20.018531969748437</ele>
        <time>2026-06-21T11:01:44Z</time>
      </trkpt>
      <trkpt lat="31.229810404411054" lon="121.3996908308363">
        <ele>19.22584932204336</ele>
        <time>2026-06-21T11:01:44Z</time>
      </trkpt>
      <trkpt lat="31.229758434265676" lon="121.39975584325694">
        <ele>10.815494707785547</ele>
        <time>2026-06-21T11:01:44Z</time>
      </trkpt>
      <trkpt lat="31.229704479466662" lon="121.3999698754987">
        <ele>26.55287568923086</ele>
        <time>2026-06-21T11:01:44Z</time>
      </trkpt>
      <trkpt lat="31.229712486886978" lon="121.40007988989008">
        <ele>15.661422899924219</ele>
        <time>2026-06-21T11:01:44Z</time>
      </trkpt>
      <trkpt lat="31.229762473395486" lon="121.40017189863892">
        <ele>15.94414537306875</ele>
        <time>2026-06-21T11:01:44Z</time>
      </trkpt>
      <trkpt lat="31.229871434349228" lon="121.40027690463977">
        <ele>13.029720476828516</ele>
        <time>2026-06-21T11:01:44Z</time>
      </trkpt>
      <trkpt lat="31.23001937409564" lon="121.40035090301122">
        <ele>16.237438372336328</ele>
        <time>2026-06-21T11:01:44Z</time>
      </trkpt>
      <trkpt lat="31.23017429701428" lon="121.40030588260669">
        <ele>16.184593371115625</ele>
        <time>2026-06-21T11:01:44Z</time>
      </trkpt>
      <trkpt lat="31.23029823983478" lon="121.40030887225163">
        <ele>15.328499010764062</ele>
        <time>2026-06-21T11:01:44Z</time>
      </trkpt>
      <trkpt lat="31.230616079915794" lon="121.40019682782058">
        <ele>-12.349323102273047</ele>
        <time>2026-06-21T11:01:44Z</time>
      </trkpt>
      <trkpt lat="31.23093292392904" lon="121.40011178794376">
        <ele>20.887840441428125</ele>
        <time>2026-06-21T11:01:44Z</time>
      </trkpt>
      <trkpt lat="31.2310048885891" lon="121.4000927789825">
        <ele>18.179512194357812</ele>
        <time>2026-06-21T11:01:44Z</time>
      </trkpt>
      <trkpt lat="31.231122823040025" lon="121.39998575393521">
        <ele>19.537639788351953</ele>
        <time>2026-06-21T11:01:44Z</time>
      </trkpt>
      <trkpt lat="31.2311687955591" lon="121.399922741516">
        <ele>18.023616961203516</ele>
        <time>2026-06-21T11:01:44Z</time>
      </trkpt>
      <trkpt lat="31.231202767800845" lon="121.3997947221096">
        <ele>18.55471437331289</ele>
        <time>2026-06-21T11:01:44Z</time>
      </trkpt>
      <trkpt lat="31.231168763856402" lon="121.39956569780419">
        <ele>-2.0206735813990235</ele>
        <time>2026-06-21T11:01:44Z</time>
      </trkpt>
      <trkpt lat="31.231091790122775" lon="121.3994456913265">
        <ele>19.505932024680078</ele>
        <time>2026-06-21T11:01:44Z</time>
      </trkpt>
      <trkpt lat="31.230933855894616" lon="121.39934469458497">
        <ele>-77.62405759934336</ele>
        <time>2026-06-21T11:01:44Z</time>
      </trkpt>
      <trkpt lat="31.230837897560477" lon="121.39930469893757">
        <ele>14.617725542746484</ele>
        <time>2026-06-21T11:01:44Z</time>
      </trkpt>
      <trkpt lat="31.230531045974292" lon="121.3993907344457">
        <ele>16.6337816035375</ele>
        <time>2026-06-21T11:01:44Z</time>
      </trkpt>
      <trkpt lat="31.23038111803895" lon="121.39942475108664">
        <ele>19.173004320822656</ele>
        <time>2026-06-21T11:01:44Z</time>
      </trkpt>
      <trkpt lat="31.230319149280938" lon="121.39945776000823">
        <ele>18.64983384963125</ele>
        <time>2026-06-21T11:01:44Z</time>
      </trkpt>
      <trkpt lat="31.230012298821098" lon="121.39954879676596">
        <ele>18.20064943190664</ele>
        <time>2026-06-21T11:01:44Z</time>
      </trkpt>
      <trkpt lat="31.22980540467068" lon="121.39966682841616">
        <ele>20.248409441672266</ele>
        <time>2026-06-21T11:01:44Z</time>
      </trkpt>
      <trkpt lat="31.22972445613603" lon="121.39982285458302">
        <ele>18.369754961691797</ele>
        <time>2026-06-21T11:01:44Z</time>
      </trkpt>
      <trkpt lat="31.229699483374795" lon="121.39998587808985">
        <ele>18.26406495925039</ele>
        <time>2026-06-21T11:01:44Z</time>
      </trkpt>
      <trkpt lat="31.22968752045382" lon="121.40028292158527">
        <ele>14.274231127463281</ele>
        <time>2026-06-21T11:01:44Z</time>
      </trkpt>
      <trkpt lat="31.229620568968123" lon="121.40043295062836">
        <ele>7.142732790671289</ele>
        <time>2026-06-21T11:01:44Z</time>
      </trkpt>
      <trkpt lat="31.229742512313916" lon="121.40043293999183">
        <ele>17.888858965598047</ele>
        <time>2026-06-21T11:01:44Z</time>
      </trkpt>
      <trkpt lat="31.22986845002069" lon="121.40040092395749">
        <ele>-7.096481152810156</ele>
        <time>2026-06-21T11:01:44Z</time>
      </trkpt>
      <trkpt lat="31.230186301388336" lon="121.40039189482208">
        <ele>18.723819903098047</ele>
        <time>2026-06-21T11:01:44Z</time>
      </trkpt>
      <trkpt lat="31.23040918541189" lon="121.40028285863703">
        <ele>16.403904131613672</ele>
        <time>2026-06-21T11:01:44Z</time>
      </trkpt>
      <trkpt lat="31.230583101712377" lon="121.40025583941578">
        <ele>17.949634722433984</ele>
        <time>2026-06-21T11:01:44Z</time>
      </trkpt>
      <trkpt lat="31.23087894989319" lon="121.40012079392976">
        <ele>19.360607317648828</ele>
        <time>2026-06-21T11:01:44Z</time>
      </trkpt>
      <trkpt lat="31.23101687992371" lon="121.40006277373752">
        <ele>19.632763079367578</ele>
        <time>2026-06-21T11:01:44Z</time>
      </trkpt>
      <trkpt lat="31.23108084509186" lon="121.40001176112813">
        <ele>18.692112139426172</ele>
        <time>2026-06-21T11:01:44Z</time>
      </trkpt>
      <trkpt lat="31.231170788253056" lon="121.39985573262797">
        <ele>18.99597185011953</ele>
        <time>2026-06-21T11:01:44Z</time>
      </trkpt>
      <trkpt lat="31.231199760654206" lon="121.39969871060423">
        <ele>14.752479723654687</ele>
        <time>2026-06-21T11:01:44Z</time>
      </trkpt>
      <trkpt lat="31.2311957557881" lon="121.39961970163256">
        <ele>16.654918841086328</ele>
        <time>2026-06-21T11:01:44Z</time>
      </trkpt>
      <trkpt lat="31.23114276979722" lon="121.39948869151989">
        <ele>19.62219255324453</ele>
        <time>2026-06-21T11:01:44Z</time>
      </trkpt>
      <trkpt lat="31.23101581905534" lon="121.39936068906593">
        <ele>20.86405961867422</ele>
        <time>2026-06-21T11:01:44Z</time>
      </trkpt>
      <trkpt lat="31.23086688545007" lon="121.39932369830697">
        <ele>19.820362261496484</ele>
        <time>2026-06-21T11:01:44Z</time>
      </trkpt>
      <trkpt lat="31.230728951377703" lon="121.39935171317033">
        <ele>16.028698137961328</ele>
        <time>2026-06-21T11:01:44Z</time>
      </trkpt>
      <trkpt lat="31.23044908884226" lon="121.39945574845916">
        <ele>20.647396258078516</ele>
        <time>2026-06-21T11:01:44Z</time>
      </trkpt>
      <trkpt lat="31.23019121111356" lon="121.39948977463212">
        <ele>20.301258257590234</ele>
        <time>2026-06-21T11:01:44Z</time>
      </trkpt>
      <trkpt lat="31.2298873638107" lon="121.3996338173892">
        <ele>18.607559374533594</ele>
        <time>2026-06-21T11:01:44Z</time>
      </trkpt>
      <trkpt lat="31.229823396570353" lon="121.39966982720217">
        <ele>17.970771959982812</ele>
        <time>2026-06-21T11:01:44Z</time>
      </trkpt>
      <trkpt lat="31.22974444382831" lon="121.39978984869138">
        <ele>20.103084734641016</ele>
        <time>2026-06-21T11:01:44Z</time>
      </trkpt>
      <trkpt lat="31.229713477671233" lon="121.39999387795193">
        <ele>19.62219255324453</ele>
        <time>2026-06-21T11:01:44Z</time>
      </trkpt>
      <trkpt lat="31.22973448191021" lon="121.40012989504079">
        <ele>15.130325487814844</ele>
        <time>2026-06-21T11:01:44Z</time>
      </trkpt>
      <trkpt lat="31.229777470338558" lon="121.40020790258151">
        <ele>6.2839929377660155</ele>
        <time>2026-06-21T11:01:44Z</time>
      </trkpt>
      <trkpt lat="31.2298794324397" lon="121.4002929063557">
        <ele>17.875648668967187</ele>
        <time>2026-06-21T11:01:44Z</time>
      </trkpt>
      <trkpt lat="31.229977393240667" lon="121.40034790621034">
        <ele>17.939064196310937</ele>
        <time>2026-06-21T11:01:44Z</time>
      </trkpt>
      <trkpt lat="31.23005635843319" lon="121.40036390179583">
        <ele>13.093132189475</ele>
        <time>2026-06-21T11:01:44Z</time>
      </trkpt>
      <trkpt lat="31.230253264718534" lon="121.40034388153077">
        <ele>16.435611895285547</ele>
        <time>2026-06-21T11:01:44Z</time>
      </trkpt>
      <trkpt lat="31.23052412962207" lon="121.40026084530707">
        <ele>17.521583727560937</ele>
        <time>2026-06-21T11:01:44Z</time>
      </trkpt>
      <trkpt lat="31.230800992441708" lon="121.4001808093581">
        <ele>15.841098955832422</ele>
        <time>2026-06-21T11:01:44Z</time>
      </trkpt>
      <trkpt lat="31.230994894579837" lon="121.40010578168852">
        <ele>1.9744455134496093</ele>
        <time>2026-06-21T11:01:44Z</time>
      </trkpt>
      <trkpt lat="31.231174794919216" lon="121.39994474390546">
        <ele>16.372196367941797</ele>
        <time>2026-06-21T11:01:44Z</time>
      </trkpt>
      <trkpt lat="31.231225750448733" lon="121.39971971086997">
        <ele>-16.722286053933203</ele>
        <time>2026-06-21T11:01:44Z</time>
      </trkpt>
      <trkpt lat="31.231205745757222" lon="121.39955369322506">
        <ele>12.548824480734766</ele>
        <time>2026-06-21T11:01:44Z</time>
      </trkpt>
      <trkpt lat="31.231173754439247" lon="121.39947568740398">
        <ele>19.109592608176172</ele>
        <time>2026-06-21T11:01:44Z</time>
      </trkpt>
      <trkpt lat="31.231044803629736" lon="121.39933268369289">
        <ele>14.733986071310937</ele>
        <time>2026-06-21T11:01:44Z</time>
      </trkpt>
      <trkpt lat="31.230891869735306" lon="121.39926369019845">
        <ele>16.602073839865625</ele>
        <time>2026-06-21T11:01:44Z</time>
      </trkpt>
      <trkpt lat="31.23061527642101" lon="121.39932503920198">
        <ele>17.196582964621484</ele>
        <time>2026-06-21T11:01:44Z</time>
      </trkpt>
      <trkpt lat="31.230326141767055" lon="121.39940075336071">
        <ele>14.472400835715234</ele>
        <time>2026-06-21T11:01:44Z</time>
      </trkpt>
      <trkpt lat="31.230275164395636" lon="121.3993867563505">
        <ele>2.925663164816797</ele>
        <time>2026-06-21T11:01:44Z</time>
      </trkpt>
      <trkpt lat="31.229974314387782" lon="121.39952279718">
        <ele>20.417514971457422</ele>
        <time>2026-06-21T11:01:44Z</time>
      </trkpt>
      <trkpt lat="31.229830390355044" lon="121.39963482247545">
        <ele>18.607559374533594</ele>
        <time>2026-06-21T11:01:44Z</time>
      </trkpt>
      <trkpt lat="31.229732450037044" lon="121.39979685061269">
        <ele>18.22178666945547</ele>
        <time>2026-06-21T11:01:44Z</time>
      </trkpt>
      <trkpt lat="31.22970947863174" lon="121.3999848770829">
        <ele>19.27605455275625</ele>
        <time>2026-06-21T11:01:44Z</time>
      </trkpt>
      <trkpt lat="31.22971948750254" lon="121.40011689449805">
        <ele>-21.636913129128516</ele>
        <time>2026-06-21T11:01:44Z</time>
      </trkpt>
      <trkpt lat="31.229807463386717" lon="121.40027090931805">
        <ele>20.446582964621484</ele>
        <time>2026-06-21T11:01:44Z</time>
      </trkpt>
      <trkpt lat="31.229877437698356" lon="121.40033091231591">
        <ele>19.548210314475</ele>
        <time>2026-06-21T11:01:44Z</time>
      </trkpt>
      <trkpt lat="31.22996640020044" lon="121.40036390964255">
        <ele>6.3791162287816405</ele>
        <time>2026-06-21T11:01:44Z</time>
      </trkpt>
      <trkpt lat="31.230063355417542" lon="121.40036590149562">
        <ele>20.57341020461172</ele>
        <time>2026-06-21T11:01:44Z</time>
      </trkpt>
      <trkpt lat="31.230275253362283" lon="121.40033387807588">
        <ele>19.077884844504297</ele>
        <time>2026-06-21T11:01:44Z</time>
      </trkpt>
      <trkpt lat="31.230597089923148" lon="121.40020783108865">
        <ele>17.56386201735586</ele>
        <time>2026-06-21T11:01:44Z</time>
      </trkpt>
      <trkpt lat="31.2308969435662" lon="121.40013979507198">
        <ele>18.525650194846094</ele>
        <time>2026-06-21T11:01:44Z</time>
      </trkpt>
      <trkpt lat="31.231020882327666" lon="121.40010377913885">
        <ele>16.77910631056875</ele>
        <time>2026-06-21T11:01:44Z</time>
      </trkpt>
      <trkpt lat="31.231075851981608" lon="121.40005676775928">
        <ele>14.126262835226953</ele>
        <time>2026-06-21T11:01:44Z</time>
      </trkpt>
      <trkpt lat="31.231167794768677" lon="121.39990973989404">
        <ele>17.41853731032461</ele>
        <time>2026-06-21T11:01:44Z</time>
      </trkpt>
      <trkpt lat="31.231211752087766" lon="121.39966370538824">
        <ele>18.179512194357812</ele>
        <time>2026-06-21T11:01:44Z</time>
      </trkpt>
      <trkpt lat="31.231199750314097" lon="121.39957569623468">
        <ele>19.696174792014062</ele>
        <time>2026-06-21T11:01:44Z</time>
      </trkpt>
      <trkpt lat="31.23109078722893" lon="121.39940068666164">
        <ele>17.606136492453516</ele>
        <time>2026-06-21T11:01:44Z</time>
      </trkpt>
      <trkpt lat="31.231033809361538" lon="121.39934168556181">
        <ele>13.896385363303125</ele>
        <time>2026-06-21T11:01:44Z</time>
      </trkpt>
      <trkpt lat="31.230910863739716" lon="121.39930469257278">
        <ele>19.318329027853906</ele>
        <time>2026-06-21T11:01:44Z</time>
      </trkpt>
      <trkpt lat="31.23070495926092" lon="121.39930571063309">
        <ele>18.808372667990625</ele>
        <time>2026-06-21T11:01:44Z</time>
      </trkpt>
      <trkpt lat="31.230626000843035" lon="121.3993757246103">
        <ele>18.179512194357812</ele>
        <time>2026-06-21T11:01:44Z</time>
      </trkpt>
      <trkpt lat="31.230345134958554" lon="121.39942775454266">
        <ele>16.298210314475</ele>
        <time>2026-06-21T11:01:44Z</time>
      </trkpt>
      <trkpt lat="31.230085264625497" lon="121.39954478995305">
        <ele>18.20064943190664</ele>
        <time>2026-06-21T11:01:44Z</time>
      </trkpt>
      <trkpt lat="31.22995332928101" lon="121.39958680621073">
        <ele>19.318329027853906</ele>
        <time>2026-06-21T11:01:44Z</time>
      </trkpt>
      <trkpt lat="31.229785418718635" lon="121.39972183674978">
        <ele>18.795162371359766</ele>
        <time>2026-06-21T11:01:44Z</time>
      </trkpt>
      <trkpt lat="31.229730457641722" lon="121.39986885993731">
        <ele>17.302276781760156</ele>
        <time>2026-06-21T11:01:44Z</time>
      </trkpt>
      <trkpt lat="31.22971647929377" lon="121.4000238817803">
        <ele>11.494556597433984</ele>
        <time>2026-06-21T11:01:44Z</time>
      </trkpt>
      <trkpt lat="31.229745476802627" lon="121.40012989408176">
        <ele>14.85817354079336</ele>
        <time>2026-06-21T11:01:44Z</time>
      </trkpt>
      <trkpt lat="31.22980246081703" lon="121.40022690320038">
        <ele>17.249431780539453</ele>
        <time>2026-06-21T11:01:44Z</time>
      </trkpt>
      <trkpt lat="31.229922416122214" lon="121.40032490747396">
        <ele>7.5998460566625</ele>
        <time>2026-06-21T11:01:44Z</time>
      </trkpt>
      <trkpt lat="31.230055354053405" lon="121.40032189541967">
        <ele>17.06182878371328</ele>
        <time>2026-06-21T11:01:44Z</time>
      </trkpt>
      <trkpt lat="31.230218281069646" lon="121.40034488473627">
        <ele>16.697193316183984</ele>
        <time>2026-06-21T11:01:44Z</time>
      </trkpt>
      <trkpt lat="31.230517131752716" lon="121.40025084442425">
        <ele>16.726261309348047</ele>
        <time>2026-06-21T11:01:44Z</time>
      </trkpt>
      <trkpt lat="31.230821980664516" lon="121.4001618047746">
        <ele>16.49902360793203</ele>
        <time>2026-06-21T11:01:44Z</time>
      </trkpt>
      <trkpt lat="31.231023877299812" lon="121.40006877396314">
        <ele>18.953697375021875</ele>
        <time>2026-06-21T11:01:44Z</time>
      </trkpt>
      <trkpt lat="31.231119822546766" lon="121.39996675163893">
        <ele>18.964267901144922</ele>
        <time>2026-06-21T11:01:44Z</time>
      </trkpt>
      <trkpt lat="31.231196768676828" lon="121.3997737200174">
        <ele>17.542720965109766</ele>
        <time>2026-06-21T11:01:44Z</time>
      </trkpt>
      <trkpt lat="31.231209748724137" lon="121.39961269960185">
        <ele>18.398819140158594</ele>
        <time>2026-06-21T11:01:44Z</time>
      </trkpt>
      <trkpt lat="31.231189753165303" lon="121.3995536946201">
        <ele>5.063263109885156</ele>
        <time>2026-06-21T11:01:44Z</time>
      </trkpt>
      <trkpt lat="31.23104880427516" lon="121.39936768690625">
        <ele>20.029102495871484</ele>
        <time>2026-06-21T11:01:44Z</time>
      </trkpt>
      <trkpt lat="31.230985830956786" lon="121.39933268883706">
        <ele>20.657962969504297</ele>
        <time>2026-06-21T11:01:44Z</time>
      </trkpt>
      <trkpt lat="31.230757934560533" lon="121.39930370581331">
        <ele>20.750442675314844</ele>
        <time>2026-06-21T11:01:44Z</time>
      </trkpt>
      <trkpt lat="31.230697962783072" lon="121.39930971164158">
        <ele>20.248409441672266</ele>
        <time>2026-06-21T11:01:44Z</time>
      </trkpt>
      <trkpt lat="31.230606008101045" lon="121.3993477234875">
        <ele>20.177070788107812</ele>
        <time>2026-06-21T11:01:44Z</time>
      </trkpt>
      <trkpt lat="31.23052904800392" lon="121.39940573618443">
        <ele>18.766094378195703</ele>
        <time>2026-06-21T11:01:44Z</time>
      </trkpt>
      <trkpt lat="31.230224195417637" lon="121.39948477121017">
        <ele>18.974834612570703</ele>
        <time>2026-06-21T11:01:44Z</time>
      </trkpt>
      <trkpt lat="31.230078266520447" lon="121.3995277886674">
        <ele>17.43703096266836</ele>
        <time>2026-06-21T11:01:44Z</time>
      </trkpt>
      <trkpt lat="31.229792412854366" lon="121.39969183252529">
        <ele>17.896785906516016</ele>
        <time>2026-06-21T11:01:44Z</time>
      </trkpt>
      <trkpt lat="31.229694474641484" lon="121.39987186346315">
        <ele>14.16853731032461</ele>
        <time>2026-06-21T11:01:44Z</time>
      </trkpt>
      <trkpt lat="31.22968149534418" lon="121.40002188455763">
        <ele>-25.893619366921484</ele>
        <time>2026-06-21T11:01:44Z</time>
      </trkpt>
      <trkpt lat="31.229689499754045" lon="121.40010089484822">
        <ele>18.84800737258047</ele>
        <time>2026-06-21T11:01:44Z</time>
      </trkpt>
      <trkpt lat="31.22983544926852" lon="121.40026090537847">
        <ele>17.344551256857812</ele>
        <time>2026-06-21T11:01:44Z</time>
      </trkpt>
      <trkpt lat="31.229986388717247" lon="121.40034490496345">
        <ele>7.3911058222875</ele>
        <time>2026-06-21T11:01:44Z</time>
      </trkpt>
      <trkpt lat="31.23012432560438" lon="121.40035289416544">
        <ele>18.129306963644922</ele>
        <time>2026-06-21T11:01:44Z</time>
      </trkpt>
      <trkpt lat="31.230445165915718" lon="121.40025785174639">
        <ele>20.050239733420312</ele>
        <time>2026-06-21T11:01:44Z</time>
      </trkpt>
      <trkpt lat="31.230714034167544" lon="121.40019381883775">
        <ele>16.98784654494375</ele>
        <time>2026-06-21T11:01:44Z</time>
      </trkpt>
      <trkpt lat="31.23097990079515" lon="121.40009878200765">
        <ele>16.28764360304922</ele>
        <time>2026-06-21T11:01:44Z</time>
      </trkpt>
      <trkpt lat="31.231072851836263" lon="121.40004176594395">
        <ele>7.967121294699609</ele>
        <time>2026-06-21T11:01:44Z</time>
      </trkpt>
      <trkpt lat="31.231168790684624" lon="121.39987173486179">
        <ele>15.370773485861719</ele>
        <time>2026-06-21T11:01:44Z</time>
      </trkpt>
      <trkpt lat="31.231193759063625" lon="121.39964770507292">
        <ele>16.414470843039453</ele>
        <time>2026-06-21T11:01:44Z</time>
      </trkpt>
      <trkpt lat="31.23115476493988" lon="121.39949769145706">
        <ele>16.98784654494375</ele>
        <time>2026-06-21T11:01:44Z</time>
      </trkpt>
      <trkpt lat="31.23112677383922" lon="121.3994446881681">
        <ele>16.039268664084375</ele>
        <time>2026-06-21T11:01:44Z</time>
      </trkpt>
      <trkpt lat="31.231020815382614" lon="121.39934168669528">
        <ele>16.36162584181875</ele>
        <time>2026-06-21T11:01:44Z</time>
      </trkpt>
      <trkpt lat="31.23083989464096" lon="121.39927569590294">
        <ele>15.880733660422266</ele>
        <time>2026-06-21T11:01:44Z</time>
      </trkpt>
      <trkpt lat="31.23074593860719" lon="121.39928170468683">
        <ele>17.762031725607812</ele>
        <time>2026-06-21T11:01:44Z</time>
      </trkpt>
      <trkpt lat="31.230465075409544" lon="121.39937473854445">
        <ele>17.80430620070547</ele>
        <time>2026-06-21T11:01:44Z</time>
      </trkpt>
      <trkpt lat="31.230192208343325" lon="121.39945977129588">
        <ele>16.340488604269922</ele>
        <time>2026-06-21T11:01:44Z</time>
      </trkpt>
      <trkpt lat="31.22991834454739" lon="121.39957480789589">
        <ele>15.70370118971914</ele>
        <time>2026-06-21T11:01:44Z</time>
      </trkpt>
      <trkpt lat="31.22977642555137" lon="121.39975184119585">
        <ele>16.64434831496328</ele>
        <time>2026-06-21T11:01:44Z</time>
      </trkpt>
      <trkpt lat="31.229715474754304" lon="121.39997387507721">
        <ele>16.6337816035375</ele>
        <time>2026-06-21T11:01:44Z</time>
      </trkpt>
      <trkpt lat="31.229730478840015" lon="121.40008288874118">
        <ele>16.018131426535547</ele>
        <time>2026-06-21T11:01:44Z</time>
      </trkpt>
      <trkpt lat="31.22982345051721" lon="121.40022190063121">
        <ele>15.505527666769922</ele>
        <time>2026-06-21T11:01:44Z</time>
      </trkpt>
      <trkpt lat="31.229972397299488" lon="121.40036290896445">
        <ele>16.372196367941797</ele>
        <time>2026-06-21T11:01:44Z</time>
      </trkpt>
      <trkpt lat="31.23017230333446" lon="121.4003528899805">
        <ele>16.110611132346094</ele>
        <time>2026-06-21T11:01:44Z</time>
      </trkpt>
      <trkpt lat="31.23044316818499" lon="121.40026985371757">
        <ele>15.975853136740625</ele>
        <time>2026-06-21T11:01:44Z</time>
      </trkpt>
      <trkpt lat="31.230658060774964" lon="121.40019982459755">
        <ele>17.29170625563711</ele>
        <time>2026-06-21T11:01:44Z</time>
      </trkpt>
      <trkpt lat="31.230755017240764" lon="121.40021281804756">
        <ele>15.714267901144922</ele>
        <time>2026-06-21T11:01:44Z</time>
      </trkpt>
      <trkpt lat="31.230992893834813" lon="121.40008977960677">
        <ele>15.830528429709375</ele>
        <time>2026-06-21T11:01:44Z</time>
      </trkpt>
      <trkpt lat="31.23116479234795" lon="121.39986973495239">
        <ele>16.863659075461328</ele>
        <time>2026-06-21T11:01:44Z</time>
      </trkpt>
      <trkpt lat="31.231196761523293" lon="121.39969271014643">
        <ele>15.296791247092187</ele>
        <time>2026-06-21T11:01:44Z</time>
      </trkpt>
      <trkpt lat="31.23118675519873" lon="121.3995616957829">
        <ele>16.559795550070703</ele>
        <time>2026-06-21T11:01:44Z</time>
      </trkpt>
      <trkpt lat="31.231158762698797" lon="121.39949269056142">
        <ele>17.019554308615625</ele>
        <time>2026-06-21T11:01:44Z</time>
      </trkpt>
      <trkpt lat="31.231061799050682" lon="121.39937868690556">
        <ele>-16.05643064621836</ele>
        <time>2026-06-21T11:01:44Z</time>
      </trkpt>
      <trkpt lat="31.23095584549028" lon="121.39934169236257">
        <ele>19.099022082053125</ele>
        <time>2026-06-21T11:01:44Z</time>
      </trkpt>
      <trkpt lat="31.23088787706264" lon="121.39934269839279">
        <ele>3.821394137106836</ele>
        <time>2026-06-21T11:01:44Z</time>
      </trkpt>
      <trkpt lat="31.230813909376497" lon="121.39931470202663">
        <ele>20.834995440207422</ele>
        <time>2026-06-21T11:01:44Z</time>
      </trkpt>
      <trkpt lat="31.230563033130753" lon="121.39941773448004">
        <ele>18.55471437331289</ele>
        <time>2026-06-21T11:01:44Z</time>
      </trkpt>
      <trkpt lat="31.23048207484021" lon="121.39947274741374">
        <ele>4.917938402853906</ele>
        <time>2026-06-21T11:01:44Z</time>
      </trkpt>
      <trkpt lat="31.230275172613762" lon="121.3994957679639">
        <ele>16.2163011347875</ele>
        <time>2026-06-21T11:01:44Z</time>
      </trkpt>
      <trkpt lat="31.230018301422966" lon="121.39961480376114">
        <ele>19.62219255324453</ele>
        <time>2026-06-21T11:01:44Z</time>
      </trkpt>
      <trkpt lat="31.229835392804798" lon="121.39969082865667">
        <ele>4.479320696555078</ele>
        <time>2026-06-21T11:01:44Z</time>
      </trkpt>
      <trkpt lat="31.229784422283295" lon="121.3997568411132">
        <ele>18.314266375266016</ele>
        <time>2026-06-21T11:01:44Z</time>
      </trkpt>
      <trkpt lat="31.229725461573192" lon="121.39988586257344">
        <ele>18.087032488547266</ele>
        <time>2026-06-21T11:01:44Z</time>
      </trkpt>
      <trkpt lat="31.229707484385383" lon="121.40003288380116">
        <ele>12.538257769308984</ele>
        <time>2026-06-21T11:01:44Z</time>
      </trkpt>
      <trkpt lat="31.22971748685662" lon="121.40010189254824">
        <ele>18.147804430685937</ele>
        <time>2026-06-21T11:01:44Z</time>
      </trkpt>
      <trkpt lat="31.22976647918906" lon="121.4002419085618">
        <ele>18.15837114211172</ele>
        <time>2026-06-21T11:01:44Z</time>
      </trkpt>
      <trkpt lat="31.22983245973853" lon="121.40034091777444">
        <ele>17.595569781027734</ele>
        <time>2026-06-21T11:01:44Z</time>
      </trkpt>
      <trkpt lat="31.229907429334073" lon="121.40037891711731">
        <ele>19.49800508376211</ele>
        <time>2026-06-21T11:01:44Z</time>
      </trkpt>
      <trkpt lat="31.230071355569" lon="121.40039890594504">
        <ele>4.426475695334375</ele>
        <time>2026-06-21T11:01:44Z</time>
      </trkpt>
      <trkpt lat="31.23020429081333" lon="121.40037289028935">
        <ele>17.397396258078516</ele>
        <time>2026-06-21T11:01:44Z</time>
      </trkpt>
      <trkpt lat="31.230507135833303" lon="121.40024584455152">
        <ele>17.019554308615625</ele>
        <time>2026-06-21T11:01:44Z</time>
      </trkpt>
      <trkpt lat="31.23081498433752" lon="121.40016580596281">
        <ele>-6.441198178566992</ele>
        <time>2026-06-21T11:01:44Z</time>
      </trkpt>
      <trkpt lat="31.23102687704796" lon="121.40007977523908">
        <ele>17.259998491965234</ele>
        <time>2026-06-21T11:01:44Z</time>
      </trkpt>
      <trkpt lat="31.23112981791605" lon="121.39996675076704">
        <ele>17.542720965109766</ele>
        <time>2026-06-21T11:01:44Z</time>
      </trkpt>
      <trkpt lat="31.231190776292816" lon="121.39982672718571">
        <ele>16.665489367209375</ele>
        <time>2026-06-21T11:01:44Z</time>
      </trkpt>
      <trkpt lat="31.23121275620459" lon="121.39971671164022">
        <ele>17.072399309836328</ele>
        <time>2026-06-21T11:01:44Z</time>
      </trkpt>
      <trkpt lat="31.231168759787938" lon="121.39951469210561">
        <ele>18.483371905051172</ele>
        <time>2026-06-21T11:01:44Z</time>
      </trkpt>
      <trkpt lat="31.231142767340007" lon="121.39945668805758">
        <ele>16.456749132834375</ele>
        <time>2026-06-21T11:01:44Z</time>
      </trkpt>
      <trkpt lat="31.231055800816968" lon="121.39936468598808">
        <ele>17.677478960715234</ele>
        <time>2026-06-21T11:01:44Z</time>
      </trkpt>
      <trkpt lat="31.230853888290685" lon="121.39927769487815">
        <ele>16.538658312521875</ele>
        <time>2026-06-21T11:01:44Z</time>
      </trkpt>
      <trkpt lat="31.230785919866502" lon="121.39927870090499">
        <ele>16.131748369894922</ele>
        <time>2026-06-21T11:01:44Z</time>
      </trkpt>
      <trkpt lat="31.230692964961303" lon="121.39930771187832">
        <ele>17.249431780539453</ele>
        <time>2026-06-21T11:01:44Z</time>
      </trkpt>
      <trkpt lat="31.230645991717836" lon="121.39937772307285">
        <ele>14.303295305930078</ele>
        <time>2026-06-21T11:01:44Z</time>
      </trkpt>
      <trkpt lat="31.23052505074746" lon="121.39941773779317">
        <ele>17.42910402175039</ele>
        <time>2026-06-21T11:01:44Z</time>
      </trkpt>
      <trkpt lat="31.23025018289376" lon="121.39947876829129">
        <ele>15.975853136740625</ele>
        <time>2026-06-21T11:01:44Z</time>
      </trkpt>
      <trkpt lat="31.230046284411895" lon="121.39956579571631">
        <ele>16.14231889601797</ele>
        <time>2026-06-21T11:01:44Z</time>
      </trkpt>
      <trkpt lat="31.229919345553817" lon="121.39959280986105">
        <ele>17.407966784201562</ele>
        <time>2026-06-21T11:01:44Z</time>
      </trkpt>
      <trkpt lat="31.229777421295182" lon="121.3997088358753">
        <ele>17.06182878371328</ele>
        <time>2026-06-21T11:01:44Z</time>
      </trkpt>
      <trkpt lat="31.229724454940136" lon="121.39980985294217">
        <ele>17.511017016135156</ele>
        <time>2026-06-21T11:01:44Z</time>
      </trkpt>
      <trkpt lat="31.229712469136455" lon="121.39990186579149">
        <ele>16.52016084548086</ele>
        <time>2026-06-21T11:01:44Z</time>
      </trkpt>
      <trkpt lat="31.229752471233713" lon="121.40010789034501">
        <ele>15.317928484641016</ele>
        <time>2026-06-21T11:01:44Z</time>
      </trkpt>
      <trkpt lat="31.229838446761107" lon="121.4002509036238">
        <ele>17.43703096266836</ele>
        <time>2026-06-21T11:01:44Z</time>
      </trkpt>
      <trkpt lat="31.229889428931077" lon="121.40030290699907">
        <ele>16.14231889601797</ele>
        <time>2026-06-21T11:01:44Z</time>
      </trkpt>
      <trkpt lat="31.230121330021408" lon="121.40037889845955">
        <ele>16.089473894797266</ele>
        <time>2026-06-21T11:01:44Z</time>
      </trkpt>
      <trkpt lat="31.23038819912074" lon="121.40031786577585">
        <ele>17.156952074728906</ele>
        <time>2026-06-21T11:01:44Z</time>
      </trkpt>
      <trkpt lat="31.23070404032845" lon="121.40020782175955">
        <ele>16.52016084548086</ele>
        <time>2026-06-21T11:01:44Z</time>
      </trkpt>
      <trkpt lat="31.23097890220071" lon="121.40010778336651">
        <ele>13.624229601584375</ele>
        <time>2026-06-21T11:01:44Z</time>
      </trkpt>
      <trkpt lat="31.231045867833764" lon="121.40007577302265">
        <ele>15.608577898703516</ele>
        <time>2026-06-21T11:01:44Z</time>
      </trkpt>
      <trkpt lat="31.231147808989842" lon="121.39996074839382">
        <ele>15.34963624831289</ele>
        <time>2026-06-21T11:01:44Z</time>
      </trkpt>
      <trkpt lat="31.231201771848013" lon="121.39983372711531">
        <ele>17.42910402175039</ele>
        <time>2026-06-21T11:01:44Z</time>
      </trkpt>
      <trkpt lat="31.231212752051523" lon="121.3996687058928">
        <ele>17.553291491232812</ele>
        <time>2026-06-21T11:01:44Z</time>
      </trkpt>
      <trkpt lat="31.23113676793062" lon="121.3994276854894">
        <ele>15.378700426779687</ele>
        <time>2026-06-21T11:01:44Z</time>
      </trkpt>
      <trkpt lat="31.23104080520028" lon="121.39932868363864">
        <ele>15.505527666769922</ele>
        <time>2026-06-21T11:01:44Z</time>
      </trkpt>
      <trkpt lat="31.23078691919869" lon="121.39927570052394">
        <ele>17.981338671408594</ele>
        <time>2026-06-21T11:01:44Z</time>
      </trkpt>
      <trkpt lat="31.23064698690876" lon="121.39931671678703">
        <ele>17.312843493185937</ele>
        <time>2026-06-21T11:01:44Z</time>
      </trkpt>
      <trkpt lat="31.230313151607806" lon="121.39945175988784">
        <ele>16.0075609004125</ele>
        <time>2026-06-21T11:01:44Z</time>
      </trkpt>
      <trkpt lat="31.23004128353142" lon="121.39952579167124">
        <ele>16.6337816035375</ele>
        <time>2026-06-21T11:01:44Z</time>
      </trkpt>
      <trkpt lat="31.229934335664627" lon="121.39955680446559">
        <ele>16.654918841086328</ele>
        <time>2026-06-21T11:01:44Z</time>
      </trkpt>
      <trkpt lat="31.229787416477937" lon="121.39970683476241">
        <ele>15.01406495925039</ele>
        <time>2026-06-21T11:01:44Z</time>
      </trkpt>
      <trkpt lat="31.229741447229994" lon="121.39981185171189">
        <ele>14.398418596945703</ele>
        <time>2026-06-21T11:01:44Z</time>
      </trkpt>
      <trkpt lat="31.229738465564058" lon="121.39998887509525">
        <ele>17.875648668967187</ele>
        <time>2026-06-21T11:01:44Z</time>
      </trkpt>
      <trkpt lat="31.22981245093665" lon="121.40017889529524">
        <ele>16.821380785666406</ele>
        <time>2026-06-21T11:01:44Z</time>
      </trkpt>
      <trkpt lat="31.22989942168919" lon="121.40027990265007">
        <ele>14.366710833273828</ele>
        <time>2026-06-21T11:01:44Z</time>
      </trkpt>
      <trkpt lat="31.23000038384009" lon="121.40035890590393">
        <ele>15.21223848219961</ele>
        <time>2026-06-21T11:01:44Z</time>
      </trkpt>
      <trkpt lat="31.23002036586762" lon="121.40028289255257">
        <ele>16.414470843039453</ele>
        <time>2026-06-21T11:01:44Z</time>
      </trkpt>
      <trkpt lat="31.230131321662718" lon="121.40034689262959">
        <ele>16.697193316183984</ele>
        <time>2026-06-21T11:01:44Z</time>
      </trkpt>
      <trkpt lat="31.23044816586655" lon="121.40026985328163">
        <ele>17.27056901808828</ele>
        <time>2026-06-21T11:01:44Z</time>
      </trkpt>
      <trkpt lat="31.230731025637603" lon="121.40018781648017">
        <ele>6.764887026511133</ele>
        <time>2026-06-21T11:01:44Z</time>
      </trkpt>
      <trkpt lat="31.230982895980937" lon="121.40006577711969">
        <ele>19.55877702590078</ele>
        <time>2026-06-21T11:01:44Z</time>
      </trkpt>
      <trkpt lat="31.23111082720833" lon="121.39997175309492">
        <ele>17.344551256857812</ele>
        <time>2026-06-21T11:01:44Z</time>
      </trkpt>
      <trkpt lat="31.23115180150548" lon="121.39990274037245">
        <ele>17.511017016135156</ele>
        <time>2026-06-21T11:01:44Z</time>
      </trkpt>
      <trkpt lat="31.23118776201084" lon="121.39964970583092">
        <ele>17.08296602126211</ele>
        <time>2026-06-21T11:01:44Z</time>
      </trkpt>
      <trkpt lat="31.231148767329245" lon="121.39949269143331">
        <ele>18.57585161086172</ele>
        <time>2026-06-21T11:01:44Z</time>
      </trkpt>
      <trkpt lat="31.23102381223205" lon="121.39931668391687">
        <ele>17.981338671408594</ele>
        <time>2026-06-21T11:01:44Z</time>
      </trkpt>
      <trkpt lat="31.23096883501526" lon="121.39927768485141">
        <ele>19.904915026389062</ele>
        <time>2026-06-21T11:01:44Z</time>
      </trkpt>
      <trkpt lat="31.230730945013175" lon="121.39927370521086">
        <ele>14.94008272048086</ele>
        <time>2026-06-21T11:01:44Z</time>
      </trkpt>
      <trkpt lat="31.230460079332605" lon="121.39939674126036">
        <ele>11.190696886740625</ele>
        <time>2026-06-21T11:01:44Z</time>
      </trkpt>
      <trkpt lat="31.23020320217764" lon="121.39944576883676">
        <ele>13.061424425803125</ele>
        <time>2026-06-21T11:01:44Z</time>
      </trkpt>
      <trkpt lat="31.22991434527017" lon="121.39956080666013">
        <ele>17.093536547385156</ele>
        <time>2026-06-21T11:01:44Z</time>
      </trkpt>
      <trkpt lat="31.229828390696923" lon="121.39962782183424">
        <ele>16.319351366721094</ele>
        <time>2026-06-21T11:01:44Z</time>
      </trkpt>
      <trkpt lat="31.229785415672488" lon="121.39968683253782">
        <ele>16.98784654494375</ele>
        <time>2026-06-21T11:01:44Z</time>
      </trkpt>
      <trkpt lat="31.22974344611785" lon="121.39980985128565">
        <ele>18.5045091426</ele>
        <time>2026-06-21T11:01:44Z</time>
      </trkpt>
      <trkpt lat="31.2297334659019" lon="121.39996887283607">
        <ele>15.608577898703516</ele>
        <time>2026-06-21T11:01:44Z</time>
      </trkpt>
      <trkpt lat="31.229786461284508" lon="121.40016289524455">
        <ele>15.996994188986719</ele>
        <time>2026-06-21T11:01:44Z</time>
      </trkpt>
      <trkpt lat="31.22988143287183" lon="121.40030490800022">
        <ele>12.937240771017969</ele>
        <time>2026-06-21T11:01:44Z</time>
      </trkpt>
      <trkpt lat="31.22989843269428" lon="121.40037191681279">
        <ele>17.29170625563711</ele>
        <time>2026-06-21T11:01:44Z</time>
      </trkpt>
      <trkpt lat="31.2298754521218" lon="121.40044593046277">
        <ele>15.201667956076562</ele>
        <time>2026-06-21T11:01:44Z</time>
      </trkpt>
      <trkpt lat="31.229867446385484" lon="121.400365918584">
        <ele>5.6392785822972655</ele>
        <time>2026-06-21T11:01:44Z</time>
      </trkpt>
      <trkpt lat="31.229745489939035" lon="121.40025091173202">
        <ele>15.056343249045312</ele>
        <time>2026-06-21T11:01:44Z</time>
      </trkpt>
      <trkpt lat="31.229692499409122" lon="121.40011089600095">
        <ele>14.596588305197656</ele>
        <time>2026-06-21T11:01:44Z</time>
      </trkpt>
      <trkpt lat="31.229679497692626" lon="121.40003588665535">
        <ele>14.189678362570703</ele>
        <time>2026-06-21T11:01:44Z</time>
      </trkpt>
      <trkpt lat="31.22969348497017" lon="121.39997387699528">
        <ele>14.575451067648828</ele>
        <time>2026-06-21T11:01:44Z</time>
      </trkpt>
      <trkpt lat="31.229671487792817" lon="121.39989786884365">
        <ele>15.473823717795312</ele>
        <time>2026-06-21T11:01:44Z</time>
      </trkpt>
      <trkpt lat="31.22967707158196" lon="121.39975182096548">
        <ele>15.484390429221094</ele>
        <time>2026-06-21T11:01:44Z</time>
      </trkpt>
      <trkpt lat="31.229562513717028" lon="121.39962184432844">
        <ele>14.210815600119531</ele>
        <time>2026-06-21T11:01:44Z</time>
      </trkpt>
      <trkpt lat="31.229512538703197" lon="121.39964285113548">
        <ele>14.992927721701562</ele>
        <time>2026-06-21T11:01:44Z</time>
      </trkpt>
      <trkpt lat="31.229465557117585" lon="121.39960185047558">
        <ele>14.961219958029687</ele>
        <time>2026-06-21T11:01:44Z</time>
      </trkpt>
      <trkpt lat="31.229399585814196" lon="121.39957785348574">
        <ele>13.896385363303125</ele>
        <time>2026-06-21T11:01:44Z</time>
      </trkpt>
      <trkpt lat="31.229126717406157" lon="121.3996348838532">
        <ele>14.044353655539453</ele>
        <time>2026-06-21T11:01:44Z</time>
      </trkpt>
      <trkpt lat="31.228919819466807" lon="121.39970290995655">
        <ele>13.86467759963125</ele>
        <time>2026-06-21T11:01:44Z</time>
      </trkpt>
      <trkpt lat="31.22879887758239" lon="121.39972392304269">
        <ele>14.052280596457422</ele>
        <time>2026-06-21T11:01:44Z</time>
      </trkpt>
      <trkpt lat="31.228677930739487" lon="121.39968792925657">
        <ele>13.917522600851953</ele>
        <time>2026-06-21T11:01:44Z</time>
      </trkpt>
      <trkpt lat="31.228547992185952" lon="121.39969894190757">
        <ele>14.200245073996484</ele>
        <time>2026-06-21T11:01:44Z</time>
      </trkpt>
      <trkpt lat="31.228423055208467" lon="121.39975395948747">
        <ele>14.062847307883203</ele>
        <time>2026-06-21T11:01:44Z</time>
      </trkpt>
      <trkpt lat="31.228324110348968" lon="121.39985298054658">
        <ele>14.23195283766836</ele>
        <time>2026-06-21T11:01:44Z</time>
      </trkpt>
      <trkpt lat="31.227930309309908" lon="121.400012035933">
        <ele>14.179107836447656</ele>
        <time>2026-06-21T11:01:44Z</time>
      </trkpt>
      <trkpt lat="31.227792379326573" lon="121.4000680556894">
        <ele>14.242523363791406</ele>
        <time>2026-06-21T11:01:44Z</time>
      </trkpt>
      <trkpt lat="31.227643451374778" lon="121.40009307218115">
        <ele>14.37727754469961</ele>
        <time>2026-06-21T11:01:44Z</time>
      </trkpt>
      <trkpt lat="31.227555486942403" lon="121.4000400724672">
        <ele>14.501465014182031</ele>
        <time>2026-06-21T11:01:44Z</time>
      </trkpt>
      <trkpt lat="31.227531470091236" lon="121.39974603626966">
        <ele>14.242523363791406</ele>
        <time>2026-06-21T11:01:44Z</time>
      </trkpt>
      <trkpt lat="31.227492475280993" lon="121.39959402165297">
        <ele>14.37727754469961</ele>
        <time>2026-06-21T11:01:44Z</time>
      </trkpt>
      <trkpt lat="31.227310554450685" lon="121.39952302951897">
        <ele>14.699634722433984</ele>
        <time>2026-06-21T11:01:44Z</time>
      </trkpt>
      <trkpt lat="31.226999705629098" lon="121.39959806508983">
        <ele>8.080738238058984</ele>
        <time>2026-06-21T11:01:44Z</time>
      </trkpt>
      <trkpt lat="31.226886762131514" lon="121.39964308015772">
        <ele>16.258579424582422</ele>
        <time>2026-06-21T11:01:44Z</time>
      </trkpt>
      <trkpt lat="31.22661589192814" lon="121.39968110827046">
        <ele>14.879310778342187</ele>
        <time>2026-06-21T11:01:44Z</time>
      </trkpt>
      <trkpt lat="31.22646796090205" lon="121.39967912093421">
        <ele>14.617725542746484</ele>
        <time>2026-06-21T11:01:44Z</time>
      </trkpt>
      <trkpt lat="31.226334025685443" lon="121.39970413560701">
        <ele>14.596588305197656</ele>
        <time>2026-06-21T11:01:44Z</time>
      </trkpt>
      <trkpt lat="31.226265067960533" lon="121.39981615542641">
        <ele>14.66000001784414</ele>
        <time>2026-06-21T11:01:44Z</time>
      </trkpt>
      <trkpt lat="31.226252115250023" lon="121.40022421241842">
        <ele>14.356140307150781</ele>
        <time>2026-06-21T11:01:44Z</time>
      </trkpt>
      <trkpt lat="31.22623017579923" lon="121.40064528114966">
        <ele>15.243946245871484</ele>
        <time>2026-06-21T11:01:44Z</time>
      </trkpt>
      <trkpt lat="31.226187211670148" lon="121.40076530565076">
        <ele>15.788253954611719</ele>
        <time>2026-06-21T11:01:44Z</time>
      </trkpt>
      <trkpt lat="31.22614423826081" lon="121.40081331791261">
        <ele>15.151466540060937</ele>
        <time>2026-06-21T11:01:44Z</time>
      </trkpt>
      <trkpt lat="31.226035279538632" lon="121.40074131468984">
        <ele>16.676056078635156</ele>
        <time>2026-06-21T11:01:44Z</time>
      </trkpt>
      <trkpt lat="31.22602926683179" lon="121.40062229478042">
        <ele>14.889881304465234</ele>
        <time>2026-06-21T11:01:44Z</time>
      </trkpt>
      <trkpt lat="31.225969262143412" lon="121.4003532565701">
        <ele>15.00349824782461</ele>
        <time>2026-06-21T11:01:44Z</time>
      </trkpt>
      <trkpt lat="31.225944240689923" lon="121.40004921423757">
        <ele>14.79475801344961</ele>
        <time>2026-06-21T11:01:44Z</time>
      </trkpt>
      <trkpt lat="31.225909248821985" lon="121.3999672061139">
        <ele>14.85817354079336</ele>
        <time>2026-06-21T11:01:44Z</time>
      </trkpt>
      <trkpt lat="31.22562238300938" lon="121.3999662309982">
        <ele>15.098617724142969</ele>
        <time>2026-06-21T11:01:44Z</time>
      </trkpt>
      <trkpt lat="31.2255813997475" lon="121.3999412312369">
        <ele>14.763050249777734</ele>
        <time>2026-06-21T11:01:44Z</time>
      </trkpt>
      <trkpt lat="31.225600396584635" lon="121.3999992373689">
        <ele>14.596588305197656</ele>
        <time>2026-06-21T11:01:44Z</time>
      </trkpt>
      <trkpt lat="31.225784650787233" lon="121.39993273743994">
        <ele>10.952892473898828</ele>
        <time>2026-06-21T11:01:44Z</time>
      </trkpt>
      <trkpt lat="31.225996810180966" lon="121.40016772200869">
        <ele>15.830528429709375</ele>
        <time>2026-06-21T11:01:44Z</time>
      </trkpt>
      <trkpt lat="31.22592524241066" lon="121.40020128816086">
        <ele>19.286625078879297</ele>
        <time>2026-06-21T11:01:44Z</time>
      </trkpt>
      <trkpt lat="31.22583529958098" lon="121.40012523441187">
        <ele>21.167923144064844</ele>
        <time>2026-06-21T11:01:44Z</time>
      </trkpt>
      <trkpt lat="31.225790314065495" lon="121.40006222946616">
        <ele>21.48235338088125</ele>
        <time>2026-06-21T11:01:44Z</time>
      </trkpt>
      <trkpt lat="31.225743333600384" lon="121.40003823023964">
        <ele>22.737434557639062</ele>
        <time>2026-06-21T11:01:44Z</time>
      </trkpt>
      <trkpt lat="31.22579031530315" lon="121.40007423113931">
        <ele>24.859180620871484</ele>
        <time>2026-06-21T11:01:44Z</time>
      </trkpt>
      <trkpt lat="31.225835291883165" lon="121.40005122401632">
        <ele>22.75857179518789</ele>
        <time>2026-06-21T11:01:44Z</time>
      </trkpt>
      <trkpt lat="31.225889279442235" lon="121.40017323660152">
        <ele>26.206737688742578</ele>
        <time>2026-06-21T11:01:44Z</time>
      </trkpt>
      <trkpt lat="31.22588329157155" lon="121.40025824963504">
        <ele>25.297798327170312</ele>
        <time>2026-06-21T11:01:44Z</time>
      </trkpt>
      <trkpt lat="31.225899326519894" lon="121.40036191230067">
        <ele>25.799827746115625</ele>
        <time>2026-06-21T11:01:44Z</time>
      </trkpt>
      <trkpt lat="31.2258772525836" lon="121.40043299442047">
        <ele>26.375843218527734</ele>
        <time>2026-06-21T11:01:44Z</time>
      </trkpt>
      <trkpt lat="31.225777894452587" lon="121.400424107126">
        <ele>22.935604265891016</ele>
        <time>2026-06-21T11:01:44Z</time>
      </trkpt>
      <trkpt lat="31.225709380669496" lon="121.4003262750849">
        <ele>26.418121508322656</ele>
        <time>2026-06-21T11:01:44Z</time>
      </trkpt>
      <trkpt lat="31.225701374612612" lon="121.40023926267092">
        <ele>27.25307863112539</ele>
        <time>2026-06-21T11:01:44Z</time>
      </trkpt>
      <trkpt lat="31.225608411897145" lon="121.4001822624035">
        <ele>25.68621080275625</ele>
        <time>2026-06-21T11:01:44Z</time>
      </trkpt>
      <trkpt lat="31.225666374466492" lon="121.400085243489">
        <ele>25.997997454367578</ele>
        <time>2026-06-21T11:01:44Z</time>
      </trkpt>
      <trkpt lat="31.225551429227433" lon="121.40009425477876">
        <ele>25.778690508566797</ele>
        <time>2026-06-21T11:02:18Z</time>
      </trkpt>
      <trkpt lat="31.22541749574231" lon="121.40013027156239">
        <ele>25.926658800803125</ele>
        <time>2026-06-21T11:02:19Z</time>
      </trkpt>
      <trkpt lat="31.225364530048232" lon="121.40021828894247">
        <ele>26.11425798293203</ele>
        <time>2026-06-21T11:02:19Z</time>
      </trkpt>
      <trkpt lat="31.22537453588183" lon="121.40031230215051">
        <ele>26.396984270773828</ele>
        <time>2026-06-21T11:02:19Z</time>
      </trkpt>
      <trkpt lat="31.225449503168846" lon="121.40033329882168">
        <ele>26.396984270773828</ele>
        <time>2026-06-21T11:02:19Z</time>
      </trkpt>
      <trkpt lat="31.225468679070897" lon="121.4002830866843">
        <ele>26.291290453635156</ele>
        <time>2026-06-21T11:02:19Z</time>
      </trkpt>
      <trkpt lat="31.225361534211576" lon="121.40024329290324">
        <ele>26.375843218527734</ele>
        <time>2026-06-21T11:02:19Z</time>
      </trkpt>
      <trkpt lat="31.225292556829164" lon="121.40015428589837">
        <ele>26.206737688742578</ele>
        <time>2026-06-21T11:02:19Z</time>
      </trkpt>
      <trkpt lat="31.22523258184692" lon="121.40012528697618">
        <ele>25.517105272971094</ele>
        <time>2026-06-21T11:02:19Z</time>
      </trkpt>
      <trkpt lat="31.225299556779436" lon="121.4001842896303">
        <ele>26.510601214133203</ele>
        <time>2026-06-21T11:02:19Z</time>
      </trkpt>
      <trkpt lat="31.225253577242132" lon="121.40017429218751">
        <ele>25.445762804709375</ele>
        <time>2026-06-21T11:02:20Z</time>
      </trkpt>
      <trkpt lat="31.225479465764025" lon="121.40012126487572">
        <ele>25.538242510519922</ele>
        <time>2026-06-21T11:02:20Z</time>
      </trkpt>
      <trkpt lat="31.225302555807986" lon="121.4001882899513">
        <ele>25.52767579909414</ele>
        <time>2026-06-21T11:02:21Z</time>
      </trkpt>
      <trkpt lat="31.225302555807986" lon="121.4001882899513">
        <ele>24.993917083367705</ele>
        <time>2026-06-21T12:05:10Z</time>
      </trkpt>
    </trkseg>
  </trk>
</gpx>