<?xml version="1.0" encoding="UTF-8"?>
<gpx xmlns="http://www.topografix.com/GPX/1/1" xmlns:gpxtpx="http://www.garmin.com/xmlschemas/TrackPointExtension/v1" xmlns:xsi="http://www.w3.org/2001/XMLSchema-instance" xsi:schemaLocation="http://www.topografix.com/GPX/1/1 http://www.topografix.com/GPX/1/1/gpx.xsd" version="1.1" creator="gpx.py -- https://github.com/tkrajina/gpxpy">
  <trk>
    <name>gpx from keep</name>
    <type>Run</type>
    <trkseg>
      <trkpt lat="31.225620308884274" lon="121.39899212547562">
        <ele>22.854688301682472</ele>
        <time>2026-06-15T09:22:13Z</time>
      </trkpt>
      <trkpt lat="31.22555733960411" lon="121.39901413280603">
        <ele>7.236207619309425</ele>
        <time>2026-06-15T09:22:16Z</time>
      </trkpt>
      <trkpt lat="31.225427399063214" lon="121.39898914205095">
        <ele>28.7046829611063</ele>
        <time>2026-06-15T09:22:22Z</time>
      </trkpt>
      <trkpt lat="31.22522649335518" lon="121.39899215982103">
        <ele>27.409967079758644</ele>
        <time>2026-06-15T09:22:28Z</time>
      </trkpt>
      <trkpt lat="31.225026586165217" lon="121.39897617593381">
        <ele>28.015050545334816</ele>
        <time>2026-06-15T09:22:34Z</time>
      </trkpt>
      <trkpt lat="31.22493063170104" lon="121.39898618512632">
        <ele>11.688438072800636</ele>
        <time>2026-06-15T09:22:37Z</time>
      </trkpt>
      <trkpt lat="31.224837677363716" lon="121.39902319632816">
        <ele>28.308343544602394</ele>
        <time>2026-06-15T09:22:40Z</time>
      </trkpt>
      <trkpt lat="31.224755720980767" lon="121.39911121112527">
        <ele>29.56078113615513</ele>
        <time>2026-06-15T09:22:43Z</time>
      </trkpt>
      <trkpt lat="31.224689758615504" lon="121.39921722663071">
        <ele>28.14980472624302</ele>
        <time>2026-06-15T09:22:46Z</time>
      </trkpt>
      <trkpt lat="31.22465878125503" lon="121.39933624098259">
        <ele>28.19208301603794</ele>
        <time>2026-06-15T09:22:49Z</time>
      </trkpt>
      <trkpt lat="31.224662787352376" lon="121.39944525195584">
        <ele>17.541076317429543</ele>
        <time>2026-06-15T09:22:52Z</time>
      </trkpt>
      <trkpt lat="31.22468878317867" lon="121.3995482609606">
        <ele>28.63070072233677</ele>
        <time>2026-06-15T09:22:55Z</time>
      </trkpt>
      <trkpt lat="31.224770756903396" lon="121.39969427074276">
        <ele>19.411805763840675</ele>
        <time>2026-06-15T09:23:01Z</time>
      </trkpt>
      <trkpt lat="31.224822737178417" lon="121.3997472726325">
        <ele>15.987418785691261</ele>
        <time>2026-06-15T09:23:04Z</time>
      </trkpt>
      <trkpt lat="31.224901703743186" lon="121.39978727069094">
        <ele>28.99797596037388</ele>
        <time>2026-06-15T09:23:07Z</time>
      </trkpt>
      <trkpt lat="31.22511160716558" lon="121.39980725488921">
        <ele>25.238019600510597</ele>
        <time>2026-06-15T09:23:13Z</time>
      </trkpt>
      <trkpt lat="31.225427458896153" lon="121.39980422696638">
        <ele>13.411201134324074</ele>
        <time>2026-06-15T09:23:25Z</time>
      </trkpt>
      <trkpt lat="31.225573393776422" lon="121.39983921866623">
        <ele>15.924003258347511</ele>
        <time>2026-06-15T09:23:31Z</time>
      </trkpt>
      <trkpt lat="31.22593322320294" lon="121.39981618436794">
        <ele>22.062005653977394</ele>
        <time>2026-06-15T09:23:43Z</time>
      </trkpt>
      <trkpt lat="31.225997189265087" lon="121.39977217328719">
        <ele>10.980310097336769</ele>
        <time>2026-06-15T09:23:46Z</time>
      </trkpt>
      <trkpt lat="31.22611112038509" lon="121.39959114178626">
        <ele>25.319928780198097</ele>
        <time>2026-06-15T09:23:52Z</time>
      </trkpt>
      <trkpt lat="31.22613709522356" lon="121.39942512125447">
        <ele>24.955297127366066</ele>
        <time>2026-06-15T09:23:58Z</time>
      </trkpt>
      <trkpt lat="31.226092104344225" lon="121.39925710816281">
        <ele>14.660997048020363</ele>
        <time>2026-06-15T09:24:04Z</time>
      </trkpt>
      <trkpt lat="31.226056115876823" lon="121.39917610362609">
        <ele>16.832946434617043</ele>
        <time>2026-06-15T09:24:07Z</time>
      </trkpt>
      <trkpt lat="31.22600313680051" lon="121.3991141026038">
        <ele>23.858750954270363</ele>
        <time>2026-06-15T09:24:10Z</time>
      </trkpt>
      <trkpt lat="31.22585120374206" lon="121.39904410972547">
        <ele>23.898385658860207</ele>
        <time>2026-06-15T09:24:16Z</time>
      </trkpt>
      <trkpt lat="31.225516359420443" lon="121.39902513730887">
        <ele>12.597381249070168</ele>
        <time>2026-06-15T09:24:28Z</time>
      </trkpt>
      <trkpt lat="31.225305456079123" lon="121.39898715252022">
        <ele>26.395333901047707</ele>
        <time>2026-06-15T09:24:34Z</time>
      </trkpt>
      <trkpt lat="31.224981607580837" lon="121.39898218035034">
        <ele>26.688626900315285</ele>
        <time>2026-06-15T09:24:43Z</time>
      </trkpt>
      <trkpt lat="31.224843675237462" lon="121.39903519682434">
        <ele>-7.60016094148159</ele>
        <time>2026-06-15T09:24:49Z</time>
      </trkpt>
      <trkpt lat="31.22476171774354" lon="121.39910420997894">
        <ele>12.6792923361063</ele>
        <time>2026-06-15T09:24:52Z</time>
      </trkpt>
      <trkpt lat="31.224719741331686" lon="121.39916721934217">
        <ele>24.13883365690708</ele>
        <time>2026-06-15T09:24:55Z</time>
      </trkpt>
      <trkpt lat="31.224658781184317" lon="121.39933524088161">
        <ele>22.00916065275669</ele>
        <time>2026-06-15T09:25:01Z</time>
      </trkpt>
      <trkpt lat="31.224651790411876" lon="121.39941724994686">
        <ele>18.722171440720558</ele>
        <time>2026-06-15T09:25:04Z</time>
      </trkpt>
      <trkpt lat="31.224697784592028" lon="121.39961726803787">
        <ele>26.56179966032505</ele>
        <time>2026-06-15T09:25:13Z</time>
      </trkpt>
      <trkpt lat="31.22476175965714" lon="121.39967726949844">
        <ele>26.98984684050083</ele>
        <time>2026-06-15T09:25:16Z</time>
      </trkpt>
      <trkpt lat="31.224777756502935" lon="121.39972727411418">
        <ele>18.230708733201027</ele>
        <time>2026-06-15T09:25:19Z</time>
      </trkpt>
      <trkpt lat="31.224927692285103" lon="121.39979526942358">
        <ele>20.640462532639503</ele>
        <time>2026-06-15T09:25:25Z</time>
      </trkpt>
      <trkpt lat="31.225198567697664" lon="121.39982124907064">
        <ele>25.42562259733677</ele>
        <time>2026-06-15T09:25:37Z</time>
      </trkpt>
      <trkpt lat="31.22547244086987" lon="121.39983722721585">
        <ele>25.988423958420753</ele>
        <time>2026-06-15T09:25:52Z</time>
      </trkpt>
      <trkpt lat="31.225755307120757" lon="121.39982320076926">
        <ele>9.394944801926613</ele>
        <time>2026-06-15T09:26:04Z</time>
      </trkpt>
      <trkpt lat="31.22587924699662" lon="121.39980018706288">
        <ele>27.11667789518833</ele>
        <time>2026-06-15T09:26:10Z</time>
      </trkpt>
      <trkpt lat="31.225942214719442" lon="121.3997691777103">
        <ele>25.454686775803566</ele>
        <time>2026-06-15T09:26:13Z</time>
      </trkpt>
      <trkpt lat="31.226058150592756" lon="121.39965615395231">
        <ele>24.400418892502785</ele>
        <time>2026-06-15T09:26:19Z</time>
      </trkpt>
      <trkpt lat="31.226108119508844" lon="121.39956313886556">
        <ele>22.490052834153175</ele>
        <time>2026-06-15T09:26:22Z</time>
      </trkpt>
      <trkpt lat="31.226134095289364" lon="121.39940711962225">
        <ele>27.785173073410988</ele>
        <time>2026-06-15T09:26:28Z</time>
      </trkpt>
      <trkpt lat="31.226069112118157" lon="121.3992121058615">
        <ele>24.307939186692238</ele>
        <time>2026-06-15T09:26:37Z</time>
      </trkpt>
      <trkpt lat="31.226009135036534" lon="121.39913110360786">
        <ele>26.614644661545753</ele>
        <time>2026-06-15T09:26:40Z</time>
      </trkpt>
      <trkpt lat="31.225886188124527" lon="121.39905710779318">
        <ele>26.42704166471958</ele>
        <time>2026-06-15T09:26:46Z</time>
      </trkpt>
      <trkpt lat="31.225601317832464" lon="121.39899312721491">
        <ele>-6.173330649733543</ele>
        <time>2026-06-15T09:27:01Z</time>
      </trkpt>
      <trkpt lat="31.225328446536" lon="121.39900915234814">
        <ele>25.52867092192173</ele>
        <time>2026-06-15T09:27:13Z</time>
      </trkpt>
      <trkpt lat="31.225032584459377" lon="121.39899617706446">
        <ele>24.191680565476418</ele>
        <time>2026-06-15T09:27:28Z</time>
      </trkpt>
      <trkpt lat="31.224901645624396" lon="121.39899218815127">
        <ele>27.29371227324009</ele>
        <time>2026-06-15T09:27:34Z</time>
      </trkpt>
      <trkpt lat="31.224841675716814" lon="121.39902719631837">
        <ele>26.60407604277134</ele>
        <time>2026-06-15T09:27:37Z</time>
      </trkpt>
      <trkpt lat="31.22473173532701" lon="121.39916121774414">
        <ele>22.981521263718605</ele>
        <time>2026-06-15T09:27:43Z</time>
      </trkpt>
      <trkpt lat="31.224667780992476" lon="121.39939124583314">
        <ele>27.972774162888527</ele>
        <time>2026-06-15T09:27:52Z</time>
      </trkpt>
      <trkpt lat="31.224710777419684" lon="121.39960426540438">
        <ele>30.596553459763527</ele>
        <time>2026-06-15T09:28:01Z</time>
      </trkpt>
      <trkpt lat="31.224779756182702" lon="121.39973427479178">
        <ele>28.192084923386574</ele>
        <time>2026-06-15T09:28:07Z</time>
      </trkpt>
      <trkpt lat="31.22486971792654" lon="121.39977827236045">
        <ele>29.906921043992043</ele>
        <time>2026-06-15T09:28:13Z</time>
      </trkpt>
      <trkpt lat="31.22518257408905" lon="121.39980924895167">
        <ele>28.807735100388527</ele>
        <time>2026-06-15T09:28:25Z</time>
      </trkpt>
      <trkpt lat="31.225505424957195" lon="121.39983222370337">
        <ele>23.388431206345558</ele>
        <time>2026-06-15T09:28:40Z</time>
      </trkpt>
      <trkpt lat="31.22566934847446" lon="121.39983520978858">
        <ele>21.45692791044712</ele>
        <time>2026-06-15T09:28:49Z</time>
      </trkpt>
      <trkpt lat="31.225949211805222" lon="121.3997731775954">
        <ele>30.105090752243996</ele>
        <time>2026-06-15T09:28:58Z</time>
      </trkpt>
      <trkpt lat="31.22609612979597" lon="121.39962014643308">
        <ele>25.444118157029152</ele>
        <time>2026-06-15T09:29:04Z</time>
      </trkpt>
      <trkpt lat="31.22614010150898" lon="121.39952513182307">
        <ele>28.3691173940897</ele>
        <time>2026-06-15T09:29:07Z</time>
      </trkpt>
      <trkpt lat="31.22614109298052" lon="121.39942012037802">
        <ele>25.475825920701027</ele>
        <time>2026-06-15T09:29:10Z</time>
      </trkpt>
      <trkpt lat="31.226089103881566" lon="121.39922910573239">
        <ele>23.742496147751808</ele>
        <time>2026-06-15T09:29:16Z</time>
      </trkpt>
      <trkpt lat="31.22600013753606" lon="121.39910310188526">
        <ele>15.078477516770363</ele>
        <time>2026-06-15T09:29:23Z</time>
      </trkpt>
      <trkpt lat="31.225766241344054" lon="121.39900611391559">
        <ele>15.850022926926613</ele>
        <time>2026-06-15T09:29:32Z</time>
      </trkpt>
      <trkpt lat="31.225445390969046" lon="121.39899514097985">
        <ele>23.75306285917759</ele>
        <time>2026-06-15T09:29:47Z</time>
      </trkpt>
      <trkpt lat="31.22516352209142" lon="121.39897816415593">
        <ele>31.777648583054543</ele>
        <time>2026-06-15T09:29:59Z</time>
      </trkpt>
      <trkpt lat="31.22496461621141" lon="121.39899418282567">
        <ele>30.419520989060402</ele>
        <time>2026-06-15T09:30:08Z</time>
      </trkpt>
      <trkpt lat="31.224838678273482" lon="121.39904719828694">
        <ele>27.51301921904087</ele>
        <time>2026-06-15T09:30:14Z</time>
      </trkpt>
      <trkpt lat="31.224745727140533" lon="121.39913521415349">
        <ele>28.913425102829933</ele>
        <time>2026-06-15T09:30:20Z</time>
      </trkpt>
      <trkpt lat="31.224681770188393" lon="121.39933223857408">
        <ele>31.159358635544777</ele>
        <time>2026-06-15T09:30:29Z</time>
      </trkpt>
      <trkpt lat="31.224697780084902" lon="121.39956226175103">
        <ele>15.506526604294777</ele>
        <time>2026-06-15T09:30:38Z</time>
      </trkpt>
      <trkpt lat="31.224769757026245" lon="121.39969027035119">
        <ele>21.47806514799595</ele>
        <time>2026-06-15T09:30:44Z</time>
      </trkpt>
      <trkpt lat="31.224897703992614" lon="121.39976926880406">
        <ele>10.17706073820591</ele>
        <time>2026-06-15T09:30:50Z</time>
      </trkpt>
      <trkpt lat="31.22508562017231" lon="121.39981625828923">
        <ele>29.59248699247837</ele>
        <time>2026-06-15T09:30:59Z</time>
      </trkpt>
      <trkpt lat="31.225375483426596" lon="121.3998062317505">
        <ele>25.652858391404152</ele>
        <time>2026-06-15T09:31:14Z</time>
      </trkpt>
      <trkpt lat="31.22544045089914" lon="121.3997832232079">
        <ele>31.296756401658058</ele>
        <time>2026-06-15T09:31:17Z</time>
      </trkpt>
      <trkpt lat="31.225723319709772" lon="121.39979720028595">
        <ele>30.908340111374855</ele>
        <time>2026-06-15T09:31:29Z</time>
      </trkpt>
      <trkpt lat="31.225909231961968" lon="121.399789183072">
        <ele>28.535579338669777</ele>
        <time>2026-06-15T09:31:38Z</time>
      </trkpt>
      <trkpt lat="31.226019172869854" lon="121.3997031629464">
        <ele>30.501430168747902</ele>
        <time>2026-06-15T09:31:44Z</time>
      </trkpt>
      <trkpt lat="31.2261121182861" lon="121.39957113942188">
        <ele>27.919929161667824</ele>
        <time>2026-06-15T09:31:50Z</time>
      </trkpt>
      <trkpt lat="31.22614409120615" lon="121.39941511959007">
        <ele>-4.455852851271629</ele>
        <time>2026-06-15T09:31:56Z</time>
      </trkpt>
      <trkpt lat="31.226058116094656" lon="121.39919410512759">
        <ele>14.996568337082863</ele>
        <time>2026-06-15T09:32:05Z</time>
      </trkpt>
      <trkpt lat="31.22597914639628" lon="121.39908710230166">
        <ele>30.00996746122837</ele>
        <time>2026-06-15T09:32:11Z</time>
      </trkpt>
      <trkpt lat="31.225861198258578" lon="121.3990301076588">
        <ele>21.279895439743996</ele>
        <time>2026-06-15T09:32:17Z</time>
      </trkpt>
      <trkpt lat="31.22581921515681" lon="121.39898110721857">
        <ele>17.19758190214634</ele>
        <time>2026-06-15T09:32:20Z</time>
      </trkpt>
      <trkpt lat="31.225549341728584" lon="121.39898513108511">
        <ele>22.4583507925272</ele>
        <time>2026-06-15T09:32:35Z</time>
      </trkpt>
      <trkpt lat="31.225259477622117" lon="121.39898715653008">
        <ele>24.609161034226418</ele>
        <time>2026-06-15T09:32:47Z</time>
      </trkpt>
      <trkpt lat="31.22497161215672" lon="121.39898018105721">
        <ele>26.783752098679543</ele>
        <time>2026-06-15T09:33:02Z</time>
      </trkpt>
      <trkpt lat="31.224830953239913" lon="121.39902153141297">
        <ele>28.131312981247902</ele>
        <time>2026-06-15T09:33:08Z</time>
      </trkpt>
      <trkpt lat="31.224755721041586" lon="121.39911221121451">
        <ele>30.699599876999855</ele>
        <time>2026-06-15T09:33:14Z</time>
      </trkpt>
      <trkpt lat="31.224691761481743" lon="121.39927423194388">
        <ele>24.556316033005714</ele>
        <time>2026-06-15T09:33:23Z</time>
      </trkpt>
      <trkpt lat="31.224681771251753" lon="121.39934724009204">
        <ele>31.159358635544777</ele>
        <time>2026-06-15T09:33:26Z</time>
      </trkpt>
      <trkpt lat="31.224696773851438" lon="121.39947725243425">
        <ele>28.923991814255714</ele>
        <time>2026-06-15T09:33:32Z</time>
      </trkpt>
      <trkpt lat="31.22474276241739" lon="121.39960426261499">
        <ele>30.992892876267433</ele>
        <time>2026-06-15T09:33:38Z</time>
      </trkpt>
      <trkpt lat="31.224898703434075" lon="121.39976826859319">
        <ele>30.052245751023293</ele>
        <time>2026-06-15T09:33:47Z</time>
      </trkpt>
      <trkpt lat="31.22499466061509" lon="121.39979226320818">
        <ele>30.63618816435337</ele>
        <time>2026-06-15T09:33:53Z</time>
      </trkpt>
      <trkpt lat="31.225309513601804" lon="121.39979823650012">
        <ele>29.404887810349464</ele>
        <time>2026-06-15T09:34:11Z</time>
      </trkpt>
      <trkpt lat="31.225430455671578" lon="121.39978422420413">
        <ele>28.776027336716652</ele>
        <time>2026-06-15T09:34:17Z</time>
      </trkpt>
      <trkpt lat="31.225569394906177" lon="121.3998312179974">
        <ele>26.123183861374855</ele>
        <time>2026-06-15T09:34:23Z</time>
      </trkpt>
      <trkpt lat="31.225737314163922" lon="121.39980820044588">
        <ele>21.927253380417824</ele>
        <time>2026-06-15T09:34:29Z</time>
      </trkpt>
      <trkpt lat="31.225838267826866" lon="121.39981819290183">
        <ele>32.06829799711704</ele>
        <time>2026-06-15T09:34:32Z</time>
      </trkpt>
      <trkpt lat="31.225985191311853" lon="121.39973216941993">
        <ele>27.074401512742043</ele>
        <time>2026-06-15T09:34:38Z</time>
      </trkpt>
      <trkpt lat="31.226097126521882" lon="121.39958614243541">
        <ele>31.254478111863136</ele>
        <time>2026-06-15T09:34:44Z</time>
      </trkpt>
      <trkpt lat="31.226132102508345" lon="121.39949012867025">
        <ele>30.604480400681496</ele>
        <time>2026-06-15T09:34:47Z</time>
      </trkpt>
      <trkpt lat="31.226134095141703" lon="121.39940511941288">
        <ele>30.554275169968605</ele>
        <time>2026-06-15T09:34:50Z</time>
      </trkpt>
      <trkpt lat="31.226028127393178" lon="121.39915110376752">
        <ele>26.64635433256626</ele>
        <time>2026-06-15T09:34:59Z</time>
      </trkpt>
      <trkpt lat="31.225981145103276" lon="121.39908110160044">
        <ele>29.299197807908058</ele>
        <time>2026-06-15T09:35:02Z</time>
      </trkpt>
      <trkpt lat="31.22588318779554" lon="121.39902710548628">
        <ele>22.59574855864048</ele>
        <time>2026-06-15T09:35:08Z</time>
      </trkpt>
      <trkpt lat="31.22588318779554" lon="121.39902710548628">
        <ele>20.64245850313455</ele>
        <time>2026-06-15T09:35:13Z</time>
      </trkpt>
    </trkseg>
  </trk>
</gpx>