<?xml version="1.0" encoding="UTF-8"?>
<gpx xmlns="http://www.topografix.com/GPX/1/1" xmlns:gpxtpx="http://www.garmin.com/xmlschemas/TrackPointExtension/v1" xmlns:xsi="http://www.w3.org/2001/XMLSchema-instance" xsi:schemaLocation="http://www.topografix.com/GPX/1/1 http://www.topografix.com/GPX/1/1/gpx.xsd" version="1.1" creator="gpx.py -- https://github.com/tkrajina/gpxpy">
  <trk>
    <name>gpx from keep</name>
    <type>Run</type>
    <trkseg>
      <trkpt lat="32.05192679894759" lon="118.80358526909099">
        <ele>9.30891103670001</ele>
        <time>2026-09-03T10:25:33Z</time>
      </trkpt>
      <trkpt lat="32.05192982396743" lon="118.80359929640768">
        <ele>9.139805506914854</ele>
        <time>2026-09-03T10:25:36Z</time>
      </trkpt>
      <trkpt lat="32.05192083935435" lon="118.80360931694582">
        <ele>9.828557375818491</ele>
        <time>2026-09-03T10:27:15Z</time>
      </trkpt>
      <trkpt lat="32.051913393234045" lon="118.80392894733036">
        <ele>10.674085024744272</ele>
        <time>2026-09-03T10:27:27Z</time>
      </trkpt>
      <trkpt lat="32.05191171571258" lon="118.80411431343917">
        <ele>10.224896792322397</ele>
        <time>2026-09-03T10:27:33Z</time>
      </trkpt>
      <trkpt lat="32.051963952778785" lon="118.80424356414865">
        <ele>10.256604555994272</ele>
        <time>2026-09-03T10:27:36Z</time>
      </trkpt>
      <trkpt lat="32.05202409210811" lon="118.80431570134989">
        <ele>10.026727084070444</ele>
        <time>2026-09-03T10:27:39Z</time>
      </trkpt>
      <trkpt lat="32.05216627431291" lon="118.80440185887497">
        <ele>9.640954378992319</ele>
        <time>2026-09-03T10:27:45Z</time>
      </trkpt>
      <trkpt lat="32.05250455114138" lon="118.80451705609283">
        <ele>10.425710085779428</ele>
        <time>2026-09-03T10:27:57Z</time>
      </trkpt>
      <trkpt lat="32.05282078989571" lon="118.80461321777909">
        <ele>10.267175082117319</ele>
        <time>2026-09-03T10:28:09Z</time>
      </trkpt>
      <trkpt lat="32.05298893084087" lon="118.80467231963037">
        <ele>8.430791262537241</ele>
        <time>2026-09-03T10:28:15Z</time>
      </trkpt>
      <trkpt lat="32.053147961005365" lon="118.80466929905289">
        <ele>8.116361025720835</ele>
        <time>2026-09-03T10:28:21Z</time>
      </trkpt>
      <trkpt lat="32.05321692725254" lon="118.80464123704266">
        <ele>9.651524905115366</ele>
        <time>2026-09-03T10:28:24Z</time>
      </trkpt>
      <trkpt lat="32.05333473611499" lon="118.80451697981307">
        <ele>10.090142611414194</ele>
        <time>2026-09-03T10:28:30Z</time>
      </trkpt>
      <trkpt lat="32.05339846664129" lon="118.80435465241032">
        <ele>9.704369906336069</ele>
        <time>2026-09-03T10:28:36Z</time>
      </trkpt>
      <trkpt lat="32.0534102908597" lon="118.80425244908464">
        <ele>2.200311068445444</ele>
        <time>2026-09-03T10:28:39Z</time>
      </trkpt>
      <trkpt lat="32.05339099302521" lon="118.80408411812529">
        <ele>9.9870923794806</ele>
        <time>2026-09-03T10:28:45Z</time>
      </trkpt>
      <trkpt lat="32.053232493786446" lon="118.8038176068073">
        <ele>10.142987612634897</ele>
        <time>2026-09-03T10:28:51Z</time>
      </trkpt>
      <trkpt lat="32.053111506911925" lon="118.80384066335083">
        <ele>16.053754214197397</ele>
        <time>2026-09-03T10:28:57Z</time>
      </trkpt>
      <trkpt lat="32.05280734681031" lon="118.80378758664051">
        <ele>10.256604555994272</ele>
        <time>2026-09-03T10:29:09Z</time>
      </trkpt>
      <trkpt lat="32.05274229399781" lon="118.8037655491879">
        <ele>10.256604555994272</ele>
        <time>2026-09-03T10:29:15Z</time>
      </trkpt>
      <trkpt lat="32.052658271789106" lon="118.80376355296147">
        <ele>3.5135206021368504</ele>
        <time>2026-09-03T10:29:18Z</time>
      </trkpt>
      <trkpt lat="32.05252414787753" lon="118.80370945872028">
        <ele>9.973882082849741</ele>
        <time>2026-09-03T10:29:24Z</time>
      </trkpt>
      <trkpt lat="32.0524640492063" lon="118.80366036758572">
        <ele>10.34115732088685</ele>
        <time>2026-09-03T10:29:27Z</time>
      </trkpt>
      <trkpt lat="32.052250893834696" lon="118.80359826493063">
        <ele>8.961888674646616</ele>
        <time>2026-09-03T10:29:36Z</time>
      </trkpt>
      <trkpt lat="32.05212990859589" lon="118.80362232336154">
        <ele>9.495629671961069</ele>
        <time>2026-09-03T10:29:42Z</time>
      </trkpt>
      <trkpt lat="32.05203598159517" lon="118.80367643848136">
        <ele>10.4045728482306</ele>
        <time>2026-09-03T10:29:48Z</time>
      </trkpt>
      <trkpt lat="32.051947127157455" lon="118.80377163410452">
        <ele>10.581605318933725</ele>
        <time>2026-09-03T10:29:51Z</time>
      </trkpt>
      <trkpt lat="32.05190428485611" lon="118.80386782762429">
        <ele>8.805997256189585</ele>
        <time>2026-09-03T10:29:57Z</time>
      </trkpt>
      <trkpt lat="32.051900690550205" lon="118.80410128871826">
        <ele>10.047864321619272</ele>
        <time>2026-09-03T10:30:03Z</time>
      </trkpt>
      <trkpt lat="32.0519168496312" lon="118.80419046346735">
        <ele>9.807416323572397</ele>
        <time>2026-09-03T10:30:06Z</time>
      </trkpt>
      <trkpt lat="32.05195199907077" lon="118.80427162074203">
        <ele>9.683232668787241</ele>
        <time>2026-09-03T10:30:09Z</time>
      </trkpt>
      <trkpt lat="32.05205919092091" lon="118.8043678012576">
        <ele>10.121846560388803</ele>
        <time>2026-09-03T10:30:15Z</time>
      </trkpt>
      <trkpt lat="32.052334458910835" lon="118.80448601015871">
        <ele>10.005589846521616</ele>
        <time>2026-09-03T10:30:27Z</time>
      </trkpt>
      <trkpt lat="32.052662703819486" lon="118.80458417466849">
        <ele>10.0690015591681</ele>
        <time>2026-09-03T10:30:42Z</time>
      </trkpt>
      <trkpt lat="32.05298790956243" lon="118.80466029586208">
        <ele>8.869408968836069</ele>
        <time>2026-09-03T10:30:55Z</time>
      </trkpt>
      <trkpt lat="32.0530849680255" lon="118.80468132870458">
        <ele>9.265752200037241</ele>
        <time>2026-09-03T10:30:58Z</time>
      </trkpt>
      <trkpt lat="32.05316396983422" lon="118.80467230354775">
        <ele>8.951321963220835</ele>
        <time>2026-09-03T10:31:01Z</time>
      </trkpt>
      <trkpt lat="32.05329882450736" lon="118.80457209237518">
        <ele>6.007827166467905</ele>
        <time>2026-09-03T10:31:07Z</time>
      </trkpt>
      <trkpt lat="32.05339653971979" lon="118.80439673591101">
        <ele>9.078149203211069</ele>
        <time>2026-09-03T10:31:13Z</time>
      </trkpt>
      <trkpt lat="32.05341730466098" lon="118.80425946231395">
        <ele>9.014737490564585</ele>
        <time>2026-09-03T10:31:16Z</time>
      </trkpt>
      <trkpt lat="32.05336898812491" lon="118.8040841201474">
        <ele>9.160062197595835</ele>
        <time>2026-09-03T10:31:22Z</time>
      </trkpt>
      <trkpt lat="32.053272752037365" lon="118.80396088567491">
        <ele>8.462499026209116</ele>
        <time>2026-09-03T10:31:28Z</time>
      </trkpt>
      <trkpt lat="32.053074514354755" lon="118.80384968452773">
        <ele>9.411076907068491</ele>
        <time>2026-09-03T10:31:37Z</time>
      </trkpt>
      <trkpt lat="32.052790311664516" lon="118.8037695526711">
        <ele>7.4795736111700535</ele>
        <time>2026-09-03T10:31:49Z</time>
      </trkpt>
      <trkpt lat="32.05269124953679" lon="118.80374651637683">
        <ele>7.836282137781382</ele>
        <time>2026-09-03T10:31:52Z</time>
      </trkpt>
      <trkpt lat="32.0525200825775" lon="118.80367238610387">
        <ele>8.721444491297007</ele>
        <time>2026-09-03T10:31:58Z</time>
      </trkpt>
      <trkpt lat="32.052258933889476" lon="118.80362030756122">
        <ele>8.660672549158335</ele>
        <time>2026-09-03T10:32:10Z</time>
      </trkpt>
      <trkpt lat="32.05217691386038" lon="118.80361931312724">
        <ele>9.276318911463022</ele>
        <time>2026-09-03T10:32:13Z</time>
      </trkpt>
      <trkpt lat="32.05202301524978" lon="118.80369748109807">
        <ele>8.597257021814585</ele>
        <time>2026-09-03T10:32:19Z</time>
      </trkpt>
      <trkpt lat="32.05196511027122" lon="118.80375960876484">
        <ele>9.506200198084116</ele>
        <time>2026-09-03T10:32:22Z</time>
      </trkpt>
      <trkpt lat="32.051930227906766" lon="118.80383175412891">
        <ele>8.742581728845835</ele>
        <time>2026-09-03T10:32:25Z</time>
      </trkpt>
      <trkpt lat="32.05190744248345" lon="118.803958005206">
        <ele>9.485059145838022</ele>
        <time>2026-09-03T10:32:28Z</time>
      </trkpt>
      <trkpt lat="32.05190069579031" lon="118.80410429465614">
        <ele>8.232621554285288</ele>
        <time>2026-09-03T10:32:31Z</time>
      </trkpt>
      <trkpt lat="32.051929894486605" lon="118.8042145098145">
        <ele>9.149491671472788</ele>
        <time>2026-09-03T10:32:34Z</time>
      </trkpt>
      <trkpt lat="32.05198006479535" lon="118.80430568556707">
        <ele>8.692376498132944</ele>
        <time>2026-09-03T10:32:37Z</time>
      </trkpt>
      <trkpt lat="32.052045201801874" lon="118.80437581841339">
        <ele>9.099290255457163</ele>
        <time>2026-09-03T10:32:40Z</time>
      </trkpt>
      <trkpt lat="32.05212430521975" lon="118.80442490837405">
        <ele>8.409654024988413</ele>
        <time>2026-09-03T10:32:43Z</time>
      </trkpt>
      <trkpt lat="32.052445573039776" lon="118.80453710123768">
        <ele>8.50213373079896</ele>
        <time>2026-09-03T10:32:58Z</time>
      </trkpt>
      <trkpt lat="32.05277878754999" lon="118.80461722958908">
        <ele>9.014737490564585</ele>
        <time>2026-09-03T10:33:13Z</time>
      </trkpt>
      <trkpt lat="32.053056968806004" lon="118.80468533923226">
        <ele>10.394002322107553</ele>
        <time>2026-09-03T10:33:25Z</time>
      </trkpt>
      <trkpt lat="32.053125980670494" lon="118.80468332891387">
        <ele>9.432214144617319</ele>
        <time>2026-09-03T10:33:28Z</time>
      </trkpt>
      <trkpt lat="32.05334187792329" lon="118.80459713809994">
        <ele>9.506200198084116</ele>
        <time>2026-09-03T10:33:37Z</time>
      </trkpt>
      <trkpt lat="32.05334768468833" lon="118.80448591706028">
        <ele>9.453351382166147</ele>
        <time>2026-09-03T10:33:40Z</time>
      </trkpt>
      <trkpt lat="32.053384526542" lon="118.80439072510977">
        <ele>9.881402377039194</ele>
        <time>2026-09-03T10:33:43Z</time>
      </trkpt>
      <trkpt lat="32.05340509396628" lon="118.80414022768944">
        <ele>9.860265139490366</ele>
        <time>2026-09-03T10:33:52Z</time>
      </trkpt>
      <trkpt lat="32.053377955203764" lon="118.80406407974293">
        <ele>-0.7854582034051418</ele>
        <time>2026-09-03T10:33:55Z</time>
      </trkpt>
      <trkpt lat="32.05320666581478" lon="118.80391981069776">
        <ele>8.045022372156382</ele>
        <time>2026-09-03T10:34:04Z</time>
      </trkpt>
      <trkpt lat="32.052934444813445" lon="118.80382765394626">
        <ele>8.869408968836069</ele>
        <time>2026-09-03T10:34:16Z</time>
      </trkpt>
      <trkpt lat="32.052878357408375" lon="118.80378457419195">
        <ele>8.972459200769663</ele>
        <time>2026-09-03T10:34:19Z</time>
      </trkpt>
      <trkpt lat="32.05261016008734" lon="118.803705442924">
        <ele>9.329167727380991</ele>
        <time>2026-09-03T10:34:32Z</time>
      </trkpt>
      <trkpt lat="32.052345984609694" lon="118.8036383350515">
        <ele>24.038705233484507</ele>
        <time>2026-09-03T10:34:44Z</time>
      </trkpt>
      <trkpt lat="32.05228993210483" lon="118.8036152948551">
        <ele>8.074086550623178</ele>
        <time>2026-09-03T10:34:47Z</time>
      </trkpt>
      <trkpt lat="32.05223295592816" lon="118.80363634149506">
        <ele>8.554978732019663</ele>
        <time>2026-09-03T10:34:53Z</time>
      </trkpt>
      <trkpt lat="32.052123938575555" lon="118.80364035940084">
        <ele>9.160062197595835</ele>
        <time>2026-09-03T10:34:56Z</time>
      </trkpt>
      <trkpt lat="32.052057989984164" lon="118.8036784404038">
        <ele>8.074086550623178</ele>
        <time>2026-09-03T10:34:59Z</time>
      </trkpt>
      <trkpt lat="32.05192326294708" lon="118.80385279624798">
        <ele>10.058434847742319</ele>
        <time>2026-09-03T10:35:08Z</time>
      </trkpt>
      <trkpt lat="32.051890375893144" lon="118.80392193560954">
        <ele>9.202336672693491</ele>
        <time>2026-09-03T10:35:11Z</time>
      </trkpt>
      <trkpt lat="32.05188065814267" lon="118.80408525889015">
        <ele>9.725507143884897</ele>
        <time>2026-09-03T10:35:17Z</time>
      </trkpt>
      <trkpt lat="32.05194498701465" lon="118.80426560949347">
        <ele>8.71087396517396</ele>
        <time>2026-09-03T10:35:23Z</time>
      </trkpt>
      <trkpt lat="32.05200213794803" lon="118.80434476087805">
        <ele>9.088719729334116</ele>
        <time>2026-09-03T10:35:26Z</time>
      </trkpt>
      <trkpt lat="32.052318453590516" lon="118.80448500964367">
        <ele>8.753152254968882</ele>
        <time>2026-09-03T10:35:41Z</time>
      </trkpt>
      <trkpt lat="32.052617693787546" lon="118.80458417880402">
        <ele>8.618394259363413</ele>
        <time>2026-09-03T10:35:53Z</time>
      </trkpt>
      <trkpt lat="32.05268575804995" lon="118.80461222819821">
        <ele>8.639531496912241</ele>
        <time>2026-09-03T10:35:56Z</time>
      </trkpt>
      <trkpt lat="32.05277178072792" lon="118.80461422426977">
        <ele>8.409654024988413</ele>
        <time>2026-09-03T10:35:59Z</time>
      </trkpt>
      <trkpt lat="32.05306998047736" lon="118.80469034798102">
        <ele>9.368798617273569</ele>
        <time>2026-09-03T10:36:12Z</time>
      </trkpt>
      <trkpt lat="32.05314099980694" lon="118.80469234543358">
        <ele>9.411076907068491</ele>
        <time>2026-09-03T10:36:15Z</time>
      </trkpt>
      <trkpt lat="32.053271855315565" lon="118.80459313658424">
        <ele>7.001323107630014</ele>
        <time>2026-09-03T10:36:21Z</time>
      </trkpt>
      <trkpt lat="32.05336963002481" lon="118.8044518475407">
        <ele>7.355386141687632</ele>
        <time>2026-09-03T10:36:27Z</time>
      </trkpt>
      <trkpt lat="32.053418394097555" lon="118.80431056331824">
        <ele>8.325101260095835</ele>
        <time>2026-09-03T10:36:33Z</time>
      </trkpt>
      <trkpt lat="32.05339511969653" lon="118.80415626028964">
        <ele>0.7285646237432957</ele>
        <time>2026-09-03T10:36:39Z</time>
      </trkpt>
      <trkpt lat="32.05335694703387" lon="118.80406207771577">
        <ele>7.709451083093882</ele>
        <time>2026-09-03T10:36:42Z</time>
      </trkpt>
      <trkpt lat="32.053211651232594" lon="118.80391079245183">
        <ele>9.389939669519663</ele>
        <time>2026-09-03T10:36:51Z</time>
      </trkpt>
      <trkpt lat="32.05290539827116" lon="118.80380461119552">
        <ele>7.981606844812632</ele>
        <time>2026-09-03T10:37:03Z</time>
      </trkpt>
      <trkpt lat="32.05264715092696" lon="118.80369541979599">
        <ele>5.579779986292124</ele>
        <time>2026-09-03T10:37:15Z</time>
      </trkpt>
      <trkpt lat="32.052413928446214" lon="118.80359724797668">
        <ele>8.430791262537241</ele>
        <time>2026-09-03T10:37:27Z</time>
      </trkpt>
      <trkpt lat="32.05216587139719" lon="118.80359626880185">
        <ele>8.639531496912241</ele>
        <time>2026-09-03T10:37:36Z</time>
      </trkpt>
      <trkpt lat="32.052022936926015" lon="118.80365239234608">
        <ele>8.848271731287241</ele>
        <time>2026-09-03T10:37:42Z</time>
      </trkpt>
      <trkpt lat="32.051986991551225" lon="118.80368846665398">
        <ele>9.046441439539194</ele>
        <time>2026-09-03T10:37:45Z</time>
      </trkpt>
      <trkpt lat="32.05189029916638" lon="118.80387784866642">
        <ele>3.9415696896612644</ele>
        <time>2026-09-03T10:37:51Z</time>
      </trkpt>
      <trkpt lat="32.051880438203746" lon="118.80395900966454">
        <ele>10.016156557947397</ele>
        <time>2026-09-03T10:37:54Z</time>
      </trkpt>
      <trkpt lat="32.0519088216286" lon="118.80417543449366">
        <ele>7.762296084314585</ele>
        <time>2026-09-03T10:38:03Z</time>
      </trkpt>
      <trkpt lat="32.05195401700872" lon="118.80428164037933">
        <ele>7.646039370447397</ele>
        <time>2026-09-03T10:38:06Z</time>
      </trkpt>
      <trkpt lat="32.05200514561797" lon="118.80434876853529">
        <ele>8.732011202722788</ele>
        <time>2026-09-03T10:38:09Z</time>
      </trkpt>
      <trkpt lat="32.0521182706099" lon="118.80440587122295">
        <ele>8.451932314783335</ele>
        <time>2026-09-03T10:38:15Z</time>
      </trkpt>
      <trkpt lat="32.05236645728662" lon="118.80448099729067">
        <ele>8.816563967615366</ele>
        <time>2026-09-03T10:38:27Z</time>
      </trkpt>
      <trkpt lat="32.05268873416573" lon="118.80459820009924">
        <ele>8.586686495691538</ele>
        <time>2026-09-03T10:38:42Z</time>
      </trkpt>
      <trkpt lat="32.05301599301555" lon="118.80470438078741">
        <ele>9.099290255457163</ele>
        <time>2026-09-03T10:38:57Z</time>
      </trkpt>
      <trkpt lat="32.053143984680965" lon="118.80468332725965">
        <ele>8.388516787439585</ele>
        <time>2026-09-03T10:39:00Z</time>
      </trkpt>
      <trkpt lat="32.05332876807952" lon="118.8045360181012">
        <ele>8.650102023035288</ele>
        <time>2026-09-03T10:39:09Z</time>
      </trkpt>
      <trkpt lat="32.05337955169162" lon="118.80440575533075">
        <ele>9.067582491785288</ele>
        <time>2026-09-03T10:39:15Z</time>
      </trkpt>
      <trkpt lat="32.05340621653045" lon="118.80421036623294">
        <ele>7.6381124295294285</ele>
        <time>2026-09-03T10:39:21Z</time>
      </trkpt>
      <trkpt lat="32.053362941385984" lon="118.80405806924975">
        <ele>8.243192080408335</ele>
        <time>2026-09-03T10:39:27Z</time>
      </trkpt>
      <trkpt lat="32.053320813331396" lon="118.80398993860318">
        <ele>7.709451083093882</ele>
        <time>2026-09-03T10:39:30Z</time>
      </trkpt>
      <trkpt lat="32.053076504342265" lon="118.80384367249312">
        <ele>7.949899081140757</ele>
        <time>2026-09-03T10:39:42Z</time>
      </trkpt>
      <trkpt lat="32.052818305712464" lon="118.80376253628083">
        <ele>8.095223788172007</ele>
        <time>2026-09-03T10:39:54Z</time>
      </trkpt>
      <trkpt lat="32.05269529397227" lon="118.80377156535104">
        <ele>9.130994204431772</ele>
        <time>2026-09-03T10:40:00Z</time>
      </trkpt>
      <trkpt lat="32.0526221627626" lon="118.80370544182098">
        <ele>7.667176607996225</ele>
        <time>2026-09-03T10:40:03Z</time>
      </trkpt>
      <trkpt lat="32.05235398291379" lon="118.80363633037285">
        <ele>9.138921145349741</ele>
        <time>2026-09-03T10:40:15Z</time>
      </trkpt>
      <trkpt lat="32.052214878847835" lon="118.80359426035591">
        <ele>8.05294931307435</ele>
        <time>2026-09-03T10:40:21Z</time>
      </trkpt>
      <trkpt lat="32.05201893429345" lon="118.80365139074188">
        <ele>8.721444491297007</ele>
        <time>2026-09-03T10:40:30Z</time>
      </trkpt>
      <trkpt lat="32.05190217286659" lon="118.80380370141292">
        <ele>8.961888674646616</ele>
        <time>2026-09-03T10:40:36Z</time>
      </trkpt>
      <trkpt lat="32.05187631696532" lon="118.80388987366179">
        <ele>9.736077670007944</ele>
        <time>2026-09-03T10:40:39Z</time>
      </trkpt>
      <trkpt lat="32.051866567714235" lon="118.80403516124676">
        <ele>8.169209841638803</ele>
        <time>2026-09-03T10:40:45Z</time>
      </trkpt>
      <trkpt lat="32.05191789180922" lon="118.80421451091738">
        <ele>8.554978732019663</ele>
        <time>2026-09-03T10:40:51Z</time>
      </trkpt>
      <trkpt lat="32.051953022033395" lon="118.80428464641788">
        <ele>8.388516787439585</ele>
        <time>2026-09-03T10:40:54Z</time>
      </trkpt>
      <trkpt lat="32.05201214542944" lon="118.8043477659087">
        <ele>6.959046725183725</ele>
        <time>2026-09-03T10:40:57Z</time>
      </trkpt>
      <trkpt lat="32.05207322555458" lon="118.80438583567799">
        <ele>7.9604696072638035</ele>
        <time>2026-09-03T10:41:00Z</time>
      </trkpt>
      <trkpt lat="32.052392422791165" lon="118.80445794924131">
        <ele>8.763718966394663</ele>
        <time>2026-09-03T10:41:15Z</time>
      </trkpt>
      <trkpt lat="32.052504470538715" lon="118.80447096475496">
        <ele>7.677743319422007</ele>
        <time>2026-09-03T10:41:21Z</time>
      </trkpt>
      <trkpt lat="32.05278072486257" lon="118.80458115786308">
        <ele>8.71087396517396</ele>
        <time>2026-09-03T10:41:33Z</time>
      </trkpt>
      <trkpt lat="32.05303091738986" lon="118.8046592899221">
        <ele>6.404168490320444</ele>
        <time>2026-09-03T10:41:45Z</time>
      </trkpt>
      <trkpt lat="32.053166921376" lon="118.80464424760169">
        <ele>7.9604696072638035</ele>
        <time>2026-09-03T10:41:52Z</time>
      </trkpt>
      <trkpt lat="32.053267840396" lon="118.80458512105477">
        <ele>8.430791262537241</ele>
        <time>2026-09-03T10:41:58Z</time>
      </trkpt>
      <trkpt lat="32.05334573506018" lon="118.80451497483017">
        <ele>9.474492434412241</ele>
        <time>2026-09-03T10:42:01Z</time>
      </trkpt>
      <trkpt lat="32.05340447672925" lon="118.80435966177606">
        <ele>8.367379549890757</ele>
        <time>2026-09-03T10:42:07Z</time>
      </trkpt>
      <trkpt lat="32.053411193170234" lon="118.80419633803993">
        <ele>7.291974429041147</ele>
        <time>2026-09-03T10:42:13Z</time>
      </trkpt>
      <trkpt lat="32.05340009634711" lon="118.80414223210893">
        <ele>8.618394259363413</ele>
        <time>2026-09-03T10:42:16Z</time>
      </trkpt>
      <trkpt lat="32.0533549291279" lon="118.80405205811375">
        <ele>5.706609133630991</ele>
        <time>2026-09-03T10:42:19Z</time>
      </trkpt>
      <trkpt lat="32.05318263256444" lon="118.80390378128452">
        <ele>7.709451083093882</ele>
        <time>2026-09-03T10:42:28Z</time>
      </trkpt>
      <trkpt lat="32.05287234561867" lon="118.80377856289914">
        <ele>8.158639315515757</ele>
        <time>2026-09-03T10:42:43Z</time>
      </trkpt>
      <trkpt lat="32.05277228500886" lon="118.80375652866695">
        <ele>8.034451846033335</ele>
        <time>2026-09-03T10:42:49Z</time>
      </trkpt>
      <trkpt lat="32.05271730410228" lon="118.80377456925058">
        <ele>8.409654024988413</ele>
        <time>2026-09-03T10:42:52Z</time>
      </trkpt>
      <trkpt lat="32.05261820422805" lon="118.80374162853467">
        <ele>7.21798837557435</ele>
        <time>2026-09-03T10:42:58Z</time>
      </trkpt>
      <trkpt lat="32.05238797483677" lon="118.80362730950358">
        <ele>7.167786959558725</ele>
        <time>2026-09-03T10:43:07Z</time>
      </trkpt>
      <trkpt lat="32.052249895351075" lon="118.80359926699357">
        <ele>7.167786959558725</ele>
        <time>2026-09-03T10:43:13Z</time>
      </trkpt>
      <trkpt lat="32.05211490872945" lon="118.80362432868314">
        <ele>8.554978732019663</ele>
        <time>2026-09-03T10:43:19Z</time>
      </trkpt>
      <trkpt lat="32.0519490718692" lon="118.80373957076542">
        <ele>8.480996493250132</ele>
        <time>2026-09-03T10:43:28Z</time>
      </trkpt>
      <trkpt lat="32.05191618121753" lon="118.80380670604937">
        <ele>8.879979494959116</ele>
        <time>2026-09-03T10:43:31Z</time>
      </trkpt>
      <trkpt lat="32.05191369869087" lon="118.80410429346134">
        <ele>8.095223788172007</ele>
        <time>2026-09-03T10:43:40Z</time>
      </trkpt>
      <trkpt lat="32.05192887678129" lon="118.80420449009613">
        <ele>3.4923833645880222</ele>
        <time>2026-09-03T10:43:43Z</time>
      </trkpt>
      <trkpt lat="32.052001093975974" lon="118.80431971139477">
        <ele>7.677743319422007</ele>
        <time>2026-09-03T10:43:49Z</time>
      </trkpt>
      <trkpt lat="32.05212123626201" lon="118.80438583126664">
        <ele>-3.4330164156854153</ele>
        <time>2026-09-03T10:43:55Z</time>
      </trkpt>
      <trkpt lat="32.05218035624215" lon="118.8044469468903">
        <ele>6.874493960291147</ele>
        <time>2026-09-03T10:43:58Z</time>
      </trkpt>
      <trkpt lat="32.052242347301515" lon="118.80443391539067">
        <ele>8.451932314783335</ele>
        <time>2026-09-03T10:44:01Z</time>
      </trkpt>
      <trkpt lat="32.052570623698564" lon="118.80455011557315">
        <ele>6.821648959070444</ele>
        <time>2026-09-03T10:44:17Z</time>
      </trkpt>
      <trkpt lat="32.052689741403505" lon="118.8046022079565">
        <ele>4.79766595736146</ele>
        <time>2026-09-03T10:44:23Z</time>
      </trkpt>
      <trkpt lat="32.05276777106696" lon="118.80460921469997">
        <ele>6.560063723474741</ele>
        <time>2026-09-03T10:44:26Z</time>
      </trkpt>
      <trkpt lat="32.052943931341275" lon="118.80467833569683">
        <ele>8.179776553064585</ele>
        <time>2026-09-03T10:44:35Z</time>
      </trkpt>
      <trkpt lat="32.0530949860478" lon="118.80469034568351">
        <ele>8.116361025720835</ele>
        <time>2026-09-03T10:44:41Z</time>
      </trkpt>
      <trkpt lat="32.05317495298393" lon="118.80466128066486">
        <ele>6.028966311365366</ele>
        <time>2026-09-03T10:44:44Z</time>
      </trkpt>
      <trkpt lat="32.053355679461944" lon="118.80448190838317">
        <ele>5.548072222620249</ele>
        <time>2026-09-03T10:44:56Z</time>
      </trkpt>
      <trkpt lat="32.05340647542438" lon="118.80435865960878">
        <ele>8.753152254968882</ele>
        <time>2026-09-03T10:44:59Z</time>
      </trkpt>
      <trkpt lat="32.053416175056384" lon="118.80418531579204">
        <ele>7.6988843716681</ele>
        <time>2026-09-03T10:45:05Z</time>
      </trkpt>
      <trkpt lat="32.05329179465612" lon="118.80398292742673">
        <ele>7.93932855501771</ele>
        <time>2026-09-03T10:45:14Z</time>
      </trkpt>
      <trkpt lat="32.05322367832267" lon="118.80392481901707">
        <ele>4.567788485437632</ele>
        <time>2026-09-03T10:45:17Z</time>
      </trkpt>
      <trkpt lat="32.05295842750745" lon="118.80381462606904">
        <ele>8.639531496912241</ele>
        <time>2026-09-03T10:45:29Z</time>
      </trkpt>
      <trkpt lat="32.052662227398486" lon="118.80373750128192">
        <ele>7.207421664148569</ele>
        <time>2026-09-03T10:45:38Z</time>
      </trkpt>
      <trkpt lat="32.05254713907781" lon="118.80370144082389">
        <ele>7.355386141687632</ele>
        <time>2026-09-03T10:45:44Z</time>
      </trkpt>
      <trkpt lat="32.052437004902394" lon="118.80363832668684">
        <ele>7.030387286096811</ele>
        <time>2026-09-03T10:45:51Z</time>
      </trkpt>
      <trkpt lat="32.05234298742069" lon="118.80364033927063">
        <ele>7.387093905359507</ele>
        <time>2026-09-03T10:45:54Z</time>
      </trkpt>
      <trkpt lat="32.052252920373526" lon="118.8036132943136">
        <ele>3.8490899838507175</ele>
        <time>2026-09-03T10:46:00Z</time>
      </trkpt>
      <trkpt lat="32.05208293812997" lon="118.80364537302816">
        <ele>8.480996493250132</ele>
        <time>2026-09-03T10:46:06Z</time>
      </trkpt>
      <trkpt lat="32.05196804476416" lon="118.80372153350163">
        <ele>7.500714663416147</ele>
        <time>2026-09-03T10:46:12Z</time>
      </trkpt>
      <trkpt lat="32.05192316012881" lon="118.80379367973957">
        <ele>7.2814039029181</ele>
        <time>2026-09-03T10:46:15Z</time>
      </trkpt>
      <trkpt lat="32.05189347251025" lon="118.80397704405746">
        <ele>7.4795736111700535</ele>
        <time>2026-09-03T10:46:21Z</time>
      </trkpt>
      <trkpt lat="32.051910718983216" lon="118.80411631749007">
        <ele>8.42022455111146</ele>
        <time>2026-09-03T10:46:27Z</time>
      </trkpt>
      <trkpt lat="32.0519429148707" lon="118.8042245284316">
        <ele>9.588109377771616</ele>
        <time>2026-09-03T10:46:30Z</time>
      </trkpt>
      <trkpt lat="32.05202413935584" lon="118.80434275488977">
        <ele>8.441361788660288</ele>
        <time>2026-09-03T10:46:36Z</time>
      </trkpt>
      <trkpt lat="32.05211420318999" lon="118.80436779620291">
        <ele>7.762296084314585</ele>
        <time>2026-09-03T10:46:42Z</time>
      </trkpt>
      <trkpt lat="32.052208229408606" lon="118.80437079351478">
        <ele>7.5429891385138035</ele>
        <time>2026-09-03T10:46:48Z</time>
      </trkpt>
      <trkpt lat="32.052513469041614" lon="118.80446895995738">
        <ele>7.167786959558725</ele>
        <time>2026-09-03T10:47:03Z</time>
      </trkpt>
      <trkpt lat="32.05281976511966" lon="118.80459919004747">
        <ele>7.030387286096811</ele>
        <time>2026-09-03T10:47:15Z</time>
      </trkpt>
      <trkpt lat="32.05300895986505" lon="118.80468634563213">
        <ele>6.174291018396616</ele>
        <time>2026-09-03T10:47:24Z</time>
      </trkpt>
      <trkpt lat="32.053137965796154" lon="118.80467330792563">
        <ele>7.104371432214975</ele>
        <time>2026-09-03T10:47:30Z</time>
      </trkpt>
      <trkpt lat="32.05325086642048" lon="118.80460215639962">
        <ele>7.21798837557435</ele>
        <time>2026-09-03T10:47:36Z</time>
      </trkpt>
      <trkpt lat="32.05334868841534" lon="118.80448792093938">
        <ele>8.023881319910288</ele>
        <time>2026-09-03T10:47:42Z</time>
      </trkpt>
      <trkpt lat="32.05339553949706" lon="118.80439673600293">
        <ele>7.8653463162481785</ele>
        <time>2026-09-03T10:47:45Z</time>
      </trkpt>
      <trkpt lat="32.05340223487093" lon="118.80422138839337">
        <ele>7.43993890658021</ele>
        <time>2026-09-03T10:47:51Z</time>
      </trkpt>
      <trkpt lat="32.05335900336253" lon="118.80409414085757">
        <ele>6.623477343469858</ele>
        <time>2026-09-03T10:47:57Z</time>
      </trkpt>
      <trkpt lat="32.05324771855521" lon="118.80394485634275">
        <ele>6.832217577844858</ele>
        <time>2026-09-03T10:48:03Z</time>
      </trkpt>
      <trkpt lat="32.05312458128095" lon="118.8038817431461">
        <ele>5.600917223840952</ele>
        <time>2026-09-03T10:48:10Z</time>
      </trkpt>
      <trkpt lat="32.053010507066105" lon="118.8038536983113">
        <ele>6.959046725183725</ele>
        <time>2026-09-03T10:48:16Z</time>
      </trkpt>
      <trkpt lat="32.05286635124969" lon="118.8037825713468">
        <ele>7.001323107630014</ele>
        <time>2026-09-03T10:48:22Z</time>
      </trkpt>
      <trkpt lat="32.052798386620466" lon="118.80381163485212">
        <ele>6.874493960291147</ele>
        <time>2026-09-03T10:48:25Z</time>
      </trkpt>
      <trkpt lat="32.05249514315254" lon="118.80371046335877">
        <ele>6.895631197839975</ele>
        <time>2026-09-03T10:48:43Z</time>
      </trkpt>
      <trkpt lat="32.052368052165086" lon="118.80367440402004">
        <ele>6.750306490808725</ele>
        <time>2026-09-03T10:48:49Z</time>
      </trkpt>
      <trkpt lat="32.05220986033986" lon="118.80358424110706">
        <ele>6.24827516451478</ele>
        <time>2026-09-03T10:48:52Z</time>
      </trkpt>
      <trkpt lat="32.05213486622177" lon="118.80359727362232">
        <ele>6.969615343958139</ele>
        <time>2026-09-03T10:48:55Z</time>
      </trkpt>
      <trkpt lat="32.05200396749415" lon="118.80367243353369">
        <ele>7.239129427820444</ele>
        <time>2026-09-03T10:49:01Z</time>
      </trkpt>
      <trkpt lat="32.05192317232495" lon="118.8038006935596">
        <ele>7.458436373621225</ele>
        <time>2026-09-03T10:49:07Z</time>
      </trkpt>
      <trkpt lat="32.05189231181729" lon="118.80388486231232">
        <ele>7.564126376062632</ele>
        <time>2026-09-03T10:49:10Z</time>
      </trkpt>
      <trkpt lat="32.05190271195764" lon="118.80411331228687">
        <ele>7.387093905359507</ele>
        <time>2026-09-03T10:49:19Z</time>
      </trkpt>
      <trkpt lat="32.05195194310679" lon="118.80423955732533">
        <ele>6.92733896151185</ele>
        <time>2026-09-03T10:49:22Z</time>
      </trkpt>
      <trkpt lat="32.05201211742841" lon="118.80433173417866">
        <ele>6.988110903650522</ele>
        <time>2026-09-03T10:49:25Z</time>
      </trkpt>
      <trkpt lat="32.05220133815689" lon="118.80443391915867">
        <ele>7.019818667322397</ele>
        <time>2026-09-03T10:49:34Z</time>
      </trkpt>
      <trkpt lat="32.05246854486697" lon="118.80451806138728">
        <ele>7.3976644314825535</ele>
        <time>2026-09-03T10:49:46Z</time>
      </trkpt>
      <trkpt lat="32.05261269091937" lon="118.8045831772765">
        <ele>8.105794314295053</ele>
        <time>2026-09-03T10:49:52Z</time>
      </trkpt>
      <trkpt lat="32.05292689245951" lon="118.80465829749153">
        <ele>8.222054842859507</ele>
        <time>2026-09-03T10:50:08Z</time>
      </trkpt>
      <trkpt lat="32.05306397563053" lon="118.804688344555">
        <ele>7.167786959558725</ele>
        <time>2026-09-03T10:50:14Z</time>
      </trkpt>
      <trkpt lat="32.053225906453044" lon="118.80462821037341">
        <ele>8.126931551843882</ele>
        <time>2026-09-03T10:50:23Z</time>
      </trkpt>
      <trkpt lat="32.053285849666395" lon="118.8045881253618">
        <ele>7.260266665369272</ele>
        <time>2026-09-03T10:50:26Z</time>
      </trkpt>
      <trkpt lat="32.05341646539973" lon="118.80435164480586">
        <ele>7.3025411404669285</ele>
        <time>2026-09-03T10:50:32Z</time>
      </trkpt>
      <trkpt lat="32.05342332523645" lon="118.80427048356401">
        <ele>8.105794314295053</ele>
        <time>2026-09-03T10:50:35Z</time>
      </trkpt>
      <trkpt lat="32.05338503535412" lon="118.80410916815748">
        <ele>7.521851900964975</ele>
        <time>2026-09-03T10:50:41Z</time>
      </trkpt>
      <trkpt lat="32.05332585109515" lon="118.80401097967444">
        <ele>7.3025411404669285</ele>
        <time>2026-09-03T10:50:44Z</time>
      </trkpt>
      <trkpt lat="32.05325168979296" lon="118.80392782237274">
        <ele>7.21798837557435</ele>
        <time>2026-09-03T10:50:47Z</time>
      </trkpt>
      <trkpt lat="32.05295841705236" lon="118.80380861422174">
        <ele>6.9801839627325535</ele>
        <time>2026-09-03T10:51:02Z</time>
      </trkpt>
      <trkpt lat="32.052740281359426" lon="118.80375853555566">
        <ele>6.435876253992319</ele>
        <time>2026-09-03T10:51:11Z</time>
      </trkpt>
      <trkpt lat="32.052620636166886" lon="118.8037768060661">
        <ele>5.936486605554819</ele>
        <time>2026-09-03T10:51:20Z</time>
      </trkpt>
      <trkpt lat="32.05245314597526" lon="118.8037174810298">
        <ele>5.36047113314271</ele>
        <time>2026-09-03T10:51:29Z</time>
      </trkpt>
      <trkpt lat="32.05225989932082" lon="118.80360026804539">
        <ele>5.225715044885874</ele>
        <time>2026-09-03T10:51:36Z</time>
      </trkpt>
      <trkpt lat="32.052177842767385" lon="118.80357823222424">
        <ele>6.739737872034311</ele>
        <time>2026-09-03T10:51:39Z</time>
      </trkpt>
      <trkpt lat="32.0520908424921" lon="118.8035892618995">
        <ele>6.509860400110483</ele>
        <time>2026-09-03T10:51:42Z</time>
      </trkpt>
      <trkpt lat="32.05201888905359" lon="118.80362533947874">
        <ele>5.756812456995249</ele>
        <time>2026-09-03T10:51:45Z</time>
      </trkpt>
      <trkpt lat="32.05192311309324" lon="118.80376662644136">
        <ele>6.18485963717103</ele>
        <time>2026-09-03T10:51:51Z</time>
      </trkpt>
      <trkpt lat="32.05188139655963" lon="118.80393496213057">
        <ele>5.423884753137827</ele>
        <time>2026-09-03T10:51:57Z</time>
      </trkpt>
      <trkpt lat="32.051927944746815" lon="118.80424356745725">
        <ele>5.936486605554819</ele>
        <time>2026-09-03T10:52:06Z</time>
      </trkpt>
      <trkpt lat="32.052100245583745" lon="118.80439384906806">
        <ele>5.674901369959116</ele>
        <time>2026-09-03T10:52:15Z</time>
      </trkpt>
      <trkpt lat="32.052374473087475" lon="118.80448901243912">
        <ele>5.548072222620249</ele>
        <time>2026-09-03T10:52:30Z</time>
      </trkpt>
      <trkpt lat="32.05261272248422" lon="118.80460121304554">
        <ele>7.595834139734507</ele>
        <time>2026-09-03T10:52:42Z</time>
      </trkpt>
      <trkpt lat="32.05275280631129" lon="118.80463125980603">
        <ele>1.5635236538946629</ele>
        <time>2026-09-03T10:52:48Z</time>
      </trkpt>
      <trkpt lat="32.05281280916038" lon="118.80462524236552">
        <ele>5.466161135584116</ele>
        <time>2026-09-03T10:52:52Z</time>
      </trkpt>
      <trkpt lat="32.05304095997616" lon="118.8046823347368">
        <ele>6.290551546961069</ele>
        <time>2026-09-03T10:53:04Z</time>
      </trkpt>
      <trkpt lat="32.05321089960313" lon="118.80462620777648">
        <ele>7.4161580838263035</ele>
        <time>2026-09-03T10:53:10Z</time>
      </trkpt>
      <trkpt lat="32.05332776785677" lon="118.8045360181931">
        <ele>6.71859872713685</ele>
        <time>2026-09-03T10:53:16Z</time>
      </trkpt>
      <trkpt lat="32.053388576460385" lon="118.80441878029974">
        <ele>6.383031252771616</ele>
        <time>2026-09-03T10:53:22Z</time>
      </trkpt>
      <trkpt lat="32.0534263433962" lon="118.80428050310951">
        <ele>6.665753725916147</ele>
        <time>2026-09-03T10:53:25Z</time>
      </trkpt>
      <trkpt lat="32.053389083413684" lon="118.80413622124044">
        <ele>6.425307635217905</ele>
        <time>2026-09-03T10:53:31Z</time>
      </trkpt>
      <trkpt lat="32.05326671755465" lon="118.80394184866616">
        <ele>7.009250048547983</ele>
        <time>2026-09-03T10:53:40Z</time>
      </trkpt>
      <trkpt lat="32.053208638356956" lon="118.80390377889468">
        <ele>7.083234194666147</ele>
        <time>2026-09-03T10:53:43Z</time>
      </trkpt>
      <trkpt lat="32.05284040295187" lon="118.80381563888993">
        <ele>6.435876253992319</ele>
        <time>2026-09-03T10:54:01Z</time>
      </trkpt>
      <trkpt lat="32.05278431381099" lon="118.80377155717035">
        <ele>6.916770342737436</ele>
        <time>2026-09-03T10:54:04Z</time>
      </trkpt>
      <trkpt lat="32.05248503648635" lon="118.80365034593592">
        <ele>6.361892107874155</ele>
        <time>2026-09-03T10:54:19Z</time>
      </trkpt>
      <trkpt lat="32.052243904449675" lon="118.80360527937145">
        <ele>6.800509814172983</ele>
        <time>2026-09-03T10:54:31Z</time>
      </trkpt>
      <trkpt lat="32.0521218859353" lon="118.80361030044136">
        <ele>4.79766595736146</ele>
        <time>2026-09-03T10:54:34Z</time>
      </trkpt>
      <trkpt lat="32.05195907235883" lon="118.80373856787293">
        <ele>6.863925341516733</ele>
        <time>2026-09-03T10:54:43Z</time>
      </trkpt>
      <trkpt lat="32.05191219775021" lon="118.80381672616232">
        <ele>7.313111666589975</ele>
        <time>2026-09-03T10:54:46Z</time>
      </trkpt>
      <trkpt lat="32.05188539396357" lon="118.80393295780985">
        <ele>7.5746969021856785</ele>
        <time>2026-09-03T10:54:49Z</time>
      </trkpt>
      <trkpt lat="32.051888583097714" lon="118.80404117109421">
        <ele>6.676324252039194</ele>
        <time>2026-09-03T10:54:52Z</time>
      </trkpt>
      <trkpt lat="32.05191075916556" lon="118.80413936302325">
        <ele>6.789941195398569</ele>
        <time>2026-09-03T10:54:55Z</time>
      </trkpt>
      <trkpt lat="32.05200508436993" lon="118.80431369913062">
        <ele>6.612908724695444</ele>
        <time>2026-09-03T10:55:01Z</time>
      </trkpt>
      <trkpt lat="32.05206922291156" lon="118.80438483406174">
        <ele>6.361892107874155</ele>
        <time>2026-09-03T10:55:04Z</time>
      </trkpt>
      <trkpt lat="32.05235544081763" lon="118.80447298241893">
        <ele>7.186280611902475</ele>
        <time>2026-09-03T10:55:20Z</time>
      </trkpt>
      <trkpt lat="32.05248352893418" lon="118.80450703816385">
        <ele>6.488721255213022</ele>
        <time>2026-09-03T10:55:26Z</time>
      </trkpt>
      <trkpt lat="32.052788786271066" lon="118.80461522469498">
        <ele>7.104371432214975</ele>
        <time>2026-09-03T10:55:41Z</time>
      </trkpt>
      <trkpt lat="32.0530359342954" lon="118.80466830735739">
        <ele>7.6988843716681</ele>
        <time>2026-09-03T10:55:53Z</time>
      </trkpt>
      <trkpt lat="32.05310094176025" lon="118.80466429343043">
        <ele>6.227136019617319</ele>
        <time>2026-09-03T10:55:56Z</time>
      </trkpt>
      <trkpt lat="32.053264853756176" lon="118.80459313722756">
        <ele>5.777949694544077</ele>
        <time>2026-09-03T10:56:05Z</time>
      </trkpt>
      <trkpt lat="32.05338254185413" lon="118.80439974315">
        <ele>4.327342394739389</ele>
        <time>2026-09-03T10:56:14Z</time>
      </trkpt>
      <trkpt lat="32.053401414807624" lon="118.80432459263992">
        <ele>6.258843783289194</ele>
        <time>2026-09-03T10:56:17Z</time>
      </trkpt>
      <trkpt lat="32.05338915331224" lon="118.80417630044832">
        <ele>6.863925341516733</ele>
        <time>2026-09-03T10:56:23Z</time>
      </trkpt>
      <trkpt lat="32.05332992355914" lon="118.8040520604116">
        <ele>7.207421664148569</ele>
        <time>2026-09-03T10:56:29Z</time>
      </trkpt>
      <trkpt lat="32.05311159407677" lon="118.80389076212306">
        <ele>6.697461489588022</ele>
        <time>2026-09-03T10:56:42Z</time>
      </trkpt>
      <trkpt lat="32.052799325864235" lon="118.80377656566121">
        <ele>4.5889276303350925</ele>
        <time>2026-09-03T10:56:57Z</time>
      </trkpt>
      <trkpt lat="32.0524881154777" lon="118.80369543441108">
        <ele>6.45701539888978</ele>
        <time>2026-09-03T10:57:12Z</time>
      </trkpt>
      <trkpt lat="32.05221698368127" lon="118.80365437845778">
        <ele>7.178353670984507</ele>
        <time>2026-09-03T10:57:27Z</time>
      </trkpt>
      <trkpt lat="32.052098945179374" lon="118.80364737550106">
        <ele>4.787097338587046</ele>
        <time>2026-09-03T10:57:33Z</time>
      </trkpt>
      <trkpt lat="32.05203797507926" lon="118.8036724304085">
        <ele>7.030387286096811</ele>
        <time>2026-09-03T10:57:36Z</time>
      </trkpt>
      <trkpt lat="32.051915146148446" lon="118.80378666665568">
        <ele>7.3025411404669285</ele>
        <time>2026-09-03T10:57:42Z</time>
      </trkpt>
      <trkpt lat="32.05187450840737" lon="118.80400009128472">
        <ele>6.811078432947397</ele>
        <time>2026-09-03T10:57:52Z</time>
      </trkpt>
      <trkpt lat="32.05190788433322" lon="118.80421150589318">
        <ele>6.216567400842905</ele>
        <time>2026-09-03T10:57:58Z</time>
      </trkpt>
      <trkpt lat="32.051950033609415" lon="118.80429166056966">
        <ele>6.697461489588022</ele>
        <time>2026-09-03T10:58:01Z</time>
      </trkpt>
      <trkpt lat="32.05200514386778" lon="118.80434776655203">
        <ele>7.030387286096811</ele>
        <time>2026-09-03T10:58:04Z</time>
      </trkpt>
      <trkpt lat="32.05229743664275" lon="118.80447799767578">
        <ele>6.853354815393686</ele>
        <time>2026-09-03T10:58:19Z</time>
      </trkpt>
      <trkpt lat="32.05260965167743" lon="118.80456113384147">
        <ele>6.322259310632944</ele>
        <time>2026-09-03T10:58:34Z</time>
      </trkpt>
      <trkpt lat="32.05290188688798" lon="118.80465829978904">
        <ele>7.146649722009897</ele>
        <time>2026-09-03T10:58:49Z</time>
      </trkpt>
      <trkpt lat="32.053029950505724" lon="118.80467832779341">
        <ele>6.227136019617319</ele>
        <time>2026-09-03T10:58:55Z</time>
      </trkpt>
      <trkpt lat="32.05317791330103" lon="118.80463823466303">
        <ele>6.163722399622202</ele>
        <time>2026-09-03T10:59:01Z</time>
      </trkpt>
      <trkpt lat="32.0532073596862" lon="118.80463584702281">
        <ele>6.959046725183725</ele>
        <time>2026-09-03T10:59:07Z</time>
      </trkpt>
      <trkpt lat="32.05327134868579" lon="118.8045585114981">
        <ele>7.239129427820444</ele>
        <time>2026-09-03T10:59:10Z</time>
      </trkpt>
      <trkpt lat="32.05337258115298" lon="118.80446718866915">
        <ele>7.376527193933725</ele>
        <time>2026-09-03T10:59:13Z</time>
      </trkpt>
      <trkpt lat="32.05340738740386" lon="118.8043527091119">
        <ele>7.772866610437632</ele>
        <time>2026-09-03T10:59:16Z</time>
      </trkpt>
      <trkpt lat="32.05339017975281" lon="118.80419133006606">
        <ele>8.253762606531382</ele>
        <time>2026-09-03T10:59:22Z</time>
      </trkpt>
      <trkpt lat="32.053329893879614" lon="118.80403502677945">
        <ele>7.469006899744272</ele>
        <time>2026-09-03T10:59:28Z</time>
      </trkpt>
      <trkpt lat="32.053240708273776" lon="118.80393984710263">
        <ele>5.278560046106577</ele>
        <time>2026-09-03T10:59:34Z</time>
      </trkpt>
      <trkpt lat="32.05295243662595" lon="118.80382063846844">
        <ele>6.739737872034311</ele>
        <time>2026-09-03T10:59:49Z</time>
      </trkpt>
      <trkpt lat="32.05263026728885" lon="118.80376455750893">
        <ele>7.167786959558725</ele>
        <time>2026-09-03T11:00:04Z</time>
      </trkpt>
      <trkpt lat="32.05257223694059" lon="118.80375454310332">
        <ele>7.323682192713022</ele>
        <time>2026-09-03T11:00:07Z</time>
      </trkpt>
      <trkpt lat="32.052401000354784" lon="118.80364033393931">
        <ele>5.15173089876771</ele>
        <time>2026-09-03T11:00:13Z</time>
      </trkpt>
      <trkpt lat="32.05228393076669" lon="118.80361529540663">
        <ele>7.1994947232306</ele>
        <time>2026-09-03T11:00:16Z</time>
      </trkpt>
      <trkpt lat="32.052072930678975" lon="118.80364236803209">
        <ele>7.741158846765757</ele>
        <time>2026-09-03T11:00:22Z</time>
      </trkpt>
      <trkpt lat="32.05200399534389" lon="118.8036884650914">
        <ele>7.6988843716681</ele>
        <time>2026-09-03T11:00:25Z</time>
      </trkpt>
      <trkpt lat="32.05191224654837" lon="118.80384478145791">
        <ele>7.971036318689585</ele>
        <time>2026-09-03T11:00:31Z</time>
      </trkpt>
      <trkpt lat="32.05189351962781" lon="118.80400409744904">
        <ele>0.7893365658819675</ele>
        <time>2026-09-03T11:00:38Z</time>
      </trkpt>
      <trkpt lat="32.051913819248746" lon="118.80417343007319">
        <ele>6.301120165735483</ele>
        <time>2026-09-03T11:00:44Z</time>
      </trkpt>
      <trkpt lat="32.0519860941291" lon="118.80432171673898">
        <ele>6.301120165735483</ele>
        <time>2026-09-03T11:00:50Z</time>
      </trkpt>
      <trkpt lat="32.0520942092316" lon="118.80437380994275">
        <ele>7.84420907869935</ele>
        <time>2026-09-03T11:00:56Z</time>
      </trkpt>
      <trkpt lat="32.05228631508548" lon="118.80440986372014">
        <ele>6.375104311853647</ele>
        <time>2026-09-03T11:01:05Z</time>
      </trkpt>
      <trkpt lat="32.05258061365728" lon="118.80454310074903">
        <ele>7.3342489041388035</ele>
        <time>2026-09-03T11:01:20Z</time>
      </trkpt>
      <trkpt lat="32.05285081938398" lon="118.80462624086101">
        <ele>7.79400384798646</ele>
        <time>2026-09-03T11:01:32Z</time>
      </trkpt>
      <trkpt lat="32.05305193610598" lon="118.80466730389861">
        <ele>7.323682192713022</ele>
        <time>2026-09-03T11:01:41Z</time>
      </trkpt>
      <trkpt lat="32.0532458653066" lon="118.80460215685913">
        <ele>3.9098619259893894</ele>
        <time>2026-09-03T11:01:50Z</time>
      </trkpt>
      <trkpt lat="32.05331968195553" lon="118.80448792360464">
        <ele>1.542384508997202</ele>
        <time>2026-09-03T11:01:56Z</time>
      </trkpt>
      <trkpt lat="32.05336447132039" lon="118.8043616694194">
        <ele>7.313111666589975</ele>
        <time>2026-09-03T11:02:02Z</time>
      </trkpt>
      <trkpt lat="32.053366165667384" lon="118.80418632236832">
        <ele>6.71859872713685</ele>
        <time>2026-09-03T11:02:08Z</time>
      </trkpt>
      <trkpt lat="32.05335203848459" lon="118.8041151830675">
        <ele>7.8151449002325535</ele>
        <time>2026-09-03T11:02:11Z</time>
      </trkpt>
      <trkpt lat="32.053276805274976" lon="118.80399094462494">
        <ele>7.040957812219858</ele>
        <time>2026-09-03T11:02:17Z</time>
      </trkpt>
      <trkpt lat="32.05316365100258" lon="118.80391680872125">
        <ele>8.314534548670053</ele>
        <time>2026-09-03T11:02:23Z</time>
      </trkpt>
      <trkpt lat="32.0530485905014" lon="118.80389677976925">
        <ele>2.5755132474005222</ele>
        <time>2026-09-03T11:02:29Z</time>
      </trkpt>
      <trkpt lat="32.05273531334067" lon="118.80377757351792">
        <ele>6.7820142544806</ele>
        <time>2026-09-03T11:02:44Z</time>
      </trkpt>
      <trkpt lat="32.05244608000189" lon="118.80368040868427">
        <ele>6.509860400110483</ele>
        <time>2026-09-03T11:02:57Z</time>
      </trkpt>
      <trkpt lat="32.05218392238072" lon="118.80362332036933">
        <ele>6.227136019617319</ele>
        <time>2026-09-03T11:03:09Z</time>
      </trkpt>
      <trkpt lat="32.05208993447127" lon="118.80364236646948">
        <ele>2.12632692232728</ele>
        <time>2026-09-03T11:03:12Z</time>
      </trkpt>
      <trkpt lat="32.05199301900234" lon="118.80370349569172">
        <ele>5.098885897547007</ele>
        <time>2026-09-03T11:03:15Z</time>
      </trkpt>
      <trkpt lat="32.0519221529368" lon="118.8037896719347">
        <ele>7.836282137781382</ele>
        <time>2026-09-03T11:03:18Z</time>
      </trkpt>
      <trkpt lat="32.05187545976966" lon="118.80397203582584">
        <ele>6.530997637659311</ele>
        <time>2026-09-03T11:03:24Z</time>
      </trkpt>
      <trkpt lat="32.05189173046654" lon="118.80412533705262">
        <ele>7.34481943026185</ele>
        <time>2026-09-03T11:03:30Z</time>
      </trkpt>
      <trkpt lat="32.05191486666517" lon="118.80420048345916">
        <ele>7.42672860994935</ele>
        <time>2026-09-03T11:03:33Z</time>
      </trkpt>
      <trkpt lat="32.052005126366716" lon="118.80433774672026">
        <ele>6.959046725183725</ele>
        <time>2026-09-03T11:03:39Z</time>
      </trkpt>
      <trkpt lat="32.0520902416022" lon="118.8043928480031">
        <ele>6.581200961023569</ele>
        <time>2026-09-03T11:03:45Z</time>
      </trkpt>
      <trkpt lat="32.052200248631294" lon="118.80438281805473">
        <ele>7.1572164334356785</ele>
        <time>2026-09-03T11:03:51Z</time>
      </trkpt>
      <trkpt lat="32.052487526321265" lon="118.80450503382464">
        <ele>7.521851900964975</ele>
        <time>2026-09-03T11:04:03Z</time>
      </trkpt>
      <trkpt lat="32.05279975013994" lon="118.80459317996207">
        <ele>7.9076246060431</ele>
        <time>2026-09-03T11:04:18Z</time>
      </trkpt>
      <trkpt lat="32.05302792373962" lon="118.80466329815088">
        <ele>6.789941195398569</ele>
        <time>2026-09-03T11:04:31Z</time>
      </trkpt>
      <trkpt lat="32.05316090775927" lon="118.80463723423746">
        <ele>5.225715044885874</ele>
        <time>2026-09-03T11:04:37Z</time>
      </trkpt>
      <trkpt lat="32.05326476083414" lon="118.80454003192837">
        <ele>-0.5027357302606106</ele>
        <time>2026-09-03T11:04:43Z</time>
      </trkpt>
      <trkpt lat="32.05336650327489" lon="118.80437970494134">
        <ele>7.43993890658021</ele>
        <time>2026-09-03T11:04:49Z</time>
      </trkpt>
      <trkpt lat="32.05337122971442" lon="118.80422239322387">
        <ele>7.677743319422007</ele>
        <time>2026-09-03T11:04:55Z</time>
      </trkpt>
      <trkpt lat="32.05331995450773" lon="118.80407109892522">
        <ele>7.9287618435919285</ele>
        <time>2026-09-03T11:05:01Z</time>
      </trkpt>
      <trkpt lat="32.053235742050084" lon="118.80395988709878">
        <ele>5.706609133630991</ele>
        <time>2026-09-03T11:05:07Z</time>
      </trkpt>
      <trkpt lat="32.053077572552255" lon="118.80388274944191">
        <ele>6.9801839627325535</ele>
        <time>2026-09-03T11:05:16Z</time>
      </trkpt>
      <trkpt lat="32.052924447813176" lon="118.80383066078996">
        <ele>7.603761080652475</ele>
        <time>2026-09-03T11:05:25Z</time>
      </trkpt>
      <trkpt lat="32.0528804624076" lon="118.80384469248399">
        <ele>7.019818667322397</ele>
        <time>2026-09-03T11:05:28Z</time>
      </trkpt>
      <trkpt lat="32.05276236291415" lon="118.80380262039091">
        <ele>6.39359987154603</ele>
        <time>2026-09-03T11:05:34Z</time>
      </trkpt>
      <trkpt lat="32.05267532609767" lon="118.80379260864459">
        <ele>6.937907580286264</ele>
        <time>2026-09-03T11:05:37Z</time>
      </trkpt>
      <trkpt lat="32.052457124233484" lon="118.80370445501477">
        <ele>5.455592516809702</ele>
        <time>2026-09-03T11:05:49Z</time>
      </trkpt>
      <trkpt lat="32.052171928403155" lon="118.80362833132962">
        <ele>7.0938009060919285</ele>
        <time>2026-09-03T11:06:01Z</time>
      </trkpt>
      <trkpt lat="32.052048986235846" lon="118.80367743925872">
        <ele>6.895631197839975</ele>
        <time>2026-09-03T11:06:08Z</time>
      </trkpt>
      <trkpt lat="32.05195414962348" lon="118.80378365714873">
        <ele>4.5466512478888035</ele>
        <time>2026-09-03T11:06:14Z</time>
      </trkpt>
      <trkpt lat="32.05188639767527" lon="118.80393496167102">
        <ele>7.239129427820444</ele>
        <time>2026-09-03T11:06:20Z</time>
      </trkpt>
      <trkpt lat="32.05186465282616" lon="118.80408425838169">
        <ele>6.821648959070444</ele>
        <time>2026-09-03T11:06:26Z</time>
      </trkpt>
      <trkpt lat="32.05187481579013" lon="118.80417643959896">
        <ele>7.186280611902475</ele>
        <time>2026-09-03T11:06:29Z</time>
      </trkpt>
      <trkpt lat="32.05192802870096" lon="118.80429166259157">
        <ele>-0.032410260289907455</ele>
        <time>2026-09-03T11:06:35Z</time>
      </trkpt>
      <trkpt lat="32.05203418884474" lon="118.80436980752236">
        <ele>6.134656313806772</ele>
        <time>2026-09-03T11:06:41Z</time>
      </trkpt>
      <trkpt lat="32.0522082451637" lon="118.80437981136811">
        <ele>6.383031252771616</ele>
        <time>2026-09-03T11:06:47Z</time>
      </trkpt>
      <trkpt lat="32.05233835645224" lon="118.80442689267588">
        <ele>6.811078432947397</ele>
        <time>2026-09-03T11:06:53Z</time>
      </trkpt>
      <trkpt lat="32.05240244253908" lon="118.80446796817338">
        <ele>-6.143990155309439</ele>
        <time>2026-09-03T11:06:56Z</time>
      </trkpt>
      <trkpt lat="32.05271571388073" lon="118.80458316781069">
        <ele>7.030387286096811</ele>
        <time>2026-09-03T11:07:12Z</time>
      </trkpt>
      <trkpt lat="32.05283581604079" lon="118.80462624223952">
        <ele>6.885062579065561</ele>
        <time>2026-09-03T11:07:18Z</time>
      </trkpt>
      <trkpt lat="32.05307391819885" lon="118.80465427602935">
        <ele>7.4478658474981785</ele>
        <time>2026-09-03T11:07:27Z</time>
      </trkpt>
      <trkpt lat="32.053166926639044" lon="118.80464725356578">
        <ele>5.976121310144663</ele>
        <time>2026-09-03T11:07:30Z</time>
      </trkpt>
      <trkpt lat="32.05327581412387" lon="118.80456908852844">
        <ele>6.24827516451478</ele>
        <time>2026-09-03T11:07:36Z</time>
      </trkpt>
      <trkpt lat="32.053380502892054" lon="118.80437769968708">
        <ele>7.616971377283335</ele>
        <time>2026-09-03T11:07:45Z</time>
      </trkpt>
      <trkpt lat="32.05338509650061" lon="118.80414423744757">
        <ele>6.530997637659311</ele>
        <time>2026-09-03T11:07:51Z</time>
      </trkpt>
      <trkpt lat="32.05334292645491" lon="118.80405205921673">
        <ele>7.291974429041147</ele>
        <time>2026-09-03T11:07:54Z</time>
      </trkpt>
      <trkpt lat="32.05318964633127" lon="118.803910794474">
        <ele>7.42672860994935</ele>
        <time>2026-09-03T11:08:03Z</time>
      </trkpt>
      <trkpt lat="32.05290443987039" lon="118.8038286586786">
        <ele>8.50213373079896</ele>
        <time>2026-09-03T11:08:15Z</time>
      </trkpt>
      <trkpt lat="32.05259019915736" lon="118.80373049408722">
        <ele>5.788518313318491</ele>
        <time>2026-09-03T11:08:30Z</time>
      </trkpt>
      <trkpt lat="32.052281930320646" lon="118.80361529559046">
        <ele>6.322259310632944</ele>
        <time>2026-09-03T11:08:45Z</time>
      </trkpt>
      <trkpt lat="32.05214890239575" lon="118.80361630978702">
        <ele>6.729169253259897</ele>
        <time>2026-09-03T11:08:51Z</time>
      </trkpt>
      <trkpt lat="32.05204296053086" lon="118.80366341219955">
        <ele>7.009250048547983</ele>
        <time>2026-09-03T11:08:57Z</time>
      </trkpt>
      <trkpt lat="32.05194509535876" lon="118.80375359876143">
        <ele>3.0141309536993504</ele>
        <time>2026-09-03T11:09:00Z</time>
      </trkpt>
      <trkpt lat="32.051874457801716" lon="118.80397103394057">
        <ele>0.9478734768927097</ele>
        <time>2026-09-03T11:09:06Z</time>
      </trkpt>
      <trkpt lat="32.05187160723951" lon="118.80405720431145">
        <ele>7.971036318689585</ele>
        <time>2026-09-03T11:09:09Z</time>
      </trkpt>
      <trkpt lat="32.05192590233579" lon="118.80421952008787">
        <ele>7.886483553797007</ele>
        <time>2026-09-03T11:09:15Z</time>
      </trkpt>
      <trkpt lat="32.05198609062951" lon="118.80431971277334">
        <ele>7.376527193933725</ele>
        <time>2026-09-03T11:09:18Z</time>
      </trkpt>
      <trkpt lat="32.052100256088956" lon="118.80439986097234">
        <ele>6.45701539888978</ele>
        <time>2026-09-03T11:09:21Z</time>
      </trkpt>
      <trkpt lat="32.0524574863392" lon="118.80448599885474">
        <ele>5.68546998873353</ele>
        <time>2026-09-03T11:09:36Z</time>
      </trkpt>
      <trkpt lat="32.052570574619594" lon="118.80452205995738">
        <ele>6.634045962244272</ele>
        <time>2026-09-03T11:09:39Z</time>
      </trkpt>
      <trkpt lat="32.0526757014571" lon="118.80458116751272">
        <ele>7.8653463162481785</ele>
        <time>2026-09-03T11:09:42Z</time>
      </trkpt>
      <trkpt lat="32.052973909951746" lon="118.80466230112522">
        <ele>7.030387286096811</ele>
        <time>2026-09-03T11:09:51Z</time>
      </trkpt>
      <trkpt lat="32.05315197242486" lon="118.80467531061598">
        <ele>4.0261224545538425</ele>
        <time>2026-09-03T11:09:57Z</time>
      </trkpt>
      <trkpt lat="32.05322292332644" lon="118.80463823052744">
        <ele>7.228558901697397</ele>
        <time>2026-09-03T11:10:00Z</time>
      </trkpt>
      <trkpt lat="32.05334965359796" lon="118.80446788114013">
        <ele>6.697461489588022</ele>
        <time>2026-09-03T11:10:09Z</time>
      </trkpt>
      <trkpt lat="32.05338848016696" lon="118.80436367118064">
        <ele>7.146649722009897</ele>
        <time>2026-09-03T11:10:12Z</time>
      </trkpt>
      <trkpt lat="32.05339722851215" lon="118.80421838290924">
        <ele>5.965550784021616</ele>
        <time>2026-09-03T11:10:18Z</time>
      </trkpt>
      <trkpt lat="32.05338408579438" lon="118.80413822565977">
        <ele>6.916770342737436</ele>
        <time>2026-09-03T11:10:21Z</time>
      </trkpt>
      <trkpt lat="32.05331986546769" lon="118.80401999802707">
        <ele>7.79400384798646</ele>
        <time>2026-09-03T11:10:27Z</time>
      </trkpt>
      <trkpt lat="32.05321266191932" lon="118.80391680421734">
        <ele>6.842786196619272</ele>
        <time>2026-09-03T11:10:30Z</time>
      </trkpt>
      <trkpt lat="32.05291044643592" lon="118.80383166405166">
        <ele>4.839942339807749</ele>
        <time>2026-09-03T11:10:45Z</time>
      </trkpt>
      <trkpt lat="32.05279128750217" lon="118.80375552494688">
        <ele>6.301120165735483</ele>
        <time>2026-09-03T11:10:51Z</time>
      </trkpt>
      <trkpt lat="32.05268218484343" lon="118.80371044616999">
        <ele>6.45701539888978</ele>
        <time>2026-09-03T11:10:57Z</time>
      </trkpt>
      <trkpt lat="32.052624185842355" lon="118.80371846728477">
        <ele>2.876733187586069</ele>
        <time>2026-09-03T11:11:00Z</time>
      </trkpt>
      <trkpt lat="32.0524220137379" lon="118.8036453418677">
        <ele>5.183438662439585</ele>
        <time>2026-09-03T11:11:09Z</time>
      </trkpt>
      <trkpt lat="32.05233297823061" lon="118.80363633230316">
        <ele>5.788518313318491</ele>
        <time>2026-09-03T11:11:12Z</time>
      </trkpt>
      <trkpt lat="32.05223685592698" lon="118.80357822680097">
        <ele>6.906201723963022</ele>
        <time>2026-09-03T11:11:15Z</time>
      </trkpt>
      <trkpt lat="32.05216586965783" lon="118.8035952668309">
        <ele>6.520429018884897</ele>
        <time>2026-09-03T11:11:18Z</time>
      </trkpt>
      <trkpt lat="32.052072996811546" lon="118.80368044296972">
        <ele>6.612908724695444</ele>
        <time>2026-09-03T11:11:24Z</time>
      </trkpt>
      <trkpt lat="32.051958093034216" lon="118.8037505916459">
        <ele>5.725104693323374</ele>
        <time>2026-09-03T11:11:31Z</time>
      </trkpt>
      <trkpt lat="32.051917184925564" lon="118.80380870990639">
        <ele>6.760877016931772</ele>
        <time>2026-09-03T11:11:34Z</time>
      </trkpt>
      <trkpt lat="32.05189031137104" lon="118.80388486249615">
        <ele>7.1255086697638035</ele>
        <time>2026-09-03T11:11:37Z</time>
      </trkpt>
      <trkpt lat="32.051919883514174" lon="118.80420950082822">
        <ele>4.1925863064825535</ele>
        <time>2026-09-03T11:11:49Z</time>
      </trkpt>
      <trkpt lat="32.05194702069474" lon="118.80428464696931">
        <ele>6.729169253259897</ele>
        <time>2026-09-03T11:11:52Z</time>
      </trkpt>
      <trkpt lat="32.05199814930693" lon="118.80435177512851">
        <ele>7.2708333767950535</ele>
        <time>2026-09-03T11:11:55Z</time>
      </trkpt>
      <trkpt lat="32.0521183021301" lon="118.80442390694097">
        <ele>7.5112813748419285</ele>
        <time>2026-09-03T11:12:01Z</time>
      </trkpt>
      <trkpt lat="32.052283398483105" lon="118.80445795925868">
        <ele>0.6334432400763035</ele>
        <time>2026-09-03T11:12:07Z</time>
      </trkpt>
      <trkpt lat="32.05245342588332" lon="118.80445193172535">
        <ele>6.375104311853647</ele>
        <time>2026-09-03T11:12:13Z</time>
      </trkpt>
      <trkpt lat="32.05265268580936" lon="118.80457515770476">
        <ele>7.4478658474981785</ele>
        <time>2026-09-03T11:12:22Z</time>
      </trkpt>
      <trkpt lat="32.05297988848048" lon="118.80464927472744">
        <ele>7.249696139246225</ele>
        <time>2026-09-03T11:12:37Z</time>
      </trkpt>
      <trkpt lat="32.05305593699728" lon="118.804667303531">
        <ele>7.313111666589975</ele>
        <time>2026-09-03T11:12:40Z</time>
      </trkpt>
      <trkpt lat="32.05317891001536" lon="118.80463623059532">
        <ele>6.969615343958139</ele>
        <time>2026-09-03T11:12:46Z</time>
      </trkpt>
      <trkpt lat="32.05331972050615" lon="118.80450996729012">
        <ele>7.001323107630014</ele>
        <time>2026-09-03T11:12:55Z</time>
      </trkpt>
      <trkpt lat="32.05336261795601" lon="118.80444583627462">
        <ele>6.895631197839975</ele>
        <time>2026-09-03T11:12:58Z</time>
      </trkpt>
      <trkpt lat="32.05338123543868" lon="118.80422439626732">
        <ele>6.708030108362436</ele>
        <time>2026-09-03T11:13:07Z</time>
      </trkpt>
      <trkpt lat="32.05333800916453" lon="118.80410015466317">
        <ele>6.665753725916147</ele>
        <time>2026-09-03T11:13:13Z</time>
      </trkpt>
      <trkpt lat="32.05319669847133" lon="118.80393985114694">
        <ele>6.560063723474741</ele>
        <time>2026-09-03T11:13:22Z</time>
      </trkpt>
      <trkpt lat="32.052859415899604" lon="118.80382064701678">
        <ele>6.332827929407358</ele>
        <time>2026-09-03T11:13:34Z</time>
      </trkpt>
      <trkpt lat="32.05259523684337" lon="118.8037515350685">
        <ele>6.821648959070444</ele>
        <time>2026-09-03T11:13:43Z</time>
      </trkpt>
      <trkpt lat="32.052290972343854" lon="118.80363834010704">
        <ele>6.686892870813608</ele>
        <time>2026-09-03T11:13:55Z</time>
      </trkpt>
      <trkpt lat="32.05209897998482" lon="118.8036674149406">
        <ele>7.0938009060919285</ele>
        <time>2026-09-03T11:14:04Z</time>
      </trkpt>
      <trkpt lat="32.05199310258446" lon="118.80375159040238">
        <ele>7.083234194666147</ele>
        <time>2026-09-03T11:14:10Z</time>
      </trkpt>
      <trkpt lat="32.051912481984324" lon="118.80398004824295">
        <ele>6.467584017664194</ele>
        <time>2026-09-03T11:14:19Z</time>
      </trkpt>
      <trkpt lat="32.05190375585651" lon="118.80413836168673">
        <ele>6.560063723474741</ele>
        <time>2026-09-03T11:14:25Z</time>
      </trkpt>
      <trkpt lat="32.05196604067793" lon="118.80429366306394">
        <ele>6.39359987154603</ele>
        <time>2026-09-03T11:14:31Z</time>
      </trkpt>
      <trkpt lat="32.05200814628725" lon="118.80434876825957">
        <ele>6.383031252771616</ele>
        <time>2026-09-03T11:14:34Z</time>
      </trkpt>
      <trkpt lat="32.05206321807171" lon="118.80438283064548">
        <ele>6.729169253259897</ele>
        <time>2026-09-03T11:14:37Z</time>
      </trkpt>
      <trkpt lat="32.05219630551893" lon="118.80441588389724">
        <ele>4.86108148470521</ele>
        <time>2026-09-03T11:14:43Z</time>
      </trkpt>
      <trkpt lat="32.05240550628437" lon="118.80450403937483">
        <ele>7.1994947232306</ele>
        <time>2026-09-03T11:14:55Z</time>
      </trkpt>
      <trkpt lat="32.05271973932243" lon="118.80459719526303">
        <ele>7.019818667322397</ele>
        <time>2026-09-03T11:15:10Z</time>
      </trkpt>
      <trkpt lat="32.053044001009994" lon="118.80470538020317">
        <ele>7.2814039029181</ele>
        <time>2026-09-03T11:15:25Z</time>
      </trkpt>
      <trkpt lat="32.053129011173695" lon="118.80470036244702">
        <ele>5.392178896814585</ele>
        <time>2026-09-03T11:15:29Z</time>
      </trkpt>
      <trkpt lat="32.05331282236608" lon="118.80456908512801">
        <ele>6.5732740201056</ele>
        <time>2026-09-03T11:15:35Z</time>
      </trkpt>
      <trkpt lat="32.053396392696754" lon="118.80431256930565">
        <ele>6.832217577844858</ele>
        <time>2026-09-03T11:15:44Z</time>
      </trkpt>
      <trkpt lat="32.05337212505856" lon="118.8041622742851">
        <ele>5.904778841882944</ele>
        <time>2026-09-03T11:15:50Z</time>
      </trkpt>
      <trkpt lat="32.05334400700774" lon="118.80409815015317">
        <ele>6.937907580286264</ele>
        <time>2026-09-03T11:15:53Z</time>
      </trkpt>
      <trkpt lat="32.053237733772555" lon="118.80395487703021">
        <ele>7.532418612390757</ele>
        <time>2026-09-03T11:15:59Z</time>
      </trkpt>
      <trkpt lat="32.05318263605217" lon="118.8039057852367">
        <ele>7.104371432214975</ele>
        <time>2026-09-03T11:16:02Z</time>
      </trkpt>
      <trkpt lat="32.05287640052024" lon="118.80380962373351">
        <ele>5.434455279260874</ele>
        <time>2026-09-03T11:16:17Z</time>
      </trkpt>
      <trkpt lat="32.05276726103722" lon="118.80378250002295">
        <ele>5.381608370691538</ele>
        <time>2026-09-03T11:16:26Z</time>
      </trkpt>
      <trkpt lat="32.05264716137218" lon="118.803701431632">
        <ele>7.5112813748419285</ele>
        <time>2026-09-03T11:16:29Z</time>
      </trkpt>
      <trkpt lat="32.052411037388104" lon="118.80366037245743">
        <ele>6.205998782068491</ele>
        <time>2026-09-03T11:16:41Z</time>
      </trkpt>
      <trkpt lat="32.05232291685013" lon="118.80360226619653">
        <ele>5.183438662439585</ele>
        <time>2026-09-03T11:16:44Z</time>
      </trkpt>
      <trkpt lat="32.05216986881069" lon="118.80359426449229">
        <ele>6.581200961023569</ele>
        <time>2026-09-03T11:16:53Z</time>
      </trkpt>
      <trkpt lat="32.05210488040357" lon="118.8036093000328">
        <ele>5.371039751917124</ele>
        <time>2026-09-03T11:16:56Z</time>
      </trkpt>
      <trkpt lat="32.05196802387073" lon="118.80370950982638">
        <ele>6.644616488367319</ele>
        <time>2026-09-03T11:17:06Z</time>
      </trkpt>
      <trkpt lat="32.05188636104825" lon="118.80391392016696">
        <ele>6.821648959070444</ele>
        <time>2026-09-03T11:17:12Z</time>
      </trkpt>
      <trkpt lat="32.051888764740475" lon="118.80414537692485">
        <ele>6.9801839627325535</ele>
        <time>2026-09-03T11:17:21Z</time>
      </trkpt>
      <trkpt lat="32.05195904611395" lon="118.80429767163693">
        <ele>6.959046725183725</ele>
        <time>2026-09-03T11:17:27Z</time>
      </trkpt>
      <trkpt lat="32.05205021342098" lon="118.80438182985641">
        <ele>6.811078432947397</ele>
        <time>2026-09-03T11:17:33Z</time>
      </trkpt>
      <trkpt lat="32.05238538794992" lon="118.80443891217197">
        <ele>6.060674075037241</ele>
        <time>2026-09-03T11:17:51Z</time>
      </trkpt>
      <trkpt lat="32.052676614025025" lon="118.80453106809091">
        <ele>6.771445635706186</ele>
        <time>2026-09-03T11:18:03Z</time>
      </trkpt>
      <trkpt lat="32.05300289360583" lon="118.80464927261372">
        <ele>6.028966311365366</ele>
        <time>2026-09-03T11:18:18Z</time>
      </trkpt>
      <trkpt lat="32.053168928839014" lon="118.80464825537004">
        <ele>7.062095049768686</ele>
        <time>2026-09-03T11:18:24Z</time>
      </trkpt>
      <trkpt lat="32.05324990829152" lon="118.80462620419229">
        <ele>7.42672860994935</ele>
        <time>2026-09-03T11:18:27Z</time>
      </trkpt>
      <trkpt lat="32.053318823702625" lon="118.80456908457658">
        <ele>6.655185107141733</ele>
        <time>2026-09-03T11:18:30Z</time>
      </trkpt>
      <trkpt lat="32.05340443472503" lon="118.80433561417723">
        <ele>4.266568545252085</ele>
        <time>2026-09-03T11:18:39Z</time>
      </trkpt>
      <trkpt lat="32.053416290447274" lon="118.80425144655145">
        <ele>5.392178896814585</ele>
        <time>2026-09-03T11:18:42Z</time>
      </trkpt>
      <trkpt lat="32.05337502613966" lon="118.80410516115901">
        <ele>5.339331988245249</ele>
        <time>2026-09-03T11:18:49Z</time>
      </trkpt>
      <trkpt lat="32.05330276918858" lon="118.80396689477979">
        <ele>5.392178896814585</ele>
        <time>2026-09-03T11:18:55Z</time>
      </trkpt>
      <trkpt lat="32.05320164202905" lon="118.80390678546638">
        <ele>5.307626131922007</ele>
        <time>2026-09-03T11:19:01Z</time>
      </trkpt>
      <trkpt lat="32.053037574100784" lon="118.80388876497322">
        <ele>6.081811312586069</ele>
        <time>2026-09-03T11:19:10Z</time>
      </trkpt>
      <trkpt lat="32.05274224000756" lon="118.80373448800856">
        <ele>11.509042147547007</ele>
        <time>2026-09-03T11:19:25Z</time>
      </trkpt>
      <trkpt lat="32.05243202118813" lon="118.80364834686394">
        <ele>5.080390337854624</ele>
        <time>2026-09-03T11:19:40Z</time>
      </trkpt>
    </trkseg>
  </trk>
</gpx>