<?xml version="1.0" encoding="UTF-8"?>
<gpx xmlns="http://www.topografix.com/GPX/1/1" xmlns:gpxtpx="http://www.garmin.com/xmlschemas/TrackPointExtension/v1" xmlns:xsi="http://www.w3.org/2001/XMLSchema-instance" xsi:schemaLocation="http://www.topografix.com/GPX/1/1 http://www.topografix.com/GPX/1/1/gpx.xsd" version="1.1" creator="gpx.py -- https://github.com/tkrajina/gpxpy">
  <trk>
    <name>gpx from keep</name>
    <type>Run</type>
    <trkseg>
      <trkpt lat="31.229678467439008" lon="121.3997108447479">
        <ele>21.128830786794424</ele>
        <time>2026-06-28T11:00:48Z</time>
      </trkpt>
      <trkpt lat="31.229713466955268" lon="121.39988386336002">
        <ele>5.251408454030752</ele>
        <time>2026-06-28T11:00:48Z</time>
      </trkpt>
      <trkpt lat="31.229718479786005" lon="121.40003788353074">
        <ele>25.866429205983877</ele>
        <time>2026-06-28T11:00:48Z</time>
      </trkpt>
      <trkpt lat="31.229758473213565" lon="121.40015289624411">
        <ele>26.421303626149893</ele>
        <time>2026-06-28T11:00:48Z</time>
      </trkpt>
      <trkpt lat="31.229801460730936" lon="121.40022190254928">
        <ele>23.533299323171377</ele>
        <time>2026-06-28T11:00:48Z</time>
      </trkpt>
      <trkpt lat="31.229927413458025" lon="121.40032190657944">
        <ele>14.435952063649893</ele>
        <time>2026-06-28T11:00:48Z</time>
      </trkpt>
      <trkpt lat="31.23014031899234" lon="121.40035989385264">
        <ele>25.322117682546377</ele>
        <time>2026-06-28T11:00:48Z</time>
      </trkpt>
      <trkpt lat="31.23034921606729" lon="121.40030786765303">
        <ele>3.967263098806143</ele>
        <time>2026-06-28T11:00:48Z</time>
      </trkpt>
      <trkpt lat="31.230551119347453" lon="121.40028084595507">
        <ele>23.752610083669424</ele>
        <time>2026-06-28T11:00:48Z</time>
      </trkpt>
      <trkpt lat="31.230820983282744" lon="121.40018180775974">
        <ele>23.87943732365966</ele>
        <time>2026-06-28T11:00:48Z</time>
      </trkpt>
      <trkpt lat="31.231001891232737" lon="121.4001047809368">
        <ele>12.208512183278799</ele>
        <time>2026-06-28T11:00:48Z</time>
      </trkpt>
      <trkpt lat="31.231117826452575" lon="121.39999675586068">
        <ele>23.250576850026846</ele>
        <time>2026-06-28T11:00:48Z</time>
      </trkpt>
      <trkpt lat="31.231186783867045" lon="121.39988773536527">
        <ele>26.389599677175283</ele>
        <time>2026-06-28T11:00:48Z</time>
      </trkpt>
      <trkpt lat="31.23122475481414" lon="121.3997637163388">
        <ele>28.231263037770987</ele>
        <time>2026-06-28T11:00:48Z</time>
      </trkpt>
      <trkpt lat="31.231214745912087" lon="121.39960669847359">
        <ele>28.683091040700674</ele>
        <time>2026-06-28T11:00:48Z</time>
      </trkpt>
      <trkpt lat="31.231170756599752" lon="121.39948568875171">
        <ele>28.849556799978018</ele>
        <time>2026-06-28T11:00:48Z</time>
      </trkpt>
      <trkpt lat="31.23108678827438" lon="121.39938968586495">
        <ele>27.79264533147216</ele>
        <time>2026-06-28T11:00:48Z</time>
      </trkpt>
      <trkpt lat="31.230933853223664" lon="121.39930669076634">
        <ele>27.406872626394033</ele>
        <time>2026-06-28T11:00:48Z</time>
      </trkpt>
      <trkpt lat="31.230680971010447" lon="121.39931471362269">
        <ele>26.34732138738036</ele>
        <time>2026-06-28T11:00:48Z</time>
      </trkpt>
      <trkpt lat="31.230322146526447" lon="121.39943975782177">
        <ele>25.99325644597411</ele>
        <time>2026-06-28T11:00:48Z</time>
      </trkpt>
      <trkpt lat="31.230268171723633" lon="121.39944176274292">
        <ele>26.275978919118643</ele>
        <time>2026-06-28T11:00:48Z</time>
      </trkpt>
      <trkpt lat="31.229956325212243" lon="121.39955380220994">
        <ele>25.625981207937002</ele>
        <time>2026-06-28T11:00:48Z</time>
      </trkpt>
      <trkpt lat="31.229786413919314" lon="121.39967183066521">
        <ele>26.47415244206786</ele>
        <time>2026-06-28T11:00:48Z</time>
      </trkpt>
      <trkpt lat="31.229721456976172" lon="121.39981685408615">
        <ele>19.651799079030752</ele>
        <time>2026-06-28T11:00:48Z</time>
      </trkpt>
      <trkpt lat="31.229734472356597" lon="121.40003788213579">
        <ele>27.679028388112783</ele>
        <time>2026-06-28T11:00:48Z</time>
      </trkpt>
      <trkpt lat="31.22981245430767" lon="121.40020989982372">
        <ele>21.189602728933096</ele>
        <time>2026-06-28T11:00:48Z</time>
      </trkpt>
      <trkpt lat="31.229951401632945" lon="121.40031590357123">
        <ele>24.756672736257315</ele>
        <time>2026-06-28T11:00:48Z</time>
      </trkpt>
      <trkpt lat="31.2300473613334" lon="121.40035290087876">
        <ele>21.776188727468252</ele>
        <time>2026-06-28T11:00:48Z</time>
      </trkpt>
      <trkpt lat="31.23020828779333" lon="121.40036288838856">
        <ele>24.727608557790518</ele>
        <time>2026-06-28T11:00:48Z</time>
      </trkpt>
      <trkpt lat="31.230403191822287" lon="121.40031486401055">
        <ele>22.49752890691161</ele>
        <time>2026-06-28T11:00:48Z</time>
      </trkpt>
      <trkpt lat="31.23048414917447" lon="121.40026985014289">
        <ele>-13.553656700998545</ele>
        <time>2026-06-28T11:00:48Z</time>
      </trkpt>
      <trkpt lat="31.230560113379585" lon="121.40026484276704">
        <ele>23.79488455876708</ele>
        <time>2026-06-28T11:00:48Z</time>
      </trkpt>
      <trkpt lat="31.230740024959992" lon="121.40021982038604">
        <ele>23.501591559499502</ele>
        <time>2026-06-28T11:00:48Z</time>
      </trkpt>
      <trkpt lat="31.23099489584084" lon="121.40011778338945">
        <ele>22.30992591008544</ele>
        <time>2026-06-28T11:00:48Z</time>
      </trkpt>
      <trkpt lat="31.231085846019845" lon="121.40004376508674">
        <ele>24.65362250432372</ele>
        <time>2026-06-28T11:00:48Z</time>
      </trkpt>
      <trkpt lat="31.231161801623497" lon="121.399951745971">
        <ele>27.206059332937002</ele>
        <time>2026-06-28T11:00:48Z</time>
      </trkpt>
      <trkpt lat="31.23121176191214" lon="121.39977571895761">
        <ele>25.961548682302237</ele>
        <time>2026-06-28T11:00:48Z</time>
      </trkpt>
      <trkpt lat="31.23119675383302" lon="121.39960169946754">
        <ele>25.250779028981924</ele>
        <time>2026-06-28T11:00:48Z</time>
      </trkpt>
      <trkpt lat="31.231113779783673" lon="121.39944368919488">
        <ele>25.060532446950674</ele>
        <time>2026-06-28T11:00:48Z</time>
      </trkpt>
      <trkpt lat="31.231003822690006" lon="121.39933368736854">
        <ele>15.794079657644033</ele>
        <time>2026-06-28T11:00:48Z</time>
      </trkpt>
      <trkpt lat="31.230851888809116" lon="121.39927169446563">
        <ele>23.105252142995596</ele>
        <time>2026-06-28T11:00:48Z</time>
      </trkpt>
      <trkpt lat="31.230752934478577" lon="121.39926870280455">
        <ele>24.109314795583487</ele>
        <time>2026-06-28T11:00:48Z</time>
      </trkpt>
      <trkpt lat="31.23044008809335" lon="121.39938974227591">
        <ele>20.124768134206533</ele>
        <time>2026-06-28T11:00:48Z</time>
      </trkpt>
      <trkpt lat="31.230255176105235" lon="121.39941976154446">
        <ele>13.527008887380362</ele>
        <time>2026-06-28T11:00:48Z</time>
      </trkpt>
      <trkpt lat="31.22996832036789" lon="121.39956280217783">
        <ele>25.625981207937002</ele>
        <time>2026-06-28T11:00:48Z</time>
      </trkpt>
      <trkpt lat="31.229835388285906" lon="121.39963782238983">
        <ele>24.632485266774893</ele>
        <time>2026-06-28T11:00:48Z</time>
      </trkpt>
      <trkpt lat="31.229771422864037" lon="121.39969483471549">
        <ele>23.985127326101065</ele>
        <time>2026-06-28T11:00:48Z</time>
      </trkpt>
      <trkpt lat="31.229711462357166" lon="121.39982485596967">
        <ele>24.674763556569815</ele>
        <time>2026-06-28T11:00:48Z</time>
      </trkpt>
      <trkpt lat="31.22969947488595" lon="121.399898866533">
        <ele>24.569069739431143</ele>
        <time>2026-06-28T11:00:48Z</time>
      </trkpt>
      <trkpt lat="31.229707480557224" lon="121.3999948786106">
        <ele>23.974560614675283</ele>
        <time>2026-06-28T11:00:48Z</time>
      </trkpt>
      <trkpt lat="31.229783467115812" lon="121.40020390147167">
        <ele>27.258904334157705</ele>
        <time>2026-06-28T11:00:48Z</time>
      </trkpt>
      <trkpt lat="31.229840449077482" lon="121.400279907794">
        <ele>26.820290442556143</ele>
        <time>2026-06-28T11:00:48Z</time>
      </trkpt>
      <trkpt lat="31.229925415417718" lon="121.400330908131">
        <ele>-10.966872338205576</ele>
        <time>2026-06-28T11:00:48Z</time>
      </trkpt>
      <trkpt lat="31.230047363774414" lon="121.40037390413306">
        <ele>27.103012915700674</ele>
        <time>2026-06-28T11:00:48Z</time>
      </trkpt>
      <trkpt lat="31.23017330542826" lon="121.40037489330317">
        <ele>19.329441901296377</ele>
        <time>2026-06-28T11:00:48Z</time>
      </trkpt>
      <trkpt lat="31.23047115598775" lon="121.40027685232796">
        <ele>24.611348029226065</ele>
        <time>2026-06-28T11:00:48Z</time>
      </trkpt>
      <trkpt lat="31.230531125373354" lon="121.4002518433527">
        <ele>16.10850989446044</ele>
        <time>2026-06-28T11:00:48Z</time>
      </trkpt>
      <trkpt lat="31.23071403877288" lon="121.4002358250184">
        <ele>24.328625556081533</ele>
        <time>2026-06-28T11:00:48Z</time>
      </trkpt>
      <trkpt lat="31.230937925211293" lon="121.40014579235748">
        <ele>23.58614432439208</ele>
        <time>2026-06-28T11:00:48Z</time>
      </trkpt>
      <trkpt lat="31.23110783400164" lon="121.40002576069001">
        <ele>11.928433295339346</ele>
        <time>2026-06-28T11:00:48Z</time>
      </trkpt>
      <trkpt lat="31.231190783830975" lon="121.39990673749551">
        <ele>24.381470557302237</ele>
        <time>2026-06-28T11:00:48Z</time>
      </trkpt>
      <trkpt lat="31.231173764647473" lon="121.39960370170294">
        <ele>21.88187872990966</ele>
        <time>2026-06-28T11:00:48Z</time>
      </trkpt>
      <trkpt lat="31.231049805483043" lon="121.39939068919482">
        <ele>19.6623696051538</ele>
        <time>2026-06-28T11:00:48Z</time>
      </trkpt>
      <trkpt lat="31.2309528440755" lon="121.39930168861292">
        <ele>21.118260260671377</ele>
        <time>2026-06-28T11:00:48Z</time>
      </trkpt>
      <trkpt lat="31.230809907457655" lon="121.39925969695939">
        <ele>23.250576850026846</ele>
        <time>2026-06-28T11:00:48Z</time>
      </trkpt>
      <trkpt lat="31.230737940889068" lon="121.39926070333404">
        <ele>26.024964209645987</ele>
        <time>2026-06-28T11:00:48Z</time>
      </trkpt>
      <trkpt lat="31.230707958916604" lon="121.39932071186904">
        <ele>22.71947943791747</ele>
        <time>2026-06-28T11:00:48Z</time>
      </trkpt>
      <trkpt lat="31.230494063568226" lon="121.39939673829598">
        <ele>16.430867072194815</ele>
        <time>2026-06-28T11:00:48Z</time>
      </trkpt>
      <trkpt lat="31.230447087957486" lon="121.39943174607332">
        <ele>23.702404852956533</ele>
        <time>2026-06-28T11:00:48Z</time>
      </trkpt>
      <trkpt lat="31.230267174239877" lon="121.39946876572664">
        <ele>19.067856665700674</ele>
        <time>2026-06-28T11:00:48Z</time>
      </trkpt>
      <trkpt lat="31.230137234471204" lon="121.39946777695293">
        <ele>24.28899085149169</ele>
        <time>2026-06-28T11:00:48Z</time>
      </trkpt>
      <trkpt lat="31.229884362458275" lon="121.39960081383015">
        <ele>20.21724784001708</ele>
        <time>2026-06-28T11:00:48Z</time>
      </trkpt>
      <trkpt lat="31.22976342779535" lon="121.3997088370959">
        <ele>24.78045355901122</ele>
        <time>2026-06-28T11:00:48Z</time>
      </trkpt>
      <trkpt lat="31.22970446644075" lon="121.39983385772209">
        <ele>8.459126349538565</ele>
        <time>2026-06-28T11:00:48Z</time>
      </trkpt>
      <trkpt lat="31.229705486026262" lon="121.40003988493996">
        <ele>23.7843178473413</ele>
        <time>2026-06-28T11:00:48Z</time>
      </trkpt>
      <trkpt lat="31.229796463823117" lon="121.40022890401919">
        <ele>23.543869849294424</ele>
        <time>2026-06-28T11:00:48Z</time>
      </trkpt>
      <trkpt lat="31.22989542569208" lon="121.40029890586923">
        <ele>22.09061896428466</ele>
        <time>2026-06-28T11:00:48Z</time>
      </trkpt>
      <trkpt lat="31.23007335054464" lon="121.40036390031366">
        <ele>23.79488455876708</ele>
        <time>2026-06-28T11:00:48Z</time>
      </trkpt>
      <trkpt lat="31.230404192043878" lon="121.40032086483882">
        <ele>26.01439368352294</ele>
        <time>2026-06-28T11:00:48Z</time>
      </trkpt>
      <trkpt lat="31.230581104204422" lon="121.4002698416857">
        <ele>25.31419074162841</ele>
        <time>2026-06-28T11:00:48Z</time>
      </trkpt>
      <trkpt lat="31.230658063733742" lon="121.40022682856869">
        <ele>25.102810736745596</ele>
        <time>2026-06-28T11:00:48Z</time>
      </trkpt>
      <trkpt lat="31.230879953791945" lon="121.40016179971767">
        <ele>24.841225501149893</ele>
        <time>2026-06-28T11:00:48Z</time>
      </trkpt>
      <trkpt lat="31.230989897105523" lon="121.40010778240742">
        <ele>20.322937842458487</ele>
        <time>2026-06-28T11:00:48Z</time>
      </trkpt>
      <trkpt lat="31.23108184715888" lon="121.40003676446958">
        <ele>24.23350226506591</ele>
        <time>2026-06-28T11:00:48Z</time>
      </trkpt>
      <trkpt lat="31.231185783665047" lon="121.39988073454391">
        <ele>24.254639502614737</ele>
        <time>2026-06-28T11:00:48Z</time>
      </trkpt>
      <trkpt lat="31.231208757881486" lon="121.39971471174708">
        <ele>25.031468268483877</ele>
        <time>2026-06-28T11:00:48Z</time>
      </trkpt>
      <trkpt lat="31.231161763029178" lon="121.39951469271594">
        <ele>25.448948737233877</ele>
        <time>2026-06-28T11:00:48Z</time>
      </trkpt>
      <trkpt lat="31.231078791541343" lon="121.39938368594032">
        <ele>23.805455084890127</ele>
        <time>2026-06-28T11:00:48Z</time>
      </trkpt>
      <trkpt lat="31.23102181414117" lon="121.39933068549664">
        <ele>25.94041144475341</ele>
        <time>2026-06-28T11:00:48Z</time>
      </trkpt>
      <trkpt lat="31.230701957978123" lon="121.39926670705626">
        <ele>-0.16789734736084938</ele>
        <time>2026-06-28T11:00:48Z</time>
      </trkpt>
      <trkpt lat="31.230543033936343" lon="121.39929972416184">
        <ele>10.82924735173583</ele>
        <time>2026-06-28T11:00:48Z</time>
      </trkpt>
      <trkpt lat="31.23049605995439" lon="121.39935973430164">
        <ele>16.17192542180419</ele>
        <time>2026-06-28T11:00:48Z</time>
      </trkpt>
      <trkpt lat="31.23033513877627" lon="121.3994167542535">
        <ele>20.573952551931143</ele>
        <time>2026-06-28T11:00:48Z</time>
      </trkpt>
      <trkpt lat="31.23025618026479" lon="121.39948076798531">
        <ele>20.72984778508544</ele>
        <time>2026-06-28T11:00:48Z</time>
      </trkpt>
      <trkpt lat="31.23000929957355" lon="121.39954079613172">
        <ele>5.084942694753408</ele>
        <time>2026-06-28T11:00:48Z</time>
      </trkpt>
      <trkpt lat="31.22981339791184" lon="121.39963082349124">
        <ele>18.837979193776846</ele>
        <time>2026-06-28T11:00:48Z</time>
      </trkpt>
      <trkpt lat="31.2297284628595" lon="121.39991386596884">
        <ele>22.56094443425536</ele>
        <time>2026-06-28T11:00:48Z</time>
      </trkpt>
      <trkpt lat="31.22972547090404" lon="121.39998187528298">
        <ele>19.350579138845205</ele>
        <time>2026-06-28T11:00:48Z</time>
      </trkpt>
      <trkpt lat="31.229763466441234" lon="121.40011088981082">
        <ele>21.839600440114737</ele>
        <time>2026-06-28T11:00:48Z</time>
      </trkpt>
      <trkpt lat="31.229873434772827" lon="121.4002889062742">
        <ele>22.875374671071768</ele>
        <time>2026-06-28T11:00:48Z</time>
      </trkpt>
      <trkpt lat="31.229963399738313" lon="121.40034790743094">
        <ele>12.731682654470205</ele>
        <time>2026-06-28T11:00:48Z</time>
      </trkpt>
      <trkpt lat="31.23014931597975" lon="121.40036989461844">
        <ele>22.833096381276846</ele>
        <time>2026-06-28T11:00:48Z</time>
      </trkpt>
      <trkpt lat="31.230461163561856" lon="121.4003028571285">
        <ele>24.70647132024169</ele>
        <time>2026-06-28T11:00:48Z</time>
      </trkpt>
      <trkpt lat="31.230605090068856" lon="121.400242835561">
        <ele>12.76339041814208</ele>
        <time>2026-06-28T11:00:48Z</time>
      </trkpt>
      <trkpt lat="31.230710038095005" lon="121.40021282197102">
        <ele>22.80138861760497</ele>
        <time>2026-06-28T11:00:48Z</time>
      </trkpt>
      <trkpt lat="31.230810985761384" lon="121.40016180573367">
        <ele>22.666634436696768</ele>
        <time>2026-06-28T11:00:48Z</time>
      </trkpt>
      <trkpt lat="31.231029875244175" lon="121.40007577441769">
        <ele>23.765820380300283</ele>
        <time>2026-06-28T11:00:48Z</time>
      </trkpt>
      <trkpt lat="31.231141810884438" lon="121.3999517477148">
        <ele>2.0357598029077053</ele>
        <time>2026-06-28T11:00:48Z</time>
      </trkpt>
      <trkpt lat="31.231196772592423" lon="121.39981672539747">
        <ele>22.00606619939208</ele>
        <time>2026-06-28T11:00:48Z</time>
      </trkpt>
      <trkpt lat="31.231198756326492" lon="121.39964270405073">
        <ele>19.51704489812255</ele>
        <time>2026-06-28T11:00:48Z</time>
      </trkpt>
      <trkpt lat="31.231185754375808" lon="121.39954569407097">
        <ele>13.817658301442862</ele>
        <time>2026-06-28T11:00:48Z</time>
      </trkpt>
      <trkpt lat="31.231094785818946" lon="121.39940668694037">
        <ele>24.529438849538565</ele>
        <time>2026-06-28T11:00:48Z</time>
      </trkpt>
      <trkpt lat="31.230956842569288" lon="121.39930668876099">
        <ele>23.953423377126455</ele>
        <time>2026-06-28T11:00:48Z</time>
      </trkpt>
      <trkpt lat="31.23074793809122" lon="121.39928770510251">
        <ele>19.495903845876455</ele>
        <time>2026-06-28T11:00:48Z</time>
      </trkpt>
      <trkpt lat="31.230689966074074" lon="121.39930371174212">
        <ele>19.400784369558096</ele>
        <time>2026-06-28T11:00:48Z</time>
      </trkpt>
      <trkpt lat="31.230628998226376" lon="121.39935872260341">
        <ele>18.774563666433096</ele>
        <time>2026-06-28T11:00:48Z</time>
      </trkpt>
      <trkpt lat="31.230489065593098" lon="121.39939273831548">
        <ele>24.183300849050283</ele>
        <time>2026-06-28T11:00:48Z</time>
      </trkpt>
      <trkpt lat="31.230440090455765" lon="121.39942174562577">
        <ele>25.866429205983877</ele>
        <time>2026-06-28T11:00:48Z</time>
      </trkpt>
      <trkpt lat="31.230276168541888" lon="121.3994487627927">
        <ele>11.999775763601065</ele>
        <time>2026-06-28T11:00:48Z</time>
      </trkpt>
      <trkpt lat="31.23010025895065" lon="121.39956079044353">
        <ele>20.45769202336669</ele>
        <time>2026-06-28T11:00:48Z</time>
      </trkpt>
      <trkpt lat="31.22994833299922" lon="121.39960380859523">
        <ele>22.383911963552237</ele>
        <time>2026-06-28T11:00:48Z</time>
      </trkpt>
      <trkpt lat="31.229740443608495" lon="121.39976684618294">
        <ele>24.727608557790518</ele>
        <time>2026-06-28T11:00:48Z</time>
      </trkpt>
      <trkpt lat="31.229700476150388" lon="121.39991686880427">
        <ele>23.147526618093252</ele>
        <time>2026-06-28T11:00:48Z</time>
      </trkpt>
      <trkpt lat="31.22969648526594" lon="121.39999087902767">
        <ele>19.934521552175283</ele>
        <time>2026-06-28T11:00:48Z</time>
      </trkpt>
      <trkpt lat="31.229740479866507" lon="121.40013689551779">
        <ele>27.478215094655752</ele>
        <time>2026-06-28T11:00:48Z</time>
      </trkpt>
      <trkpt lat="31.22980646195109" lon="121.40025390686111">
        <ele>-30.271323326975107</ele>
        <time>2026-06-28T11:00:48Z</time>
      </trkpt>
      <trkpt lat="31.229928415867676" lon="121.40034691032831">
        <ele>28.50605856999755</ele>
        <time>2026-06-28T11:00:48Z</time>
      </trkpt>
      <trkpt lat="31.230055360646134" lon="121.40037890421384">
        <ele>27.718663092702627</ele>
        <time>2026-06-28T11:00:48Z</time>
      </trkpt>
      <trkpt lat="31.230289250685416" lon="121.40036688194664">
        <ele>25.081673499196768</ele>
        <time>2026-06-28T11:00:48Z</time>
      </trkpt>
      <trkpt lat="31.230477160144762" lon="121.4003378610782">
        <ele>24.119885321706533</ele>
        <time>2026-06-28T11:00:48Z</time>
      </trkpt>
      <trkpt lat="31.23073802820394" lon="121.40024082366786">
        <ele>22.405049201101065</ele>
        <time>2026-06-28T11:00:48Z</time>
      </trkpt>
      <trkpt lat="31.231026882392527" lon="121.4001307824506">
        <ele>23.58614432439208</ele>
        <time>2026-06-28T11:00:48Z</time>
      </trkpt>
      <trkpt lat="31.231126823588475" lon="121.40000975684454">
        <ele>24.791024085134268</ele>
        <time>2026-06-28T11:00:48Z</time>
      </trkpt>
      <trkpt lat="31.23117679127543" lon="121.39991674002853">
        <ele>24.487160559743643</ele>
        <time>2026-06-28T11:00:48Z</time>
      </trkpt>
      <trkpt lat="31.23120177119974" lon="121.39982672622662">
        <ele>18.71115195378661</ele>
        <time>2026-06-28T11:00:48Z</time>
      </trkpt>
      <trkpt lat="31.23120675203341" lon="121.39963570253471">
        <ele>21.984928961843252</ele>
        <time>2026-06-28T11:00:48Z</time>
      </trkpt>
      <trkpt lat="31.231167758453818" lon="121.3994916896675">
        <ele>19.633305426687002</ele>
        <time>2026-06-28T11:00:48Z</time>
      </trkpt>
      <trkpt lat="31.231084788544322" lon="121.39938068510683">
        <ele>23.87943732365966</ele>
        <time>2026-06-28T11:00:48Z</time>
      </trkpt>
      <trkpt lat="31.2309318544283" lon="121.39931069133911">
        <ele>23.86886679753661</ele>
        <time>2026-06-28T11:00:48Z</time>
      </trkpt>
      <trkpt lat="31.23080391492123" lon="121.39932770420182">
        <ele>23.105252142995596</ele>
        <time>2026-06-28T11:00:48Z</time>
      </trkpt>
      <trkpt lat="31.230689967118785" lon="121.39931871323807">
        <ele>23.93228232488036</ele>
        <time>2026-06-28T11:00:48Z</time>
      </trkpt>
      <trkpt lat="31.23046607501835" lon="121.39937573856034">
        <ele>22.539803382009268</ele>
        <time>2026-06-28T11:00:48Z</time>
      </trkpt>
      <trkpt lat="31.230323146818154" lon="121.39944975880188">
        <ele>22.988991614431143</ele>
        <time>2026-06-28T11:00:48Z</time>
      </trkpt>
      <trkpt lat="31.230226193488452" lon="121.39947176962549">
        <ele>16.578835364431143</ele>
        <time>2026-06-28T11:00:48Z</time>
      </trkpt>
      <trkpt lat="31.230058279005274" lon="121.39956779489633">
        <ele>26.537564154714346</ele>
        <time>2026-06-28T11:00:48Z</time>
      </trkpt>
      <trkpt lat="31.22989735634139" lon="121.39959981258185">
        <ele>26.254841681569815</ele>
        <time>2026-06-28T11:00:48Z</time>
      </trkpt>
      <trkpt lat="31.229778419960784" lon="121.39969883458497">
        <ele>25.01033103093505</ele>
        <time>2026-06-28T11:00:48Z</time>
      </trkpt>
      <trkpt lat="31.22970047566873" lon="121.39991186814743">
        <ele>24.056469794362783</ele>
        <time>2026-06-28T11:00:48Z</time>
      </trkpt>
      <trkpt lat="31.229708492926502" lon="121.40011989588334">
        <ele>20.280659552663565</ele>
        <time>2026-06-28T11:00:48Z</time>
      </trkpt>
      <trkpt lat="31.22976548031925" lon="121.40024790954139">
        <ele>16.89326560124755</ele>
        <time>2026-06-28T11:00:48Z</time>
      </trkpt>
      <trkpt lat="31.23005236556602" lon="121.40040890917255">
        <ele>21.67313849553466</ele>
        <time>2026-06-28T11:00:48Z</time>
      </trkpt>
      <trkpt lat="31.230168313997957" lon="121.40042790205833">
        <ele>20.8249672614038</ele>
        <time>2026-06-28T11:00:48Z</time>
      </trkpt>
      <trkpt lat="31.230381203282114" lon="121.40032586760844">
        <ele>22.854233618825674</ele>
        <time>2026-06-28T11:00:48Z</time>
      </trkpt>
      <trkpt lat="31.23050414476249" lon="121.40031285489992">
        <ele>24.172730322927237</ele>
        <time>2026-06-28T11:00:48Z</time>
      </trkpt>
      <trkpt lat="31.230716036742386" lon="121.40022582336402">
        <ele>19.94509207829833</ele>
        <time>2026-06-28T11:00:48Z</time>
      </trkpt>
      <trkpt lat="31.23075801377687" lon="121.40019381500146">
        <ele>20.552815314382315</ele>
        <time>2026-06-28T11:00:48Z</time>
      </trkpt>
      <trkpt lat="31.230866962186184" lon="121.40018380404001">
        <ele>22.529236670583487</ele>
        <time>2026-06-28T11:00:48Z</time>
      </trkpt>
      <trkpt lat="31.230924932622933" lon="121.40015879536128">
        <ele>23.398545142263174</ele>
        <time>2026-06-28T11:00:48Z</time>
      </trkpt>
      <trkpt lat="31.231116827616642" lon="121.40000375689908">
        <ele>24.611348029226065</ele>
        <time>2026-06-28T11:00:48Z</time>
      </trkpt>
      <trkpt lat="31.231155804499757" lon="121.3999527466275">
        <ele>5.177422400563955</ele>
        <time>2026-06-28T11:00:48Z</time>
      </trkpt>
      <trkpt lat="31.231218757054844" lon="121.3997577161221">
        <ele>26.098946448415518</ele>
        <time>2026-06-28T11:00:48Z</time>
      </trkpt>
      <trkpt lat="31.231228741595896" lon="121.39963270026654">
        <ele>25.374966498464346</ele>
        <time>2026-06-28T11:00:48Z</time>
      </trkpt>
      <trkpt lat="31.23118075329106" lon="121.39950268973833">
        <ele>26.41073691472411</ele>
        <time>2026-06-28T11:00:48Z</time>
      </trkpt>
      <trkpt lat="31.231117775315756" lon="121.39940868514458">
        <ele>26.36845862492919</ele>
        <time>2026-06-28T11:00:48Z</time>
      </trkpt>
      <trkpt lat="31.23102581193653" lon="121.39932568464478">
        <ele>11.111969824880362</ele>
        <time>2026-06-28T11:00:48Z</time>
      </trkpt>
      <trkpt lat="31.23091785891329" lon="121.39928168969037">
        <ele>24.183300849050283</ele>
        <time>2026-06-28T11:00:48Z</time>
      </trkpt>
      <trkpt lat="31.230837895092158" lon="121.39926869539352">
        <ele>24.999760504812002</ele>
        <time>2026-06-28T11:00:48Z</time>
      </trkpt>
      <trkpt lat="31.230652983292245" lon="121.39930471506744">
        <ele>22.44468390569091</ele>
        <time>2026-06-28T11:00:48Z</time>
      </trkpt>
      <trkpt lat="31.230454082629738" lon="121.39940374251425">
        <ele>16.24326789006591</ele>
        <time>2026-06-28T11:00:48Z</time>
      </trkpt>
      <trkpt lat="31.230203202480375" lon="121.3994497692643">
        <ele>24.476590033620596</ele>
        <time>2026-06-28T11:00:48Z</time>
      </trkpt>
      <trkpt lat="31.230063274195626" lon="121.39953679097705">
        <ele>19.07842719182372</ele>
        <time>2026-06-28T11:00:48Z</time>
      </trkpt>
      <trkpt lat="31.229900353799476" lon="121.39958581071743">
        <ele>21.149968024343252</ele>
        <time>2026-06-28T11:00:48Z</time>
      </trkpt>
      <trkpt lat="31.22977841900878" lon="121.39968783326756">
        <ele>14.340828772634268</ele>
        <time>2026-06-28T11:00:48Z</time>
      </trkpt>
      <trkpt lat="31.229721457991" lon="121.39982785547805">
        <ele>22.843666907399893</ele>
        <time>2026-06-28T11:00:48Z</time>
      </trkpt>
      <trkpt lat="31.229710474909467" lon="121.39995187256702">
        <ele>15.167858954519033</ele>
        <time>2026-06-28T11:00:48Z</time>
      </trkpt>
      <trkpt lat="31.229738480052895" lon="121.40012989469206">
        <ele>24.92577826604247</ele>
        <time>2026-06-28T11:00:48Z</time>
      </trkpt>
      <trkpt lat="31.22988843076112" lon="121.40031490891147">
        <ele>24.70647132024169</ele>
        <time>2026-06-28T11:00:48Z</time>
      </trkpt>
      <trkpt lat="31.230108337107374" lon="121.40038790099716">
        <ele>19.4536293707788</ele>
        <time>2026-06-28T11:00:48Z</time>
      </trkpt>
      <trkpt lat="31.230368210228903" lon="121.40033386996751">
        <ele>22.486958380788565</ele>
        <time>2026-06-28T11:00:48Z</time>
      </trkpt>
      <trkpt lat="31.230657064417688" lon="121.40022882895157">
        <ele>21.001999732106924</ele>
        <time>2026-06-28T11:00:48Z</time>
      </trkpt>
      <trkpt lat="31.230956916090296" lon="121.40014279027054">
        <ele>23.543869849294424</ele>
        <time>2026-06-28T11:00:48Z</time>
      </trkpt>
      <trkpt lat="31.231091845291466" lon="121.40006376733751">
        <ele>21.5780190192163</ele>
        <time>2026-06-28T11:00:48Z</time>
      </trkpt>
      <trkpt lat="31.23118078913421" lon="121.39991373928552">
        <ele>18.29367148503661</ele>
        <time>2026-06-28T11:00:48Z</time>
      </trkpt>
      <trkpt lat="31.231209765289584" lon="121.39980272250169">
        <ele>22.246514197438955</ele>
        <time>2026-06-28T11:00:48Z</time>
      </trkpt>
      <trkpt lat="31.231171760698174" lon="121.39954369506768">
        <ele>19.86318289861083</ele>
        <time>2026-06-28T11:00:48Z</time>
      </trkpt>
      <trkpt lat="31.2310428086519" lon="121.39938968970128">
        <ele>17.363591071218252</ele>
        <time>2026-06-28T11:00:48Z</time>
      </trkpt>
      <trkpt lat="31.230895868220475" lon="121.39926869033656">
        <ele>20.050782080739737</ele>
        <time>2026-06-28T11:00:48Z</time>
      </trkpt>
      <trkpt lat="31.230662980687335" lon="121.3993337170999">
        <ele>19.443058844655752</ele>
        <time>2026-06-28T11:00:48Z</time>
      </trkpt>
      <trkpt lat="31.2305350416579" lon="121.39935673059475">
        <ele>20.040215369313955</ele>
        <time>2026-06-28T11:00:48Z</time>
      </trkpt>
      <trkpt lat="31.230494063274868" lon="121.39939273787955">
        <ele>19.96622931584716</ele>
        <time>2026-06-28T11:00:48Z</time>
      </trkpt>
      <trkpt lat="31.230199206860554" lon="121.3994827731723">
        <ele>19.506474371999502</ele>
        <time>2026-06-28T11:00:48Z</time>
      </trkpt>
      <trkpt lat="31.2299293405023" lon="121.3995878084174">
        <ele>19.16033637151122</ele>
        <time>2026-06-28T11:00:48Z</time>
      </trkpt>
      <trkpt lat="31.229794412272085" lon="121.39969583283009">
        <ele>21.0337074957788</ele>
        <time>2026-06-28T11:00:48Z</time>
      </trkpt>
      <trkpt lat="31.229737449087295" lon="121.39981185206064">
        <ele>20.040215369313955</ele>
        <time>2026-06-28T11:00:48Z</time>
      </trkpt>
      <trkpt lat="31.2297254808505" lon="121.40007988875668">
        <ele>18.470703955739737</ele>
        <time>2026-06-28T11:00:48Z</time>
      </trkpt>
      <trkpt lat="31.229768470933102" lon="121.40017489855074">
        <ele>19.548752661794424</ele>
        <time>2026-06-28T11:00:48Z</time>
      </trkpt>
      <trkpt lat="31.22986143831773" lon="121.40027090461005">
        <ele>19.22375189885497</ele>
        <time>2026-06-28T11:00:48Z</time>
      </trkpt>
      <trkpt lat="31.230076346951623" lon="121.40034489711671">
        <ele>19.170906897634268</ele>
        <time>2026-06-28T11:00:48Z</time>
      </trkpt>
      <trkpt lat="31.230360209603703" lon="121.40029586487319">
        <ele>18.470703955739737</ele>
        <time>2026-06-28T11:00:48Z</time>
      </trkpt>
      <trkpt lat="31.23062707755216" lon="121.40022183053323">
        <ele>20.626797553151846</ele>
        <time>2026-06-28T11:00:48Z</time>
      </trkpt>
      <trkpt lat="31.2307160365222" lon="121.40022382306866">
        <ele>20.425984259694815</ele>
        <time>2026-06-28T11:00:48Z</time>
      </trkpt>
      <trkpt lat="31.23097091035154" lon="121.4001497900548">
        <ele>21.390416022390127</ele>
        <time>2026-06-28T11:00:48Z</time>
      </trkpt>
      <trkpt lat="31.231100839073342" lon="121.4000437637789">
        <ele>14.163796301931143</ele>
        <time>2026-06-28T11:00:48Z</time>
      </trkpt>
      <trkpt lat="31.231221758549356" lon="121.39978971982819">
        <ele>7.455063696950674</ele>
        <time>2026-06-28T11:00:48Z</time>
      </trkpt>
      <trkpt lat="31.231199750476872" lon="121.39957769646198">
        <ele>21.51460349187255</ele>
        <time>2026-06-28T11:00:48Z</time>
      </trkpt>
      <trkpt lat="31.23110378539984" lon="121.39945669145798">
        <ele>22.811959143728018</ele>
        <time>2026-06-28T11:00:48Z</time>
      </trkpt>
      <trkpt lat="31.230953845779556" lon="121.39933269162711">
        <ele>18.565823432058096</ele>
        <time>2026-06-28T11:00:48Z</time>
      </trkpt>
      <trkpt lat="31.230804911678163" lon="121.39928770013276">
        <ele>19.622734900563955</ele>
        <time>2026-06-28T11:00:48Z</time>
      </trkpt>
      <trkpt lat="31.230515050786966" lon="121.39935473213437">
        <ele>22.92821967229247</ele>
        <time>2026-06-28T11:00:48Z</time>
      </trkpt>
      <trkpt lat="31.230390112972472" lon="121.39941274903758">
        <ele>21.829033728688955</ele>
        <time>2026-06-28T11:00:48Z</time>
      </trkpt>
      <trkpt lat="31.23035713127707" lon="121.39945275615872">
        <ele>18.919888373464346</ele>
        <time>2026-06-28T11:00:48Z</time>
      </trkpt>
      <trkpt lat="31.230170219237415" lon="121.39946877418376">
        <ele>22.257080908864737</ele>
        <time>2026-06-28T11:00:48Z</time>
      </trkpt>
      <trkpt lat="31.229998302776114" lon="121.39951679442358">
        <ele>21.1605385504663</ele>
        <time>2026-06-28T11:00:48Z</time>
      </trkpt>
      <trkpt lat="31.229809401707517" lon="121.399653826533">
        <ele>20.333504553884268</ele>
        <time>2026-06-28T11:00:48Z</time>
      </trkpt>
      <trkpt lat="31.229767425763768" lon="121.39970683650611">
        <ele>22.405049201101065</ele>
        <time>2026-06-28T11:00:48Z</time>
      </trkpt>
      <trkpt lat="31.22969548021536" lon="121.39993487161566">
        <ele>19.09956442937255</ele>
        <time>2026-06-28T11:00:48Z</time>
      </trkpt>
      <trkpt lat="31.229731479624462" lon="121.40009489034041">
        <ele>22.9493569098413</ele>
        <time>2026-06-28T11:00:48Z</time>
      </trkpt>
      <trkpt lat="31.229770468391326" lon="121.40015989620646">
        <ele>21.348137732595205</ele>
        <time>2026-06-28T11:00:48Z</time>
      </trkpt>
      <trkpt lat="31.229930410582142" lon="121.40030890433613">
        <ele>20.37578284367919</ele>
        <time>2026-06-28T11:00:48Z</time>
      </trkpt>
      <trkpt lat="31.22998438906892" lon="121.4003399043685">
        <ele>15.878632422536612</ele>
        <time>2026-06-28T11:00:48Z</time>
      </trkpt>
      <trkpt lat="31.230118329199765" lon="121.40035989577073">
        <ele>20.259522315114737</ele>
        <time>2026-06-28T11:00:48Z</time>
      </trkpt>
      <trkpt lat="31.230321230879436" lon="121.40032387253376">
        <ele>14.269486304372549</ele>
        <time>2026-06-28T11:00:48Z</time>
      </trkpt>
      <trkpt lat="31.23059709355553" lon="121.40024083596136">
        <ele>20.56338584050536</ele>
        <time>2026-06-28T11:00:48Z</time>
      </trkpt>
      <trkpt lat="31.230873953266716" lon="121.4001307957905">
        <ele>19.789196845144033</ele>
        <time>2026-06-28T11:00:48Z</time>
      </trkpt>
      <trkpt lat="31.230982899719265" lon="121.40010178216949">
        <ele>19.120701666921377</ele>
        <time>2026-06-28T11:00:48Z</time>
      </trkpt>
      <trkpt lat="31.231141811080512" lon="121.39995374798158">
        <ele>-31.925387505441904</ele>
        <time>2026-06-28T11:00:48Z</time>
      </trkpt>
      <trkpt lat="31.23118078018475" lon="121.39981872704512">
        <ele>23.660130377858877</ele>
        <time>2026-06-28T11:00:48Z</time>
      </trkpt>
      <trkpt lat="31.23119376377975" lon="121.399702711608">
        <ele>16.31725012883544</ele>
        <time>2026-06-28T11:00:48Z</time>
      </trkpt>
      <trkpt lat="31.231142769024476" lon="121.39947869043215">
        <ele>14.309121008962393</ele>
        <time>2026-06-28T11:00:48Z</time>
      </trkpt>
      <trkpt lat="31.231110779076108" lon="121.39941568649007">
        <ele>23.250576850026846</ele>
        <time>2026-06-28T11:00:48Z</time>
      </trkpt>
      <trkpt lat="31.23098383075928" lon="121.39931668740445">
        <ele>21.5780190192163</ele>
        <time>2026-06-28T11:00:48Z</time>
      </trkpt>
      <trkpt lat="31.23078991952433" lon="121.3993007027255">
        <ele>22.978421088308096</ele>
        <time>2026-06-28T11:00:48Z</time>
      </trkpt>
      <trkpt lat="31.230658982259087" lon="121.39932971704543">
        <ele>20.09306037053466</ele>
        <time>2026-06-28T11:00:48Z</time>
      </trkpt>
      <trkpt lat="31.230471074968737" lon="121.39940674134604">
        <ele>17.855053778737783</ele>
        <time>2026-06-28T11:00:48Z</time>
      </trkpt>
      <trkpt lat="31.230190216142713" lon="121.39946018366419">
        <ele>21.765618201345205</ele>
        <time>2026-06-28T11:00:48Z</time>
      </trkpt>
      <trkpt lat="31.229985308102552" lon="121.39950779456458">
        <ele>23.51216208562255</ele>
        <time>2026-06-28T11:00:48Z</time>
      </trkpt>
      <trkpt lat="31.229780420689192" lon="121.39971783670107">
        <ele>13.651196356862783</ele>
        <time>2026-06-28T11:00:48Z</time>
      </trkpt>
      <trkpt lat="31.229724458924345" lon="121.39985285840352">
        <ele>22.843666907399893</ele>
        <time>2026-06-28T11:00:48Z</time>
      </trkpt>
      <trkpt lat="31.22971747671433" lon="121.40000287882519">
        <ele>23.79488455876708</ele>
        <time>2026-06-28T11:00:48Z</time>
      </trkpt>
      <trkpt lat="31.229758471190422" lon="121.40013389351954">
        <ele>21.37984549626708</ele>
        <time>2026-06-28T11:00:48Z</time>
      </trkpt>
      <trkpt lat="31.22983444795137" lon="121.40024490307917">
        <ele>20.040215369313955</ele>
        <time>2026-06-28T11:00:48Z</time>
      </trkpt>
      <trkpt lat="31.229904421627854" lon="121.40029990523617">
        <ele>22.917649146169424</ele>
        <time>2026-06-28T11:00:48Z</time>
      </trkpt>
      <trkpt lat="31.230118332232927" lon="121.40038589981287">
        <ele>23.46195685490966</ele>
        <time>2026-06-28T11:00:48Z</time>
      </trkpt>
      <trkpt lat="31.230449167766544" lon="121.4002908563571">
        <ele>-11.830893639475107</ele>
        <time>2026-06-28T11:00:48Z</time>
      </trkpt>
      <trkpt lat="31.23056810369471" lon="121.4002108340577">
        <ele>22.56094443425536</ele>
        <time>2026-06-28T11:00:48Z</time>
      </trkpt>
      <trkpt lat="31.230678047395802" lon="121.4001618173297">
        <ele>22.833096381276846</ele>
        <time>2026-06-28T11:00:48Z</time>
      </trkpt>
      <trkpt lat="31.230789993461364" lon="121.40014280483103">
        <ele>19.94509207829833</ele>
        <time>2026-06-28T11:00:48Z</time>
      </trkpt>
      <trkpt lat="31.230922927199202" lon="121.40009878697742">
        <ele>18.407288428395987</ele>
        <time>2026-06-28T11:00:48Z</time>
      </trkpt>
      <trkpt lat="31.23112082257753" lon="121.39997175222302">
        <ele>19.361149664968252</ele>
        <time>2026-06-28T11:00:48Z</time>
      </trkpt>
      <trkpt lat="31.231164797701556" lon="121.39992574226044">
        <ele>19.170906897634268</ele>
        <time>2026-06-28T11:00:48Z</time>
      </trkpt>
      <trkpt lat="31.231209764833174" lon="121.39979772187479">
        <ele>19.411351080983877</ele>
        <time>2026-06-28T11:00:48Z</time>
      </trkpt>
      <trkpt lat="31.23121174955052" lon="121.39963370186537">
        <ele>19.38228690251708</ele>
        <time>2026-06-28T11:00:48Z</time>
      </trkpt>
      <trkpt lat="31.23117375841972" lon="121.39952669299824">
        <ele>19.86318289861083</ele>
        <time>2026-06-28T11:00:48Z</time>
      </trkpt>
      <trkpt lat="31.231084789054442" lon="121.39938768583173">
        <ele>23.93228232488036</ele>
        <time>2026-06-28T11:00:48Z</time>
      </trkpt>
      <trkpt lat="31.23097783416929" lon="121.39932568882986">
        <ele>24.045899268239737</ele>
        <time>2026-06-28T11:00:48Z</time>
      </trkpt>
      <trkpt lat="31.230641991200557" lon="121.39934472004404">
        <ele>11.791035529226065</ele>
        <time>2026-06-28T11:00:48Z</time>
      </trkpt>
      <trkpt lat="31.230332141587546" lon="121.39943575652447">
        <ele>22.02720343694091</ele>
        <time>2026-06-28T11:00:48Z</time>
      </trkpt>
      <trkpt lat="31.230066269965878" lon="121.39950078673355">
        <ele>21.79732596501708</ele>
        <time>2026-06-28T11:00:48Z</time>
      </trkpt>
      <trkpt lat="31.229856375951588" lon="121.39960681696175">
        <ele>12.784531470388174</ele>
        <time>2026-06-28T11:00:48Z</time>
      </trkpt>
      <trkpt lat="31.229748436337356" lon="121.39972684058257">
        <ele>18.59753119572997</ele>
        <time>2026-06-28T11:00:48Z</time>
      </trkpt>
      <trkpt lat="31.229694474925033" lon="121.39987486385078">
        <ele>20.040215369313955</ele>
        <time>2026-06-28T11:00:48Z</time>
      </trkpt>
      <trkpt lat="31.229701488904848" lon="121.40004988667093">
        <ele>21.358708258718252</ele>
        <time>2026-06-28T11:00:48Z</time>
      </trkpt>
      <trkpt lat="31.22974647328635" lon="121.40010088987869">
        <ele>22.362770911306143</ele>
        <time>2026-06-28T11:00:48Z</time>
      </trkpt>
      <trkpt lat="31.22987443725989" lon="121.40031491013207">
        <ele>15.722737189382315</ele>
        <time>2026-06-28T11:00:48Z</time>
      </trkpt>
      <trkpt lat="31.230003387478522" lon="121.40040191234442">
        <ele>10.652214881032705</ele>
        <time>2026-06-28T11:00:48Z</time>
      </trkpt>
      <trkpt lat="31.230094345958754" lon="121.4004079053534">
        <ele>20.877816077321768</ele>
        <time>2026-06-28T11:00:48Z</time>
      </trkpt>
      <trkpt lat="31.23015830948252" lon="121.40034989073808">
        <ele>20.24895178899169</ele>
        <time>2026-06-28T11:00:48Z</time>
      </trkpt>
      <trkpt lat="31.230309240247298" lon="121.40035687865401">
        <ele>17.487778540700674</ele>
        <time>2026-06-28T11:00:48Z</time>
      </trkpt>
      <trkpt lat="31.230571108840117" lon="121.40026984255758">
        <ele>22.394478674978018</ele>
        <time>2026-06-28T11:00:48Z</time>
      </trkpt>
      <trkpt lat="31.230847971314187" lon="121.40018680613342">
        <ele>22.111756201833487</ele>
        <time>2026-06-28T11:00:48Z</time>
      </trkpt>
      <trkpt lat="31.230973908322095" lon="121.40014378893171">
        <ele>8.176403876394033</ele>
        <time>2026-06-28T11:00:48Z</time>
      </trkpt>
      <trkpt lat="31.231171792916555" lon="121.39990973954528">
        <ele>23.020699378103018</ele>
        <time>2026-06-28T11:00:48Z</time>
      </trkpt>
      <trkpt lat="31.231199766927734" lon="121.39976971926028">
        <ele>22.22537314519286</ele>
        <time>2026-06-28T11:00:48Z</time>
      </trkpt>
      <trkpt lat="31.231183760265203" lon="121.39960670117648">
        <ele>15.46907889470458</ele>
        <time>2026-06-28T11:00:48Z</time>
      </trkpt>
      <trkpt lat="31.231131773043725" lon="121.39946468987722">
        <ele>21.504032965749502</ele>
        <time>2026-06-28T11:00:48Z</time>
      </trkpt>
      <trkpt lat="31.231017816346938" lon="121.39933568634981">
        <ele>22.685128089040518</ele>
        <time>2026-06-28T11:00:48Z</time>
      </trkpt>
      <trkpt lat="31.23096883680253" lon="121.39930368741646">
        <ele>21.472325202077627</ele>
        <time>2026-06-28T11:00:48Z</time>
      </trkpt>
      <trkpt lat="31.230771926285698" lon="121.39927770202762">
        <ele>15.17842948064208</ele>
        <time>2026-06-28T11:00:48Z</time>
      </trkpt>
      <trkpt lat="31.23070995687429" lon="121.39930471009771">
        <ele>13.809731360524893</ele>
        <time>2026-06-28T11:00:48Z</time>
      </trkpt>
      <trkpt lat="31.23064698642061" lon="121.39930971608817">
        <ele>19.683506842702627</ele>
        <time>2026-06-28T11:00:48Z</time>
      </trkpt>
      <trkpt lat="31.23038611460522" lon="121.39940974907141">
        <ele>22.01663291081786</ele>
        <time>2026-06-28T11:00:48Z</time>
      </trkpt>
      <trkpt lat="31.23027016929643" lon="121.3994217604476">
        <ele>20.21724784001708</ele>
        <time>2026-06-28T11:00:48Z</time>
      </trkpt>
      <trkpt lat="31.230122244372303" lon="121.39950578240011">
        <ele>22.122326727956533</ele>
        <time>2026-06-28T11:00:48Z</time>
      </trkpt>
      <trkpt lat="31.23004427793056" lon="121.39947178549343">
        <ele>19.923954840749502</ele>
        <time>2026-06-28T11:00:48Z</time>
      </trkpt>
      <trkpt lat="31.229838382662194" lon="121.39958681623709">
        <ele>18.23025595769286</ele>
        <time>2026-06-28T11:00:48Z</time>
      </trkpt>
      <trkpt lat="31.229755430639706" lon="121.39969883659023">
        <ele>21.295292731374502</ele>
        <time>2026-06-28T11:00:48Z</time>
      </trkpt>
      <trkpt lat="31.229727459696033" lon="121.399875861103">
        <ele>19.16033637151122</ele>
        <time>2026-06-28T11:00:48Z</time>
      </trkpt>
      <trkpt lat="31.229760466785965" lon="121.40010088865809">
        <ele>18.97273337468505</ele>
        <time>2026-06-28T11:00:48Z</time>
      </trkpt>
      <trkpt lat="31.22993341354691" lon="121.40034690989238">
        <ele>9.774979468435049</ele>
        <time>2026-06-28T11:00:48Z</time>
      </trkpt>
      <trkpt lat="31.230090344171494" lon="121.40037690085087">
        <ele>20.750985022634268</ele>
        <time>2026-06-28T11:00:48Z</time>
      </trkpt>
      <trkpt lat="31.230410188234163" lon="121.40031186294323">
        <ele>20.740418311208487</ele>
        <time>2026-06-28T11:00:48Z</time>
      </trkpt>
      <trkpt lat="31.230758018271644" lon="121.40023482103389">
        <ele>22.748543616384268</ele>
        <time>2026-06-28T11:00:48Z</time>
      </trkpt>
      <trkpt lat="31.231005891378704" lon="121.40012378328366">
        <ele>23.533299323171377</ele>
        <time>2026-06-28T11:00:48Z</time>
      </trkpt>
      <trkpt lat="31.231119826127134" lon="121.40000275650146">
        <ele>22.14346396550536</ele>
        <time>2026-06-28T11:00:48Z</time>
      </trkpt>
      <trkpt lat="31.23119976864442" lon="121.39978872162156">
        <ele>20.52110755071044</ele>
        <time>2026-06-28T11:00:48Z</time>
      </trkpt>
      <trkpt lat="31.231193759232774" lon="121.39964970530778">
        <ele>19.421921607106924</ele>
        <time>2026-06-28T11:00:48Z</time>
      </trkpt>
      <trkpt lat="31.231150768201317" lon="121.39951569378546">
        <ele>22.959927435964346</ele>
        <time>2026-06-28T11:00:48Z</time>
      </trkpt>
      <trkpt lat="31.231053801743233" lon="121.39936468616244">
        <ele>21.52517020329833</ele>
        <time>2026-06-28T11:00:48Z</time>
      </trkpt>
      <trkpt lat="31.23091685903539" lon="121.39927668928729">
        <ele>22.383911963552237</ele>
        <time>2026-06-28T11:00:48Z</time>
      </trkpt>
      <trkpt lat="31.230717951856874" lon="121.39928570752127">
        <ele>19.778630133718252</ele>
        <time>2026-06-28T11:00:48Z</time>
      </trkpt>
      <trkpt lat="31.230650984358057" lon="121.39930671544072">
        <ele>22.833096381276846</ele>
        <time>2026-06-28T11:00:48Z</time>
      </trkpt>
      <trkpt lat="31.230626000553393" lon="121.39937172419826">
        <ele>20.35464560613036</ele>
        <time>2026-06-28T11:00:48Z</time>
      </trkpt>
      <trkpt lat="31.230473072208483" lon="121.39938173856963">
        <ele>19.392857428640127</ele>
        <time>2026-06-28T11:00:48Z</time>
      </trkpt>
      <trkpt lat="31.23043109552661" lon="121.3994337476805">
        <ele>17.67537772282958</ele>
        <time>2026-06-28T11:00:48Z</time>
      </trkpt>
      <trkpt lat="31.230227189242623" lon="121.39942176419663">
        <ele>20.49997031316161</ele>
        <time>2026-06-28T11:00:48Z</time>
      </trkpt>
      <trkpt lat="31.23014623129467" lon="121.39948077757585">
        <ele>18.679444190114737</ele>
        <time>2026-06-28T11:00:48Z</time>
      </trkpt>
      <trkpt lat="31.22998230685697" lon="121.39947379111535">
        <ele>20.552815314382315</ele>
        <time>2026-06-28T11:00:48Z</time>
      </trkpt>
      <trkpt lat="31.229825389517877" lon="121.39959681851487">
        <ele>19.266026373952627</ele>
        <time>2026-06-28T11:00:48Z</time>
      </trkpt>
      <trkpt lat="31.229756431657208" lon="121.39971583855151">
        <ele>24.590210791677237</ele>
        <time>2026-06-28T11:00:48Z</time>
      </trkpt>
      <trkpt lat="31.22971246751462" lon="121.399884863577">
        <ele>23.084114905446768</ele>
        <time>2026-06-28T11:00:48Z</time>
      </trkpt>
      <trkpt lat="31.229717472051355" lon="121.3999558724905">
        <ele>22.465821143239737</ele>
        <time>2026-06-28T11:00:48Z</time>
      </trkpt>
      <trkpt lat="31.229791459177886" lon="121.40016489509756">
        <ele>19.987366553395987</ele>
        <time>2026-06-28T11:00:48Z</time>
      </trkpt>
      <trkpt lat="31.22988443079818" lon="121.40029890682827">
        <ele>12.501805182546377</ele>
        <time>2026-06-28T11:00:48Z</time>
      </trkpt>
      <trkpt lat="31.2299434099468" lon="121.40035591040954">
        <ele>20.21724784001708</ele>
        <time>2026-06-28T11:00:48Z</time>
      </trkpt>
      <trkpt lat="31.23016531325315" lon="121.40040989947792">
        <ele>16.819283362478018</ele>
        <time>2026-06-28T11:00:48Z</time>
      </trkpt>
      <trkpt lat="31.2304831518888" lon="121.40028985324159">
        <ele>21.691635962575674</ele>
        <time>2026-06-28T11:00:48Z</time>
      </trkpt>
      <trkpt lat="31.23075501408211" lon="121.40018381380513">
        <ele>-4.781306389719248</ele>
        <time>2026-06-28T11:00:48Z</time>
      </trkpt>
      <trkpt lat="31.23101888335875" lon="121.40010477945458">
        <ele>21.044278021901846</ele>
        <time>2026-06-28T11:00:48Z</time>
      </trkpt>
      <trkpt lat="31.2311128309784" lon="121.40001875929477">
        <ele>13.778023596853018</ele>
        <time>2026-06-28T11:00:48Z</time>
      </trkpt>
      <trkpt lat="31.231202774942073" lon="121.39987173189735">
        <ele>23.73146903142333</ele>
        <time>2026-06-28T11:00:48Z</time>
      </trkpt>
      <trkpt lat="31.231231746186072" lon="121.39970270829478">
        <ele>23.993054267019033</ele>
        <time>2026-06-28T11:00:48Z</time>
      </trkpt>
      <trkpt lat="31.231196752110385" lon="121.39958069706488">
        <ele>23.67069708928466</ele>
        <time>2026-06-28T11:00:48Z</time>
      </trkpt>
      <trkpt lat="31.231139770182683" lon="121.39947569036843">
        <ele>10.369492407888174</ele>
        <time>2026-06-28T11:00:48Z</time>
      </trkpt>
      <trkpt lat="31.23099082871143" lon="121.39933368850201">
        <ele>23.200371619313955</ele>
        <time>2026-06-28T11:00:48Z</time>
      </trkpt>
      <trkpt lat="31.230843892855752" lon="121.39927669565208">
        <ele>22.86480414494872</ele>
        <time>2026-06-28T11:00:48Z</time>
      </trkpt>
      <trkpt lat="31.23069896211107" lon="121.39930671125568">
        <ele>23.229439612478018</ele>
        <time>2026-06-28T11:00:48Z</time>
      </trkpt>
      <trkpt lat="31.230580020796566" lon="121.3993567266713">
        <ele>20.856675025075674</ele>
        <time>2026-06-28T11:00:48Z</time>
      </trkpt>
      <trkpt lat="31.23050505642957" lon="121.39936873443953">
        <ele>17.907898779958487</ele>
        <time>2026-06-28T11:00:48Z</time>
      </trkpt>
      <trkpt lat="31.230325144834094" lon="121.39943575713478">
        <ele>13.619488593190908</ele>
        <time>2026-06-28T11:00:48Z</time>
      </trkpt>
      <trkpt lat="31.230016293950996" lon="121.39951079219215">
        <ele>18.565823432058096</ele>
        <time>2026-06-28T11:00:48Z</time>
      </trkpt>
      <trkpt lat="31.22989335509859" lon="121.39956180860388">
        <ele>17.1654213629663</ele>
        <time>2026-06-28T11:00:48Z</time>
      </trkpt>
      <trkpt lat="31.22979241104806" lon="121.39967083002347">
        <ele>20.94915473088622</ele>
        <time>2026-06-28T11:00:48Z</time>
      </trkpt>
      <trkpt lat="31.22974044686998" lon="121.39980285066734">
        <ele>15.868061896413565</ele>
        <time>2026-06-28T11:00:48Z</time>
      </trkpt>
      <trkpt lat="31.229736462347205" lon="121.39994686963418">
        <ele>-19.85812294855714</ele>
        <time>2026-06-28T11:00:48Z</time>
      </trkpt>
      <trkpt lat="31.229825444469476" lon="121.4001748935812">
        <ele>17.582898017019033</ele>
        <time>2026-06-28T11:00:48Z</time>
      </trkpt>
      <trkpt lat="31.22990641776553" lon="121.40027390113727">
        <ele>18.116639014333487</ele>
        <time>2026-06-28T11:00:48Z</time>
      </trkpt>
      <trkpt lat="31.230054361227122" lon="121.40037990445683">
        <ele>20.898953314870596</ele>
        <time>2026-06-28T11:00:48Z</time>
      </trkpt>
      <trkpt lat="31.230174305431678" lon="121.40037889383869">
        <ele>17.696518775075674</ele>
        <time>2026-06-28T11:00:48Z</time>
      </trkpt>
      <trkpt lat="31.230462159823762" lon="121.40027385266164">
        <ele>20.959725257009268</ele>
        <time>2026-06-28T11:00:48Z</time>
      </trkpt>
      <trkpt lat="31.230766007042895" lon="121.40016581023505">
        <ele>20.835537787526846</ele>
        <time>2026-06-28T11:00:48Z</time>
      </trkpt>
      <trkpt lat="31.230976902393863" lon="121.40010078255143">
        <ele>20.835537787526846</ele>
        <time>2026-06-28T11:00:48Z</time>
      </trkpt>
      <trkpt lat="31.23112881818189" lon="121.39996475058608">
        <ele>21.1605385504663</ele>
        <time>2026-06-28T11:00:48Z</time>
      </trkpt>
      <trkpt lat="31.231189781623385" lon="121.39987873393603">
        <ele>18.31480872258544</ele>
        <time>2026-06-28T11:00:48Z</time>
      </trkpt>
      <trkpt lat="31.231203757419262" lon="121.39968270834135">
        <ele>17.979241248220205</ele>
        <time>2026-06-28T11:00:48Z</time>
      </trkpt>
      <trkpt lat="31.231151767345374" lon="121.39951069314667">
        <ele>20.185540076345205</ele>
        <time>2026-06-28T11:00:48Z</time>
      </trkpt>
      <trkpt lat="31.231078792933516" lon="121.39940268791686">
        <ele>21.263584967702627</ele>
        <time>2026-06-28T11:01:13Z</time>
      </trkpt>
      <trkpt lat="31.231006823295765" lon="121.399361689953">
        <ele>25.22963797673583</ele>
        <time>2026-06-28T11:01:13Z</time>
      </trkpt>
      <trkpt lat="31.230926854744002" lon="121.39928168890566">
        <ele>23.67069708928466</ele>
        <time>2026-06-28T11:01:13Z</time>
      </trkpt>
      <trkpt lat="31.230799915793746" lon="121.39931370314739">
        <ele>21.567448493093252</ele>
        <time>2026-06-28T11:01:13Z</time>
      </trkpt>
      <trkpt lat="31.230645987023365" lon="121.39931171637478">
        <ele>14.050179358571768</ele>
        <time>2026-06-28T11:01:13Z</time>
      </trkpt>
      <trkpt lat="31.23041410058914" lon="121.3993957451668">
        <ele>22.811959143728018</ele>
        <time>2026-06-28T11:01:13Z</time>
      </trkpt>
      <trkpt lat="31.230221198208223" lon="121.3995027734391">
        <ele>20.114197608083487</ele>
        <time>2026-06-28T11:01:13Z</time>
      </trkpt>
      <trkpt lat="31.230052277009662" lon="121.39950778872311">
        <ele>22.666634436696768</ele>
        <time>2026-06-28T11:01:13Z</time>
      </trkpt>
      <trkpt lat="31.229847380295123" lon="121.39960881797697">
        <ele>-38.03432381525636</ele>
        <time>2026-06-28T11:01:13Z</time>
      </trkpt>
      <trkpt lat="31.229756431920034" lon="121.3997188389146">
        <ele>23.765820380300283</ele>
        <time>2026-06-28T11:01:13Z</time>
      </trkpt>
      <trkpt lat="31.229720461908194" lon="121.39986486029368">
        <ele>-25.98291314020753</ele>
        <time>2026-06-28T11:01:13Z</time>
      </trkpt>
      <trkpt lat="31.229726471834564" lon="121.39999587708971">
        <ele>15.482293006032705</ele>
        <time>2026-06-28T11:01:13Z</time>
      </trkpt>
      <trkpt lat="31.22975147096476" lon="121.40010088944275">
        <ele>21.044278021901846</ele>
        <time>2026-06-28T11:01:13Z</time>
      </trkpt>
      <trkpt lat="31.229801458431513" lon="121.40020089946283">
        <ele>8.615021582692862</ele>
        <time>2026-06-28T11:01:13Z</time>
      </trkpt>
      <trkpt lat="31.22991242110766" lon="121.40032790880487">
        <ele>22.15403449162841</ele>
        <time>2026-06-28T11:01:13Z</time>
      </trkpt>
      <trkpt lat="31.23008734838041" lon="121.40040090486384">
        <ele>21.58858573064208</ele>
        <time>2026-06-28T11:01:14Z</time>
      </trkpt>
      <trkpt lat="31.230146321359186" lon="121.40040390019092">
        <ele>21.850170966237783</ele>
        <time>2026-06-28T11:01:14Z</time>
      </trkpt>
      <trkpt lat="31.23029824616201" lon="121.40036388069674">
        <ele>14.800583716481924</ele>
        <time>2026-06-28T11:01:14Z</time>
      </trkpt>
      <trkpt lat="31.230369206791973" lon="121.4003078659093">
        <ele>20.071919318288565</ele>
        <time>2026-06-28T11:01:14Z</time>
      </trkpt>
      <trkpt lat="31.23043417721913" lon="121.40031286100303">
        <ele>22.30992591008544</ele>
        <time>2026-06-28T11:01:14Z</time>
      </trkpt>
      <trkpt lat="31.23075601568395" lon="121.40020281649247">
        <ele>21.712773200124502</ele>
        <time>2026-06-28T11:01:14Z</time>
      </trkpt>
      <trkpt lat="31.230998892622292" lon="121.40010478119837">
        <ele>22.938790198415518</ele>
        <time>2026-06-28T11:01:14Z</time>
      </trkpt>
      <trkpt lat="31.231084845464473" lon="121.40003376379485">
        <ele>21.546311255544424</ele>
        <time>2026-06-28T11:44:59Z</time>
      </trkpt>
      <trkpt lat="31.231193774626618" lon="121.39982372654407">
        <ele>-27.4599448479712</ele>
        <time>2026-06-28T11:01:14Z</time>
      </trkpt>
      <trkpt lat="31.231190757521194" lon="121.39961270125845">
        <ele>22.592652197927237</ele>
        <time>2026-06-28T11:01:14Z</time>
      </trkpt>
      <trkpt lat="31.231168761369698" lon="121.39953469432409">
        <ele>18.187981482595205</ele>
        <time>2026-06-28T11:01:14Z</time>
      </trkpt>
      <trkpt lat="31.23111677846996" lon="121.39944468904001">
        <ele>11.854451056569815</ele>
        <time>2026-06-28T11:01:14Z</time>
      </trkpt>
      <trkpt lat="31.230920859802918" lon="121.39931469269742">
        <ele>13.45302664861083</ele>
        <time>2026-06-28T11:01:14Z</time>
      </trkpt>
      <trkpt lat="31.23083989587353" lon="121.39929369767309">
        <ele>11.656277533620596</ele>
        <time>2026-06-28T11:01:14Z</time>
      </trkpt>
      <trkpt lat="31.23060700579966" lon="121.39932172077529">
        <ele>24.318055029958487</ele>
        <time>2026-06-28T11:01:14Z</time>
      </trkpt>
      <trkpt lat="31.230345134734357" lon="121.39942475422538">
        <ele>23.126389380544424</ele>
        <time>2026-06-28T11:01:15Z</time>
      </trkpt>
      <trkpt lat="31.230002301471988" lon="121.39952379484963">
        <ele>20.542244788259268</ele>
        <time>2026-06-28T11:01:15Z</time>
      </trkpt>
      <trkpt lat="31.229868367675433" lon="121.39957381214165">
        <ele>20.135334845632315</ele>
        <time>2026-06-28T11:01:15Z</time>
      </trkpt>
      <trkpt lat="31.22978341360914" lon="121.39965182856454">
        <ele>21.327000495046377</ele>
        <time>2026-06-28T11:01:15Z</time>
      </trkpt>
      <trkpt lat="31.229717457093276" lon="121.3997978520457">
        <ele>16.002819892019033</ele>
        <time>2026-06-28T11:01:15Z</time>
      </trkpt>
      <trkpt lat="31.229744451707834" lon="121.39987485949153">
        <ele>21.337571021169424</ele>
        <time>2026-06-28T11:01:15Z</time>
      </trkpt>
      <trkpt lat="31.22975446925823" lon="121.40009788875794">
        <ele>20.980862494558096</ele>
        <time>2026-06-28T11:01:15Z</time>
      </trkpt>
      <trkpt lat="31.22985544188908" lon="121.40027790618517">
        <ele>21.3692787848413</ele>
        <time>2026-06-28T11:01:15Z</time>
      </trkpt>
      <trkpt lat="31.229903425744237" lon="121.40033191020237">
        <ele>19.131272193044424</ele>
        <time>2026-06-28T11:01:15Z</time>
      </trkpt>
      <trkpt lat="31.230034370859247" lon="121.4003829066683">
        <ele>8.070713873952627</ele>
        <time>2026-06-28T11:01:15Z</time>
      </trkpt>
      <trkpt lat="31.230169309157667" lon="121.4003908961478">
        <ele>21.712773200124502</ele>
        <time>2026-06-28T11:47:00Z</time>
      </trkpt>
      <trkpt lat="31.2304771533182" lon="121.40027785195528">
        <ele>15.939404364675283</ele>
        <time>2026-06-28T11:01:15Z</time>
      </trkpt>
      <trkpt lat="31.230689042404936" lon="121.40016281651504">
        <ele>19.152409430593252</ele>
        <time>2026-06-28T11:01:15Z</time>
      </trkpt>
      <trkpt lat="31.23089894104976" lon="121.40012479275528">
        <ele>21.419480200856924</ele>
        <time>2026-06-28T11:01:16Z</time>
      </trkpt>
      <trkpt lat="31.231078846622793" lon="121.40001776212239">
        <ele>-41.2790366448462</ele>
        <time>2026-06-28T11:01:16Z</time>
      </trkpt>
      <trkpt lat="31.231182783919124" lon="121.39986873325398">
        <ele>21.903015967458487</ele>
        <time>2026-06-28T11:01:16Z</time>
      </trkpt>
      <trkpt lat="31.2312127572588" lon="121.39972871309597">
        <ele>19.81033408269286</ele>
        <time>2026-06-28T11:01:16Z</time>
      </trkpt>
      <trkpt lat="31.23112677452096" lon="121.3994536891308">
        <ele>18.44956671819091</ele>
        <time>2026-06-28T11:01:16Z</time>
      </trkpt>
      <trkpt lat="31.23103081167768" lon="121.39935468714508">
        <ele>17.781067725270987</ele>
        <time>2026-06-28T11:01:16Z</time>
      </trkpt>
      <trkpt lat="31.230828900763782" lon="121.39929069833596">
        <ele>15.825787421315908</ele>
        <time>2026-06-28T11:01:16Z</time>
      </trkpt>
      <trkpt lat="31.230560031003346" lon="121.39936972974698">
        <ele>20.8249672614038</ele>
        <time>2026-06-28T11:01:16Z</time>
      </trkpt>
      <trkpt lat="31.230266175703417" lon="121.39948176722208">
        <ele>6.70201575383544</ele>
        <time>2026-06-28T11:01:16Z</time>
      </trkpt>
      <trkpt lat="31.230221197429277" lon="121.39949277234402">
        <ele>16.483712073415518</ele>
        <time>2026-06-28T11:01:16Z</time>
      </trkpt>
      <trkpt lat="31.230094255653317" lon="121.39948378243561">
        <ele>20.761555548757315</ele>
        <time>2026-06-28T11:01:16Z</time>
      </trkpt>
      <trkpt lat="31.229890355445452" lon="121.39954880740262">
        <ele>21.348137732595205</ele>
        <time>2026-06-28T11:01:16Z</time>
      </trkpt>
      <trkpt lat="31.229768420235047" lon="121.39964782940238">
        <ele>19.59102713689208</ele>
        <time>2026-06-28T11:01:17Z</time>
      </trkpt>
      <trkpt lat="31.22969946363705" lon="121.39977785112053">
        <ele>21.755051489919424</ele>
        <time>2026-06-28T11:01:17Z</time>
      </trkpt>
      <trkpt lat="31.22967948561304" lon="121.3999138702409">
        <ele>-20.899176720529795</ele>
        <time>2026-06-28T11:01:17Z</time>
      </trkpt>
      <trkpt lat="31.229689492845523" lon="121.40003388550811">
        <ele>21.974358435720205</ele>
        <time>2026-06-28T11:01:17Z</time>
      </trkpt>
      <trkpt lat="31.22974447811543" lon="121.40013789531213">
        <ele>20.980862494558096</ele>
        <time>2026-06-28T11:01:17Z</time>
      </trkpt>
      <trkpt lat="31.22982545069055" lon="121.40023190193472">
        <ele>17.625176306813955</ele>
        <time>2026-06-28T11:01:17Z</time>
      </trkpt>
      <trkpt lat="31.22986044262019" lon="121.40030490983112">
        <ele>20.37578284367919</ele>
        <time>2026-06-28T11:01:17Z</time>
      </trkpt>
      <trkpt lat="31.229879451827443" lon="121.40045893218948">
        <ele>19.6623696051538</ele>
        <time>2026-06-28T11:01:17Z</time>
      </trkpt>
      <trkpt lat="31.229851455329264" lon="121.40037892199969">
        <ele>17.331883307546377</ele>
        <time>2026-06-28T11:01:17Z</time>
      </trkpt>
      <trkpt lat="31.229736498038818" lon="121.40028591776566">
        <ele>22.875374671071768</ele>
        <time>2026-06-28T11:01:17Z</time>
      </trkpt>
      <trkpt lat="31.22968850970315" lon="121.40018990770729">
        <ele>21.28472601994872</ele>
        <time>2026-06-28T11:01:17Z</time>
      </trkpt>
      <trkpt lat="31.229679504711793" lon="121.40010389614379">
        <ele>18.700581427663565</ele>
        <time>2026-06-28T11:01:17Z</time>
      </trkpt>
      <trkpt lat="31.229650509942626" lon="121.40002388753449">
        <ele>21.712773200124502</ele>
        <time>2026-06-28T11:01:17Z</time>
      </trkpt>
      <trkpt lat="31.229659488734235" lon="121.3998488635584">
        <ele>21.358708258718252</ele>
        <time>2026-06-28T11:01:17Z</time>
      </trkpt>
      <trkpt lat="31.229675475415092" lon="121.39978485408366">
        <ele>21.327000495046377</ele>
        <time>2026-06-28T11:01:17Z</time>
      </trkpt>
      <trkpt lat="31.22965147989032" lon="121.39970984698122">
        <ele>20.259522315114737</ele>
        <time>2026-06-28T11:01:17Z</time>
      </trkpt>
      <trkpt lat="31.2295835046315" lon="121.39962984342733">
        <ele>18.618672247976065</ele>
        <time>2026-06-28T11:01:18Z</time>
      </trkpt>
      <trkpt lat="31.229524530370735" lon="121.39960984625309">
        <ele>16.444077368825674</ele>
        <time>2026-06-28T11:01:18Z</time>
      </trkpt>
      <trkpt lat="31.22951454032338" lon="121.39967285449815">
        <ele>16.264405127614737</ele>
        <time>2026-06-28T11:01:18Z</time>
      </trkpt>
      <trkpt lat="31.22945656497146" lon="121.39964585636939">
        <ele>11.447537299245596</ele>
        <time>2026-06-28T11:01:18Z</time>
      </trkpt>
      <trkpt lat="31.22939858701353" lon="121.39958685459838">
        <ele>15.96318518742919</ele>
        <time>2026-06-28T11:01:18Z</time>
      </trkpt>
      <trkpt lat="31.22921167547857" lon="121.39960587308055">
        <ele>25.898133154958487</ele>
        <time>2026-06-28T11:01:18Z</time>
      </trkpt>
      <trkpt lat="31.22891182214694" lon="121.39969090921464">
        <ele>14.132088538259268</ele>
        <time>2026-06-28T11:01:18Z</time>
      </trkpt>
      <trkpt lat="31.22862995008062" lon="121.39965292929182">
        <ele>13.997334357351065</ele>
        <time>2026-06-28T11:01:18Z</time>
      </trkpt>
      <trkpt lat="31.2284810223315" lon="121.39968694631186">
        <ele>17.395298834890127</ele>
        <time>2026-06-28T11:01:18Z</time>
      </trkpt>
      <trkpt lat="31.22837707698027" lon="121.39975796398996">
        <ele>21.168465491384268</ele>
        <time>2026-06-28T11:01:18Z</time>
      </trkpt>
      <trkpt lat="31.228299122457905" lon="121.39985798336744">
        <ele>16.67131507024169</ele>
        <time>2026-06-28T11:01:18Z</time>
      </trkpt>
      <trkpt lat="31.228202173337316" lon="121.39991799962237">
        <ele>17.604039069265127</ele>
        <time>2026-06-28T11:01:18Z</time>
      </trkpt>
      <trkpt lat="31.227806369320525" lon="121.40003404975864">
        <ele>18.261963721364737</ele>
        <time>2026-06-28T11:01:18Z</time>
      </trkpt>
      <trkpt lat="31.227665438732387" lon="121.40007006704002">
        <ele>19.057286139577627</ele>
        <time>2026-06-28T11:01:19Z</time>
      </trkpt>
      <trkpt lat="31.227601463666932" lon="121.40002206598228">
        <ele>19.07842719182372</ele>
        <time>2026-06-28T11:01:19Z</time>
      </trkpt>
      <trkpt lat="31.22755447705124" lon="121.39993605849081">
        <ele>9.545101996511221</ele>
        <time>2026-06-28T11:01:19Z</time>
      </trkpt>
      <trkpt lat="31.227551453285848" lon="121.39966002418356">
        <ele>18.544686194509268</ele>
        <time>2026-06-28T11:01:19Z</time>
      </trkpt>
      <trkpt lat="31.227429501573237" lon="121.39955602283042">
        <ele>14.050179358571768</ele>
        <time>2026-06-28T11:01:19Z</time>
      </trkpt>
      <trkpt lat="31.2272595801528" lon="121.39954703663975">
        <ele>11.55058753117919</ele>
        <time>2026-06-28T11:01:19Z</time>
      </trkpt>
      <trkpt lat="31.22693473796089" lon="121.39962207352546">
        <ele>12.367051001638174</ele>
        <time>2026-06-28T11:01:19Z</time>
      </trkpt>
      <trkpt lat="31.22682279159346" lon="121.39963808515206">
        <ele>18.29367148503661</ele>
        <time>2026-06-28T11:01:19Z</time>
      </trkpt>
      <trkpt lat="31.226713841490394" lon="121.39962609325575">
        <ele>21.86074149236083</ele>
        <time>2026-06-28T11:01:19Z</time>
      </trkpt>
      <trkpt lat="31.226417983495175" lon="121.39967012422403">
        <ele>20.8249672614038</ele>
        <time>2026-06-28T11:53:08Z</time>
      </trkpt>
      <trkpt lat="31.226303044046343" lon="121.39974814365404">
        <ele>14.790017005056143</ele>
        <time>2026-06-28T11:53:11Z</time>
      </trkpt>
      <trkpt lat="31.226258077304482" lon="121.39988116435012">
        <ele>18.481270667165518</ele>
        <time>2026-06-28T11:53:14Z</time>
      </trkpt>
      <trkpt lat="31.226262103408473" lon="121.40015820191766">
        <ele>15.74123465642333</ele>
        <time>2026-06-28T11:53:20Z</time>
      </trkpt>
      <trkpt lat="31.226226156425298" lon="121.4004752533965">
        <ele>17.61460578069091</ele>
        <time>2026-06-28T11:53:26Z</time>
      </trkpt>
      <trkpt lat="31.22621119631515" lon="121.40073429812485">
        <ele>18.637165900319815</ele>
        <time>2026-06-28T11:53:32Z</time>
      </trkpt>
      <trkpt lat="31.22592233707173" lon="121.40077633069177">
        <ele>22.875374671071768</ele>
        <time>2026-06-28T11:53:47Z</time>
      </trkpt>
      <trkpt lat="31.225845368941695" lon="121.40074533195231">
        <ele>18.14834677800536</ele>
        <time>2026-06-28T11:53:50Z</time>
      </trkpt>
      <trkpt lat="31.225707420156755" lon="121.40064332640138">
        <ele>9.878029700368643</ele>
        <time>2026-06-28T11:53:56Z</time>
      </trkpt>
      <trkpt lat="31.225765347335464" lon="121.40026326066909">
        <ele>13.003838416188955</ele>
        <time>2026-06-28T11:54:08Z</time>
      </trkpt>
      <trkpt lat="31.22578231302248" lon="121.40001522368321">
        <ele>17.006882544606924</ele>
        <time>2026-06-28T11:54:14Z</time>
      </trkpt>
      <trkpt lat="31.225695346491968" lon="121.39994222143211">
        <ele>18.87761389836669</ele>
        <time>2026-06-28T11:54:17Z</time>
      </trkpt>
      <trkpt lat="31.225613384672545" lon="121.39994022831468">
        <ele>15.553631659597158</ele>
        <time>2026-06-28T11:54:23Z</time>
      </trkpt>
      <trkpt lat="31.22563639017437" lon="121.40010124835604">
        <ele>18.576393958181143</ele>
        <time>2026-06-28T11:54:53Z</time>
      </trkpt>
      <trkpt lat="31.225722346707375" lon="121.40007023650844">
        <ele>20.655861731618643</ele>
        <time>2026-06-28T11:55:14Z</time>
      </trkpt>
      <trkpt lat="31.2257473261963" lon="121.39998322238851">
        <ele>20.040215369313955</ele>
        <time>2026-06-28T11:55:20Z</time>
      </trkpt>
      <trkpt lat="31.22565136620681" lon="121.3999332240745">
        <ele>16.74529730901122</ele>
        <time>2026-06-28T11:55:29Z</time>
      </trkpt>
      <trkpt lat="31.225679359912437" lon="121.40000223088998">
        <ele>17.696518775075674</ele>
        <time>2026-06-28T11:55:35Z</time>
      </trkpt>
      <trkpt lat="31.225680368330718" lon="121.40008924283032">
        <ele>20.928017493337393</ele>
        <time>2026-06-28T11:55:41Z</time>
      </trkpt>
      <trkpt lat="31.225774332920295" lon="121.40017024619172">
        <ele>25.113381262868643</ele>
        <time>2026-06-28T11:56:50Z</time>
      </trkpt>
      <trkpt lat="31.225756335593438" lon="121.40011624001879">
        <ele>24.254639502614737</ele>
        <time>2026-06-28T11:56:56Z</time>
      </trkpt>
      <trkpt lat="31.22578932450624" lon="121.4001572430063">
        <ele>26.579842444509268</ele>
        <time>2026-06-28T11:57:17Z</time>
      </trkpt>
      <trkpt lat="31.225712354817375" lon="121.40010324201342">
        <ele>28.294678565114737</ele>
        <time>2026-06-28T11:57:35Z</time>
      </trkpt>
      <trkpt lat="31.225708391129338" lon="121.40005766956511">
        <ele>30.390000220388174</ele>
        <time>2026-06-28T11:57:38Z</time>
      </trkpt>
      <trkpt lat="31.225793117432598" lon="121.40016942932685">
        <ele>30.98715293034911</ele>
        <time>2026-06-28T11:57:47Z</time>
      </trkpt>
      <trkpt lat="31.225779821218932" lon="121.40021410458986">
        <ele>26.05667197331786</ele>
        <time>2026-06-28T11:57:50Z</time>
      </trkpt>
      <trkpt lat="31.22554143907181" lon="121.40014326261254">
        <ele>26.965615149587393</ele>
        <time>2026-06-28T11:57:56Z</time>
      </trkpt>
      <trkpt lat="31.225498474765583" lon="121.40028528724957">
        <ele>35.603203650563955</ele>
        <time>2026-06-28T11:58:05Z</time>
      </trkpt>
      <trkpt lat="31.22564751118954" lon="121.40015156012059">
        <ele>27.77150809392333</ele>
        <time>2026-06-28T11:58:23Z</time>
      </trkpt>
      <trkpt lat="31.225701230109987" lon="121.40015420686085">
        <ele>27.79264533147216</ele>
        <time>2026-06-28T11:58:26Z</time>
      </trkpt>
      <trkpt lat="31.225273564873177" lon="121.4001462864047">
        <ele>28.128212805837393</ele>
        <time>2026-06-28T12:02:42Z</time>
      </trkpt>
      <trkpt lat="31.225210591834518" lon="121.40012228846689">
        <ele>28.34752356633544</ele>
        <time>2026-06-28T12:09:24Z</time>
      </trkpt>
      <trkpt lat="31.22525057005779" lon="121.40009328087643">
        <ele>27.573338385671377</ele>
        <time>2026-06-28T12:09:27Z</time>
      </trkpt>
    </trkseg>
  </trk>
</gpx>