<?xml version="1.0" encoding="UTF-8"?>
<gpx xmlns="http://www.topografix.com/GPX/1/1" xmlns:gpxtpx="http://www.garmin.com/xmlschemas/TrackPointExtension/v1" xmlns:xsi="http://www.w3.org/2001/XMLSchema-instance" xsi:schemaLocation="http://www.topografix.com/GPX/1/1 http://www.topografix.com/GPX/1/1/gpx.xsd" version="1.1" creator="gpx.py -- https://github.com/tkrajina/gpxpy">
  <trk>
    <name>gpx from keep</name>
    <type>Run</type>
    <trkseg>
      <trkpt lat="31.22970246260547" lon="121.3997818513562">
        <ele>25.12726583145559</ele>
        <time>2026-05-20T09:20:39Z</time>
      </trkpt>
      <trkpt lat="31.22976247512508" lon="121.40018790096401">
        <ele>24.297592064365745</ele>
        <time>2026-05-20T09:20:51Z</time>
      </trkpt>
      <trkpt lat="31.229816462478944" lon="121.40029991290848">
        <ele>11.8102034535259</ele>
        <time>2026-05-20T09:20:54Z</time>
      </trkpt>
      <trkpt lat="31.22989043512768" lon="121.4003609158039">
        <ele>24.958160301670432</ele>
        <time>2026-05-20T09:20:57Z</time>
      </trkpt>
      <trkpt lat="31.229990392452013" lon="121.40039291206703">
        <ele>25.89088430069387</ele>
        <time>2026-05-20T09:21:00Z</time>
      </trkpt>
      <trkpt lat="31.230144318766" lon="121.40037389567601">
        <ele>26.007141014561057</ele>
        <time>2026-05-20T09:21:03Z</time>
      </trkpt>
      <trkpt lat="31.230281250349478" lon="121.40033187724603">
        <ele>26.82624807022512</ele>
        <time>2026-05-20T09:21:06Z</time>
      </trkpt>
      <trkpt lat="31.230522123165546" lon="121.40019383557781">
        <ele>25.135192772373557</ele>
        <time>2026-05-20T09:21:12Z</time>
      </trkpt>
      <trkpt lat="31.23066405420667" lon="121.40016481898368">
        <ele>26.0916975941509</ele>
        <time>2026-05-20T09:21:15Z</time>
      </trkpt>
      <trkpt lat="31.230925921767366" lon="121.40005978125446">
        <ele>22.284179588779807</ele>
        <time>2026-05-20T09:21:21Z</time>
      </trkpt>
      <trkpt lat="31.231020870278236" lon="121.39998576282852">
        <ele>25.89088430069387</ele>
        <time>2026-05-20T09:21:24Z</time>
      </trkpt>
      <trkpt lat="31.231116815330985" lon="121.39987774017142">
        <ele>24.60144796036184</ele>
        <time>2026-05-20T09:21:27Z</time>
      </trkpt>
      <trkpt lat="31.23117476576152" lon="121.39962270381152">
        <ele>27.077262779697776</ele>
        <time>2026-05-20T09:21:33Z</time>
      </trkpt>
      <trkpt lat="31.231134770892403" lon="121.3994546885405">
        <ele>19.932556053623557</ele>
        <time>2026-05-20T09:21:36Z</time>
      </trkpt>
      <trkpt lat="31.23106079987752" lon="121.39938368750973">
        <ele>25.608154198154807</ele>
        <time>2026-05-20T09:21:39Z</time>
      </trkpt>
      <trkpt lat="31.23085189331608" lon="121.39933670092424">
        <ele>25.314865013584495</ele>
        <time>2026-05-20T09:21:45Z</time>
      </trkpt>
      <trkpt lat="31.230715958334798" lon="121.3993647156323">
        <ele>24.979293724521995</ele>
        <time>2026-05-20T09:21:51Z</time>
      </trkpt>
      <trkpt lat="31.23041809619295" lon="121.39936074120456">
        <ele>26.133972069248557</ele>
        <time>2026-05-20T09:22:00Z</time>
      </trkpt>
      <trkpt lat="31.230202198917098" lon="121.39939576365045">
        <ele>26.038848778232932</ele>
        <time>2026-05-20T09:22:09Z</time>
      </trkpt>
      <trkpt lat="31.23005127368829" lon="121.39945878348168">
        <ele>25.650436302646995</ele>
        <time>2026-05-20T09:22:15Z</time>
      </trkpt>
      <trkpt lat="31.229980306485412" lon="121.39945678945706">
        <ele>25.54474630020559</ele>
        <time>2026-05-20T09:22:18Z</time>
      </trkpt>
      <trkpt lat="31.229914338648967" lon="121.39947679736898">
        <ele>25.27259053848684</ele>
        <time>2026-05-20T09:22:21Z</time>
      </trkpt>
      <trkpt lat="31.22986036730256" lon="121.39952280711918">
        <ele>25.103485008701682</ele>
        <time>2026-05-20T09:22:24Z</time>
      </trkpt>
      <trkpt lat="31.229790407421458" lon="121.39961682387087">
        <ele>25.103485008701682</ele>
        <time>2026-05-20T09:22:27Z</time>
      </trkpt>
      <trkpt lat="31.229741453100804" lon="121.3998748597531">
        <ele>25.01100148819387</ele>
        <time>2026-05-20T09:22:36Z</time>
      </trkpt>
      <trkpt lat="31.229746459668267" lon="121.39996687143432">
        <ele>24.74677266739309</ele>
        <time>2026-05-20T09:22:39Z</time>
      </trkpt>
      <trkpt lat="31.22983544926852" lon="121.40026090537847">
        <ele>25.650436302646995</ele>
        <time>2026-05-20T09:22:48Z</time>
      </trkpt>
      <trkpt lat="31.22995540518959" lon="121.40036291044662">
        <ele>24.4217757191509</ele>
        <time>2026-05-20T09:22:54Z</time>
      </trkpt>
      <trkpt lat="31.23003836795088" lon="121.40037390491773">
        <ele>25.042709251865745</ele>
        <time>2026-05-20T09:22:57Z</time>
      </trkpt>
      <trkpt lat="31.230325227198147" lon="121.40030786974552">
        <ele>24.07563771866262</ele>
        <time>2026-05-20T09:23:09Z</time>
      </trkpt>
      <trkpt lat="31.230677051641962" lon="121.40019682250211">
        <ele>23.301452537998557</ele>
        <time>2026-05-20T09:23:24Z</time>
      </trkpt>
      <trkpt lat="31.231013884942275" lon="121.40009777890218">
        <ele>23.94087972305715</ele>
        <time>2026-05-20T09:23:36Z</time>
      </trkpt>
      <trkpt lat="31.23109984261846" lon="121.40007376803484">
        <ele>16.315277000889182</ele>
        <time>2026-05-20T09:23:39Z</time>
      </trkpt>
      <trkpt lat="31.231161804186275" lon="121.39997774945552">
        <ele>24.654296776279807</ele>
        <time>2026-05-20T09:23:42Z</time>
      </trkpt>
      <trkpt lat="31.231190780781695" lon="121.39987473333127">
        <ele>26.43782796524465</ele>
        <time>2026-05-20T09:23:45Z</time>
      </trkpt>
      <trkpt lat="31.231199766568363" lon="121.39976571876558">
        <ele>25.06385030411184</ele>
        <time>2026-05-20T09:23:48Z</time>
      </trkpt>
      <trkpt lat="31.231180762483632" lon="121.39961670259294">
        <ele>25.597587486729026</ele>
        <time>2026-05-20T09:23:51Z</time>
      </trkpt>
      <trkpt lat="31.23114776982673" lon="121.39951869437861">
        <ele>25.33600606583059</ele>
        <time>2026-05-20T09:23:54Z</time>
      </trkpt>
      <trkpt lat="31.231013822303055" lon="121.39939269254154">
        <ele>21.821777245029807</ele>
        <time>2026-05-20T09:24:00Z</time>
      </trkpt>
      <trkpt lat="31.23085989168061" lon="121.3993657031797">
        <ele>24.989868065342307</ele>
        <time>2026-05-20T09:24:06Z</time>
      </trkpt>
      <trkpt lat="31.230676979399387" lon="121.39940572328061">
        <ele>25.230316063389182</ele>
        <time>2026-05-20T09:24:15Z</time>
      </trkpt>
      <trkpt lat="31.230549033248835" lon="121.39932972663613">
        <ele>25.01100148819387</ele>
        <time>2026-05-20T09:24:18Z</time>
      </trkpt>
      <trkpt lat="31.230392105622087" lon="121.39932373972131">
        <ele>25.431121727451682</ele>
        <time>2026-05-20T09:24:24Z</time>
      </trkpt>
      <trkpt lat="31.23021819424016" lon="121.39943276614524">
        <ele>25.534171959385276</ele>
        <time>2026-05-20T09:24:33Z</time>
      </trkpt>
      <trkpt lat="31.230009295794257" lon="121.39949279082754">
        <ele>25.68214406631887</ele>
        <time>2026-05-20T09:24:42Z</time>
      </trkpt>
      <trkpt lat="31.229875358456137" lon="121.39949880316685">
        <ele>25.576454063877463</ele>
        <time>2026-05-20T09:24:48Z</time>
      </trkpt>
      <trkpt lat="31.229831381160768" lon="121.3995278102023">
        <ele>25.198608299717307</ele>
        <time>2026-05-20T09:24:51Z</time>
      </trkpt>
      <trkpt lat="31.229700458098268" lon="121.39972084403927">
        <ele>25.89088430069387</ele>
        <time>2026-05-20T09:24:57Z</time>
      </trkpt>
      <trkpt lat="31.229676482434325" lon="121.3998658642586">
        <ele>25.9648665394634</ele>
        <time>2026-05-20T09:25:00Z</time>
      </trkpt>
      <trkpt lat="31.22969349643655" lon="121.40008689252831">
        <ele>25.90145101211965</ele>
        <time>2026-05-20T09:25:06Z</time>
      </trkpt>
      <trkpt lat="31.229715493500596" lon="121.400155900425">
        <ele>25.5024641957134</ele>
        <time>2026-05-20T09:25:09Z</time>
      </trkpt>
      <trkpt lat="31.22977547723623" lon="121.40026191075918">
        <ele>25.40998830460012</ele>
        <time>2026-05-20T09:25:12Z</time>
      </trkpt>
      <trkpt lat="31.229835456507637" lon="121.40032491505909">
        <ele>25.462829491123557</ele>
        <time>2026-05-20T09:25:15Z</time>
      </trkpt>
      <trkpt lat="31.22991042584406" lon="121.40036091406019">
        <ele>25.851249596104026</ele>
        <time>2026-05-20T09:25:18Z</time>
      </trkpt>
      <trkpt lat="31.230215284894886" lon="121.40036588824331">
        <ele>26.532951256260276</ele>
        <time>2026-05-20T09:25:30Z</time>
      </trkpt>
      <trkpt lat="31.230418186468057" lon="121.40032886484174">
        <ele>25.6292952504009</ele>
        <time>2026-05-20T09:25:39Z</time>
      </trkpt>
      <trkpt lat="31.230517134997548" lon="121.40027984876885">
        <ele>24.87360372208059</ele>
        <time>2026-05-20T09:25:45Z</time>
      </trkpt>
      <trkpt lat="31.230582098961982" lon="121.40022683519497">
        <ele>25.135192772373557</ele>
        <time>2026-05-20T09:25:48Z</time>
      </trkpt>
      <trkpt lat="31.23068104957044" lon="121.40019482186105">
        <ele>25.69271077774465</ele>
        <time>2026-05-20T09:25:54Z</time>
      </trkpt>
      <trkpt lat="31.230733019343496" lon="121.40013780908457">
        <ele>25.15632619522512</ele>
        <time>2026-05-20T09:25:57Z</time>
      </trkpt>
      <trkpt lat="31.230973902843918" lon="121.40009178154463">
        <ele>26.186813255771995</ele>
        <time>2026-05-20T09:26:06Z</time>
      </trkpt>
      <trkpt lat="31.231033869491018" lon="121.4000377687925">
        <ele>26.258155724033713</ele>
        <time>2026-05-20T09:26:09Z</time>
      </trkpt>
      <trkpt lat="31.231113802747302" lon="121.39972472124167">
        <ele>26.805107017979026</ele>
        <time>2026-05-20T09:26:18Z</time>
      </trkpt>
      <trkpt lat="31.23114777726565" lon="121.39961070477663">
        <ele>26.215881248936057</ele>
        <time>2026-05-20T09:26:21Z</time>
      </trkpt>
      <trkpt lat="31.23112077928898" lon="121.39947969245887">
        <ele>25.325431725010276</ele>
        <time>2026-05-20T09:26:24Z</time>
      </trkpt>
      <trkpt lat="31.23107279571221" lon="121.39940268844">
        <ele>27.09840383194387</ele>
        <time>2026-05-20T09:26:27Z</time>
      </trkpt>
      <trkpt lat="31.230995827745655" lon="121.3993526899928">
        <ele>26.448402306064963</ele>
        <time>2026-05-20T09:26:30Z</time>
      </trkpt>
      <trkpt lat="31.230901869164775" lon="121.399322695155">
        <ele>25.851249596104026</ele>
        <time>2026-05-20T09:26:33Z</time>
      </trkpt>
      <trkpt lat="31.230741943089818" lon="121.39931970880443">
        <ele>26.102264305576682</ele>
        <time>2026-05-20T09:26:39Z</time>
      </trkpt>
      <trkpt lat="31.23046607509087" lon="121.39937673866348">
        <ele>26.35327901504934</ele>
        <time>2026-05-20T09:26:48Z</time>
      </trkpt>
      <trkpt lat="31.230134235023534" lon="121.39945677603039">
        <ele>26.41669454239309</ele>
        <time>2026-05-20T09:27:00Z</time>
      </trkpt>
      <trkpt lat="31.229999300512812" lon="121.39949379180867">
        <ele>26.593727013096213</ele>
        <time>2026-05-20T09:27:06Z</time>
      </trkpt>
      <trkpt lat="31.229869367536608" lon="121.39957781250888">
        <ele>25.9648665394634</ele>
        <time>2026-05-20T09:27:12Z</time>
      </trkpt>
      <trkpt lat="31.229784416223055" lon="121.39968783274445">
        <ele>26.059989830479026</ele>
        <time>2026-05-20T09:27:18Z</time>
      </trkpt>
      <trkpt lat="31.229751439401188" lon="121.39977684646274">
        <ele>24.8841780629009</ele>
        <time>2026-05-20T09:27:21Z</time>
      </trkpt>
      <trkpt lat="31.229734465536342" lon="121.39996987288315">
        <ele>26.186813255771995</ele>
        <time>2026-05-20T09:27:27Z</time>
      </trkpt>
      <trkpt lat="31.229759469773366" lon="121.40012489214837">
        <ele>25.33600606583059</ele>
        <time>2026-05-20T09:27:33Z</time>
      </trkpt>
      <trkpt lat="31.229819456696465" lon="121.40026090677344">
        <ele>26.28986348770559</ele>
        <time>2026-05-20T09:27:36Z</time>
      </trkpt>
      <trkpt lat="31.229881435153573" lon="121.40032491104856">
        <ele>26.332137962803245</ele>
        <time>2026-05-20T09:27:39Z</time>
      </trkpt>
      <trkpt lat="31.230192287076353" lon="121.40029187891528">
        <ele>25.89088430069387</ele>
        <time>2026-05-20T09:27:48Z</time>
      </trkpt>
      <trkpt lat="31.230484140892433" lon="121.40019483903703">
        <ele>25.724418541416526</ele>
        <time>2026-05-20T09:28:00Z</time>
      </trkpt>
      <trkpt lat="31.230767006257267" lon="121.40016280971436">
        <ele>25.5024641957134</ele>
        <time>2026-05-20T09:28:09Z</time>
      </trkpt>
      <trkpt lat="31.23086495680169" lon="121.4001247957197">
        <ele>25.597587486729026</ele>
        <time>2026-05-20T09:28:12Z</time>
      </trkpt>
      <trkpt lat="31.23109782901768" lon="121.39992874849828">
        <ele>25.032142540439963</ele>
        <time>2026-05-20T09:28:24Z</time>
      </trkpt>
      <trkpt lat="31.231160782130424" lon="121.3997377187266">
        <ele>25.177467247471213</ele>
        <time>2026-05-20T09:28:30Z</time>
      </trkpt>
      <trkpt lat="31.231154772211376" lon="121.39958870163943">
        <ele>28.800025841221213</ele>
        <time>2026-05-20T09:28:36Z</time>
      </trkpt>
      <trkpt lat="31.231083795424833" lon="121.39946669427798">
        <ele>27.65327443741262</ele>
        <time>2026-05-20T09:28:42Z</time>
      </trkpt>
      <trkpt lat="31.23096684363442" lon="121.39938669601636">
        <ele>29.31262960098684</ele>
        <time>2026-05-20T09:28:48Z</time>
      </trkpt>
      <trkpt lat="31.2308169115318" lon="121.39936470682626">
        <ele>27.663848778232932</ele>
        <time>2026-05-20T09:28:54Z</time>
      </trkpt>
      <trkpt lat="31.230467076601986" lon="121.39940374138081">
        <ele>21.08722676895559</ele>
        <time>2026-05-20T09:29:06Z</time>
      </trkpt>
      <trkpt lat="31.230241186453547" lon="121.39947076820957">
        <ele>26.731124779209495</ele>
        <time>2026-05-20T09:29:15Z</time>
      </trkpt>
      <trkpt lat="31.230012297703322" lon="121.39953479520054">
        <ele>29.11445607803762</ele>
        <time>2026-05-20T09:29:24Z</time>
      </trkpt>
      <trkpt lat="31.229938335020588" lon="121.39957180581179">
        <ele>29.78559102676809</ele>
        <time>2026-05-20T09:29:27Z</time>
      </trkpt>
      <trkpt lat="31.229829395331144" lon="121.39968782882111">
        <ele>23.24860372208059</ele>
        <time>2026-05-20T09:29:34Z</time>
      </trkpt>
      <trkpt lat="31.22978742669997" lon="121.39982084883735">
        <ele>11.41121663711965</ele>
        <time>2026-05-20T09:29:40Z</time>
      </trkpt>
      <trkpt lat="31.229772444267486" lon="121.39993286463763">
        <ele>6.665695091709495</ele>
        <time>2026-05-20T09:29:43Z</time>
      </trkpt>
      <trkpt lat="31.22978344606947" lon="121.40000287307097">
        <ele>30.152870079502463</ele>
        <time>2026-05-20T09:29:46Z</time>
      </trkpt>
      <trkpt lat="31.22977645737782" lon="121.40008188459046">
        <ele>5.711837669834495</ele>
        <time>2026-05-20T09:29:49Z</time>
      </trkpt>
      <trkpt lat="31.229797455855607" lon="121.40015989385246">
        <ele>13.057357689365745</ele>
        <time>2026-05-20T09:29:52Z</time>
      </trkpt>
      <trkpt lat="31.229907417975763" lon="121.40027990195259">
        <ele>-39.901741126552224</ele>
        <time>2026-05-20T09:29:58Z</time>
      </trkpt>
      <trkpt lat="31.23002936760969" lon="121.40033489967713">
        <ele>22.408363243564963</ele>
        <time>2026-05-20T09:30:01Z</time>
      </trkpt>
      <trkpt lat="31.230107331990848" lon="121.40033989364463">
        <ele>24.60144796036184</ele>
        <time>2026-05-20T09:30:04Z</time>
      </trkpt>
      <trkpt lat="31.23016730037554" lon="121.40030688336896">
        <ele>25.6292952504009</ele>
        <time>2026-05-20T09:30:07Z</time>
      </trkpt>
      <trkpt lat="31.230494140641994" lon="121.40023484405147">
        <ele>27.204093834385276</ele>
        <time>2026-05-20T09:30:19Z</time>
      </trkpt>
      <trkpt lat="31.23057909881446" lon="121.40021283339264">
        <ele>10.415084740146995</ele>
        <time>2026-05-20T09:30:22Z</time>
      </trkpt>
      <trkpt lat="31.230690047035655" lon="121.40020982327385">
        <ele>30.46730031631887</ele>
        <time>2026-05-20T09:30:25Z</time>
      </trkpt>
      <trkpt lat="31.230989892121087" lon="121.40005977567436">
        <ele>21.391090294346213</ele>
        <time>2026-05-20T09:30:34Z</time>
      </trkpt>
      <trkpt lat="31.231088838586135" lon="121.39998375662951">
        <ele>24.26588430069387</ele>
        <time>2026-05-20T09:30:37Z</time>
      </trkpt>
      <trkpt lat="31.231186771068064" lon="121.39974871780595">
        <ele>28.083969017490745</ele>
        <time>2026-05-20T09:30:46Z</time>
      </trkpt>
      <trkpt lat="31.231135776570717" lon="121.39953369708992">
        <ele>21.927467247471213</ele>
        <time>2026-05-20T09:30:55Z</time>
      </trkpt>
      <trkpt lat="31.231096789864438" lon="121.39947269379275">
        <ele>29.008766075596213</ele>
        <time>2026-05-20T09:30:58Z</time>
      </trkpt>
      <trkpt lat="31.230974840881277" lon="121.39939969667121">
        <ele>20.949829002842307</ele>
        <time>2026-05-20T09:31:04Z</time>
      </trkpt>
      <trkpt lat="31.23091286843056" lon="121.39938370041374">
        <ele>28.17909230850637</ele>
        <time>2026-05-20T09:31:07Z</time>
      </trkpt>
      <trkpt lat="31.230631000572735" lon="121.399403727082">
        <ele>21.066085716709495</ele>
        <time>2026-05-20T09:31:19Z</time>
      </trkpt>
      <trkpt lat="31.230495251917002" lon="121.39942253463387">
        <ele>26.69941701553762</ele>
        <time>2026-05-20T09:31:25Z</time>
      </trkpt>
      <trkpt lat="31.230367128859264" lon="121.39948175841619">
        <ele>28.337623497471213</ele>
        <time>2026-05-20T09:31:31Z</time>
      </trkpt>
      <trkpt lat="31.230301158622872" lon="121.39947076297835">
        <ele>29.238639732822776</ele>
        <time>2026-05-20T09:31:34Z</time>
      </trkpt>
      <trkpt lat="31.22998731082466" lon="121.39955379950717">
        <ele>24.382141014561057</ele>
        <time>2026-05-20T09:31:49Z</time>
      </trkpt>
      <trkpt lat="31.229916345313203" lon="121.39957280784328">
        <ele>26.01770772598684</ele>
        <time>2026-05-20T09:31:52Z</time>
      </trkpt>
      <trkpt lat="31.229822398580875" lon="121.39968782943141">
        <ele>25.33600606583059</ele>
        <time>2026-05-20T09:31:58Z</time>
      </trkpt>
      <trkpt lat="31.22975245161941" lon="121.39991286374507">
        <ele>26.41669454239309</ele>
        <time>2026-05-20T09:32:07Z</time>
      </trkpt>
      <trkpt lat="31.229754467592475" lon="121.40008188650854">
        <ele>20.4266585316509</ele>
        <time>2026-05-20T09:32:13Z</time>
      </trkpt>
      <trkpt lat="31.229778463820686" lon="121.40015189435654">
        <ele>24.569747826084495</ele>
        <time>2026-05-20T09:32:16Z</time>
      </trkpt>
      <trkpt lat="31.229861435195332" lon="121.4002429004278">
        <ele>27.801246544346213</ele>
        <time>2026-05-20T09:32:22Z</time>
      </trkpt>
      <trkpt lat="31.23002037098257" lon="121.40032789938883">
        <ele>28.263641258701682</ele>
        <time>2026-05-20T09:32:28Z</time>
      </trkpt>
      <trkpt lat="31.23012333297618" lon="121.40041190345467">
        <ele>28.30591573379934</ele>
        <time>2026-05-20T09:32:34Z</time>
      </trkpt>
      <trkpt lat="31.23026525582509" lon="121.40031487604234">
        <ele>16.201660057529807</ele>
        <time>2026-05-20T09:32:43Z</time>
      </trkpt>
      <trkpt lat="31.23042417454" lon="121.40024785208576">
        <ele>20.532348534092307</ele>
        <time>2026-05-20T09:32:49Z</time>
      </trkpt>
      <trkpt lat="31.230634075740767" lon="121.40023483184521">
        <ele>18.643127342686057</ele>
        <time>2026-05-20T09:32:55Z</time>
      </trkpt>
      <trkpt lat="31.230922927722293" lon="121.40010378768336">
        <ele>11.432357689365745</ele>
        <time>2026-05-20T09:33:04Z</time>
      </trkpt>
      <trkpt lat="31.23106884715362" lon="121.39997675742947">
        <ele>25.576454063877463</ele>
        <time>2026-05-20T09:33:10Z</time>
      </trkpt>
      <trkpt lat="31.231126809755313" lon="121.39986773800764">
        <ele>27.811813255771995</ele>
        <time>2026-05-20T09:33:16Z</time>
      </trkpt>
      <trkpt lat="31.23116177885759" lon="121.39970571475911">
        <ele>28.85022725723684</ele>
        <time>2026-05-20T09:33:19Z</time>
      </trkpt>
      <trkpt lat="31.23115776943601" lon="121.39957169944267">
        <ele>29.25978078506887</ele>
        <time>2026-05-20T09:33:22Z</time>
      </trkpt>
      <trkpt lat="31.23107479604513" lon="121.39941969005015">
        <ele>27.37055196426809</ele>
        <time>2026-05-20T09:33:28Z</time>
      </trkpt>
      <trkpt lat="31.23096084338735" lon="121.39934469223086">
        <ele>24.82076253555715</ele>
        <time>2026-05-20T09:33:34Z</time>
      </trkpt>
      <trkpt lat="31.23072595141866" lon="121.39933271150615">
        <ele>28.482948204502463</ele>
        <time>2026-05-20T09:33:43Z</time>
      </trkpt>
      <trkpt lat="31.23065598121036" lon="121.39929471381461">
        <ele>29.711608787998557</ele>
        <time>2026-05-20T09:33:46Z</time>
      </trkpt>
      <trkpt lat="31.230514053199112" lon="121.39938173499495">
        <ele>-4.357872107997537</ele>
        <time>2026-05-20T09:33:52Z</time>
      </trkpt>
      <trkpt lat="31.230422097394214" lon="121.3994027451997">
        <ele>29.85957326553762</ele>
        <time>2026-05-20T09:33:55Z</time>
      </trkpt>
      <trkpt lat="31.230212195754586" lon="121.39941576487224">
        <ele>11.73622121475637</ele>
        <time>2026-05-20T09:34:01Z</time>
      </trkpt>
      <trkpt lat="31.22988136058819" lon="121.39956080953726">
        <ele>30.562423607334495</ele>
        <time>2026-05-20T09:34:10Z</time>
      </trkpt>
      <trkpt lat="31.22960449613891" lon="121.39964484334884">
        <ele>27.22522725723684</ele>
        <time>2026-05-20T09:34:22Z</time>
      </trkpt>
      <trkpt lat="31.229549517520248" lon="121.39959484234863">
        <ele>25.06385030411184</ele>
        <time>2026-05-20T09:34:28Z</time>
      </trkpt>
      <trkpt lat="31.229442570885663" lon="121.39963885677035">
        <ele>13.863250633701682</ele>
        <time>2026-05-20T09:34:43Z</time>
      </trkpt>
      <trkpt lat="31.229415579606684" lon="121.39959285380226">
        <ele>27.338844200596213</ele>
        <time>2026-05-20T09:34:46Z</time>
      </trkpt>
      <trkpt lat="31.229321622302784" lon="121.39958086062742">
        <ele>17.678695579990745</ele>
        <time>2026-05-20T09:34:49Z</time>
      </trkpt>
      <trkpt lat="31.229057757484366" lon="121.3997279009483">
        <ele>9.189063927158713</ele>
        <time>2026-05-20T09:34:58Z</time>
      </trkpt>
      <trkpt lat="31.228922824267773" lon="121.39977291824196">
        <ele>30.919128319248557</ele>
        <time>2026-05-20T09:35:01Z</time>
      </trkpt>
      <trkpt lat="31.22876989248484" lon="121.39973992751952">
        <ele>29.18579854629934</ele>
        <time>2026-05-20T09:35:04Z</time>
      </trkpt>
      <trkpt lat="31.228617956258965" lon="121.39965993116276">
        <ele>19.53620900772512</ele>
        <time>2026-05-20T09:35:07Z</time>
      </trkpt>
      <trkpt lat="31.228446039141527" lon="121.39969295008068">
        <ele>23.687225243076682</ele>
        <time>2026-05-20T09:35:10Z</time>
      </trkpt>
      <trkpt lat="31.228354089575472" lon="121.39977896859283">
        <ele>21.57076253555715</ele>
        <time>2026-05-20T09:35:13Z</time>
      </trkpt>
      <trkpt lat="31.228209175451248" lon="121.39997300632682">
        <ele>25.56587972305715</ele>
        <time>2026-05-20T09:35:16Z</time>
      </trkpt>
      <trkpt lat="31.22786534111377" lon="121.40002704365287">
        <ele>26.960998436436057</ele>
        <time>2026-05-20T09:35:22Z</time>
      </trkpt>
      <trkpt lat="31.22755848913701" lon="121.40007507706642">
        <ele>27.349418541416526</ele>
        <time>2026-05-20T09:35:28Z</time>
      </trkpt>
      <trkpt lat="31.227522501923335" lon="121.40003607479267">
        <ele>26.7099837269634</ele>
        <time>2026-05-20T09:35:31Z</time>
      </trkpt>
      <trkpt lat="31.227528483228546" lon="121.39987405264367">
        <ele>25.650436302646995</ele>
        <time>2026-05-20T09:35:34Z</time>
      </trkpt>
      <trkpt lat="31.227493489867598" lon="121.39976904241423">
        <ele>24.894744774326682</ele>
        <time>2026-05-20T09:35:37Z</time>
      </trkpt>
      <trkpt lat="31.227480482778272" lon="121.39961702534747">
        <ele>24.27645101211965</ele>
        <time>2026-05-20T09:35:40Z</time>
      </trkpt>
      <trkpt lat="31.22734454122097" lon="121.39955603024052">
        <ele>24.244743248447776</ele>
        <time>2026-05-20T09:35:43Z</time>
      </trkpt>
      <trkpt lat="31.22713564043477" lon="121.39957705083562">
        <ele>24.569747826084495</ele>
        <time>2026-05-20T09:35:46Z</time>
      </trkpt>
      <trkpt lat="31.22682379341313" lon="121.39966508823898">
        <ele>25.816894432529807</ele>
        <time>2026-05-20T09:35:52Z</time>
      </trkpt>
      <trkpt lat="31.22665987336466" lon="121.3997041071881">
        <ele>26.16303243301809</ele>
        <time>2026-05-20T09:35:55Z</time>
      </trkpt>
      <trkpt lat="31.226298041557502" lon="121.39969313742499">
        <ele>25.0849837269634</ele>
        <time>2026-05-20T09:36:01Z</time>
      </trkpt>
      <trkpt lat="31.226198101687903" lon="121.39984216456583">
        <ele>22.263038536533713</ele>
        <time>2026-05-20T09:36:04Z</time>
      </trkpt>
      <trkpt lat="31.22619912924303" lon="121.40012420253855">
        <ele>26.868522545322776</ele>
        <time>2026-05-20T09:36:10Z</time>
      </trkpt>
      <trkpt lat="31.226162176910602" lon="121.4003962464341">
        <ele>21.800643822178245</ele>
        <time>2026-05-20T09:36:16Z</time>
      </trkpt>
      <trkpt lat="31.22615420192535" lon="121.40057127535529">
        <ele>27.256935020908713</ele>
        <time>2026-05-20T09:36:19Z</time>
      </trkpt>
      <trkpt lat="31.226120236348077" lon="121.40071530275226">
        <ele>27.50794973038137</ele>
        <time>2026-05-20T09:36:22Z</time>
      </trkpt>
      <trkpt lat="31.22600229537096" lon="121.40074431809126">
        <ele>25.787834068760276</ele>
        <time>2026-05-20T09:36:31Z</time>
      </trkpt>
      <trkpt lat="31.225951317629633" lon="121.40073232044094">
        <ele>26.205314537510276</ele>
        <time>2026-05-20T09:36:34Z</time>
      </trkpt>
      <trkpt lat="31.225759414136068" lon="121.4007823459618">
        <ele>25.80896749161184</ele>
        <time>2026-05-20T09:36:40Z</time>
      </trkpt>
      <trkpt lat="31.225680449622743" lon="121.4007713509046">
        <ele>26.593727013096213</ele>
        <time>2026-05-20T09:36:43Z</time>
      </trkpt>
      <trkpt lat="31.225718415395527" lon="121.40064632595175">
        <ele>26.15510549210012</ele>
        <time>2026-05-20T09:36:49Z</time>
      </trkpt>
      <trkpt lat="31.225728377446305" lon="121.40037528098841">
        <ele>26.01770772598684</ele>
        <time>2026-05-20T09:36:55Z</time>
      </trkpt>
      <trkpt lat="31.225788328206573" lon="121.40018724744033">
        <ele>26.0916975941509</ele>
        <time>2026-05-20T09:36:58Z</time>
      </trkpt>
      <trkpt lat="31.22580430772118" lon="121.40006422852407">
        <ele>23.64759053848684</ele>
        <time>2026-05-20T09:37:01Z</time>
      </trkpt>
      <trkpt lat="31.225738324718556" lon="121.39992521543354">
        <ele>23.782348534092307</ele>
        <time>2026-05-20T09:37:07Z</time>
      </trkpt>
      <trkpt lat="31.225666355909258" lon="121.39989921829782">
        <ele>25.06385030411184</ele>
        <time>2026-05-20T09:37:13Z</time>
      </trkpt>
      <trkpt lat="31.225582397821775" lon="121.39992622916428">
        <ele>24.05714406631887</ele>
        <time>2026-05-20T09:37:16Z</time>
      </trkpt>
      <trkpt lat="31.22561938461078" lon="121.39996823152796">
        <ele>22.0516585316509</ele>
        <time>2026-05-20T09:37:28Z</time>
      </trkpt>
      <trkpt lat="31.225647383046883" lon="121.40008224472453">
        <ele>25.734985252842307</ele>
        <time>2026-05-20T09:37:40Z</time>
      </trkpt>
      <trkpt lat="31.225766325603537" lon="121.40006523197586">
        <ele>28.65205373428762</ele>
        <time>2026-05-20T09:37:58Z</time>
      </trkpt>
      <trkpt lat="31.22578831031602" lon="121.40001622329684">
        <ele>33.81770314835012</ele>
        <time>2026-05-20T09:38:13Z</time>
      </trkpt>
      <trkpt lat="31.2258322927753" lon="121.40004622358582">
        <ele>36.76911916397512</ele>
        <time>2026-05-20T09:38:19Z</time>
      </trkpt>
      <trkpt lat="31.2258302882588" lon="121.39999221637001">
        <ele>34.67908467911184</ele>
        <time>2026-05-20T09:38:31Z</time>
      </trkpt>
      <trkpt lat="31.22581630159266" lon="121.40005922678257">
        <ele>36.58944692276418</ele>
        <time>2026-05-20T09:38:40Z</time>
      </trkpt>
      <trkpt lat="31.225867293861878" lon="121.40021124406528">
        <ele>34.993514915928245</ele>
        <time>2026-05-20T09:38:49Z</time>
      </trkpt>
      <trkpt lat="31.22580331307715" lon="121.40011123521259">
        <ele>32.14778890274465</ele>
        <time>2026-05-20T09:38:55Z</time>
      </trkpt>
      <trkpt lat="31.225819312728927" lon="121.40017824342898">
        <ele>36.483756920322776</ele>
        <time>2026-05-20T09:39:01Z</time>
      </trkpt>
      <trkpt lat="31.22582431706109" lon="121.40023925194876">
        <ele>35.55103292129934</ele>
        <time>2026-05-20T09:39:19Z</time>
      </trkpt>
      <trkpt lat="31.225764335348142" lon="121.40014924403442">
        <ele>27.56079854629934</ele>
        <time>2026-05-20T09:39:28Z</time>
      </trkpt>
      <trkpt lat="31.225817315398537" lon="121.4001942459334">
        <ele>33.75428762100637</ele>
        <time>2026-05-20T09:39:31Z</time>
      </trkpt>
      <trkpt lat="31.22581846753401" lon="121.4001427803176">
        <ele>32.797782799229026</ele>
        <time>2026-05-20T09:39:37Z</time>
      </trkpt>
      <trkpt lat="31.22587014108323" lon="121.40016923111315">
        <ele>34.58396138809621</ele>
        <time>2026-05-20T09:39:46Z</time>
      </trkpt>
      <trkpt lat="31.22589389053766" lon="121.40023468137795">
        <ele>41.150016685947776</ele>
        <time>2026-05-20T09:39:49Z</time>
      </trkpt>
      <trkpt lat="31.225890958083838" lon="121.40031603044109">
        <ele>43.020744225010276</ele>
        <time>2026-05-20T09:39:52Z</time>
      </trkpt>
      <trkpt lat="31.225741366958722" lon="121.40033727398149">
        <ele>36.674003502354026</ele>
        <time>2026-05-20T09:39:55Z</time>
      </trkpt>
      <trkpt lat="31.225648402420997" lon="121.40026627131746">
        <ele>32.39880361221731</ele>
        <time>2026-05-20T09:39:58Z</time>
      </trkpt>
    </trkseg>
  </trk>
</gpx>