<?xml version="1.0" encoding="UTF-8"?>
<gpx xmlns="http://www.topografix.com/GPX/1/1" xmlns:gpxtpx="http://www.garmin.com/xmlschemas/TrackPointExtension/v1" xmlns:xsi="http://www.w3.org/2001/XMLSchema-instance" xsi:schemaLocation="http://www.topografix.com/GPX/1/1 http://www.topografix.com/GPX/1/1/gpx.xsd" version="1.1" creator="gpx.py -- https://github.com/tkrajina/gpxpy">
  <trk>
    <name>gpx from keep</name>
    <type>Run</type>
    <trkseg>
      <trkpt lat="31.23057810525905" lon="121.40026684149734">
        <ele>17.452413583174348</ele>
        <time>2026-09-25T10:30:23Z</time>
      </trkpt>
      <trkpt lat="31.23090993989354" lon="121.400161797102">
        <ele>19.1857452634722</ele>
        <time>2026-09-25T10:30:50Z</time>
      </trkpt>
      <trkpt lat="31.231002891714308" lon="121.40011378212411">
        <ele>16.836763406172395</ele>
        <time>2026-09-25T10:30:53Z</time>
      </trkpt>
      <trkpt lat="31.23108484576955" lon="121.40003676420801">
        <ele>16.377006554976106</ele>
        <time>2026-09-25T10:30:56Z</time>
      </trkpt>
      <trkpt lat="31.231166793794717" lon="121.39989473802018">
        <ele>12.965831780806184</ele>
        <time>2026-09-25T10:31:02Z</time>
      </trkpt>
      <trkpt lat="31.231206764497905" lon="121.39977871976609">
        <ele>18.736557031050324</ele>
        <time>2026-09-25T10:31:05Z</time>
      </trkpt>
      <trkpt lat="31.23121475018816" lon="121.39965770441832">
        <ele>15.449569726362824</ele>
        <time>2026-09-25T10:31:08Z</time>
      </trkpt>
      <trkpt lat="31.2311897522839" lon="121.39954269338637">
        <ele>18.08920099772513</ele>
        <time>2026-09-25T10:31:11Z</time>
      </trkpt>
      <trkpt lat="31.231145765495164" lon="121.39945068715282">
        <ele>16.649162316694856</ele>
        <time>2026-09-25T10:31:14Z</time>
      </trkpt>
      <trkpt lat="31.231089786083448" lon="121.39937868446425">
        <ele>10.315631890669465</ele>
        <time>2026-09-25T10:31:17Z</time>
      </trkpt>
      <trkpt lat="31.231025812218032" lon="121.39932968504716">
        <ele>19.394483590498567</ele>
        <time>2026-09-25T10:31:20Z</time>
      </trkpt>
      <trkpt lat="31.230940849081886" lon="121.399293688867">
        <ele>16.01237299479544</ele>
        <time>2026-09-25T10:31:23Z</time>
      </trkpt>
      <trkpt lat="31.23066697501493" lon="121.3992787112804">
        <ele>18.715419793501496</ele>
        <time>2026-09-25T10:31:32Z</time>
      </trkpt>
      <trkpt lat="31.230405105424857" lon="121.39940474689104">
        <ele>17.75627520121634</ele>
        <time>2026-09-25T10:31:44Z</time>
      </trkpt>
      <trkpt lat="31.23016821902109" lon="121.39945377274422">
        <ele>15.156276727095246</ele>
        <time>2026-09-25T10:31:53Z</time>
      </trkpt>
      <trkpt lat="31.22987336756447" lon="121.3996008147892">
        <ele>18.319078469648957</ele>
        <time>2026-09-25T10:32:05Z</time>
      </trkpt>
      <trkpt lat="31.229751434856404" lon="121.39972584019952">
        <ele>18.23452570475638</ele>
        <time>2026-09-25T10:32:11Z</time>
      </trkpt>
      <trkpt lat="31.22970646265755" lon="121.39980285363163">
        <ele>16.36643793620169</ele>
        <time>2026-09-25T10:32:14Z</time>
      </trkpt>
      <trkpt lat="31.229674491822806" lon="121.39995387597246">
        <ele>18.202817941084504</ele>
        <time>2026-09-25T10:32:20Z</time>
      </trkpt>
      <trkpt lat="31.22977947271017" lon="121.40023790683449">
        <ele>17.233104730024934</ele>
        <time>2026-09-25T10:32:29Z</time>
      </trkpt>
      <trkpt lat="31.22984045304336" lon="121.40031491309637">
        <ele>18.276802087202668</ele>
        <time>2026-09-25T10:32:32Z</time>
      </trkpt>
      <trkpt lat="31.22997139857821" lon="121.40036991013753">
        <ele>17.954444909468293</ele>
        <time>2026-09-25T10:32:38Z</time>
      </trkpt>
      <trkpt lat="31.23029524860162" lon="121.40037288235537">
        <ele>17.69285967387259</ele>
        <time>2026-09-25T10:32:50Z</time>
      </trkpt>
      <trkpt lat="31.230610090761424" lon="121.40026983915726">
        <ele>16.773347878828645</ele>
        <time>2026-09-25T10:33:02Z</time>
      </trkpt>
      <trkpt lat="31.230943923392974" lon="121.40015479312825">
        <ele>16.28452684916556</ele>
        <time>2026-09-25T10:33:17Z</time>
      </trkpt>
      <trkpt lat="31.23105086479473" lon="121.40006877160904">
        <ele>17.087780022993684</ele>
        <time>2026-09-25T10:33:23Z</time>
      </trkpt>
      <trkpt lat="31.23114280663337" lon="121.39991274246741">
        <ele>17.41013720072806</ele>
        <time>2026-09-25T10:33:33Z</time>
      </trkpt>
      <trkpt lat="31.231209758295666" lon="121.39972471287145">
        <ele>17.024364495649934</ele>
        <time>2026-09-25T10:33:36Z</time>
      </trkpt>
      <trkpt lat="31.231218743235182" lon="121.39959669697521">
        <ele>14.865627313032746</ele>
        <time>2026-09-25T10:33:39Z</time>
      </trkpt>
      <trkpt lat="31.23119374774136" lon="121.39950868926442">
        <ele>15.927820229902864</ele>
        <time>2026-09-25T10:33:42Z</time>
      </trkpt>
      <trkpt lat="31.23110677901245" lon="121.39938968412115">
        <ele>17.098348641768098</ele>
        <time>2026-09-25T10:33:48Z</time>
      </trkpt>
      <trkpt lat="31.230979832193537" lon="121.39931068715403">
        <ele>16.292453790083528</ele>
        <time>2026-09-25T10:33:54Z</time>
      </trkpt>
      <trkpt lat="31.230621996694435" lon="121.39929071638396">
        <ele>17.420705819502473</ele>
        <time>2026-09-25T10:34:03Z</time>
      </trkpt>
      <trkpt lat="31.23044008700155" lon="121.39937474072413">
        <ele>18.453834557905793</ele>
        <time>2026-09-25T10:34:09Z</time>
      </trkpt>
      <trkpt lat="31.230320143596717" lon="121.39938775253079">
        <ele>16.01237299479544</ele>
        <time>2026-09-25T10:34:12Z</time>
      </trkpt>
      <trkpt lat="31.230002298268328" lon="121.399482790348">
        <ele>16.05464937724173</ele>
        <time>2026-09-25T10:34:21Z</time>
      </trkpt>
      <trkpt lat="31.22988335998288" lon="121.39956480981456">
        <ele>17.566030526533723</ele>
        <time>2026-09-25T10:34:27Z</time>
      </trkpt>
      <trkpt lat="31.22977841831978" lon="121.39967983231345">
        <ele>9.816242242231965</ele>
        <time>2026-09-25T10:34:30Z</time>
      </trkpt>
      <trkpt lat="31.2297144574861" lon="121.39978685093268">
        <ele>18.120908761397004</ele>
        <time>2026-09-25T10:34:33Z</time>
      </trkpt>
      <trkpt lat="31.229683481838183" lon="121.39989386727585">
        <ele>12.484937692061067</ele>
        <time>2026-09-25T10:34:36Z</time>
      </trkpt>
      <trkpt lat="31.229683494718916" lon="121.40002488479453">
        <ele>17.285949731245637</ele>
        <time>2026-09-25T10:34:39Z</time>
      </trkpt>
      <trkpt lat="31.229741485853577" lon="121.40019690410867">
        <ele>15.552618050947785</ele>
        <time>2026-09-25T10:34:45Z</time>
      </trkpt>
      <trkpt lat="31.229840454186448" lon="121.40032491462316">
        <ele>16.78391840495169</ele>
        <time>2026-09-25T10:34:51Z</time>
      </trkpt>
      <trkpt lat="31.22990043106702" lon="121.40036591570689">
        <ele>16.99265673197806</ele>
        <time>2026-09-25T10:34:54Z</time>
      </trkpt>
      <trkpt lat="31.230023376315472" lon="121.40038590809554">
        <ele>15.365016961470246</ele>
        <time>2026-09-25T10:35:00Z</time>
      </trkpt>
      <trkpt lat="31.23033122934877" lon="121.4003508758091">
        <ele>17.243673348799348</ele>
        <time>2026-09-25T10:35:12Z</time>
      </trkpt>
      <trkpt lat="31.230512144147553" lon="121.400339858334">
        <ele>17.336153054609895</ele>
        <time>2026-09-25T10:35:18Z</time>
      </trkpt>
      <trkpt lat="31.2306390781049" lon="121.40027683768045">
        <ele>17.077209496870637</ele>
        <time>2026-09-25T10:35:24Z</time>
      </trkpt>
      <trkpt lat="31.230948922902048" lon="121.40017179514797">
        <ele>16.680868173018098</ele>
        <time>2026-09-25T10:35:39Z</time>
      </trkpt>
      <trkpt lat="31.231052867926085" lon="121.40010777691451">
        <ele>17.52639582194388</ele>
        <time>2026-09-25T10:35:46Z</time>
      </trkpt>
      <trkpt lat="31.231186787515" lon="121.39992574034225">
        <ele>17.4418430570513</ele>
        <time>2026-09-25T10:35:52Z</time>
      </trkpt>
      <trkpt lat="31.231221751338445" lon="121.3997087098892">
        <ele>16.02294352091849</ele>
        <time>2026-09-25T10:35:58Z</time>
      </trkpt>
      <trkpt lat="31.231212746177754" lon="121.39959869772785">
        <ele>16.543470406904817</ele>
        <time>2026-09-25T10:36:01Z</time>
      </trkpt>
      <trkpt lat="31.231183751278504" lon="121.39949468860026">
        <ele>16.918674493208528</ele>
        <time>2026-09-25T10:36:04Z</time>
      </trkpt>
      <trkpt lat="31.23108478803637" lon="121.39937368438451">
        <ele>17.336153054609895</ele>
        <time>2026-09-25T10:36:10Z</time>
      </trkpt>
      <trkpt lat="31.231023813144358" lon="121.39932968522153">
        <ele>7.427625680342317</ele>
        <time>2026-09-25T10:36:13Z</time>
      </trkpt>
      <trkpt lat="31.230812906743513" lon="121.39926969767076">
        <ele>17.233104730024934</ele>
        <time>2026-09-25T10:36:22Z</time>
      </trkpt>
      <trkpt lat="31.230726946866895" lon="121.39927370555962">
        <ele>17.743062997236848</ele>
        <time>2026-09-25T10:36:25Z</time>
      </trkpt>
      <trkpt lat="31.230420095481236" lon="121.39936374133741">
        <ele>17.76420214213431</ele>
        <time>2026-09-25T10:36:37Z</time>
      </trkpt>
      <trkpt lat="31.230084258986118" lon="121.3994667814659">
        <ele>14.989812875166535</ele>
        <time>2026-09-25T10:36:53Z</time>
      </trkpt>
      <trkpt lat="31.229861367075546" lon="121.39952580736468">
        <ele>17.307086968794465</ele>
        <time>2026-09-25T10:37:02Z</time>
      </trkpt>
      <trkpt lat="31.229788404085525" lon="121.39956481809719">
        <ele>16.503835702314973</ele>
        <time>2026-09-25T10:37:05Z</time>
      </trkpt>
      <trkpt lat="31.22970245937746" lon="121.39974584691149">
        <ele>18.02578547038138</ele>
        <time>2026-09-25T10:37:11Z</time>
      </trkpt>
      <trkpt lat="31.229685474430596" lon="121.39982485823647">
        <ele>16.939811730757356</ele>
        <time>2026-09-25T10:37:14Z</time>
      </trkpt>
      <trkpt lat="31.2297494752632" lon="121.40013289416133">
        <ele>15.032089257612824</ele>
        <time>2026-09-25T10:37:26Z</time>
      </trkpt>
      <trkpt lat="31.229874439780545" lon="121.40033691349795">
        <ele>16.836763406172395</ele>
        <time>2026-09-25T10:37:35Z</time>
      </trkpt>
      <trkpt lat="31.23004037113461" lon="121.40040891021879">
        <ele>13.726806664839387</ele>
        <time>2026-09-25T10:37:41Z</time>
      </trkpt>
      <trkpt lat="31.230165314794824" lon="121.40042290152874">
        <ele>17.597738290205598</ele>
        <time>2026-09-25T10:37:47Z</time>
      </trkpt>
      <trkpt lat="31.23045916780093" lon="121.40033186172676">
        <ele>13.528636956587434</ele>
        <time>2026-09-25T10:37:59Z</time>
      </trkpt>
      <trkpt lat="31.230669063414222" lon="121.40026983401317">
        <ele>13.935546899214387</ele>
        <time>2026-09-25T10:38:08Z</time>
      </trkpt>
      <trkpt lat="31.230808996747413" lon="121.40025381941275">
        <ele>17.190828347578645</ele>
        <time>2026-09-25T10:38:14Z</time>
      </trkpt>
      <trkpt lat="31.23094792574637" lon="121.40019379843564">
        <ele>16.59631540812552</ele>
        <time>2026-09-25T10:38:20Z</time>
      </trkpt>
      <trkpt lat="31.23108584961942" lon="121.40007876995489">
        <ele>16.670299554243684</ele>
        <time>2026-09-25T10:38:26Z</time>
      </trkpt>
      <trkpt lat="31.23119078411917" lon="121.39990973788868">
        <ele>17.933307671919465</ele>
        <time>2026-09-25T10:38:32Z</time>
      </trkpt>
      <trkpt lat="31.231214749425195" lon="121.39964870335935">
        <ele>10.389614129438996</ele>
        <time>2026-09-25T10:38:41Z</time>
      </trkpt>
      <trkpt lat="31.231129771546605" lon="121.39943268662958">
        <ele>17.848754907026887</ele>
        <time>2026-09-25T10:38:50Z</time>
      </trkpt>
      <trkpt lat="31.231084788398974" lon="121.3993786849002">
        <ele>17.869892144575715</ele>
        <time>2026-09-25T10:38:53Z</time>
      </trkpt>
      <trkpt lat="31.230997824344495" lon="121.39931768628384">
        <ele>17.222534203901887</ele>
        <time>2026-09-25T10:39:00Z</time>
      </trkpt>
      <trkpt lat="31.230864882853975" lon="121.39927269342985">
        <ele>17.891029382124543</ele>
        <time>2026-09-25T10:39:06Z</time>
      </trkpt>
      <trkpt lat="31.230583017346355" lon="121.39932772347044">
        <ele>17.682291055098176</ele>
        <time>2026-09-25T10:39:18Z</time>
      </trkpt>
      <trkpt lat="31.230201202426898" lon="121.39943676805223">
        <ele>16.70200731791556</ele>
        <time>2026-09-25T10:39:36Z</time>
      </trkpt>
      <trkpt lat="31.229988307259696" lon="121.39951479507454">
        <ele>16.794487023726106</ele>
        <time>2026-09-25T10:39:45Z</time>
      </trkpt>
      <trkpt lat="31.229811396759704" lon="121.3996058207699">
        <ele>17.566030526533723</ele>
        <time>2026-09-25T10:39:51Z</time>
      </trkpt>
      <trkpt lat="31.229765423498364" lon="121.39966983225892">
        <ele>17.994079614058137</ele>
        <time>2026-09-25T10:39:54Z</time>
      </trkpt>
      <trkpt lat="31.22966349488113" lon="121.3999328741408">
        <ele>18.40098955668509</ele>
        <time>2026-09-25T10:40:03Z</time>
      </trkpt>
      <trkpt lat="31.229666509599465" lon="121.40009289572582">
        <ele>17.378429437056184</ele>
        <time>2026-09-25T10:40:09Z</time>
      </trkpt>
      <trkpt lat="31.229709498436275" lon="121.40017590383974">
        <ele>15.888187432661653</ele>
        <time>2026-09-25T10:40:12Z</time>
      </trkpt>
      <trkpt lat="31.229876440351706" lon="121.40034991532448">
        <ele>16.532901788130403</ele>
        <time>2026-09-25T10:40:21Z</time>
      </trkpt>
      <trkpt lat="31.229936416927526" lon="121.40038791599311">
        <ele>18.04692461527884</ele>
        <time>2026-09-25T10:40:24Z</time>
      </trkpt>
      <trkpt lat="31.23007735384698" lon="121.40040790683557">
        <ele>17.180257821455598</ele>
        <time>2026-09-25T10:40:30Z</time>
      </trkpt>
      <trkpt lat="31.230378204101036" lon="121.40032086710568">
        <ele>17.515827203169465</ele>
        <time>2026-09-25T10:40:43Z</time>
      </trkpt>
      <trkpt lat="31.23070604104664" lon="121.40022282379294">
        <ele>17.388998055830598</ele>
        <time>2026-09-25T10:40:55Z</time>
      </trkpt>
      <trkpt lat="31.230969909006095" lon="121.40013278770599">
        <ele>16.45099070109427</ele>
        <time>2026-09-25T10:41:07Z</time>
      </trkpt>
      <trkpt lat="31.231104840509882" lon="121.40007576787848">
        <ele>17.148551965132356</ele>
        <time>2026-09-25T10:41:10Z</time>
      </trkpt>
      <trkpt lat="31.231185787108245" lon="121.39991673924382">
        <ele>17.003227258101106</ele>
        <time>2026-09-25T10:41:19Z</time>
      </trkpt>
      <trkpt lat="31.231218755807582" lon="121.39974371440313">
        <ele>15.93839075602591</ele>
        <time>2026-09-25T10:41:25Z</time>
      </trkpt>
      <trkpt lat="31.231214750273157" lon="121.39965870453625">
        <ele>17.034933114424348</ele>
        <time>2026-09-25T10:41:28Z</time>
      </trkpt>
      <trkpt lat="31.231145768873834" lon="121.39949469191347">
        <ele>16.628023171797395</ele>
        <time>2026-09-25T10:41:35Z</time>
      </trkpt>
      <trkpt lat="31.231076794081016" lon="121.39940568840505">
        <ele>11.412174249067903</ele>
        <time>2026-09-25T10:41:41Z</time>
      </trkpt>
      <trkpt lat="31.23094684810813" lon="121.39931969093072">
        <ele>17.169689202681184</ele>
        <time>2026-09-25T10:41:47Z</time>
      </trkpt>
      <trkpt lat="31.230832898910435" lon="121.39929069798721">
        <ele>17.4418430570513</ele>
        <time>2026-09-25T10:41:53Z</time>
      </trkpt>
      <trkpt lat="31.23072794763444" lon="121.39929170724069">
        <ele>16.01237299479544</ele>
        <time>2026-09-25T10:41:56Z</time>
      </trkpt>
      <trkpt lat="31.23047707042663" lon="121.39938273832433">
        <ele>17.233104730024934</ele>
        <time>2026-09-25T10:42:08Z</time>
      </trkpt>
      <trkpt lat="31.23029315722007" lon="121.39940275644685">
        <ele>17.108917260542512</ele>
        <time>2026-09-25T10:42:17Z</time>
      </trkpt>
      <trkpt lat="31.230017292704435" lon="121.39950079100568">
        <ele>17.233104730024934</ele>
        <time>2026-09-25T10:42:29Z</time>
      </trkpt>
      <trkpt lat="31.22987636298989" lon="121.39956181008603">
        <ele>16.345300698652864</ele>
        <time>2026-09-25T10:42:35Z</time>
      </trkpt>
      <trkpt lat="31.229812397124388" lon="121.39961582183707">
        <ele>17.48411943949759</ele>
        <time>2026-09-25T10:42:38Z</time>
      </trkpt>
      <trkpt lat="31.229712458959707" lon="121.39979285185602">
        <ele>15.248756432905793</ele>
        <time>2026-09-25T10:42:47Z</time>
      </trkpt>
      <trkpt lat="31.229679489893577" lon="121.39995787607072">
        <ele>17.494689965620637</ele>
        <time>2026-09-25T10:42:53Z</time>
      </trkpt>
      <trkpt lat="31.229709493836605" lon="121.40013289764873">
        <ele>18.036355996504426</ele>
        <time>2026-09-25T10:42:59Z</time>
      </trkpt>
      <trkpt lat="31.229850448401056" lon="121.40031491222452">
        <ele>15.91725161112845</ele>
        <time>2026-09-25T10:43:08Z</time>
      </trkpt>
      <trkpt lat="31.229923421323313" lon="121.40037391494408">
        <ele>15.16684534586966</ele>
        <time>2026-09-25T10:43:11Z</time>
      </trkpt>
      <trkpt lat="31.23004236808505" lon="121.40039090722043">
        <ele>17.264810586348176</ele>
        <time>2026-09-25T10:43:17Z</time>
      </trkpt>
      <trkpt lat="31.230185293278513" lon="121.40031788347474">
        <ele>15.343877816572785</ele>
        <time>2026-09-25T10:43:24Z</time>
      </trkpt>
      <trkpt lat="31.230282253583265" lon="121.40036388209172">
        <ele>16.334730172529817</ele>
        <time>2026-09-25T10:43:27Z</time>
      </trkpt>
      <trkpt lat="31.23060909370168" lon="121.40029184255827">
        <ele>17.41013720072806</ele>
        <time>2026-09-25T10:43:39Z</time>
      </trkpt>
      <trkpt lat="31.230928933462973" lon="121.40018379863432">
        <ele>15.697942757979035</ele>
        <time>2026-09-25T10:43:54Z</time>
      </trkpt>
      <trkpt lat="31.231125823951004" lon="121.40000875679537">
        <ele>16.960948968306184</ele>
        <time>2026-09-25T10:44:06Z</time>
      </trkpt>
      <trkpt lat="31.231198776416644" lon="121.39986773172998">
        <ele>16.76277926005423</ele>
        <time>2026-09-25T10:44:12Z</time>
      </trkpt>
      <trkpt lat="31.231215753246268" lon="121.39969870920919">
        <ele>16.691438699141145</ele>
        <time>2026-09-25T10:44:18Z</time>
      </trkpt>
      <trkpt lat="31.231185754535932" lon="121.39954769429512">
        <ele>16.094284081831574</ele>
        <time>2026-09-25T10:44:25Z</time>
      </trkpt>
      <trkpt lat="31.230964840402088" lon="121.39932869026504">
        <ele>14.020099664106965</ele>
        <time>2026-09-25T10:44:37Z</time>
      </trkpt>
      <trkpt lat="31.23077692396875" lon="121.39927770159169">
        <ele>15.991235757246614</ele>
        <time>2026-09-25T10:44:46Z</time>
      </trkpt>
      <trkpt lat="31.230708955617548" lon="121.39927970771654">
        <ele>15.407293343916535</ele>
        <time>2026-09-25T10:44:49Z</time>
      </trkpt>
      <trkpt lat="31.230467075500904" lon="121.39938873981802">
        <ele>19.21745111979544</ele>
        <time>2026-09-25T10:45:01Z</time>
      </trkpt>
      <trkpt lat="31.230308150557928" lon="121.39940675555756">
        <ele>9.179452920332551</ele>
        <time>2026-09-25T10:45:07Z</time>
      </trkpt>
      <trkpt lat="31.23025317860605" lon="121.39944076394418">
        <ele>18.40098955668509</ele>
        <time>2026-09-25T10:45:10Z</time>
      </trkpt>
      <trkpt lat="31.229989307821736" lon="121.39952779642697">
        <ele>18.778835320845246</ele>
        <time>2026-09-25T10:45:19Z</time>
      </trkpt>
      <trkpt lat="31.229807400362645" lon="121.39962682354884">
        <ele>17.69285967387259</ele>
        <time>2026-09-25T10:45:28Z</time>
      </trkpt>
      <trkpt lat="31.229711460335785" lon="121.39980285319571">
        <ele>14.791643166914582</ele>
        <time>2026-09-25T10:45:35Z</time>
      </trkpt>
      <trkpt lat="31.22968548052809" lon="121.39988986658074">
        <ele>17.01379587687552</ele>
        <time>2026-09-25T10:45:38Z</time>
      </trkpt>
      <trkpt lat="31.22969948932244" lon="121.40004488615352">
        <ele>17.494689965620637</ele>
        <time>2026-09-25T10:45:44Z</time>
      </trkpt>
      <trkpt lat="31.229721486258136" lon="121.4001138938979">
        <ele>17.211965585127473</ele>
        <time>2026-09-25T10:45:47Z</time>
      </trkpt>
      <trkpt lat="31.229862442146683" lon="121.40030891026474">
        <ele>17.087780022993684</ele>
        <time>2026-09-25T10:45:56Z</time>
      </trkpt>
      <trkpt lat="31.22991042456934" lon="121.40034991236017">
        <ele>16.42985346354544</ele>
        <time>2026-09-25T10:45:59Z</time>
      </trkpt>
      <trkpt lat="31.23004536505282" lon="121.40037690477423">
        <ele>16.773347878828645</ele>
        <time>2026-09-25T10:46:05Z</time>
      </trkpt>
      <trkpt lat="31.2303342293488" lon="121.40036287740304">
        <ele>16.752210641279817</ele>
        <time>2026-09-25T10:46:17Z</time>
      </trkpt>
      <trkpt lat="31.230599097659525" lon="121.40028584252386">
        <ele>16.649162316694856</ele>
        <time>2026-09-25T10:46:29Z</time>
      </trkpt>
      <trkpt lat="31.230804998044505" lon="121.40024881901611">
        <ele>13.644895577803254</ele>
        <time>2026-09-25T10:46:38Z</time>
      </trkpt>
      <trkpt lat="31.231058858626156" lon="121.40004476757905">
        <ele>16.63859179057181</ele>
        <time>2026-09-25T10:46:53Z</time>
      </trkpt>
      <trkpt lat="31.23114580466742" lon="121.39990674141906">
        <ele>15.042659783735871</ele>
        <time>2026-09-25T10:46:59Z</time>
      </trkpt>
      <trkpt lat="31.231189766241634" lon="121.39970971279988">
        <ele>16.355869317427278</ele>
        <time>2026-09-25T10:47:06Z</time>
      </trkpt>
      <trkpt lat="31.231154769290942" lon="121.3995526975593">
        <ele>17.024364495649934</ele>
        <time>2026-09-25T10:47:12Z</time>
      </trkpt>
      <trkpt lat="31.23107079804658" lon="121.39942169060984">
        <ele>16.97151949442923</ele>
        <time>2026-09-25T10:47:18Z</time>
      </trkpt>
      <trkpt lat="31.230984832341488" lon="121.39934569023983">
        <ele>15.62660219706595</ele>
        <time>2026-09-25T10:47:24Z</time>
      </trkpt>
      <trkpt lat="31.23071894935772" lon="121.39925570450585">
        <ele>17.045501733198762</ele>
        <time>2026-09-25T10:47:36Z</time>
      </trkpt>
      <trkpt lat="31.23068097108027" lon="121.39931571372263">
        <ele>16.42985346354544</ele>
        <time>2026-09-25T10:47:39Z</time>
      </trkpt>
      <trkpt lat="31.230479071851832" lon="121.3994147414881">
        <ele>16.712575936689973</ele>
        <time>2026-09-25T10:47:51Z</time>
      </trkpt>
      <trkpt lat="31.230242183482652" lon="121.39943776458391">
        <ele>17.169689202681184</ele>
        <time>2026-09-25T10:48:00Z</time>
      </trkpt>
      <trkpt lat="31.229996303311175" lon="121.39951179404608">
        <ele>18.057493234053254</ele>
        <time>2026-09-25T10:48:12Z</time>
      </trkpt>
      <trkpt lat="31.229766419231122" lon="121.39962482689099">
        <ele>15.396724725142121</ele>
        <time>2026-09-25T10:48:21Z</time>
      </trkpt>
      <trkpt lat="31.22969546785693" lon="121.3998038547162">
        <ele>16.741642022505403</ele>
        <time>2026-09-25T10:48:27Z</time>
      </trkpt>
      <trkpt lat="31.2296754860309" lon="121.39989886862543">
        <ele>16.670299554243684</ele>
        <time>2026-09-25T10:48:30Z</time>
      </trkpt>
      <trkpt lat="31.22971849071984" lon="121.40014289829514">
        <ele>13.206277871504426</ele>
        <time>2026-09-25T10:48:39Z</time>
      </trkpt>
      <trkpt lat="31.22980546600227" lon="121.40028591174989">
        <ele>16.564609551802278</ele>
        <time>2026-09-25T10:48:45Z</time>
      </trkpt>
      <trkpt lat="31.229853449298997" lon="121.40033491502179">
        <ele>16.292453790083528</ele>
        <time>2026-09-25T10:48:48Z</time>
      </trkpt>
      <trkpt lat="31.230027378946247" lon="121.40042391371853">
        <ele>14.218269372358918</ele>
        <time>2026-09-25T10:48:57Z</time>
      </trkpt>
      <trkpt lat="31.230122334388707" lon="121.4004199048037">
        <ele>15.552618050947785</ele>
        <time>2026-09-25T10:49:00Z</time>
      </trkpt>
      <trkpt lat="31.23043617617776" lon="121.40031186067637">
        <ele>15.198553109541535</ele>
        <time>2026-09-25T10:49:15Z</time>
      </trkpt>
      <trkpt lat="31.23072902830539" lon="121.40020381899309">
        <ele>16.61745455302298</ele>
        <time>2026-09-25T10:49:30Z</time>
      </trkpt>
      <trkpt lat="31.230966909126753" lon="121.40012078625715">
        <ele>16.033512139692903</ele>
        <time>2026-09-25T10:49:43Z</time>
      </trkpt>
      <trkpt lat="31.231103833636745" lon="121.40000375803255">
        <ele>15.05058672465384</ele>
        <time>2026-09-25T10:49:49Z</time>
      </trkpt>
      <trkpt lat="31.231176790409247" lon="121.39990773884719">
        <ele>15.552618050947785</ele>
        <time>2026-09-25T10:49:55Z</time>
      </trkpt>
      <trkpt lat="31.231192776386482" lon="121.399837728409">
        <ele>15.690015817061067</ele>
        <time>2026-09-25T10:49:58Z</time>
      </trkpt>
      <trkpt lat="31.23118777302422" lon="121.39977572105018">
        <ele>15.803634667769074</ele>
        <time>2026-09-25T10:50:01Z</time>
      </trkpt>
      <trkpt lat="31.231234741609747" lon="121.39966570361942">
        <ele>15.02152063883841</ele>
        <time>2026-09-25T10:50:07Z</time>
      </trkpt>
      <trkpt lat="31.231237474563102" lon="121.39960203501619">
        <ele>15.08493616618216</ele>
        <time>2026-09-25T10:50:10Z</time>
      </trkpt>
      <trkpt lat="31.23119374703773" lon="121.39949968827577">
        <ele>15.697942757979035</ele>
        <time>2026-09-25T10:50:13Z</time>
      </trkpt>
      <trkpt lat="31.23098583187829" lon="121.39934569015264">
        <ele>14.041236901655793</ele>
        <time>2026-09-25T10:50:22Z</time>
      </trkpt>
      <trkpt lat="31.23079391568311" lon="121.39927169952257">
        <ele>15.7719269040972</ele>
        <time>2026-09-25T10:50:31Z</time>
      </trkpt>
      <trkpt lat="31.230492061593782" lon="121.39935673434383">
        <ele>15.72965052165091</ele>
        <time>2026-09-25T10:50:43Z</time>
      </trkpt>
      <trkpt lat="31.2302821605663" lon="121.39937875491236">
        <ele>17.024364495649934</ele>
        <time>2026-09-25T10:50:53Z</time>
      </trkpt>
      <trkpt lat="31.229983308717767" lon="121.39950379429924">
        <ele>15.552618050947785</ele>
        <time>2026-09-25T10:51:08Z</time>
      </trkpt>
      <trkpt lat="31.229771417411506" lon="121.39963082715302">
        <ele>16.585746789351106</ele>
        <time>2026-09-25T10:51:20Z</time>
      </trkpt>
      <trkpt lat="31.22969646987754" lon="121.39983085803838">
        <ele>15.793064141646028</ele>
        <time>2026-09-25T10:51:26Z</time>
      </trkpt>
      <trkpt lat="31.2296944874948" lon="121.4000038809665">
        <ele>12.976400399580598</ele>
        <time>2026-09-25T10:51:32Z</time>
      </trkpt>
      <trkpt lat="31.22971448554397" lon="121.40007588915589">
        <ele>15.814203286543489</ele>
        <time>2026-09-25T10:51:35Z</time>
      </trkpt>
      <trkpt lat="31.22980045856889" lon="121.40019789911099">
        <ele>15.552618050947785</ele>
        <time>2026-09-25T10:51:41Z</time>
      </trkpt>
      <trkpt lat="31.229897424423783" lon="121.40029590524038">
        <ele>14.823350930586457</ele>
        <time>2026-09-25T10:51:47Z</time>
      </trkpt>
      <trkpt lat="31.23009334184619" lon="121.40036889934557">
        <ele>15.888187432661653</ele>
        <time>2026-09-25T10:51:56Z</time>
      </trkpt>
      <trkpt lat="31.230366206142463" lon="121.4002898634425">
        <ele>15.70851137675345</ele>
        <time>2026-09-25T10:52:12Z</time>
      </trkpt>
      <trkpt lat="31.23047115994895" lon="121.40031185762481">
        <ele>15.835340524092317</ele>
        <time>2026-09-25T10:52:15Z</time>
      </trkpt>
      <trkpt lat="31.230785004767007" lon="121.40022581734803">
        <ele>14.87619593180716</ele>
        <time>2026-09-25T10:52:30Z</time>
      </trkpt>
      <trkpt lat="31.23095391843989" lon="121.40015179182458">
        <ele>16.115421319380403</ele>
        <time>2026-09-25T10:52:39Z</time>
      </trkpt>
      <trkpt lat="31.231061853288036" lon="121.40000576196674">
        <ele>15.449569726362824</ele>
        <time>2026-09-25T10:52:45Z</time>
      </trkpt>
      <trkpt lat="31.231142800937228" lon="121.39985273468464">
        <ele>15.668878579512239</ele>
        <time>2026-09-25T10:52:54Z</time>
      </trkpt>
      <trkpt lat="31.231196755825643" lon="121.39962570224176">
        <ele>15.5631866697222</ele>
        <time>2026-09-25T10:53:03Z</time>
      </trkpt>
      <trkpt lat="31.23116776199188" lon="121.39953669463428">
        <ele>15.896114373579621</ele>
        <time>2026-09-25T10:53:06Z</time>
      </trkpt>
      <trkpt lat="31.231001823334154" lon="121.3993296871397">
        <ele>15.7719269040972</ele>
        <time>2026-09-25T10:53:15Z</time>
      </trkpt>
      <trkpt lat="31.23094284843126" lon="121.3992976890883">
        <ele>16.95038034953177</ele>
        <time>2026-09-25T10:53:18Z</time>
      </trkpt>
      <trkpt lat="31.23081390641587" lon="121.3992716977788">
        <ele>16.001804376021028</ele>
        <time>2026-09-25T10:53:24Z</time>
      </trkpt>
      <trkpt lat="31.2306929629646" lon="121.3992787090135">
        <ele>16.86847116984427</ele>
        <time>2026-09-25T10:53:31Z</time>
      </trkpt>
      <trkpt lat="31.230474068869622" lon="121.39934173438736">
        <ele>14.614610696211457</ele>
        <time>2026-09-25T10:53:40Z</time>
      </trkpt>
      <trkpt lat="31.230346129295537" lon="121.39935674707318">
        <ele>16.26338961161673</ele>
        <time>2026-09-25T10:53:46Z</time>
      </trkpt>
      <trkpt lat="31.230047277308078" lon="121.39948178631593">
        <ele>16.16826822794974</ele>
        <time>2026-09-25T10:54:01Z</time>
      </trkpt>
      <trkpt lat="31.229834382648704" lon="121.39956381397364">
        <ele>6.238601708784699</ele>
        <time>2026-09-25T10:54:10Z</time>
      </trkpt>
      <trkpt lat="31.22972444572952" lon="121.39970684025508">
        <ele>9.678842568770051</ele>
        <time>2026-09-25T10:54:16Z</time>
      </trkpt>
      <trkpt lat="31.22968348754532" lon="121.39995287505438">
        <ele>16.044080758467317</ele>
        <time>2026-09-25T10:54:25Z</time>
      </trkpt>
      <trkpt lat="31.22968949254084" lon="121.4000308850954">
        <ele>16.670299554243684</ele>
        <time>2026-09-25T10:54:28Z</time>
      </trkpt>
      <trkpt lat="31.229784470610163" lon="121.40023990669542">
        <ele>15.927820229902864</ele>
        <time>2026-09-25T10:54:37Z</time>
      </trkpt>
      <trkpt lat="31.229843451993123" lon="121.40031791329228">
        <ele>11.723962808027864</ele>
        <time>2026-09-25T10:54:40Z</time>
      </trkpt>
      <trkpt lat="31.229971401858364" lon="121.40039791450681">
        <ele>16.836763406172395</ele>
        <time>2026-09-25T10:54:46Z</time>
      </trkpt>
      <trkpt lat="31.230196294407968" lon="121.4003718908314">
        <ele>14.69652178324759</ele>
        <time>2026-09-25T10:54:59Z</time>
      </trkpt>
      <trkpt lat="31.230276252898438" lon="121.4003338779887">
        <ele>15.93839075602591</ele>
        <time>2026-09-25T10:55:02Z</time>
      </trkpt>
      <trkpt lat="31.23036621300097" lon="121.40034987260327">
        <ele>16.92924311198294</ele>
        <time>2026-09-25T10:55:05Z</time>
      </trkpt>
      <trkpt lat="31.230637082310203" lon="121.40030584223906">
        <ele>16.033512139692903</ele>
        <time>2026-09-25T10:55:17Z</time>
      </trkpt>
      <trkpt lat="31.23092893357127" lon="121.40018479877986">
        <ele>16.960948968306184</ele>
        <time>2026-09-25T10:55:32Z</time>
      </trkpt>
      <trkpt lat="31.231040873588725" lon="121.40010877810234">
        <ele>15.793064141646028</ele>
        <time>2026-09-25T10:55:38Z</time>
      </trkpt>
      <trkpt lat="31.231209770477" lon="121.3998587296127">
        <ele>15.856479668989778</ele>
        <time>2026-09-25T10:55:50Z</time>
      </trkpt>
      <trkpt lat="31.23122575779042" lon="121.39980172098117">
        <ele>11.118883157148957</ele>
        <time>2026-09-25T10:55:53Z</time>
      </trkpt>
      <trkpt lat="31.23119975055833" lon="121.3995786965757">
        <ele>15.906682992354035</ele>
        <time>2026-09-25T10:56:02Z</time>
      </trkpt>
      <trkpt lat="31.2311327719706" lon="121.39945668892949">
        <ele>14.23940851725638</ele>
        <time>2026-09-25T10:56:08Z</time>
      </trkpt>
      <trkpt lat="31.231030813045493" lon="121.39937368909274">
        <ele>15.835340524092317</ele>
        <time>2026-09-25T10:56:14Z</time>
      </trkpt>
      <trkpt lat="31.230905866194856" lon="121.39930669320762">
        <ele>10.223152184858918</ele>
        <time>2026-09-25T10:56:21Z</time>
      </trkpt>
      <trkpt lat="31.230772926095327" lon="121.39928170233274">
        <ele>15.552618050947785</ele>
        <time>2026-09-25T10:56:27Z</time>
      </trkpt>
      <trkpt lat="31.230476067658667" lon="121.3993377338081">
        <ele>15.906682992354035</ele>
        <time>2026-09-25T10:56:42Z</time>
      </trkpt>
      <trkpt lat="31.23018920927859" lon="121.3994537709133">
        <ele>14.802211785688996</ele>
        <time>2026-09-25T10:56:57Z</time>
      </trkpt>
      <trkpt lat="31.23010325116856" lon="121.39947978121627">
        <ele>14.989812875166535</ele>
        <time>2026-09-25T10:57:00Z</time>
      </trkpt>
      <trkpt lat="31.230045277236478" lon="121.39946878508205">
        <ele>14.154855752363801</ele>
        <time>2026-09-25T10:57:03Z</time>
      </trkpt>
      <trkpt lat="31.22991134370773" lon="121.39952380278355">
        <ele>5.467058205977082</ele>
        <time>2026-09-25T10:57:09Z</time>
      </trkpt>
      <trkpt lat="31.229805401709744" lon="121.39963182430525">
        <ele>15.156276727095246</ele>
        <time>2026-09-25T10:57:15Z</time>
      </trkpt>
      <trkpt lat="31.229703464508145" lon="121.3998078545214">
        <ele>15.343877816572785</ele>
        <time>2026-09-25T10:57:21Z</time>
      </trkpt>
      <trkpt lat="31.229679483504935" lon="121.39989186736412">
        <ele>16.001804376021028</ele>
        <time>2026-09-25T10:57:24Z</time>
      </trkpt>
      <trkpt lat="31.229693490480464" lon="121.4000288844718">
        <ele>12.265628838911653</ele>
        <time>2026-09-25T10:57:27Z</time>
      </trkpt>
      <trkpt lat="31.229744488297644" lon="121.40023190899672">
        <ele>17.211965585127473</ele>
        <time>2026-09-25T10:57:33Z</time>
      </trkpt>
      <trkpt lat="31.229790475914182" lon="121.4003119169986">
        <ele>13.832496667280793</ele>
        <time>2026-09-25T10:57:36Z</time>
      </trkpt>
      <trkpt lat="31.229959409673462" lon="121.4004169185414">
        <ele>10.233720803633332</ele>
        <time>2026-09-25T10:57:42Z</time>
      </trkpt>
      <trkpt lat="31.23011833600723" lon="121.40041790483666">
        <ele>16.419282937422395</ele>
        <time>2026-09-25T10:57:48Z</time>
      </trkpt>
      <trkpt lat="31.23038620153682" lon="121.40033086793814">
        <ele>16.02294352091849</ele>
        <time>2026-09-25T10:58:00Z</time>
      </trkpt>
      <trkpt lat="31.23057810818493" lon="121.40029284541232">
        <ele>15.010952020063996</ele>
        <time>2026-09-25T10:58:09Z</time>
      </trkpt>
      <trkpt lat="31.23087212733186" lon="121.40015001124848">
        <ele>15.124568963423371</ele>
        <time>2026-09-25T10:58:25Z</time>
      </trkpt>
      <trkpt lat="31.230975902230295" lon="121.40009478179257">
        <ele>13.82192804850638</ele>
        <time>2026-09-25T10:58:31Z</time>
      </trkpt>
      <trkpt lat="31.2310148756592" lon="121.40001176688263">
        <ele>12.965831780806184</ele>
        <time>2026-09-25T10:58:34Z</time>
      </trkpt>
      <trkpt lat="31.23114180224454" lon="121.39986173592719">
        <ele>15.499773049727082</ele>
        <time>2026-09-25T10:58:43Z</time>
      </trkpt>
      <trkpt lat="31.231163787137437" lon="121.39980872726645">
        <ele>15.740219140425324</ele>
        <time>2026-09-25T10:58:46Z</time>
      </trkpt>
      <trkpt lat="31.231196755158603" lon="121.39961770131367">
        <ele>15.510341668501496</ele>
        <time>2026-09-25T10:58:52Z</time>
      </trkpt>
      <trkpt lat="31.2311737603327" lon="121.39955069567802">
        <ele>15.845911050215364</ele>
        <time>2026-09-25T10:58:55Z</time>
      </trkpt>
      <trkpt lat="31.231036810049538" lon="121.39937068826082">
        <ele>16.22111322917044</ele>
        <time>2026-09-25T10:59:04Z</time>
      </trkpt>
      <trkpt lat="31.230985830604354" lon="121.39932768833344">
        <ele>16.334730172529817</ele>
        <time>2026-09-25T10:59:07Z</time>
      </trkpt>
      <trkpt lat="31.230797916511403" lon="121.39931070302242">
        <ele>16.815624261274934</ele>
        <time>2026-09-25T10:59:16Z</time>
      </trkpt>
      <trkpt lat="31.230522046260514" lon="121.39933672969637">
        <ele>15.41786196269095</ele>
        <time>2026-09-25T10:59:28Z</time>
      </trkpt>
      <trkpt lat="31.230400104683664" lon="121.3993627429787">
        <ele>14.363594079390168</ele>
        <time>2026-09-25T10:59:34Z</time>
      </trkpt>
      <trkpt lat="31.230338132077947" lon="121.3993437464476">
        <ele>15.814203286543489</ele>
        <time>2026-09-25T10:59:37Z</time>
      </trkpt>
      <trkpt lat="31.23014522668933" lon="121.39941377050344">
        <ele>7.1343326810747385</ele>
        <time>2026-09-25T10:59:46Z</time>
      </trkpt>
      <trkpt lat="31.22996431998015" lon="121.39953479938546">
        <ele>14.466644311323762</ele>
        <time>2026-09-25T10:59:56Z</time>
      </trkpt>
      <trkpt lat="31.2298753703912" lon="121.39964581983891">
        <ele>16.70200731791556</ele>
        <time>2026-09-25T11:00:02Z</time>
      </trkpt>
      <trkpt lat="31.2297884168873" lon="121.39971683588257">
        <ele>14.66745569743216</ele>
        <time>2026-09-25T11:00:05Z</time>
      </trkpt>
      <trkpt lat="31.229740444779633" lon="121.39977984779446">
        <ele>15.948959374800324</ele>
        <time>2026-09-25T11:00:08Z</time>
      </trkpt>
      <trkpt lat="31.22970847525101" lon="121.39994587194231">
        <ele>6.8753910306841135</ele>
        <time>2026-09-25T11:00:14Z</time>
      </trkpt>
      <trkpt lat="31.22975247728546" lon="121.40016489849778">
        <ele>16.19997408427298</ele>
        <time>2026-09-25T11:00:23Z</time>
      </trkpt>
      <trkpt lat="31.229848444352616" lon="121.40027090574347">
        <ele>14.791643166914582</ele>
        <time>2026-09-25T11:00:29Z</time>
      </trkpt>
      <trkpt lat="31.22991541754455" lon="121.40030890564391">
        <ele>16.26338961161673</ele>
        <time>2026-09-25T11:00:32Z</time>
      </trkpt>
      <trkpt lat="31.22995040635031" lon="121.40035290933577">
        <ele>16.45099070109427</ele>
        <time>2026-09-25T11:00:35Z</time>
      </trkpt>
      <trkpt lat="31.230097339640924" lon="121.40036589853129">
        <ele>12.661970162764192</ele>
        <time>2026-09-25T11:00:44Z</time>
      </trkpt>
      <trkpt lat="31.230198290925337" lon="121.40034988725063">
        <ele>12.027824426069856</ele>
        <time>2026-09-25T11:00:47Z</time>
      </trkpt>
      <trkpt lat="31.23030924199154" lon="121.40037188097932">
        <ele>16.16826822794974</ele>
        <time>2026-09-25T11:00:50Z</time>
      </trkpt>
      <trkpt lat="31.230474159928598" lon="121.40032385919415">
        <ele>16.649162316694856</ele>
        <time>2026-09-25T11:00:56Z</time>
      </trkpt>
      <trkpt lat="31.230595098051072" lon="121.40027284091545">
        <ele>13.206277871504426</ele>
        <time>2026-09-25T11:01:02Z</time>
      </trkpt>
      <trkpt lat="31.230866963706394" lon="121.40019780608256">
        <ele>16.303024316206574</ele>
        <time>2026-09-25T11:01:18Z</time>
      </trkpt>
      <trkpt lat="31.230953915465275" lon="121.40012378781749">
        <ele>16.178836846724153</ele>
        <time>2026-09-25T11:01:21Z</time>
      </trkpt>
      <trkpt lat="31.23099889430434" lon="121.4001207834671">
        <ele>16.178836846724153</ele>
        <time>2026-09-25T11:01:24Z</time>
      </trkpt>
      <trkpt lat="31.2310438699011" lon="121.40008677473858">
        <ele>13.090019250288606</ele>
        <time>2026-09-25T11:01:27Z</time>
      </trkpt>
      <trkpt lat="31.23116879277321" lon="121.39989373771547">
        <ele>15.697942757979035</ele>
        <time>2026-09-25T11:01:36Z</time>
      </trkpt>
      <trkpt lat="31.231189776848307" lon="121.3998277273997">
        <ele>15.23026087321341</ele>
        <time>2026-09-25T11:01:39Z</time>
      </trkpt>
      <trkpt lat="31.231186757148873" lon="121.39958569850674">
        <ele>16.680868173018098</ele>
        <time>2026-09-25T11:01:51Z</time>
      </trkpt>
      <trkpt lat="31.231112779194014" lon="121.39942968779374">
        <ele>16.31359293498099</ele>
        <time>2026-09-25T11:01:57Z</time>
      </trkpt>
      <trkpt lat="31.231003823043768" lon="121.39933868787374">
        <ele>13.77965166606009</ele>
        <time>2026-09-25T11:02:06Z</time>
      </trkpt>
      <trkpt lat="31.230937851370697" lon="121.39930669041757">
        <ele>14.749366784468293</ele>
        <time>2026-09-25T11:02:09Z</time>
      </trkpt>
      <trkpt lat="31.23072495237736" lon="121.39933971230063">
        <ele>15.91725161112845</ele>
        <time>2026-09-25T11:02:21Z</time>
      </trkpt>
      <trkpt lat="31.230560027376924" lon="121.39931872457252">
        <ele>16.47212984599173</ele>
        <time>2026-09-25T11:02:24Z</time>
      </trkpt>
      <trkpt lat="31.230222189785994" lon="121.39939776211513">
        <ele>14.102008843794465</ele>
        <time>2026-09-25T11:02:42Z</time>
      </trkpt>
      <trkpt lat="31.229935330995854" lon="121.39950379848416">
        <ele>16.543470406904817</ele>
        <time>2026-09-25T11:02:55Z</time>
      </trkpt>
      <trkpt lat="31.229807396319252" lon="121.39957781791438">
        <ele>17.671722436323762</ele>
        <time>2026-09-25T11:03:01Z</time>
      </trkpt>
      <trkpt lat="31.229713449881405" lon="121.39969583989209">
        <ele>16.147129083052278</ele>
        <time>2026-09-25T11:03:07Z</time>
      </trkpt>
      <trkpt lat="31.22969846356049" lon="121.39977185046347">
        <ele>16.398145699873567</ele>
        <time>2026-09-25T11:03:10Z</time>
      </trkpt>
      <trkpt lat="31.22971848534808" lon="121.4000918910515">
        <ele>15.552618050947785</ele>
        <time>2026-09-25T11:03:22Z</time>
      </trkpt>
      <trkpt lat="31.22975047961448" lon="121.40017790055549">
        <ele>16.16826822794974</ele>
        <time>2026-09-25T11:03:25Z</time>
      </trkpt>
      <trkpt lat="31.229972397299488" lon="121.40036290896445">
        <ele>14.080871606245637</ele>
        <time>2026-09-25T11:03:37Z</time>
      </trkpt>
      <trkpt lat="31.230174305899737" lon="121.40038289446224">
        <ele>16.503835702314973</ele>
        <time>2026-09-25T11:03:46Z</time>
      </trkpt>
      <trkpt lat="31.23032323294347" lon="121.40034987635231">
        <ele>15.62660219706595</ele>
        <time>2026-09-25T11:03:52Z</time>
      </trkpt>
      <trkpt lat="31.230395199552326" lon="121.40034987007485">
        <ele>16.044080758467317</ele>
        <time>2026-09-25T11:03:55Z</time>
      </trkpt>
      <trkpt lat="31.230661065557214" lon="121.40025583261512">
        <ele>16.10485270060599</ele>
        <time>2026-09-25T11:04:04Z</time>
      </trkpt>
      <trkpt lat="31.23097990184244" lon="121.40010878342088">
        <ele>15.240829491987824</ele>
        <time>2026-09-25T11:04:23Z</time>
      </trkpt>
      <trkpt lat="31.231036870043827" lon="121.40005677115967">
        <ele>16.461559319868684</ele>
        <time>2026-09-25T11:04:29Z</time>
      </trkpt>
      <trkpt lat="31.23117078891032" lon="121.39986273352734">
        <ele>16.136560464277864</ele>
        <time>2026-09-25T11:04:38Z</time>
      </trkpt>
      <trkpt lat="31.231212756029514" lon="121.39971471139832">
        <ele>13.341033959761262</ele>
        <time>2026-09-25T11:04:44Z</time>
      </trkpt>
      <trkpt lat="31.23117776041906" lon="121.39957469803927">
        <ele>13.111156487837434</ele>
        <time>2026-09-25T11:04:50Z</time>
      </trkpt>
      <trkpt lat="31.23111378084508" lon="121.39945769069348">
        <ele>13.227417016401887</ele>
        <time>2026-09-25T11:04:56Z</time>
      </trkpt>
      <trkpt lat="31.231064799712307" lon="121.39940668955605">
        <ele>16.12599184550345</ele>
        <time>2026-09-25T11:04:59Z</time>
      </trkpt>
      <trkpt lat="31.231005825423868" lon="121.39938469240872">
        <ele>15.7719269040972</ele>
        <time>2026-09-25T11:05:02Z</time>
      </trkpt>
      <trkpt lat="31.23095284673805" lon="121.39933969242159">
        <ele>15.58432581461966</ele>
        <time>2026-09-25T11:05:05Z</time>
      </trkpt>
      <trkpt lat="31.230822903132186" lon="121.3992846982681">
        <ele>14.717659020796418</ele>
        <time>2026-09-25T11:05:11Z</time>
      </trkpt>
      <trkpt lat="31.23072294899294" lon="121.39927770629986">
        <ele>14.656887078657746</ele>
        <time>2026-09-25T11:05:14Z</time>
      </trkpt>
      <trkpt lat="31.23066297956272" lon="121.39931771549206">
        <ele>15.616031670942903</ele>
        <time>2026-09-25T11:05:20Z</time>
      </trkpt>
      <trkpt lat="31.230432087918995" lon="121.39933573744221">
        <ele>15.02152063883841</ele>
        <time>2026-09-25T11:05:30Z</time>
      </trkpt>
      <trkpt lat="31.23036412392289" lon="121.39939774973458">
        <ele>15.906682992354035</ele>
        <time>2026-09-25T11:05:36Z</time>
      </trkpt>
      <trkpt lat="31.230093256349345" lon="121.39948678284937">
        <ele>16.02294352091849</ele>
        <time>2026-09-25T11:05:48Z</time>
      </trkpt>
      <trkpt lat="31.229895354979693" lon="121.39957180956077">
        <ele>12.278841042891145</ele>
        <time>2026-09-25T11:05:57Z</time>
      </trkpt>
      <trkpt lat="31.22973543888783" lon="121.39968683689708">
        <ele>15.333309197798371</ele>
        <time>2026-09-25T11:06:06Z</time>
      </trkpt>
      <trkpt lat="31.229684474525857" lon="121.39982085781742">
        <ele>15.489202523604035</ele>
        <time>2026-09-25T11:06:12Z</time>
      </trkpt>
      <trkpt lat="31.2296994891183" lon="121.40004288587718">
        <ele>17.817047143355012</ele>
        <time>2026-09-25T11:06:21Z</time>
      </trkpt>
      <trkpt lat="31.229726484252154" lon="121.40011689388776">
        <ele>15.647739434614778</ele>
        <time>2026-09-25T11:06:24Z</time>
      </trkpt>
      <trkpt lat="31.229868437432863" lon="121.4002919071635">
        <ele>14.353025460615754</ele>
        <time>2026-09-25T11:06:33Z</time>
      </trkpt>
      <trkpt lat="31.230103339427348" lon="121.40038790143309">
        <ele>15.594894433394074</ele>
        <time>2026-09-25T11:06:45Z</time>
      </trkpt>
      <trkpt lat="31.230370209646377" lon="121.40033687025362">
        <ele>13.716238046064973</ele>
        <time>2026-09-25T11:06:57Z</time>
      </trkpt>
      <trkpt lat="31.230669060958974" lon="121.4002478307248">
        <ele>12.14144136942923</ele>
        <time>2026-09-25T11:07:12Z</time>
      </trkpt>
      <trkpt lat="31.230845975732624" lon="121.40021881099668">
        <ele>15.948959374800324</ele>
        <time>2026-09-25T11:07:21Z</time>
      </trkpt>
      <trkpt lat="31.230998893882763" lon="121.40011678289866">
        <ele>13.77965166606009</ele>
        <time>2026-09-25T11:07:31Z</time>
      </trkpt>
      <trkpt lat="31.231078846421045" lon="121.40001576184889">
        <ele>29.334716821089387</ele>
        <time>2026-09-25T11:07:34Z</time>
      </trkpt>
      <trkpt lat="31.23118378861373" lon="121.39992274020814">
        <ele>14.688594842329621</ele>
        <time>2026-09-25T11:07:40Z</time>
      </trkpt>
      <trkpt lat="31.231219766411137" lon="121.39986472951246">
        <ele>14.802211785688996</ele>
        <time>2026-09-25T11:07:43Z</time>
      </trkpt>
      <trkpt lat="31.231234745145365" lon="121.39970670851469">
        <ele>15.93839075602591</ele>
        <time>2026-09-25T11:07:49Z</time>
      </trkpt>
      <trkpt lat="31.23119374995335" lon="121.39953669236735">
        <ele>15.312171960249543</ele>
        <time>2026-09-25T11:07:55Z</time>
      </trkpt>
      <trkpt lat="31.231119773725773" lon="121.39939968402874">
        <ele>16.02294352091849</ele>
        <time>2026-09-25T11:08:01Z</time>
      </trkpt>
      <trkpt lat="31.230845890373978" lon="121.39925369323934">
        <ele>14.905260110273957</ele>
        <time>2026-09-25T11:08:16Z</time>
      </trkpt>
      <trkpt lat="31.230570023584068" lon="121.3993307249059">
        <ele>14.102008843794465</ele>
        <time>2026-09-25T11:08:28Z</time>
      </trkpt>
      <trkpt lat="31.230450084116328" lon="121.39939874234075">
        <ele>15.365016961470246</ele>
        <time>2026-09-25T11:08:34Z</time>
      </trkpt>
      <trkpt lat="31.230369123156756" lon="121.39941875149975">
        <ele>13.436157250776887</ele>
        <time>2026-09-25T11:08:40Z</time>
      </trkpt>
      <trkpt lat="31.23012124467987" lon="121.39950378226754">
        <ele>15.269893670454621</ele>
        <time>2026-09-25T11:08:52Z</time>
      </trkpt>
      <trkpt lat="31.23000429687756" lon="121.39947678952225">
        <ele>15.62660219706595</ele>
        <time>2026-09-25T11:08:55Z</time>
      </trkpt>
      <trkpt lat="31.22983338770795" lon="121.39961982046937">
        <ele>15.959527993574739</ele>
        <time>2026-09-25T11:09:04Z</time>
      </trkpt>
      <trkpt lat="31.22973844516683" lon="121.39977384722394">
        <ele>15.959527993574739</ele>
        <time>2026-09-25T11:09:10Z</time>
      </trkpt>
      <trkpt lat="31.22971746999953" lon="121.39993486969759">
        <ele>15.676805520430207</ele>
        <time>2026-09-25T11:09:17Z</time>
      </trkpt>
      <trkpt lat="31.22979645621269" lon="121.4001588937954">
        <ele>9.565225625410676</ele>
        <time>2026-09-25T11:09:26Z</time>
      </trkpt>
      <trkpt lat="31.229832446009308" lon="121.40021889940421">
        <ele>14.69652178324759</ele>
        <time>2026-09-25T11:09:29Z</time>
      </trkpt>
      <trkpt lat="31.230022372356572" lon="121.40034790228698">
        <ele>15.647739434614778</ele>
        <time>2026-09-25T11:09:38Z</time>
      </trkpt>
      <trkpt lat="31.23018130148341" lon="121.40037289229463">
        <ele>15.37558558024466</ele>
        <time>2026-09-25T11:09:47Z</time>
      </trkpt>
      <trkpt lat="31.230387201762657" lon="121.40033686877145">
        <ele>15.761358285322785</ele>
        <time>2026-09-25T11:09:56Z</time>
      </trkpt>
      <trkpt lat="31.230705045387452" lon="121.40025782907759">
        <ele>15.05058672465384</ele>
        <time>2026-09-25T11:10:11Z</time>
      </trkpt>
      <trkpt lat="31.23097890451938" lon="121.40012978649297">
        <ele>13.946115517988801</ele>
        <time>2026-09-25T11:10:26Z</time>
      </trkpt>
      <trkpt lat="31.231109825996878" lon="121.39995475090511">
        <ele>16.324161553755403</ele>
        <time>2026-09-25T11:10:35Z</time>
      </trkpt>
      <trkpt lat="31.231180779541127" lon="121.39981172616194">
        <ele>12.35018160380423</ele>
        <time>2026-09-25T11:10:44Z</time>
      </trkpt>
      <trkpt lat="31.23120275304762" lon="121.39962570171862">
        <ele>10.828231835737824</ele>
        <time>2026-09-25T11:10:50Z</time>
      </trkpt>
      <trkpt lat="31.2311327719706" lon="121.39945668892949">
        <ele>15.0637970212847</ele>
        <time>2026-09-25T11:10:56Z</time>
      </trkpt>
      <trkpt lat="31.230949843408254" lon="121.39927168592111">
        <ele>14.958107018843293</ele>
        <time>2026-09-25T11:11:08Z</time>
      </trkpt>
      <trkpt lat="31.230864878595966" lon="121.39920868728355">
        <ele>15.386154199019074</ele>
        <time>2026-09-25T11:11:11Z</time>
      </trkpt>
      <trkpt lat="31.230785915069873" lon="121.39920669398283">
        <ele>15.573755288496614</ele>
        <time>2026-09-25T11:11:18Z</time>
      </trkpt>
      <trkpt lat="31.230684968947354" lon="121.39931171297444">
        <ele>15.93839075602591</ele>
        <time>2026-09-25T11:11:21Z</time>
      </trkpt>
      <trkpt lat="31.230376118652067" lon="121.39940174910582">
        <ele>15.240829491987824</ele>
        <time>2026-09-25T11:11:36Z</time>
      </trkpt>
      <trkpt lat="31.23013323748057" lon="121.3994827789266">
        <ele>15.280464196577668</ele>
        <time>2026-09-25T11:11:48Z</time>
      </trkpt>
      <trkpt lat="31.229981310194187" lon="121.39951079524366">
        <ele>15.460138345137239</ele>
        <time>2026-09-25T11:11:57Z</time>
      </trkpt>
      <trkpt lat="31.229924339423288" lon="121.39954580410199">
        <ele>14.582902932539582</ele>
        <time>2026-09-25T11:12:00Z</time>
      </trkpt>
      <trkpt lat="31.22989036216659" lon="121.39963081677794">
        <ele>15.280464196577668</ele>
        <time>2026-09-25T11:12:03Z</time>
      </trkpt>
      <trkpt lat="31.22973044717738" lon="121.3997548455751">
        <ele>15.888187432661653</ele>
        <time>2026-09-25T11:12:09Z</time>
      </trkpt>
      <trkpt lat="31.229705464038055" lon="121.39981285497656">
        <ele>14.041236901655793</ele>
        <time>2026-09-25T11:12:12Z</time>
      </trkpt>
      <trkpt lat="31.229704485372476" lon="121.40002888351276">
        <ele>15.647739434614778</ele>
        <time>2026-09-25T11:12:21Z</time>
      </trkpt>
      <trkpt lat="31.229755475892517" lon="121.40016489823623">
        <ele>15.93839075602591</ele>
        <time>2026-09-25T11:12:27Z</time>
      </trkpt>
      <trkpt lat="31.229912417914466" lon="121.40029990453868">
        <ele>15.489202523604035</ele>
        <time>2026-09-25T11:12:36Z</time>
      </trkpt>
      <trkpt lat="31.22994041471916" lon="121.40038491517583">
        <ele>14.477212930098176</ele>
        <time>2026-09-25T11:12:39Z</time>
      </trkpt>
      <trkpt lat="31.2300123814203" lon="121.40038590905459">
        <ele>15.896114373579621</ele>
        <time>2026-09-25T11:12:46Z</time>
      </trkpt>
      <trkpt lat="31.23007535465683" lon="121.40040690685265">
        <ele>15.074365640059114</ele>
        <time>2026-09-25T11:12:49Z</time>
      </trkpt>
      <trkpt lat="31.230335223814446" lon="121.40031887054937">
        <ele>15.835340524092317</ele>
        <time>2026-09-25T11:13:01Z</time>
      </trkpt>
      <trkpt lat="31.2304581673473" lon="121.40032386058914">
        <ele>15.573755288496614</ele>
        <time>2026-09-25T11:13:04Z</time>
      </trkpt>
      <trkpt lat="31.230741024386724" lon="121.40021882015145">
        <ele>14.989812875166535</ele>
        <time>2026-09-25T11:13:19Z</time>
      </trkpt>
      <trkpt lat="31.230979907467088" lon="121.40016179099877">
        <ele>15.72965052165091</ele>
        <time>2026-09-25T11:13:31Z</time>
      </trkpt>
      <trkpt lat="31.23111982895157" lon="121.40003076033051">
        <ele>14.23940851725638</ele>
        <time>2026-09-25T11:13:40Z</time>
      </trkpt>
      <trkpt lat="31.23117978921235" lon="121.39990973884777">
        <ele>15.888187432661653</ele>
        <time>2026-09-25T11:13:46Z</time>
      </trkpt>
      <trkpt lat="31.23119075902203" lon="121.39963070334667">
        <ele>16.115421319380403</ele>
        <time>2026-09-25T11:13:55Z</time>
      </trkpt>
      <trkpt lat="31.23115176524284" lon="121.39948369019065">
        <ele>14.886764550581574</ele>
        <time>2026-09-25T11:14:01Z</time>
      </trkpt>
      <trkpt lat="31.23109678364337" lon="121.39938968499304">
        <ele>16.26338961161673</ele>
        <time>2026-09-25T11:14:04Z</time>
      </trkpt>
      <trkpt lat="31.23091985642657" lon="121.39925868727161">
        <ele>15.970096612349153</ele>
        <time>2026-09-25T11:14:13Z</time>
      </trkpt>
      <trkpt lat="31.230743936902236" lon="121.39924270107187">
        <ele>14.759935403242707</ele>
        <time>2026-09-25T11:14:23Z</time>
      </trkpt>
      <trkpt lat="31.23061400460672" lon="121.39935072309515">
        <ele>15.637170815840364</ele>
        <time>2026-09-25T11:14:26Z</time>
      </trkpt>
      <trkpt lat="31.23055539156404" lon="121.3995764717953">
        <ele>15.103431725874543</ele>
        <time>2026-09-25T11:14:32Z</time>
      </trkpt>
      <trkpt lat="31.230454093546296" lon="121.39954575789308">
        <ele>15.793064141646028</ele>
        <time>2026-09-25T11:14:38Z</time>
      </trkpt>
      <trkpt lat="31.230380127621174" lon="121.39954276400911">
        <ele>18.89245226420462</ele>
        <time>2026-09-25T11:14:41Z</time>
      </trkpt>
      <trkpt lat="31.23027317046459" lon="121.39945576380411">
        <ele>15.856479668989778</ele>
        <time>2026-09-25T11:14:44Z</time>
      </trkpt>
      <trkpt lat="31.230201202652687" lon="121.39943976837138">
        <ele>15.291032815352082</ele>
        <time>2026-09-25T11:14:47Z</time>
      </trkpt>
      <trkpt lat="31.23002228775671" lon="121.39946678687146">
        <ele>16.10485270060599</ele>
        <time>2026-09-25T11:14:56Z</time>
      </trkpt>
      <trkpt lat="31.229844378329965" lon="121.3995678135541">
        <ele>13.581481957808137</ele>
        <time>2026-09-25T11:15:05Z</time>
      </trkpt>
      <trkpt lat="31.229743434656466" lon="121.399680835484">
        <ele>12.611766839399934</ele>
        <time>2026-09-25T11:15:11Z</time>
      </trkpt>
      <trkpt lat="31.229696474280246" lon="121.39987786406452">
        <ele>16.094284081831574</ele>
        <time>2026-09-25T11:15:20Z</time>
      </trkpt>
      <trkpt lat="31.229698480383785" lon="121.39995087347992">
        <ele>14.968675637617707</ele>
        <time>2026-09-25T11:15:23Z</time>
      </trkpt>
      <trkpt lat="31.2298094494281" lon="121.40015189165379">
        <ele>15.343877816572785</ele>
        <time>2026-09-25T11:15:32Z</time>
      </trkpt>
      <trkpt lat="31.229783469307957" lon="121.40022390441378">
        <ele>15.782495522871614</ele>
        <time>2026-09-25T11:15:35Z</time>
      </trkpt>
      <trkpt lat="31.229894431996208" lon="121.40034991375514">
        <ele>16.05464937724173</ele>
        <time>2026-09-25T11:15:44Z</time>
      </trkpt>
      <trkpt lat="31.23003337050467" lon="121.40037590566482">
        <ele>16.19997408427298</ele>
        <time>2026-09-25T11:15:51Z</time>
      </trkpt>
      <trkpt lat="31.230360214053945" lon="121.40033487081844">
        <ele>14.823350930586457</ele>
        <time>2026-09-25T11:16:03Z</time>
      </trkpt>
      <trkpt lat="31.230665063480405" lon="121.40025383196786">
        <ele>13.705669427290559</ele>
        <time>2026-09-25T11:16:18Z</time>
      </trkpt>
      <trkpt lat="31.23079000256028" lon="121.40022681705986">
        <ele>15.9806671384722</ele>
        <time>2026-09-25T11:16:24Z</time>
      </trkpt>
      <trkpt lat="31.231094845140827" lon="121.40007576875038">
        <ele>16.05464937724173</ele>
        <time>2026-09-25T11:16:39Z</time>
      </trkpt>
      <trkpt lat="31.231180788461135" lon="121.3999067383674">
        <ele>15.531478906050324</ele>
        <time>2026-09-25T11:16:48Z</time>
      </trkpt>
      <trkpt lat="31.231192766959946" lon="121.39973371544856">
        <ele>15.280464196577668</ele>
        <time>2026-09-25T11:16:54Z</time>
      </trkpt>
      <trkpt lat="31.231125780408725" lon="121.39952369685048">
        <ele>15.9806671384722</ele>
        <time>2026-09-25T11:17:03Z</time>
      </trkpt>
      <trkpt lat="31.23099282985225" lon="121.39936269127604">
        <ele>15.16684534586966</ele>
        <time>2026-09-25T11:17:12Z</time>
      </trkpt>
      <trkpt lat="31.23088087777688" lon="121.39930669538735">
        <ele>14.540626550093293</ele>
        <time>2026-09-25T11:17:18Z</time>
      </trkpt>
      <trkpt lat="31.230645986398127" lon="121.3993027154791">
        <ele>14.894691491499543</ele>
        <time>2026-09-25T11:17:31Z</time>
      </trkpt>
      <trkpt lat="31.2303511308367" lon="121.39940975212296">
        <ele>15.856479668989778</ele>
        <time>2026-09-25T11:17:46Z</time>
      </trkpt>
      <trkpt lat="31.23021719336086" lon="121.39941476433114">
        <ele>14.915830636397004</ele>
        <time>2026-09-25T11:17:52Z</time>
      </trkpt>
      <trkpt lat="31.22997431407213" lon="121.39951879673714">
        <ele>15.647739434614778</ele>
        <time>2026-09-25T11:18:04Z</time>
      </trkpt>
      <trkpt lat="31.229920339293297" lon="121.39952080166651">
        <ele>15.407293343916535</ele>
        <time>2026-09-25T11:18:07Z</time>
      </trkpt>
      <trkpt lat="31.22978541124691" lon="121.39963482639878">
        <ele>16.543470406904817</ele>
        <time>2026-09-25T11:18:13Z</time>
      </trkpt>
      <trkpt lat="31.229744434881503" lon="121.39968883635137">
        <ele>10.733110452070832</ele>
        <time>2026-09-25T11:18:16Z</time>
      </trkpt>
      <trkpt lat="31.229693477194463" lon="121.399893866404">
        <ele>12.80993845500052</ele>
        <time>2026-09-25T11:18:25Z</time>
      </trkpt>
      <trkpt lat="31.22971048309393" lon="121.40003388367722">
        <ele>9.678842568770051</ele>
        <time>2026-09-25T11:18:32Z</time>
      </trkpt>
      <trkpt lat="31.22975946966773" lon="121.40012389200598">
        <ele>14.289611840620637</ele>
        <time>2026-09-25T11:18:35Z</time>
      </trkpt>
      <trkpt lat="31.22996739535044" lon="121.40032590370357">
        <ele>15.449569726362824</ele>
        <time>2026-09-25T11:18:47Z</time>
      </trkpt>
      <trkpt lat="31.230011377345875" lon="121.4003469030919">
        <ele>15.41786196269095</ele>
        <time>2026-09-25T11:18:50Z</time>
      </trkpt>
      <trkpt lat="31.23003837005875" lon="121.40039190772562">
        <ele>14.646318459883332</ele>
        <time>2026-09-25T11:18:53Z</time>
      </trkpt>
      <trkpt lat="31.230138319804208" lon="121.40035889387227">
        <ele>13.050384545698762</ele>
        <time>2026-09-25T11:18:59Z</time>
      </trkpt>
      <trkpt lat="31.230421182677844" lon="121.40030786137557">
        <ele>15.52091028727591</ele>
        <time>2026-09-25T11:19:11Z</time>
      </trkpt>
      <trkpt lat="31.230505142027774" lon="121.40029285177702">
        <ele>15.248756432905793</ele>
        <time>2026-09-25T11:19:14Z</time>
      </trkpt>
      <trkpt lat="31.23067805413367" lon="121.4002238263818">
        <ele>15.103431725874543</ele>
        <time>2026-09-25T11:19:23Z</time>
      </trkpt>
      <trkpt lat="31.230798997180607" lon="121.40021581465265">
        <ele>15.20912172831595</ele>
        <time>2026-09-25T11:19:29Z</time>
      </trkpt>
      <trkpt lat="31.231116830645483" lon="121.40003376100478">
        <ele>15.103431725874543</ele>
        <time>2026-09-25T11:19:44Z</time>
      </trkpt>
      <trkpt lat="31.23117478847394" lon="121.39987773511442">
        <ele>13.592050576582551</ele>
        <time>2026-09-25T11:19:54Z</time>
      </trkpt>
      <trkpt lat="31.231192761482543" lon="121.39967070787364">
        <ele>15.0637970212847</ele>
        <time>2026-09-25T11:20:03Z</time>
      </trkpt>
      <trkpt lat="31.23113477280602" lon="121.39947969123821">
        <ele>12.831075692549348</ele>
        <time>2026-09-25T11:20:09Z</time>
      </trkpt>
      <trkpt lat="31.231057800830595" lon="121.39937768715106">
        <ele>14.947536492720246</ele>
        <time>2026-09-25T11:20:15Z</time>
      </trkpt>
      <trkpt lat="31.230854886137017" lon="121.39925269235796">
        <ele>14.8550567869097</ele>
        <time>2026-09-25T11:20:27Z</time>
      </trkpt>
      <trkpt lat="31.230731942463294" lon="121.39924270211813">
        <ele>14.508918786421418</ele>
        <time>2026-09-25T11:20:33Z</time>
      </trkpt>
      <trkpt lat="31.23039410804286" lon="121.39937074432294">
        <ele>14.561765694990754</ele>
        <time>2026-09-25T11:20:48Z</time>
      </trkpt>
      <trkpt lat="31.23029315781103" lon="121.39941075728473">
        <ele>15.219692254438996</ele>
        <time>2026-09-25T11:20:54Z</time>
      </trkpt>
      <trkpt lat="31.2301832095799" lon="121.39942076792735">
        <ele>14.561765694990754</ele>
        <time>2026-09-25T11:21:00Z</time>
      </trkpt>
      <trkpt lat="31.22988835621362" lon="121.39954680735273">
        <ele>15.248756432905793</ele>
        <time>2026-09-25T11:21:15Z</time>
      </trkpt>
      <trkpt lat="31.229766422692393" lon="121.39966583169804">
        <ele>15.177415871992707</ele>
        <time>2026-09-25T11:21:21Z</time>
      </trkpt>
      <trkpt lat="31.22970546330478" lon="121.39980485396994">
        <ele>12.223352456465364</ele>
        <time>2026-09-25T11:21:27Z</time>
      </trkpt>
      <trkpt lat="31.229709476750074" lon="121.39996587452606">
        <ele>13.946115517988801</ele>
        <time>2026-09-25T11:21:33Z</time>
      </trkpt>
      <trkpt lat="31.229763465079454" lon="121.40009788797327">
        <ele>15.719081902876496</ele>
        <time>2026-09-25T11:21:39Z</time>
      </trkpt>
      <trkpt lat="31.229890423736713" lon="121.40026090058328">
        <ele>14.894691491499543</ele>
        <time>2026-09-25T11:21:49Z</time>
      </trkpt>
      <trkpt lat="31.229908422620557" lon="121.40032490869456">
        <ele>14.582902932539582</ele>
        <time>2026-09-25T11:21:52Z</time>
      </trkpt>
      <trkpt lat="31.230039366554607" lon="121.40036590358808">
        <ele>13.570913339033723</ele>
        <time>2026-09-25T11:22:01Z</time>
      </trkpt>
      <trkpt lat="31.230319230778463" lon="121.40031487133426">
        <ele>13.30932810343802</ele>
        <time>2026-09-25T11:22:13Z</time>
      </trkpt>
      <trkpt lat="31.230487150260238" lon="121.40029185319516">
        <ele>13.663391137495637</ele>
        <time>2026-09-25T11:22:19Z</time>
      </trkpt>
      <trkpt lat="31.23074301964306" lon="121.40018381485139">
        <ele>15.032089257612824</ele>
        <time>2026-09-25T11:22:31Z</time>
      </trkpt>
      <trkpt lat="31.230946919342376" lon="121.40012978928301">
        <ele>14.844488168135285</ele>
        <time>2026-09-25T11:22:40Z</time>
      </trkpt>
      <trkpt lat="31.23106585589538" lon="121.40004976766049">
        <ele>15.470706963911653</ele>
        <time>2026-09-25T11:22:46Z</time>
      </trkpt>
      <trkpt lat="31.231161800645786" lon="121.39994174464026">
        <ele>15.676805520430207</ele>
        <time>2026-09-25T11:22:52Z</time>
      </trkpt>
      <trkpt lat="31.23118978152865" lon="121.39987773380656">
        <ele>14.770504022017121</ele>
        <time>2026-09-25T11:22:55Z</time>
      </trkpt>
      <trkpt lat="31.231193765703694" lon="121.39972471426648">
        <ele>15.219692254438996</ele>
        <time>2026-09-25T11:23:01Z</time>
      </trkpt>
      <trkpt lat="31.231158768729667" lon="121.39956869901555">
        <ele>8.857095742598176</ele>
        <time>2026-09-25T11:23:08Z</time>
      </trkpt>
      <trkpt lat="31.231059800413522" lon="121.39938468770049">
        <ele>14.770504022017121</ele>
        <time>2026-09-25T11:23:17Z</time>
      </trkpt>
      <trkpt lat="31.23096283937407" lon="121.39930068764183">
        <ele>15.269893670454621</ele>
        <time>2026-09-25T11:23:23Z</time>
      </trkpt>
      <trkpt lat="31.230838894900256" lon="121.39927269569677">
        <ele>14.207700753584504</ele>
        <time>2026-09-25T11:23:29Z</time>
      </trkpt>
      <trkpt lat="31.230529041678473" lon="121.39931772717526">
        <ele>16.02294352091849</ele>
        <time>2026-09-25T11:23:44Z</time>
      </trkpt>
      <trkpt lat="31.23039810822905" lon="121.3993987468745">
        <ele>13.298757577314973</ele>
        <time>2026-09-25T11:23:50Z</time>
      </trkpt>
      <trkpt lat="31.230100252946603" lon="121.39948478202129">
        <ele>14.55119707621634</ele>
        <time>2026-09-25T11:24:02Z</time>
      </trkpt>
      <trkpt lat="31.230060268449893" lon="121.39944478119766">
        <ele>13.486360574141145</ele>
        <time>2026-09-25T11:24:05Z</time>
      </trkpt>
      <trkpt lat="31.2299473244914" lon="121.39949179612384">
        <ele>14.915830636397004</ele>
        <time>2026-09-25T11:24:11Z</time>
      </trkpt>
      <trkpt lat="31.229821391869322" lon="121.39960281955275">
        <ele>13.726806664839387</ele>
        <time>2026-09-25T11:24:17Z</time>
      </trkpt>
      <trkpt lat="31.22979141006439" lon="121.39965382810233">
        <ele>13.903839135542512</ele>
        <time>2026-09-25T11:24:20Z</time>
      </trkpt>
      <trkpt lat="31.22979141006439" lon="121.39965382810233">
        <ele>8.401872579939663</ele>
        <time>2026-09-25T11:24:26Z</time>
      </trkpt>
    </trkseg>
  </trk>
</gpx>